ADDRESS,BLK_NO,BUILDING,LATITUDE,LONGITUDE,LONGTITUDE,POSTAL,ROAD_NAME,SEARCHVAL,X,Y
100A NICOLL HIGHWAY TEMPORARY WORKERS' DORMITORY SINGAPORE 038965,100A,TEMPORARY WORKERS' DORMITORY,1.29666369150219,103.860235944171,103.860235944171,038965,NICOLL HIGHWAY,TEMPORARY WORKERS' DORMITORY,30995.6653034277,31004.0176324639
20 REPUBLIC AVENUE SINGAPORE 038970,20,NIL,1.2995507608885,103.863950654108,103.863950654108,038970,REPUBLIC AVENUE,20 REPUBLIC AVENUE SINGAPORE 038970,31409.0759280296,31323.2596260384
22A REPUBLIC AVENUE SINGAPORE 038971,22A,NIL,1.29966168783976,103.862670838067,103.862670838067,038971,REPUBLIC AVENUE,22A REPUBLIC AVENUE SINGAPORE 038971,31266.6436954429,31335.5236682165
1 REPUBLIC BOULEVARD THE PIT BUILDING SINGAPORE 038975,1,THE PIT BUILDING,1.29157236047167,103.863810712179,103.863810712179,038975,REPUBLIC BOULEVARD,THE PIT BUILDING,31393.5122518735,30441.0489352085
21 ESPLANADE DRIVE SINGAPORE 038980,21,NIL,1.28648715900308,103.854568777144,103.854568777144,038980,ESPLANADE DRIVE,21 ESPLANADE DRIVE SINGAPORE 038980,30364.9689658079,29878.7431067992
1 ESPLANADE DRIVE ESPLANADE - THEATRES ON THE BAY SINGAPORE 038981,1,ESPLANADE - THEATRES ON THE BAY,1.28986232671323,103.855288020091,103.855288020091,038981,ESPLANADE DRIVE,ESPLANADE - THEATRES ON THE BAY,30445.0114682969,30251.9524310529
2 TEMASEK BOULEVARD CONRAD CENTENNIAL SINGAPORE SINGAPORE 038982,2,CONRAD CENTENNIAL SINGAPORE,1.29352504746137,103.858774748555,103.858774748555,038982,TEMASEK BOULEVARD,CONRAD CENTENNIAL SINGAPORE,30833.0505911745,30656.9608449824
3 TEMASEK BOULEVARD CITIBANK SUNTEC CITY MALL SINGAPORE 038983,3,CITIBANK SUNTEC CITY MALL,1.29571152468885,103.858552585838,103.858552585838,038983,TEMASEK BOULEVARD,CITIBANK SUNTEC CITY MALL,30808.3234040206,30898.7299970835
5 TEMASEK BOULEVARD SUNTEC TOWER FIVE SINGAPORE 038985,5,SUNTEC TOWER FIVE,1.29449191270083,103.858019064624,103.858019064624,038985,TEMASEK BOULEVARD,SUNTEC TOWER FIVE,30748.9484861735,30763.8709956296
6 TEMASEK BOULEVARD SUNTEC TOWER FOUR SINGAPORE 038986,6,SUNTEC TOWER FOUR,1.29465741053983,103.859722870109,103.859722870109,038986,TEMASEK BOULEVARD,SUNTEC TOWER FOUR,30938.5669919765,30782.1728043966
7 TEMASEK BOULEVARD EMBASSY OF THE KINGDOM OF SPAIN SINGAPORE 038987,7,EMBASSY OF THE KINGDOM OF SPAIN,1.29542540402342,103.858378559681,103.858378559681,038987,TEMASEK BOULEVARD,EMBASSY OF THE KINGDOM OF SPAIN,30788.9561319593,30867.0920541547
8 TEMASEK BOULEVARD EMBASSY OF THE REPUBLIC OF CHILE SINGAPORE 038988,8,EMBASSY OF THE REPUBLIC OF CHILE,1.29508403515588,103.859617505649,103.859617505649,038988,TEMASEK BOULEVARD,EMBASSY OF THE REPUBLIC OF CHILE,30926.8403578484,30829.3466374725
9 TEMASEK BOULEVARD SUNTEC TOWER TWO SINGAPORE 038989,9,SUNTEC TOWER TWO,1.29559492037457,103.858968011896,103.858968011896,038989,TEMASEK BOULEVARD,SUNTEC TOWER TWO,30854.5568108419,30885.8369559348
3 TEMASEK AVENUE CENTENNIAL TOWER SINGAPORE 039190,3,CENTENNIAL TOWER,1.29350252893544,103.860265969589,103.860265969589,039190,TEMASEK AVENUE,CENTENNIAL TOWER,30999.0105815241,30654.4725745767
1 TEMASEK AVENUE CONSULATE OF THE CZECH REPUBLIC SINGAPORE 039192,1,CONSULATE OF THE CZECH REPUBLIC,1.29267085142808,103.860299235072,103.860299235072,039192,TEMASEK AVENUE,CONSULATE OF THE CZECH REPUBLIC,31002.7137179924,30562.5099952761
2 TEMASEK AVENUE DBS PROMENADE MRT STATION SINGAPORE 039193,2,DBS PROMENADE MRT STATION,1.29307389602149,103.861067235865,103.861067235865,039193,TEMASEK AVENUE,DBS PROMENADE MRT STATION,31088.1850860408,30607.07751281
10 TEMASEK AVENUE PROMENADE MRT STATION (DT15) SINGAPORE 039194,10,PROMENADE MRT STATION (DT15),1.29289175383295,103.860891800025,103.860891800025,039194,TEMASEK AVENUE,PROMENADE MRT STATION (DT15),31068.6608139481,30586.9369543009
2 RAFFLES LINK MARINA BAYFRONT SINGAPORE 039392,2,MARINA BAYFRONT,1.2912597087364,103.856242375217,103.856242375217,039392,RAFFLES LINK,MARINA BAYFRONT,30551.2216718216,30406.4686718509
1 RAFFLES LINK CITYLINK MALL SINGAPORE 039393,1,CITYLINK MALL,1.29237860670957,103.854662968868,103.854662968868,039393,RAFFLES LINK,CITYLINK MALL,30375.4462586399,30530.1891158316
1 RAFFLES BOULEVARD SUNTEC CITY MALL SINGAPORE 039593,1,SUNTEC CITY MALL,1.29350132535558,103.857307495824,103.857307495824,039593,RAFFLES BOULEVARD,SUNTEC CITY MALL,30669.7581182309,30654.3361870423
6 RAFFLES BOULEVARD DBS MARINA SQUARE SINGAPORE 039594,6,DBS MARINA SQUARE,1.29098168416984,103.857647591675,103.857647591675,039594,RAFFLES BOULEVARD,DBS MARINA SQUARE,30707.6105019674,30375.7275995482
7 RAFFLES BOULEVARD MARINA SQUARE SINGAPORE 039595,7,MARINA SQUARE,1.29111729179215,103.857758268089,103.857758268089,039595,RAFFLES BOULEVARD,MARINA SQUARE,30719.9276947258,30390.722510023
9 RAFFLES BOULEVARD CITIBANK MILLENIA WALK SINGAPORE 039596,9,CITIBANK MILLENIA WALK,1.29296504146626,103.859343968909,103.859343968909,039596,RAFFLES BOULEVARD,CITIBANK MILLENIA WALK,30896.4005125193,30595.0389065742
"5 RAFFLES AVENUE MANDARIN ORIENTAL, SINGAPORE SINGAPORE 039797",5,"MANDARIN ORIENTAL, SINGAPORE",1.29066059179026,103.858323976383,103.858323976383,039797,RAFFLES AVENUE,"MANDARIN ORIENTAL, SINGAPORE",30782.8866747925,30340.2235875968
"7 RAFFLES AVENUE THE RITZ-CARLTON, MILLENIA SINGAPORE SINGAPORE 039799",7,"THE RITZ-CARLTON, MILLENIA SINGAPORE",1.29071831101807,103.860047263796,103.860047263796,039799,RAFFLES AVENUE,"THE RITZ-CARLTON, MILLENIA SINGAPORE",30974.6737605566,30346.6078317929
5A RAFFLES AVENUE MARINA LEISUREPLEX SINGAPORE 039801,5A,MARINA LEISUREPLEX,1.29024991373289,103.859035587802,103.859035587802,039801,RAFFLES AVENUE,MARINA LEISUREPLEX,30862.0833990127,30294.8137120772
8 RAFFLES AVENUE DBS ESPLANADE MALL SINGAPORE 039802,8,DBS ESPLANADE MALL,1.28935082986746,103.855901267402,103.855901267402,039802,RAFFLES AVENUE,DBS ESPLANADE MALL,30513.2611708464,30195.3943425752
30 RAFFLES AVENUE DBS SINGAPORE FLYER SINGAPORE 039803,30,DBS SINGAPORE FLYER,1.28967817604306,103.863412595794,103.863412595794,039803,RAFFLES AVENUE,DBS SINGAPORE FLYER,31349.2077933876,30231.5992399585
20 RAFFLES AVENUE THE FLOAT @ MARINA BAY SINGAPORE 039805,20,THE FLOAT @ MARINA BAY,1.2882740382069,103.858974713843,103.858974713843,039805,RAFFLES AVENUE,THE FLOAT @ MARINA BAY,30855.3108468521,30076.3315056618
35A RAFFLES AVENUE MARINA CENTRE BUS TERMINAL SINGAPORE 039807,35A,MARINA CENTRE BUS TERMINAL,1.2908932251826,103.86205421557,103.86205421557,039807,RAFFLES AVENUE,MARINA CENTRE BUS TERMINAL,31198.0301111937,30365.9513737559
