ADDRESS,BLK_NO,BUILDING,LATITUDE,LONGITUDE,LONGTITUDE,POSTAL,ROAD_NAME,SEARCHVAL,X,Y
7 CROSS STREET TELOK AYER MRT STATION (DT18) SINGAPORE 048416,7,TELOK AYER MRT STATION (DT18),1.28206894769394,103.848648781083,103.848648781083,048416,CROSS STREET,TELOK AYER MRT STATION (DT18),29706.1259155739,29390.1953907572
10 CROSS STREET THE CLAN HOTEL SINGAPORE 048417,10,THE CLAN HOTEL,1.28267768201013,103.848283457446,103.848283457446,048417,CROSS STREET,THE CLAN HOTEL,29665.4679924259,29457.5058475044
5 CROSS STREET SINGAPORE 048418,5,NIL,1.28159602980757,103.848878196508,103.848878196508,048418,CROSS STREET,5 CROSS STREET SINGAPORE 048418,29731.6582916304,29337.9027270805
22 CROSS STREET CROSS STREET EXCHANGE SINGAPORE 048421,22,CROSS STREET EXCHANGE,1.28415741076461,103.846702683933,103.846702683933,048421,CROSS STREET,CROSS STREET EXCHANGE,29489.5400286065,29621.1256384235
20 CROSS STREET CROSS STREET EXCHANGE SINGAPORE 048422,20,CROSS STREET EXCHANGE,1.28377015953588,103.847418081421,103.847418081421,048422,CROSS STREET,CROSS STREET EXCHANGE,29569.1580831604,29578.3058245387
18 CROSS STREET CROSS STREET EXCHANGE SINGAPORE 048423,18,CROSS STREET EXCHANGE,1.28351521684051,103.846878905539,103.846878905539,048423,CROSS STREET,CROSS STREET EXCHANGE,29509.1524108006,29550.1152536161
8 CROSS STREET MANULIFE TOWER SINGAPORE 048424,8,MANULIFE TOWER,1.28245765117377,103.84898743176,103.84898743176,048424,CROSS STREET,MANULIFE TOWER,29743.8147008596,29433.176442191
51 TELOK AYER STREET CHINA SQUARE FOOD CENTRE SINGAPORE 048441,51,CHINA SQUARE FOOD CENTRE,1.28289702779315,103.849281764587,103.849281764587,048441,TELOK AYER STREET,CHINA SQUARE FOOD CENTRE,29776.571227394,29481.7606422361
74 TELOK AYER STREET AMOY HOTEL SINGAPORE 048462,74,AMOY HOTEL,1.28317011450092,103.848753557142,103.848753557142,048462,TELOK AYER STREET,AMOY HOTEL,29717.7858996019,29511.9568000268
76 TELOK AYER STREET AMOY HOTEL SINGAPORE 048464,76,AMOY HOTEL,1.28300039630382,103.848645396791,103.848645396791,048464,TELOK AYER STREET,AMOY HOTEL,29705.7486554254,29493.1901658345
80 TELOK AYER STREET FAR EAST SQUARE SINGAPORE 048466,80,FAR EAST SQUARE,1.28271456105962,103.848590125427,103.848590125427,048466,TELOK AYER STREET,FAR EAST SQUARE,29699.5975957736,29461.5839437544
82 TELOK AYER STREET FAR EAST SQUARE SINGAPORE 048467,82,FAR EAST SQUARE,1.2827145607859,103.848590125427,103.848590125427,048467,TELOK AYER STREET,FAR EAST SQUARE,29699.5975957736,29461.5839134865
84 TELOK AYER STREET FAR EAST SQUARE SINGAPORE 048468,84,FAR EAST SQUARE,1.2827145607859,103.848590125427,103.848590125427,048468,TELOK AYER STREET,FAR EAST SQUARE,29699.5975957736,29461.5839134865
86 TELOK AYER STREET FAR EAST SQUARE SINGAPORE 048469,86,FAR EAST SQUARE,1.2827145607859,103.848590125427,103.848590125427,048469,TELOK AYER STREET,FAR EAST SQUARE,29699.5975957736,29461.5839134865
88 TELOK AYER STREET FAR EAST SQUARE SINGAPORE 048470,88,FAR EAST SQUARE,1.2827145607859,103.848590125427,103.848590125427,048470,TELOK AYER STREET,FAR EAST SQUARE,29699.5975957736,29461.5839134865
90 TELOK AYER STREET FAR EAST SQUARE SINGAPORE 048471,90,FAR EAST SQUARE,1.2827145607859,103.848590125427,103.848590125427,048471,TELOK AYER STREET,FAR EAST SQUARE,29699.5975957736,29461.5839134865
92 TELOK AYER STREET FAR EAST SQUARE SINGAPORE 048472,92,FAR EAST SQUARE,1.2827145607859,103.848590125427,103.848590125427,048472,TELOK AYER STREET,FAR EAST SQUARE,29699.5975957736,29461.5839134865
94 TELOK AYER STREET FAR EAST SQUARE SINGAPORE 048473,94,FAR EAST SQUARE,1.2827145607859,103.848590125427,103.848590125427,048473,TELOK AYER STREET,FAR EAST SQUARE,29699.5975957736,29461.5839134865
98 TELOK AYER STREET YING FO FUI KUN SINGAPORE 048474,98,YING FO FUI KUN,1.28253053881941,103.848409397824,103.848409397824,048474,TELOK AYER STREET,YING FO FUI KUN,29679.4842179138,29441.2355955355
1 SOUTH CANAL ROAD SINGAPORE 048508,1,NIL,1.28578886408586,103.849836306094,103.849836306094,048508,SOUTH CANAL ROAD,1 SOUTH CANAL ROAD SINGAPORE 048508,29838.2850734144,29801.5253638905
1 ROBINSON ROAD AIA TOWER SINGAPORE 048542,1,AIA TOWER,1.28198667866145,103.851122482473,103.851122482473,048542,ROBINSON ROAD,AIA TOWER,29981.4286944224,29381.1002854016
4 ROBINSON ROAD THE HOUSE OF EDEN SINGAPORE 048543,4,THE HOUSE OF EDEN,1.28235484318144,103.850938893316,103.850938893316,048543,ROBINSON ROAD,THE HOUSE OF EDEN,29960.9964433536,29421.8098759986
8 ROBINSON ROAD ASO BUILDING SINGAPORE 048544,8,ASO BUILDING,1.28227195926914,103.850822525949,103.850822525949,048544,ROBINSON ROAD,ASO BUILDING,29948.0457719648,29412.6449121367
14 ROBINSON ROAD FAR EAST FINANCE BUILDING SINGAPORE 048545,14,FAR EAST FINANCE BUILDING,1.28211736176233,103.850774228548,103.850774228548,048545,ROBINSON ROAD,FAR EAST FINANCE BUILDING,29942.6707834164,29395.5502813645
18 ROBINSON ROAD 18 ROBINSON SINGAPORE 048547,18,18 ROBINSON,1.2818187971449,103.85055997656,103.85055997656,048547,ROBINSON ROAD,18 ROBINSON,29918.8265133472,29362.5363861639
6 RAFFLES QUAY SINGAPORE 048580,6,NIL,1.28181247914636,103.85138450513,103.85138450513,048580,RAFFLES QUAY,6 RAFFLES QUAY SINGAPORE 048580,30010.5898082433,29361.8384064604
16 RAFFLES QUAY EMBASSY OF THE REPUBLIC OF PANAMA SINGAPORE 048581,16,EMBASSY OF THE REPUBLIC OF PANAMA,1.28136301224216,103.850919074926,103.850919074926,048581,RAFFLES QUAY,EMBASSY OF THE REPUBLIC OF PANAMA,29958.79157208,29312.1383166611
18 RAFFLES QUAY FORMER TELOK AYER MARKET (LAU PA SAT) SINGAPORE 048582,18,FORMER TELOK AYER MARKET (LAU PA SAT),1.28065386814644,103.850412718567,103.850412718567,048582,RAFFLES QUAY,FORMER TELOK AYER MARKET (LAU PA SAT),29902.4387610676,29233.7244435716
1 RAFFLES QUAY CITIBANK ONE RAFFLES QUAY SINGAPORE 048583,1,CITIBANK ONE RAFFLES QUAY,1.2815008889802,103.85216045363,103.85216045363,048583,RAFFLES QUAY,CITIBANK ONE RAFFLES QUAY,30096.9467872269,29327.3849962223
1 RAFFLES PLACE ONE RAFFLES PLACE SINGAPORE 048616,1,ONE RAFFLES PLACE,1.28433994320248,103.850982346718,103.850982346718,048616,RAFFLES PLACE,ONE RAFFLES PLACE,29965.8309365176,29641.3120226599
3 RAFFLES PLACE BHARAT BUILDING SINGAPORE 048617,3,BHARAT BUILDING,1.28342810322184,103.851139703484,103.851139703484,048617,RAFFLES PLACE,BHARAT BUILDING,29983.3441432361,29540.4855854008
5 RAFFLES PLACE CITIBANK RAFFLES PLACE SMRT STATION SINGAPORE 048618,5,CITIBANK RAFFLES PLACE SMRT STATION,1.2843339254004,103.851379780738,103.851379780738,048618,RAFFLES PLACE,CITIBANK RAFFLES PLACE SMRT STATION,30010.062055679,29640.6469139867
9 RAFFLES PLACE CONSULATE OF THE REPUBLIC OF MALI SINGAPORE 048619,9,CONSULATE OF THE REPUBLIC OF MALI,1.2828873744144,103.850848813815,103.850848813815,048619,RAFFLES PLACE,CONSULATE OF THE REPUBLIC OF MALI,29950.9709304469,29480.6943617053
24 RAFFLES PLACE CLIFFORD CENTRE SINGAPORE 048621,24,CLIFFORD CENTRE,1.28385698427206,103.852128173355,103.852128173355,048621,RAFFLES PLACE,CLIFFORD CENTRE,30093.3523430889,29587.9098255038
30 RAFFLES PLACE CIMB PLAZA SINGAPORE 048622,30,CIMB PLAZA,1.28414356786844,103.851991124176,103.851991124176,048622,RAFFLES PLACE,CIMB PLAZA,30078.099670466,29619.5986489132
50 RAFFLES PLACE CIMB BANK BERHAD SINGAPORE LAND TOWER SINGAPORE 048623,50,CIMB BANK BERHAD SINGAPORE LAND TOWER,1.28466506848636,103.852127483288,103.852127483288,048623,RAFFLES PLACE,CIMB BANK BERHAD SINGAPORE LAND TOWER,30093.2748873187,29677.2636072878
80 RAFFLES PLACE MASJID MOULANA MD ALI SINGAPORE 048624,80,MASJID MOULANA MD ALI,1.28547360879559,103.850332786212,103.850332786212,048624,RAFFLES PLACE,MASJID MOULANA MD ALI,29893.5393987624,29766.6664232071
7 RAFFLES PLACE SINGAPORE 048625,7,NIL,1.28335744732282,103.851478641396,103.851478641396,048625,RAFFLES PLACE,7 RAFFLES PLACE SINGAPORE 048625,30021.0651941914,29532.6730858553
20 PICKERING STREET PICKERING OPERATIONS COMPLEX SINGAPORE 048658,20,PICKERING OPERATIONS COMPLEX,1.28517194216884,103.848192974504,103.848192974504,048658,PICKERING STREET,PICKERING OPERATIONS COMPLEX,29655.39638138,29733.3081994224
1 PICKERING STREET GREAT EASTERN CENTRE SINGAPORE 048659,1,GREAT EASTERN CENTRE,1.28477039880727,103.847865891204,103.847865891204,048659,PICKERING STREET,GREAT EASTERN CENTRE,29618.9949842459,29688.9073979445
3 PICKERING STREET ADVENTURELAND KIDZ LLP SINGAPORE 048660,3,ADVENTURELAND KIDZ LLP,1.28436800095842,103.847363778038,103.847363778038,048660,PICKERING STREET,ADVENTURELAND KIDZ LLP,29563.1142024398,29644.4120090175
1 PHILLIP STREET ROYAL ONE PHILLIP SINGAPORE 048692,1,ROYAL ONE PHILLIP,1.28498144223061,103.850015612536,103.850015612536,048692,PHILLIP STREET,ROYAL ONE PHILLIP,29858.2409669552,29712.2449516989
3 PHILLIP STREET CONSULATE OF THE REPUBLIC OF LITHUANIA SINGAPORE 048693,3,CONSULATE OF THE REPUBLIC OF LITHUANIA,1.28466221614276,103.849976556144,103.849976556144,048693,PHILLIP STREET,CONSULATE OF THE REPUBLIC OF LITHUANIA,29853.8945450298,29676.9465501588
15 PHILLIP STREET TAN EAN KIAM BUILDING SINGAPORE 048694,15,TAN EAN KIAM BUILDING,1.2845025344051,103.849913039556,103.849913039556,048694,PHILLIP STREET,TAN EAN KIAM BUILDING,29846.8257903801,29659.2897218578
17 PHILLIP STREET GRAND BUILDING SINGAPORE 048695,17,GRAND BUILDING,1.2843581495966,103.849863506128,103.849863506128,048695,PHILLIP STREET,GRAND BUILDING,29841.3132338459,29643.3243592903
30B PHILLIP STREET YUEH HAI CHING TEMPLE SINGAPORE 048696,30B,YUEH HAI CHING TEMPLE,1.28449919513964,103.849227493422,103.849227493422,048696,PHILLIP STREET,YUEH HAI CHING TEMPLE,29770.5301918639,29658.9199984372
31 PEKIN STREET FAR EAST SQUARE SINGAPORE 048761,31,FAR EAST SQUARE,1.28354525260793,103.848363659276,103.848363659276,048761,PEKIN STREET,FAR EAST SQUARE,29674.3932338562,29553.4373767059
32 PEKIN STREET FAR EAST SQUARE SINGAPORE 048762,32,FAR EAST SQUARE,1.28357019882926,103.848345005564,103.848345005564,048762,PEKIN STREET,FAR EAST SQUARE,29672.3172133891,29556.1957888659
33 PEKIN STREET FAR EAST SQUARE SINGAPORE 048763,33,FAR EAST SQUARE,1.28357019882926,103.848345005564,103.848345005564,048763,PEKIN STREET,FAR EAST SQUARE,29672.3172133891,29556.1957888659
34 PEKIN STREET FAR EAST SQUARE SINGAPORE 048764,34,FAR EAST SQUARE,1.28357019882926,103.848345005564,103.848345005564,048764,PEKIN STREET,FAR EAST SQUARE,29672.3172133891,29556.1957888659
35 PEKIN STREET FAR EAST SQUARE SINGAPORE 048765,35,FAR EAST SQUARE,1.28357019882926,103.848345005564,103.848345005564,048765,PEKIN STREET,FAR EAST SQUARE,29672.3172133891,29556.1957888659
36 PEKIN STREET FAR EAST SQUARE SINGAPORE 048766,36,FAR EAST SQUARE,1.28357019882926,103.848345005564,103.848345005564,048766,PEKIN STREET,FAR EAST SQUARE,29672.3172133891,29556.1957888659
37 PEKIN STREET FAR EAST SQUARE SINGAPORE 048767,37,FAR EAST SQUARE,1.28357019882926,103.848345005564,103.848345005564,048767,PEKIN STREET,FAR EAST SQUARE,29672.3172133891,29556.1957888659
38 PEKIN STREET FAR EAST SQUARE SINGAPORE 048768,38,FAR EAST SQUARE,1.28357019882926,103.848345005564,103.848345005564,048768,PEKIN STREET,FAR EAST SQUARE,29672.3172133891,29556.1957888659
39 PEKIN STREET FAR EAST SQUARE SINGAPORE 048769,39,FAR EAST SQUARE,1.28357019882926,103.848345005564,103.848345005564,048769,PEKIN STREET,FAR EAST SQUARE,29672.3172133891,29556.1957888659
40 PEKIN STREET FAR EAST SQUARE SINGAPORE 048770,40,FAR EAST SQUARE,1.28357019882926,103.848345005564,103.848345005564,048770,PEKIN STREET,FAR EAST SQUARE,29672.3172133891,29556.1957888659
42 PEKIN STREET AMOY HOTEL SINGAPORE 048772,42,AMOY HOTEL,1.28317011450092,103.848753557142,103.848753557142,048772,PEKIN STREET,AMOY HOTEL,29717.7858996019,29511.9568000268
43 PEKIN STREET AMOY HOTEL SINGAPORE 048773,43,AMOY HOTEL,1.28317011450092,103.848753557142,103.848753557142,048773,PEKIN STREET,AMOY HOTEL,29717.7858996019,29511.9568000268
44 PEKIN STREET AMOY HOTEL SINGAPORE 048774,44,AMOY HOTEL,1.28317011450092,103.848753557142,103.848753557142,048774,PEKIN STREET,AMOY HOTEL,29717.7858996019,29511.9568000268
45 PEKIN STREET AMOY HOTEL SINGAPORE 048775,45,AMOY HOTEL,1.28317011450092,103.848753557142,103.848753557142,048775,PEKIN STREET,AMOY HOTEL,29717.7858996019,29511.9568000268
46 PEKIN STREET AMOY HOTEL SINGAPORE 048776,46,AMOY HOTEL,1.28317011450092,103.848753557142,103.848753557142,048776,PEKIN STREET,AMOY HOTEL,29717.7858996019,29511.9568000268
47 PEKIN STREET AMOY HOTEL SINGAPORE 048777,47,AMOY HOTEL,1.28317011450092,103.848753557142,103.848753557142,048777,PEKIN STREET,AMOY HOTEL,29717.7858996019,29511.9568000268
48 PEKIN STREET AMOY HOTEL SINGAPORE 048778,48,AMOY HOTEL,1.28317011450092,103.848753557142,103.848753557142,048778,PEKIN STREET,AMOY HOTEL,29717.7858996019,29511.9568000268
49 PEKIN STREET AMOY HOTEL SINGAPORE 048779,49,AMOY HOTEL,1.28317011450092,103.848753557142,103.848753557142,048779,PEKIN STREET,AMOY HOTEL,29717.7858996019,29511.9568000268
50 PEKIN STREET AMOY HOTEL SINGAPORE 048780,50,AMOY HOTEL,1.28317011450092,103.848753557142,103.848753557142,048780,PEKIN STREET,AMOY HOTEL,29717.7858996019,29511.9568000268
51 PEKIN STREET AMOY HOTEL SINGAPORE 048781,51,AMOY HOTEL,1.28317011450092,103.848753557142,103.848753557142,048781,PEKIN STREET,AMOY HOTEL,29717.7858996019,29511.9568000268
52 PEKIN STREET AMOY HOTEL SINGAPORE 048782,52,AMOY HOTEL,1.28317011450092,103.848753557142,103.848753557142,048782,PEKIN STREET,AMOY HOTEL,29717.7858996019,29511.9568000268
1 NORTH CANAL ROAD SINGAPORE 048815,1,NIL,1.28595388048188,103.849234889662,103.849234889662,048815,NORTH CANAL ROAD,1 NORTH CANAL ROAD SINGAPORE 048815,29771.3523308374,29819.7716006376
2 NORTH CANAL ROAD SINGAPORE 048816,2,NIL,1.2859761343905,103.849197197756,103.849197197756,048816,NORTH CANAL ROAD,2 NORTH CANAL ROAD SINGAPORE 048816,29767.1575212423,29822.2322969101
3 NORTH CANAL ROAD SINGAPORE 048817,3,NIL,1.28600994854498,103.849166890448,103.849166890448,048817,NORTH CANAL ROAD,3 NORTH CANAL ROAD SINGAPORE 048817,29763.7845479408,29825.9712706711
5 NORTH CANAL ROAD BOAT QUAY CONSERVATION AREA SINGAPORE 048818,5,BOAT QUAY CONSERVATION AREA,1.28604380106397,103.849085790846,103.849085790846,048818,NORTH CANAL ROAD,BOAT QUAY CONSERVATION AREA,29754.7588168038,29829.7144516818
6 NORTH CANAL ROAD BOAT QUAY CONSERVATION AREA SINGAPORE 048819,6,BOAT QUAY CONSERVATION AREA,1.28607282056601,103.84904639699,103.84904639699,048819,NORTH CANAL ROAD,BOAT QUAY CONSERVATION AREA,29750.3745901659,29832.9232514389
7 NORTH CANAL ROAD BOAT QUAY CONSERVATION AREA SINGAPORE 048820,7,BOAT QUAY CONSERVATION AREA,1.28610185786159,103.849006760536,103.849006760536,048820,NORTH CANAL ROAD,BOAT QUAY CONSERVATION AREA,29745.9633644875,29836.1340186168
8 NORTH CANAL ROAD BOAT QUAY CONSERVATION AREA SINGAPORE 048821,8,BOAT QUAY CONSERVATION AREA,1.28612938442082,103.848967653054,103.848967653054,048821,NORTH CANAL ROAD,BOAT QUAY CONSERVATION AREA,29741.6110100364,29839.1777367909
9 NORTH CANAL ROAD BOAT QUAY CONSERVATION AREA SINGAPORE 048822,9,BOAT QUAY CONSERVATION AREA,1.286159513912,103.848927674195,103.848927674195,048822,NORTH CANAL ROAD,BOAT QUAY CONSERVATION AREA,29737.1616769666,29842.5092732217
10 NORTH CANAL ROAD BOAT QUAY CONSERVATION AREA SINGAPORE 048823,10,BOAT QUAY CONSERVATION AREA,1.28619013311313,103.848887336066,103.848887336066,048823,NORTH CANAL ROAD,BOAT QUAY CONSERVATION AREA,29732.6723598894,29845.8949590772
11 NORTH CANAL ROAD BOAT QUAY CONSERVATION AREA SINGAPORE 048824,11,BOAT QUAY CONSERVATION AREA,1.28622018403623,103.848848248994,103.848848248994,048824,NORTH CANAL ROAD,BOAT QUAY CONSERVATION AREA,29728.3222755371,29849.2178085968
12 NORTH CANAL ROAD BOAT QUAY CONSERVATION AREA SINGAPORE 048825,12,BOAT QUAY CONSERVATION AREA,1.28625201888889,103.848807173831,103.848807173831,048825,NORTH CANAL ROAD,BOAT QUAY CONSERVATION AREA,29723.750932225,29852.7379145678
13 NORTH CANAL ROAD BOAT QUAY CONSERVATION AREA SINGAPORE 048826,13,BOAT QUAY CONSERVATION AREA,1.28628036558057,103.848762905719,103.848762905719,048826,NORTH CANAL ROAD,BOAT QUAY CONSERVATION AREA,29718.8242427828,29855.872315621
16 NORTH CANAL ROAD BOAT QUAY CONSERVATION AREA SINGAPORE 048828,16,BOAT QUAY CONSERVATION AREA,1.28630049743217,103.848601240078,103.848601240078,048828,NORTH CANAL ROAD,BOAT QUAY CONSERVATION AREA,29700.8321965616,29858.0982836802
17 NORTH CANAL ROAD SINGAPORE 048829,17,NIL,1.2864379071416,103.848398510374,103.848398510374,048829,NORTH CANAL ROAD,17 NORTH CANAL ROAD SINGAPORE 048829,29678.2699874789,29873.2922061458
18 NORTH CANAL ROAD BOAT QUAY CONSERVATION AREA SINGAPORE 048830,18,BOAT QUAY CONSERVATION AREA,1.28645718369845,103.84835161633,103.84835161633,048830,NORTH CANAL ROAD,BOAT QUAY CONSERVATION AREA,29673.0510606542,29875.4236775599
19 NORTH CANAL ROAD BOAT QUAY CONSERVATION AREA SINGAPORE 048831,19,BOAT QUAY CONSERVATION AREA,1.28646353649012,103.848306014884,103.848306014884,048831,NORTH CANAL ROAD,BOAT QUAY CONSERVATION AREA,29667.9759975569,29876.126106659
20 NORTH CANAL ROAD BOAT QUAY CONSERVATION AREA SINGAPORE 048832,20,BOAT QUAY CONSERVATION AREA,1.28648126834176,103.848263893632,103.848263893632,048832,NORTH CANAL ROAD,BOAT QUAY CONSERVATION AREA,29663.2882435787,29878.0867758393
21 NORTH CANAL ROAD BOAT QUAY CONSERVATION AREA SINGAPORE 048833,21,BOAT QUAY CONSERVATION AREA,1.28649668989736,103.84821985253,103.84821985253,048833,NORTH CANAL ROAD,BOAT QUAY CONSERVATION AREA,29658.3868279029,29879.7919832375
22 NORTH CANAL ROAD SINGAPORE 048834,22,NIL,1.28649985064587,103.847992941712,103.847992941712,048834,NORTH CANAL ROAD,22 NORTH CANAL ROAD SINGAPORE 048834,29633.1335529247,29880.1413363069
55 MARKET STREET SINGAPORE 048941,55,NIL,1.28446676154254,103.850660645126,103.850660645126,048941,MARKET STREET,55 MARKET STREET SINGAPORE 048941,29930.0281190295,29655.3346952293
63 MARKET STREET BANK OF SINGAPORE CENTRE SINGAPORE 048942,63,BANK OF SINGAPORE CENTRE,1.28429450328339,103.850619088072,103.850619088072,048942,MARKET STREET,BANK OF SINGAPORE CENTRE,29925.4032921894,29636.2872346845
137 MARKET STREET GRACE GLOBAL RAFFLES SINGAPORE 048943,137,GRACE GLOBAL RAFFLES,1.28223028739497,103.85052004738,103.85052004738,048943,MARKET STREET,GRACE GLOBAL RAFFLES,29914.3824166376,29408.0368234925
138 MARKET STREET CAPITAGREEN SINGAPORE 048946,138,CAPITAGREEN,1.28190445750067,103.85002796558,103.85002796558,048946,MARKET STREET,CAPITAGREEN,29859.6179786064,29372.0078738984
86 MARKET STREET CAPITASPRING SINGAPORE 048947,86,CAPITASPRING,1.28407570290174,103.850104604412,103.850104604412,048947,MARKET STREET,CAPITASPRING,29868.1456803391,29612.093036456
88 MARKET STREET SINGAPORE 048948,88,NIL,1.28391827885126,103.850009335379,103.850009335379,048948,MARKET STREET,88 MARKET STREET SINGAPORE 048948,29857.5431385906,29594.6858282164
20 MALACCA STREET MALACCA CENTRE SINGAPORE 048979,20,MALACCA CENTRE,1.28397265887103,103.850711785165,103.850711785165,048979,MALACCA STREET,MALACCA CENTRE,29935.719952831,29600.6994106844
22 MALACCA STREET DBS RAFFLES PLACE BRANCH SINGAPORE 048980,22,DBS RAFFLES PLACE BRANCH,1.28396113198369,103.850829993471,103.850829993471,048980,MALACCA STREET,DBS RAFFLES PLACE BRANCH,29948.8755687382,29599.4249166939
1 LORONG TELOK BOAT QUAY CONSERVATION AREA SINGAPORE 049014,1,BOAT QUAY CONSERVATION AREA,1.28724247663867,103.8487140654,103.8487140654,049014,LORONG TELOK,BOAT QUAY CONSERVATION AREA,29713.3880826393,29962.2575588953
2 LORONG TELOK BOAT QUAY CONSERVATION AREA SINGAPORE 049015,2,BOAT QUAY CONSERVATION AREA,1.28719286543016,103.848687342682,103.848687342682,049015,LORONG TELOK,BOAT QUAY CONSERVATION AREA,29710.4141018996,29956.7717895266
3 LORONG TELOK BOAT QUAY CONSERVATION AREA SINGAPORE 049016,3,BOAT QUAY CONSERVATION AREA,1.28714697422767,103.848664796904,103.848664796904,049016,LORONG TELOK,BOAT QUAY CONSERVATION AREA,29707.9049768532,29951.697362056
4 LORONG TELOK BOAT QUAY CONSERVATION AREA SINGAPORE 049017,4,BOAT QUAY CONSERVATION AREA,1.28710369087799,103.848642476333,103.848642476333,049017,LORONG TELOK,BOAT QUAY CONSERVATION AREA,29705.4209136972,29946.9112976678
5 LORONG TELOK BOAT QUAY CONSERVATION AREA SINGAPORE 049018,5,BOAT QUAY CONSERVATION AREA,1.28706034019298,103.848619618894,103.848619618894,049018,LORONG TELOK,BOAT QUAY CONSERVATION AREA,29702.8771015415,29942.1177873537
6 LORONG TELOK BOAT QUAY CONSERVATION AREA SINGAPORE 049019,6,BOAT QUAY CONSERVATION AREA,1.28696381004357,103.848594059661,103.848594059661,049019,LORONG TELOK,BOAT QUAY CONSERVATION AREA,29700.0326375039,29931.4439645037
10 LORONG TELOK BOAT QUAY CONSERVATION AREA SINGAPORE 049023,10,BOAT QUAY CONSERVATION AREA,1.28684012431199,103.848505951781,103.848505951781,049023,LORONG TELOK,BOAT QUAY CONSERVATION AREA,29690.2270517666,29917.7673760615
11 LORONG TELOK BOAT QUAY CONSERVATION AREA SINGAPORE 049024,11,BOAT QUAY CONSERVATION AREA,1.2867976358827,103.848483412012,103.848483412012,049024,LORONG TELOK,BOAT QUAY CONSERVATION AREA,29687.7185926158,29913.069209896
12 LORONG TELOK BOAT QUAY CONSERVATION AREA SINGAPORE 049025,12,BOAT QUAY CONSERVATION AREA,1.28675472233781,103.84846221795,103.84846221795,049025,LORONG TELOK,BOAT QUAY CONSERVATION AREA,29685.3598994492,29908.3240375537
13 LORONG TELOK BOAT QUAY CONSERVATION AREA SINGAPORE 049026,13,BOAT QUAY CONSERVATION AREA,1.28671186546741,103.848439010494,103.848439010494,049026,LORONG TELOK,BOAT QUAY CONSERVATION AREA,29682.7771323984,29903.5851306822
14 LORONG TELOK BOAT QUAY CONSERVATION AREA SINGAPORE 049027,14,BOAT QUAY CONSERVATION AREA,1.28666763773092,103.848417647532,103.848417647532,049027,LORONG TELOK,BOAT QUAY CONSERVATION AREA,29680.399642813,29898.6946417503
15 LORONG TELOK BOAT QUAY CONSERVATION AREA SINGAPORE 049028,15,BOAT QUAY CONSERVATION AREA,1.28662288825762,103.848396530429,103.848396530429,049028,LORONG TELOK,BOAT QUAY CONSERVATION AREA,29678.0495154858,29893.7464620396
19 LORONG TELOK BOAT QUAY CONSERVATION AREA SINGAPORE 049031,19,BOAT QUAY CONSERVATION AREA,1.28637797018501,103.848644174811,103.848644174811,049031,LORONG TELOK,BOAT QUAY CONSERVATION AREA,29705.610421543,29866.6648495048
20 LORONG TELOK BOAT QUAY CONSERVATION AREA SINGAPORE 049032,20,BOAT QUAY CONSERVATION AREA,1.286414774821,103.848666680548,103.848666680548,049032,LORONG TELOK,BOAT QUAY CONSERVATION AREA,29708.1150971958,29870.7345312554
21 LORONG TELOK BOAT QUAY CONSERVATION AREA SINGAPORE 049033,21,BOAT QUAY CONSERVATION AREA,1.28645210422222,103.848686001248,103.848686001248,049033,LORONG TELOK,BOAT QUAY CONSERVATION AREA,29710.2653044909,29874.8622367308
22 LORONG TELOK BOAT QUAY CONSERVATION AREA SINGAPORE 049034,22,BOAT QUAY CONSERVATION AREA,1.28648992442174,103.848706120728,103.848706120728,049034,LORONG TELOK,BOAT QUAY CONSERVATION AREA,29712.504408855,29879.0442127008
23 LORONG TELOK BOAT QUAY CONSERVATION AREA SINGAPORE 049035,23,BOAT QUAY CONSERVATION AREA,1.28652783742797,103.848724363071,103.848724363071,049035,LORONG TELOK,BOAT QUAY CONSERVATION AREA,29714.5346035948,29883.2364495173
24 LORONG TELOK BOAT QUAY CONSERVATION AREA SINGAPORE 049036,24,BOAT QUAY CONSERVATION AREA,1.28660411778662,103.848724056746,103.848724056746,049036,LORONG TELOK,BOAT QUAY CONSERVATION AREA,29714.5004613092,29891.6711377352
25 LORONG TELOK BOAT QUAY CONSERVATION AREA SINGAPORE 049037,25,BOAT QUAY CONSERVATION AREA,1.28660411751289,103.848724057018,103.848724057018,049037,LORONG TELOK,BOAT QUAY CONSERVATION AREA,29714.5004915772,29891.6711074673
8 GEORGE STREET TAS TELEPHONE EXCHANGE SINGAPORE 049144,8,TAS TELEPHONE EXCHANGE,1.28536005484792,103.848321202868,103.848321202868,049144,GEORGE STREET,TAS TELEPHONE EXCHANGE,29669.6670092708,29754.1088118535
1 GEORGE STREET HIGH COMMISSION OF CANADA SINGAPORE 049145,1,HIGH COMMISSION OF CANADA,1.28565854479174,103.84780786573,103.84780786573,049145,GEORGE STREET,HIGH COMMISSION OF CANADA,29612.5366742928,29787.1139596067
1 FULLERTON SQUARE FORMER FULLERTON BUILDING SINGAPORE 049178,1,FORMER FULLERTON BUILDING,1.28613061272938,103.853043454038,103.853043454038,049178,FULLERTON SQUARE,FORMER FULLERTON BUILDING,30195.2135821767,29839.3166971039
1 FULLERTON ROAD ONE FULLERTON SINGAPORE 049213,1,ONE FULLERTON,1.2856262335848,103.853982431458,103.853982431458,049213,FULLERTON ROAD,ONE FULLERTON,30299.7143710516,29783.5458788816
3 FULLERTON ROAD THE FULLERTON WATERBOAT HOUSE SINGAPORE 049215,3,THE FULLERTON WATERBOAT HOUSE,1.28708789995118,103.853470083695,103.853470083695,049215,FULLERTON ROAD,THE FULLERTON WATERBOAT HOUSE,30242.6930613508,29945.1689514518
1 FINLAYSON GREEN ONE FINLAYSON GREEN SINGAPORE 049246,1,ONE FINLAYSON GREEN,1.28224186245327,103.851314411791,103.851314411791,049246,FINLAYSON GREEN,ONE FINLAYSON GREEN,30002.7886591917,29409.3173408117
2 FINLAYSON GREEN ASCOTT SINGAPORE RAFFLES PLACE SINGAPORE 049247,2,ASCOTT SINGAPORE RAFFLES PLACE,1.28208455466502,103.851544398473,103.851544398473,049247,FINLAYSON GREEN,ASCOTT SINGAPORE RAFFLES PLACE,30028.384416406,29391.9232386071
10 COLLYER QUAY CONSULATE OF THE REPUBLIC OF CYPRUS SINGAPORE 049315,10,CONSULATE OF THE REPUBLIC OF CYPRUS,1.28332144853392,103.851842545266,103.851842545266,049315,COLLYER QUAY,CONSULATE OF THE REPUBLIC OF CYPRUS,30061.5647249809,29528.6928157285
11 COLLYER QUAY DBS COLLYER QUAY EBC 1 SINGAPORE 049317,11,DBS COLLYER QUAY EBC 1,1.28361982304995,103.852058865041,103.852058865041,049317,COLLYER QUAY,DBS COLLYER QUAY EBC 1,30085.6390922619,29561.6857049484
16 COLLYER QUAY CHANGE ALLEY SINGAPORE 049318,16,CHANGE ALLEY,1.28412271103554,103.852544637414,103.852544637414,049318,COLLYER QUAY,CHANGE ALLEY,30139.7011314631,29617.2928641811
20 COLLYER QUAY 20 COLLYER QUAY SINGAPORE 049319,20,20 COLLYER QUAY,1.28467755595777,103.852668313031,103.852668313031,049319,COLLYER QUAY,20 COLLYER QUAY,30153.4647403592,29678.6448564567
21 COLLYER QUAY HSBC BUILDING SINGAPORE 049320,21,HSBC BUILDING,1.2850794363155,103.852803339023,103.852803339023,049320,COLLYER QUAY,HSBC BUILDING,30168.4916743599,29723.0828270204
50 COLLYER QUAY OUE BAYFRONT SINGAPORE 049321,50,OUE BAYFRONT,1.28307388293049,103.852986156801,103.852986156801,049321,COLLYER QUAY,OUE BAYFRONT,30188.8394777533,29501.3192382231
60 COLLYER QUAY OUE BAYFRONT SINGAPORE 049322,60,OUE BAYFRONT,1.28302086106105,103.852922838329,103.852922838329,049322,COLLYER QUAY,OUE BAYFRONT,30181.7926976606,29495.456299508
70 COLLYER QUAY CUSTOMS HOUSE SINGAPORE 049323,70,CUSTOMS HOUSE,1.28250865848272,103.853578693163,103.853578693163,049323,COLLYER QUAY,CUSTOMS HOUSE,30254.7843944142,29438.8201499004
62 COLLYER QUAY OUE BAYFRONT SINGAPORE 049325,62,OUE BAYFRONT,1.28302086106105,103.852922838329,103.852922838329,049325,COLLYER QUAY,OUE BAYFRONT,30181.7926976606,29495.456299508
80 COLLYER QUAY CLIFFORD PIER SINGAPORE 049326,80,CLIFFORD PIER,1.28396667186675,103.853480198547,103.853480198547,049326,COLLYER QUAY,CLIFFORD PIER,30243.8214820521,29600.0396594442
82 COLLYER QUAY THE FULLERTON PAVILION SINGAPORE 049327,82,THE FULLERTON PAVILION,1.28462479102767,103.854041914907,103.854041914907,049327,COLLYER QUAY,THE FULLERTON PAVILION,30306.335280614,29672.8115803674
1 CIRCULAR ROAD BOAT QUAY CONSERVATION AREA SINGAPORE 049357,1,BOAT QUAY CONSERVATION AREA,1.28814297750701,103.848933996224,103.848933996224,049357,CIRCULAR ROAD,BOAT QUAY CONSERVATION AREA,29737.8639244568,30061.8304476105
2 CIRCULAR ROAD BOAT QUAY CONSERVATION AREA SINGAPORE 049358,2,BOAT QUAY CONSERVATION AREA,1.288108233569,103.848950605776,103.848950605776,049358,CIRCULAR ROAD,BOAT QUAY CONSERVATION AREA,29739.7124507576,30057.9886535089
3 CIRCULAR ROAD BOAT QUAY CONSERVATION AREA SINGAPORE 049359,3,BOAT QUAY CONSERVATION AREA,1.28807012932808,103.848960154961,103.848960154961,049359,CIRCULAR ROAD,BOAT QUAY CONSERVATION AREA,29740.7752202023,30053.7752896398
4 CIRCULAR ROAD BOAT QUAY CONSERVATION AREA SINGAPORE 049360,4,BOAT QUAY CONSERVATION AREA,1.28803267903311,103.848970056622,103.848970056622,049360,CIRCULAR ROAD,BOAT QUAY CONSERVATION AREA,29741.8772169538,30049.6342359837
5 CIRCULAR ROAD BOAT QUAY CONSERVATION AREA SINGAPORE 049361,5,BOAT QUAY CONSERVATION AREA,1.28799434404701,103.848977686784,103.848977686784,049361,CIRCULAR ROAD,BOAT QUAY CONSERVATION AREA,29742.7264155047,30045.3953562044
6 CIRCULAR ROAD CIRCULAR HOUSE SINGAPORE 049362,6,CIRCULAR HOUSE,1.2879505290536,103.848964670025,103.848964670025,049362,CIRCULAR ROAD,CIRCULAR HOUSE,29741.2777898042,30040.55051139
7 CIRCULAR ROAD BOAT QUAY CONSERVATION AREA SINGAPORE 049363,7,BOAT QUAY CONSERVATION AREA,1.28790943797892,103.848995716528,103.848995716528,049363,CIRCULAR ROAD,BOAT QUAY CONSERVATION AREA,29744.7330314852,30036.006893551
8 CIRCULAR ROAD BOAT QUAY CONSERVATION AREA SINGAPORE 049364,8,BOAT QUAY CONSERVATION AREA,1.28786603426864,103.849004959713,103.849004959713,049364,CIRCULAR ROAD,BOAT QUAY CONSERVATION AREA,29745.7617494483,30031.2075415161
9 CIRCULAR ROAD THE BAKE IT YOURSELF STORE SINGAPORE 049365,9,THE BAKE IT YOURSELF STORE,1.28782924976167,103.849047804578,103.849047804578,049365,CIRCULAR ROAD,THE BAKE IT YOURSELF STORE,29750.530046531,30027.1401298642
10 CIRCULAR ROAD BOAT QUAY CONSERVATION AREA SINGAPORE 049366,10,BOAT QUAY CONSERVATION AREA,1.2877760808859,103.849015149885,103.849015149885,049366,CIRCULAR ROAD,BOAT QUAY CONSERVATION AREA,29746.8958907975,30021.2609675098
11 CIRCULAR ROAD BOAT QUAY CONSERVATION AREA SINGAPORE 049367,11,BOAT QUAY CONSERVATION AREA,1.28773117059355,103.849017210328,103.849017210328,049367,CIRCULAR ROAD,BOAT QUAY CONSERVATION AREA,29747.1252313107,30016.2950204946
12 CIRCULAR ROAD SINGAPORE 049368,12,NIL,1.28768592526539,103.849017102623,103.849017102623,049368,CIRCULAR ROAD,12 CIRCULAR ROAD SINGAPORE 049368,29747.1132754572,30011.2920254655
13 CIRCULAR ROAD BOAT QUAY CONSERVATION AREA SINGAPORE 049369,13,BOAT QUAY CONSERVATION AREA,1.28764080941823,103.849016140117,103.849016140117,049369,CIRCULAR ROAD,BOAT QUAY CONSERVATION AREA,29747.00618733,30006.3033471927
14 CIRCULAR ROAD BOAT QUAY CONSERVATION AREA SINGAPORE 049370,14,BOAT QUAY CONSERVATION AREA,1.28759436268169,103.849015090573,103.849015090573,049370,CIRCULAR ROAD,BOAT QUAY CONSERVATION AREA,29746.889413449,30001.1675059833
15 CIRCULAR ROAD BOAT QUAY CONSERVATION AREA SINGAPORE 049371,15,BOAT QUAY CONSERVATION AREA,1.2875485515467,103.849015094372,103.849015094372,049371,CIRCULAR ROAD,BOAT QUAY CONSERVATION AREA,29746.8898674687,29996.1019470338
16 CIRCULAR ROAD BOAT QUAY CONSERVATION AREA SINGAPORE 049372,16,BOAT QUAY CONSERVATION AREA,1.28750562501674,103.849014021188,103.849014021188,049372,CIRCULAR ROAD,BOAT QUAY CONSERVATION AREA,29746.7704602731,29991.3553520944
17 CIRCULAR ROAD BOAT QUAY CONSERVATION AREA SINGAPORE 049373,17,BOAT QUAY CONSERVATION AREA,1.28746302149036,103.849013171837,103.849013171837,049373,CIRCULAR ROAD,BOAT QUAY CONSERVATION AREA,29746.6759636281,29986.6444733758
18 CIRCULAR ROAD BOAT QUAY CONSERVATION AREA SINGAPORE 049374,18,BOAT QUAY CONSERVATION AREA,1.28741987871145,103.849012078525,103.849012078525,049374,CIRCULAR ROAD,BOAT QUAY CONSERVATION AREA,29746.5543166017,29981.8739667311
20 CIRCULAR ROAD BOAT QUAY CONSERVATION AREA SINGAPORE 049376,20,BOAT QUAY CONSERVATION AREA,1.28731250368193,103.849007586827,103.849007586827,049376,CIRCULAR ROAD,BOAT QUAY CONSERVATION AREA,29746.0545013864,29970.000986902
21 CIRCULAR ROAD BOAT QUAY CONSERVATION AREA SINGAPORE 049377,21,BOAT QUAY CONSERVATION AREA,1.28731250368193,103.849007586827,103.849007586827,049377,CIRCULAR ROAD,BOAT QUAY CONSERVATION AREA,29746.0545013864,29970.000986902
22 CIRCULAR ROAD BOAT QUAY CONSERVATION AREA SINGAPORE 049378,22,BOAT QUAY CONSERVATION AREA,1.28725328340124,103.849017354543,103.849017354543,049378,CIRCULAR ROAD,BOAT QUAY CONSERVATION AREA,29747.1416062899,29963.4527205005
23 CIRCULAR ROAD BOAT QUAY CONSERVATION AREA SINGAPORE 049379,23,BOAT QUAY CONSERVATION AREA,1.28720345687962,103.849016869044,103.849016869044,049379,CIRCULAR ROAD,BOAT QUAY CONSERVATION AREA,29747.087608207,29957.9431604967
24 CIRCULAR ROAD BOAT QUAY CONSERVATION AREA SINGAPORE 049380,24,BOAT QUAY CONSERVATION AREA,1.28715634051957,103.849027520737,103.849027520737,049380,CIRCULAR ROAD,BOAT QUAY CONSERVATION AREA,29748.2730840566,29952.7332837991
25 CIRCULAR ROAD BOAT QUAY CONSERVATION AREA SINGAPORE 049381,25,BOAT QUAY CONSERVATION AREA,1.28711009819032,103.849037949962,103.849037949962,049381,CIRCULAR ROAD,BOAT QUAY CONSERVATION AREA,29749.4338006964,29947.6200527735
26 CIRCULAR ROAD BOAT QUAY CONSERVATION AREA SINGAPORE 049382,26,BOAT QUAY CONSERVATION AREA,1.28706375156978,103.84904820975,103.84904820975,049382,CIRCULAR ROAD,BOAT QUAY CONSERVATION AREA,29750.5756603824,29942.4952896461
27 CIRCULAR ROAD BOAT QUAY CONSERVATION AREA SINGAPORE 049383,27,BOAT QUAY CONSERVATION AREA,1.28701716406495,103.849058345245,103.849058345245,049383,CIRCULAR ROAD,BOAT QUAY CONSERVATION AREA,29751.7036875989,29937.3438906949
28 CIRCULAR ROAD BOAT QUAY CONSERVATION AREA SINGAPORE 049384,28,BOAT QUAY CONSERVATION AREA,1.28696901982484,103.849070988022,103.849070988022,049384,CIRCULAR ROAD,BOAT QUAY CONSERVATION AREA,29753.1107553588,29932.0203577187
29 CIRCULAR ROAD BOAT QUAY CONSERVATION AREA SINGAPORE 049385,29,BOAT QUAY CONSERVATION AREA,1.286920539416,103.849087576539,103.849087576539,049385,CIRCULAR ROAD,BOAT QUAY CONSERVATION AREA,29754.9569510249,29926.6596556585
30 CIRCULAR ROAD BOAT QUAY CONSERVATION AREA SINGAPORE 049386,30,BOAT QUAY CONSERVATION AREA,1.28687416126412,103.849106166495,103.849106166495,049386,CIRCULAR ROAD,BOAT QUAY CONSERVATION AREA,29757.0258887839,29921.531411713
31 CIRCULAR ROAD BOAT QUAY CONSERVATION AREA SINGAPORE 049387,31,BOAT QUAY CONSERVATION AREA,1.28682610872957,103.849117964533,103.849117964533,049387,CIRCULAR ROAD,BOAT QUAY CONSERVATION AREA,29758.3389441855,29916.2180185113
32 CIRCULAR ROAD BOAT QUAY CONSERVATION AREA SINGAPORE 049388,32,BOAT QUAY CONSERVATION AREA,1.28677931507636,103.84913243849,103.84913243849,049388,CIRCULAR ROAD,BOAT QUAY CONSERVATION AREA,29759.9498062795,29911.0438277666
33 CIRCULAR ROAD BOAT QUAY CONSERVATION AREA SINGAPORE 049389,33,BOAT QUAY CONSERVATION AREA,1.28673472386279,103.849149490465,103.849149490465,049389,CIRCULAR ROAD,BOAT QUAY CONSERVATION AREA,29761.8475785907,29906.1131732184
34 CIRCULAR ROAD BOAT QUAY CONSERVATION AREA SINGAPORE 049390,34,BOAT QUAY CONSERVATION AREA,1.28669161600623,103.849166872077,103.849166872077,049390,CIRCULAR ROAD,BOAT QUAY CONSERVATION AREA,29763.7820356982,29901.3465408757
35 CIRCULAR ROAD BOAT QUAY CONSERVATION AREA SINGAPORE 049391,35,BOAT QUAY CONSERVATION AREA,1.28664808851947,103.849183830227,103.849183830227,049391,CIRCULAR ROAD,BOAT QUAY CONSERVATION AREA,29765.6693655541,29896.5335077122
36 CIRCULAR ROAD BOAT QUAY CONSERVATION AREA SINGAPORE 049392,36,BOAT QUAY CONSERVATION AREA,1.28660445208701,103.849200762268,103.849200762268,049392,CIRCULAR ROAD,BOAT QUAY CONSERVATION AREA,29767.5537896845,29891.7084278911
37 CIRCULAR ROAD BOAT QUAY CONSERVATION AREA SINGAPORE 049393,37,BOAT QUAY CONSERVATION AREA,1.2865610365331,103.849221508144,103.849221508144,049393,CIRCULAR ROAD,BOAT QUAY CONSERVATION AREA,29769.862661751,29886.9077743348
38 CIRCULAR ROAD BOAT QUAY CONSERVATION AREA SINGAPORE 049394,38,BOAT QUAY CONSERVATION AREA,1.28651733955952,103.849245746929,103.849245746929,049394,CIRCULAR ROAD,BOAT QUAY CONSERVATION AREA,29772.5602655318,29882.0760052893
39 CIRCULAR ROAD BOAT QUAY CONSERVATION AREA SINGAPORE 049395,39,BOAT QUAY CONSERVATION AREA,1.28647343646474,103.849269990064,103.849269990064,049395,CIRCULAR ROAD,BOAT QUAY CONSERVATION AREA,29775.2583536003,29877.2214444522
40 CIRCULAR ROAD BOAT QUAY CONSERVATION AREA SINGAPORE 049396,40,BOAT QUAY CONSERVATION AREA,1.2864280327673,103.849293926678,103.849293926678,049396,CIRCULAR ROAD,BOAT QUAY CONSERVATION AREA,29777.9223296512,29872.2009545304
41 CIRCULAR ROAD BOAT QUAY CONSERVATION AREA SINGAPORE 049397,41,BOAT QUAY CONSERVATION AREA,1.28636209352588,103.849289219284,103.849289219284,049397,CIRCULAR ROAD,BOAT QUAY CONSERVATION AREA,29777.3984816568,29864.9097301997
42 CIRCULAR ROAD BOAT QUAY CONSERVATION AREA SINGAPORE 049398,42,BOAT QUAY CONSERVATION AREA,1.28630865460691,103.84932307704,103.84932307704,049398,CIRCULAR ROAD,BOAT QUAY CONSERVATION AREA,29781.1666034861,29859.0007538833
45 CIRCULAR ROAD BOAT QUAY CONSERVATION AREA SINGAPORE 049400,45,BOAT QUAY CONSERVATION AREA,1.28616480291917,103.849462812142,103.849462812142,049400,CIRCULAR ROAD,BOAT QUAY CONSERVATION AREA,29796.7180513758,29843.09447442
46 CIRCULAR ROAD BOAT QUAY CONSERVATION AREA SINGAPORE 049401,46,BOAT QUAY CONSERVATION AREA,1.28611891029868,103.849492089421,103.849492089421,049401,CIRCULAR ROAD,BOAT QUAY CONSERVATION AREA,29799.9763998231,29838.0199258775
47 CIRCULAR ROAD BOAT QUAY CONSERVATION AREA SINGAPORE 049402,47,BOAT QUAY CONSERVATION AREA,1.28607368721803,103.849523053733,103.849523053733,049402,CIRCULAR ROAD,BOAT QUAY CONSERVATION AREA,29803.4225005731,29833.019412823
48 CIRCULAR ROAD SINGAPORE 049403,48,NIL,1.28602658578803,103.849552933144,103.849552933144,049403,CIRCULAR ROAD,48 CIRCULAR ROAD SINGAPORE 049403,29806.7478623362,29827.8112008646
49 CIRCULAR ROAD BOAT QUAY CONSERVATION AREA SINGAPORE 049404,49,BOAT QUAY CONSERVATION AREA,1.28598112812322,103.849583000768,103.849583000768,049404,CIRCULAR ROAD,BOAT QUAY CONSERVATION AREA,29810.0941695441,29822.78474815
50 CIRCULAR ROAD BOAT QUAY CONSERVATION AREA SINGAPORE 049405,50,BOAT QUAY CONSERVATION AREA,1.2859367960539,103.849612171984,103.849612171984,049405,CIRCULAR ROAD,BOAT QUAY CONSERVATION AREA,29813.3407134777,29817.8827573825
51 CIRCULAR ROAD BOAT QUAY CONSERVATION AREA SINGAPORE 049406,51,BOAT QUAY CONSERVATION AREA,1.28589369195685,103.849640360852,103.849640360852,049406,CIRCULAR ROAD,BOAT QUAY CONSERVATION AREA,29816.4779294543,29813.1165487897
52 CIRCULAR ROAD BOAT QUAY CONSERVATION AREA SINGAPORE 049407,52,BOAT QUAY CONSERVATION AREA,1.28585231451278,103.849677021594,103.849677021594,049407,CIRCULAR ROAD,BOAT QUAY CONSERVATION AREA,29820.5579931233,29808.5412706397
54 CIRCULAR ROAD BOAT QUAY CONSERVATION AREA SINGAPORE 049409,54,BOAT QUAY CONSERVATION AREA,1.2859206631672,103.849335867004,103.849335867004,049409,CIRCULAR ROAD,BOAT QUAY CONSERVATION AREA,29782.5902883681,29816.0986716188
56 CIRCULAR ROAD BOAT QUAY CONSERVATION AREA SINGAPORE 049411,56,BOAT QUAY CONSERVATION AREA,1.28595055556789,103.849302789116,103.849302789116,049411,CIRCULAR ROAD,BOAT QUAY CONSERVATION AREA,29778.908975116,29819.4039959759
57 CIRCULAR ROAD BOAT QUAY CONSERVATION AREA SINGAPORE 049412,57,BOAT QUAY CONSERVATION AREA,1.28603255389975,103.849264660253,103.849264660253,049412,CIRCULAR ROAD,BOAT QUAY CONSERVATION AREA,29774.6654946031,29828.4709218387
58 CIRCULAR ROAD BOAT QUAY CONSERVATION AREA SINGAPORE 049413,58,BOAT QUAY CONSERVATION AREA,1.28606946719614,103.84924456163,103.84924456163,049413,CIRCULAR ROAD,BOAT QUAY CONSERVATION AREA,29772.4286603387,29832.5525897108
61 CIRCULAR ROAD BOAT QUAY CONSERVATION AREA SINGAPORE 049415,61,BOAT QUAY CONSERVATION AREA,1.28616573573912,103.849168608083,103.849168608083,049415,CIRCULAR ROAD,BOAT QUAY CONSERVATION AREA,29763.9755994538,29843.1974158324
62 CIRCULAR ROAD BOAT QUAY CONSERVATION AREA SINGAPORE 049416,62,BOAT QUAY CONSERVATION AREA,1.28619839198234,103.84914155815,103.84914155815,049416,CIRCULAR ROAD,BOAT QUAY CONSERVATION AREA,29760.9651457928,29846.8083560225
63 CIRCULAR ROAD BOAT QUAY CONSERVATION AREA SINGAPORE 049417,63,BOAT QUAY CONSERVATION AREA,1.28623082841365,103.849115144081,103.849115144081,049417,CIRCULAR ROAD,BOAT QUAY CONSERVATION AREA,29758.0254586786,29850.3949910197
64 CIRCULAR ROAD BOAT QUAY CONSERVATION AREA SINGAPORE 049418,64,BOAT QUAY CONSERVATION AREA,1.28626406578992,103.849088342459,103.849088342459,049418,CIRCULAR ROAD,BOAT QUAY CONSERVATION AREA,29755.0426396867,29854.0701901391
65 CIRCULAR ROAD BOAT QUAY CONSERVATION AREA SINGAPORE 049419,65,BOAT QUAY CONSERVATION AREA,1.28629804661319,103.849063405739,103.849063405739,049419,CIRCULAR ROAD,BOAT QUAY CONSERVATION AREA,29752.2673682598,29857.8275971022
66 CIRCULAR ROAD BOAT QUAY CONSERVATION AREA SINGAPORE 049420,66,BOAT QUAY CONSERVATION AREA,1.28632870816175,103.849036522509,103.849036522509,049420,CIRCULAR ROAD,BOAT QUAY CONSERVATION AREA,29749.2754688738,29861.2179744933
67 CIRCULAR ROAD BOAT QUAY CONSERVATION AREA SINGAPORE 049421,67,BOAT QUAY CONSERVATION AREA,1.28636170381105,103.849012937201,103.849012937201,049421,CIRCULAR ROAD,BOAT QUAY CONSERVATION AREA,29746.6505990578,29864.8664469831
68 CIRCULAR ROAD BOAT QUAY CONSERVATION AREA SINGAPORE 049422,68,BOAT QUAY CONSERVATION AREA,1.2863943805652,103.848988700522,103.848988700522,049422,CIRCULAR ROAD,BOAT QUAY CONSERVATION AREA,29743.9532374209,29868.4796572719
69 CIRCULAR ROAD BOAT QUAY CONSERVATION AREA SINGAPORE 049423,69,BOAT QUAY CONSERVATION AREA,1.2864275538772,103.848963421928,103.848963421928,049423,CIRCULAR ROAD,BOAT QUAY CONSERVATION AREA,29741.1399191385,29872.1477736831
72 CIRCULAR ROAD BOAT QUAY CONSERVATION AREA SINGAPORE 049426,72,BOAT QUAY CONSERVATION AREA,1.28654034366585,103.84891604299,103.84891604299,049426,CIRCULAR ROAD,BOAT QUAY CONSERVATION AREA,29735.866963963,29884.6194542293
73 CIRCULAR ROAD BOAT QUAY CONSERVATION AREA SINGAPORE 049427,73,BOAT QUAY CONSERVATION AREA,1.2865782667237,103.84890194511,103.84890194511,049427,CIRCULAR ROAD,BOAT QUAY CONSERVATION AREA,29734.2979624905,29888.8127806932
74 CIRCULAR ROAD BOAT QUAY CONSERVATION AREA SINGAPORE 049428,74,BOAT QUAY CONSERVATION AREA,1.28661757322155,103.848888911457,103.848888911457,049428,CIRCULAR ROAD,BOAT QUAY CONSERVATION AREA,29732.847399639,29893.1590815466
75 CIRCULAR ROAD BOAT QUAY CONSERVATION AREA SINGAPORE 049429,75,BOAT QUAY CONSERVATION AREA,1.28665418180629,103.84887595829,103.84887595829,049429,CIRCULAR ROAD,BOAT QUAY CONSERVATION AREA,29731.4057961106,29897.2070611529
76 CIRCULAR ROAD BOAT QUAY CONSERVATION AREA SINGAPORE 049430,76,BOAT QUAY CONSERVATION AREA,1.28669180894162,103.848864618455,103.848864618455,049430,CIRCULAR ROAD,BOAT QUAY CONSERVATION AREA,29730.1437422615,29901.3676679283
77 CIRCULAR ROAD BOAT QUAY CONSERVATION AREA SINGAPORE 049431,77,BOAT QUAY CONSERVATION AREA,1.28672760590502,103.848852125184,103.848852125184,049431,CIRCULAR ROAD,BOAT QUAY CONSERVATION AREA,29728.7533218935,29905.3259029631
78 CIRCULAR ROAD BOAT QUAY CONSERVATION AREA SINGAPORE 049432,78,BOAT QUAY CONSERVATION AREA,1.2867638512387,103.848840345293,103.848840345293,049432,CIRCULAR ROAD,BOAT QUAY CONSERVATION AREA,29727.4422944468,29909.333716955
79 CIRCULAR ROAD BOAT QUAY CONSERVATION AREA SINGAPORE 049433,79,BOAT QUAY CONSERVATION AREA,1.28684208641277,103.848825619403,103.848825619403,049433,CIRCULAR ROAD,BOAT QUAY CONSERVATION AREA,29725.8033739328,29917.9845488444
82 CIRCULAR ROAD BOAT QUAY CONSERVATION AREA SINGAPORE 049434,82,BOAT QUAY CONSERVATION AREA,1.28729296797866,103.848727594039,103.848727594039,049434,CIRCULAR ROAD,BOAT QUAY CONSERVATION AREA,29714.8936726851,29967.8406398315
83 CIRCULAR ROAD BOAT QUAY CONSERVATION AREA SINGAPORE 049435,83,BOAT QUAY CONSERVATION AREA,1.28734238550946,103.848733641046,103.848733641046,049435,CIRCULAR ROAD,BOAT QUAY CONSERVATION AREA,29715.5666207671,29973.3049794678
84 CIRCULAR ROAD BOAT QUAY CONSERVATION AREA SINGAPORE 049436,84,BOAT QUAY CONSERVATION AREA,1.28739479221108,103.848738635276,103.848738635276,049436,CIRCULAR ROAD,BOAT QUAY CONSERVATION AREA,29716.1224014843,29979.0998454876
85 CIRCULAR ROAD BOAT QUAY CONSERVATION AREA SINGAPORE 049437,85,BOAT QUAY CONSERVATION AREA,1.28744770448962,103.848744930342,103.848744930342,049437,CIRCULAR ROAD,BOAT QUAY CONSERVATION AREA,29716.8229539674,29984.9506164715
86 CIRCULAR ROAD BOAT QUAY CONSERVATION AREA SINGAPORE 049438,86,BOAT QUAY CONSERVATION AREA,1.28750047167762,103.848753199094,103.848753199094,049438,CIRCULAR ROAD,BOAT QUAY CONSERVATION AREA,29717.7431612089,29990.7853454258
88 CIRCULAR ROAD BOAT QUAY CONSERVATION AREA SINGAPORE 049439,88,BOAT QUAY CONSERVATION AREA,1.28760393315999,103.848755510918,103.848755510918,049439,CIRCULAR ROAD,BOAT QUAY CONSERVATION AREA,29718.0003785342,30002.2255838905
90 CIRCULAR ROAD BOAT QUAY CONSERVATION AREA SINGAPORE 049441,90,BOAT QUAY CONSERVATION AREA,1.28771380024723,103.848761300463,103.848761300463,049441,CIRCULAR ROAD,BOAT QUAY CONSERVATION AREA,29718.6446325677,30014.3741234429
91 CIRCULAR ROAD BOAT QUAY CONSERVATION AREA SINGAPORE 049442,91,BOAT QUAY CONSERVATION AREA,1.28771379997351,103.848761300191,103.848761300191,049442,CIRCULAR ROAD,BOAT QUAY CONSERVATION AREA,29718.6446022997,30014.3740931749
92 CIRCULAR ROAD BOAT QUAY CONSERVATION AREA SINGAPORE 049443,92,BOAT QUAY CONSERVATION AREA,1.28771379997351,103.848761300191,103.848761300191,049443,CIRCULAR ROAD,BOAT QUAY CONSERVATION AREA,29718.6446022997,30014.3740931749
93 CIRCULAR ROAD BOAT QUAY CONSERVATION AREA SINGAPORE 049444,93,BOAT QUAY CONSERVATION AREA,1.28771379997351,103.848761300191,103.848761300191,049444,CIRCULAR ROAD,BOAT QUAY CONSERVATION AREA,29718.6446022997,30014.3740931749
18 CHURCH STREET OCBC CENTRE SOUTH SINGAPORE 049479,18,OCBC CENTRE SOUTH,1.28481108841329,103.848835277591,103.848835277591,049479,CHURCH STREET,OCBC CENTRE SOUTH,29726.8796126293,29693.4072785489
21 CHURCH STREET CAPITAL SQUARE SINGAPORE 049480,21,CAPITAL SQUARE,1.28431697541298,103.848333724805,103.848333724805,049480,CHURCH STREET,CAPITAL SQUARE,29671.0612736726,29638.7704806048
23 CHURCH STREET CAPITAL SQUARE SINGAPORE 049481,23,CAPITAL SQUARE,1.28375007750171,103.84894427503,103.84894427503,049481,CHURCH STREET,CAPITAL SQUARE,29739.0108388951,29576.086243026
25 CHURCH STREET CAPITAL SQUARE SINGAPORE 049482,25,CAPITAL SQUARE,1.28376153776504,103.848603133687,103.848603133687,049482,CHURCH STREET,CAPITAL SQUARE,29701.0446172711,29577.3532305565
3 CHURCH STREET SAMSUNG HUB SINGAPORE 049483,3,SAMSUNG HUB,1.28328077216223,103.849631965174,103.849631965174,049483,CHURCH STREET,SAMSUNG HUB,29815.5454031434,29524.1933588777
65 CHULIA STREET OCBC CENTRE SINGAPORE 049513,65,OCBC CENTRE,1.28504650688466,103.849079163356,103.849079163356,049513,CHULIA STREET,OCBC CENTRE,29754.0219124723,29719.4388039242
63 CHULIA STREET OCBC CENTRE EAST SINGAPORE 049514,63,OCBC CENTRE EAST,1.28487776703986,103.849664558091,103.849664558091,049514,CHULIA STREET,OCBC CENTRE EAST,29819.1715983972,29700.7808317933
67 CHULIA STREET OCBC CENTRE SINGAPORE 049515,67,OCBC CENTRE,1.28548273527414,103.848890360441,103.848890360441,049515,CHULIA STREET,OCBC CENTRE,29733.0094241556,29767.6745589394
18 CHINA STREET FAR EAST SQUARE SINGAPORE 049560,18,FAR EAST SQUARE,1.28347885809686,103.847896978477,103.847896978477,049560,CHINA STREET,FAR EAST SQUARE,29622.455553093,29546.0955140386
19 CHINA STREET FAR EAST SQUARE SINGAPORE 049561,19,FAR EAST SQUARE,1.28347631059091,103.847874757995,103.847874757995,049561,CHINA STREET,FAR EAST SQUARE,29619.9825982871,29545.8138099145
20 CHINA STREET FAR EAST SQUARE SINGAPORE 049562,20,FAR EAST SQUARE,1.28347631059091,103.847874757995,103.847874757995,049562,CHINA STREET,FAR EAST SQUARE,29619.9825982871,29545.8138099145
21 CHINA STREET FAR EAST SQUARE SINGAPORE 049563,21,FAR EAST SQUARE,1.28347631059091,103.847874757995,103.847874757995,049563,CHINA STREET,FAR EAST SQUARE,29619.9825982871,29545.8138099145
22 CHINA STREET FAR EAST SQUARE SINGAPORE 049564,22,FAR EAST SQUARE,1.28347631059091,103.847874757995,103.847874757995,049564,CHINA STREET,FAR EAST SQUARE,29619.9825982871,29545.8138099145
23 CHINA STREET FAR EAST SQUARE SINGAPORE 049565,23,FAR EAST SQUARE,1.28347631059091,103.847874757995,103.847874757995,049565,CHINA STREET,FAR EAST SQUARE,29619.9825982871,29545.8138099145
24 CHINA STREET FAR EAST SQUARE SINGAPORE 049566,24,FAR EAST SQUARE,1.28347631059091,103.847874757995,103.847874757995,049566,CHINA STREET,FAR EAST SQUARE,29619.9825982871,29545.8138099145
25 CHINA STREET FAR EAST SQUARE SINGAPORE 049567,25,FAR EAST SQUARE,1.28347631059091,103.847874757995,103.847874757995,049567,CHINA STREET,FAR EAST SQUARE,29619.9825982871,29545.8138099145
26 CHINA STREET FAR EAST SQUARE SINGAPORE 049568,26,FAR EAST SQUARE,1.28305772520972,103.847820899657,103.847820899657,049568,CHINA STREET,FAR EAST SQUARE,29613.9888716154,29499.5287659131
28 CHINA STREET FAR EAST SQUARE SINGAPORE 049570,28,FAR EAST SQUARE,1.28341371419622,103.848150346972,103.848150346972,049570,CHINA STREET,FAR EAST SQUARE,29650.6534185996,29538.8923998103
19 CECIL STREET CONSULATE OF THE REPUBLIC OF LATVIA SINGAPORE 049704,19,CONSULATE OF THE REPUBLIC OF LATVIA,1.28244263146954,103.850510230422,103.850510230422,049704,CECIL STREET,CONSULATE OF THE REPUBLIC OF LATVIA,29913.289712158,29431.5167275723
20 CECIL STREET PLUS SINGAPORE 049705,20,PLUS,1.28311802386619,103.850473124395,103.850473124395,049705,CECIL STREET,PLUS,29909.159615512,29506.1981042493
60 CECIL STREET ISCA HOUSE SINGAPORE 049709,60,ISCA HOUSE,1.28228494561547,103.849513324389,103.849513324389,049709,CECIL STREET,ISCA HOUSE,29802.3423573058,29414.0799172446
62 CECIL STREET CITIKIDS ACADEMY PTE LTD SINGAPORE 049710,62,CITIKIDS ACADEMY PTE LTD,1.28214341257579,103.849459154509,103.849459154509,049710,CECIL STREET,CITIKIDS ACADEMY PTE LTD,29796.3137921849,29398.4298865311
64 CECIL STREET IOB BUILDING SINGAPORE 049711,64,IOB BUILDING,1.28198477614575,103.849405378613,103.849405378613,049711,CECIL STREET,IOB BUILDING,29790.3290853724,29380.8886516597
30 CECIL STREET PRUDENTIAL TOWER SINGAPORE 049712,30,PRUDENTIAL TOWER,1.28280712269847,103.849873602832,103.849873602832,049712,CECIL STREET,PRUDENTIAL TOWER,29842.4380223891,29471.8198191468
3 CANTON STREET BOAT QUAY CONSERVATION AREA SINGAPORE 049745,3,BOAT QUAY CONSERVATION AREA,1.28621322429527,103.849431892179,103.849431892179,049745,CANTON STREET,BOAT QUAY CONSERVATION AREA,29793.2768843072,29848.4486385956
7 CANTON STREET BOAT QUAY CONSERVATION AREA SINGAPORE 049747,7,BOAT QUAY CONSERVATION AREA,1.28636646786541,103.849362384407,103.849362384407,049747,CANTON STREET,BOAT QUAY CONSERVATION AREA,29785.5411443682,29865.3934731167
8 CANTON STREET BOAT QUAY CONSERVATION AREA SINGAPORE 049748,8,BOAT QUAY CONSERVATION AREA,1.28638808491458,103.849393058679,103.849393058679,049748,CANTON STREET,BOAT QUAY CONSERVATION AREA,29788.9549189117,29867.7837963253
26 BOAT QUAY BOAT QUAY CONSERVATION AREA SINGAPORE 049816,26,BOAT QUAY CONSERVATION AREA,1.28586040536664,103.849994089915,103.849994089915,049816,BOAT QUAY,BOAT QUAY CONSERVATION AREA,29855.8450441686,29809.436143579
27 BOAT QUAY BOAT QUAY CONSERVATION AREA SINGAPORE 049817,27,BOAT QUAY CONSERVATION AREA,1.28589988582833,103.849960046877,103.849960046877,049817,BOAT QUAY,BOAT QUAY CONSERVATION AREA,29852.0563098425,29813.801664602
28 BOAT QUAY BOAT QUAY CONSERVATION AREA SINGAPORE 049818,28,BOAT QUAY CONSERVATION AREA,1.28593656562506,103.849899741314,103.849899741314,049818,BOAT QUAY,BOAT QUAY CONSERVATION AREA,29845.344777937,29817.8574836161
30 BOAT QUAY BOAT QUAY CONSERVATION AREA SINGAPORE 049819,30,BOAT QUAY CONSERVATION AREA,1.28603737919792,103.849831839767,103.849831839767,049819,BOAT QUAY,BOAT QUAY CONSERVATION AREA,29837.7878309786,29829.0048793387
31 BOAT QUAY SINGAPORE 049820,31,NIL,1.28608008449322,103.849799768799,103.849799768799,049820,BOAT QUAY,31 BOAT QUAY SINGAPORE 049820,29834.2185698021,29833.7269874793
32 BOAT QUAY BOAT QUAY CONSERVATION AREA SINGAPORE 049821,32,BOAT QUAY CONSERVATION AREA,1.28612369200833,103.849768282843,103.849768282843,049821,BOAT QUAY,BOAT QUAY CONSERVATION AREA,29830.7144150594,29838.5488588922
33 BOAT QUAY BOAT QUAY CONSERVATION AREA SINGAPORE 049822,33,BOAT QUAY CONSERVATION AREA,1.28616759843694,103.849737193692,103.849737193692,049822,BOAT QUAY,BOAT QUAY CONSERVATION AREA,29827.2544213049,29843.4037829451
34 BOAT QUAY BOAT QUAY CONSERVATION AREA SINGAPORE 049823,34,BOAT QUAY CONSERVATION AREA,1.28621133324012,103.849705241035,103.849705241035,049823,BOAT QUAY,BOAT QUAY CONSERVATION AREA,29823.6983267013,29848.2397289723
35 BOAT QUAY BOAT QUAY CONSERVATION AREA SINGAPORE 049824,35,BOAT QUAY CONSERVATION AREA,1.28625502314636,103.849673962589,103.849673962589,049824,BOAT QUAY,BOAT QUAY CONSERVATION AREA,29820.2172664301,29853.0707110483
36 BOAT QUAY BOAT QUAY CONSERVATION AREA SINGAPORE 049825,36,BOAT QUAY CONSERVATION AREA,1.28629764521918,103.849642769534,103.849642769534,049825,BOAT QUAY,BOAT QUAY CONSERVATION AREA,29816.7457103059,29857.7836177219
37 BOAT QUAY BOAT QUAY CONSERVATION AREA SINGAPORE 049826,37,BOAT QUAY CONSERVATION AREA,1.2863418809675,103.849608496157,103.849608496157,049826,BOAT QUAY,BOAT QUAY CONSERVATION AREA,29812.9313389976,29862.6749541592
39 BOAT QUAY BOAT QUAY CONSERVATION AREA SINGAPORE 049828,39,BOAT QUAY CONSERVATION AREA,1.28646127194405,103.849544759926,103.849544759926,049828,BOAT QUAY,BOAT QUAY CONSERVATION AREA,29805.8379462101,29875.8765471317
40 BOAT QUAY BOAT QUAY CONSERVATION AREA SINGAPORE 049829,40,BOAT QUAY CONSERVATION AREA,1.28650496109121,103.849503429191,103.849503429191,049829,BOAT QUAY,BOAT QUAY CONSERVATION AREA,29801.2381509924,29880.7074384056
41 BOAT QUAY BOAT QUAY CONSERVATION AREA SINGAPORE 049830,41,BOAT QUAY CONSERVATION AREA,1.28654310512184,103.849478800099,103.849478800099,049830,BOAT QUAY,BOAT QUAY CONSERVATION AREA,29798.4971126551,29884.9251911324
42 BOAT QUAY BOAT QUAY CONSERVATION AREA SINGAPORE 049831,42,BOAT QUAY CONSERVATION AREA,1.2865854142452,103.849458653914,103.849458653914,049831,BOAT QUAY,BOAT QUAY CONSERVATION AREA,29796.2549814926,29889.6035015006
43 BOAT QUAY SINGAPORE 049832,43,NIL,1.28662678446663,103.849438118261,103.849438118261,049832,BOAT QUAY,43 BOAT QUAY SINGAPORE 049832,29793.9695065785,29894.1779926829
44 BOAT QUAY SINGAPORE 049833,44,NIL,1.28666817521432,103.849418142322,103.849418142322,049833,BOAT QUAY,44 BOAT QUAY SINGAPORE 049833,29791.7463231748,29898.7547539659
45 BOAT QUAY BOAT QUAY CONSERVATION AREA SINGAPORE 049834,45,BOAT QUAY CONSERVATION AREA,1.28671488569467,103.849397292848,103.849397292848,049834,BOAT QUAY,BOAT QUAY CONSERVATION AREA,29789.4259190066,29903.9197432417
46 BOAT QUAY BOAT QUAY CONSERVATION AREA SINGAPORE 049835,46,BOAT QUAY CONSERVATION AREA,1.28676737632669,103.849375556243,103.849375556243,049835,BOAT QUAY,BOAT QUAY CONSERVATION AREA,29787.0067806756,29909.7238712646
47 BOAT QUAY BOAT QUAY CONSERVATION AREA SINGAPORE 049836,47,BOAT QUAY CONSERVATION AREA,1.28681985326819,103.849354398661,103.849354398661,049836,BOAT QUAY,BOAT QUAY CONSERVATION AREA,29784.6520828828,29915.5264858864
48 BOAT QUAY BOAT QUAY CONSERVATION AREA SINGAPORE 049837,48,BOAT QUAY CONSERVATION AREA,1.28686832382666,103.849337442447,103.849337442447,049837,BOAT QUAY,BOAT QUAY CONSERVATION AREA,29782.7649649018,29920.8860982992
49 BOAT QUAY BOAT QUAY CONSERVATION AREA SINGAPORE 049838,49,BOAT QUAY CONSERVATION AREA,1.28691133174822,103.849323798249,103.849323798249,049838,BOAT QUAY,BOAT QUAY CONSERVATION AREA,29781.246450427,29925.6416828297
50 BOAT QUAY BOAT QUAY CONSERVATION AREA SINGAPORE 049839,50,BOAT QUAY CONSERVATION AREA,1.2869572596162,103.849304360563,103.849304360563,049839,BOAT QUAY,BOAT QUAY CONSERVATION AREA,29779.083167363,29930.7201359421
51 BOAT QUAY BOAT QUAY CONSERVATION AREA SINGAPORE 049840,51,BOAT QUAY CONSERVATION AREA,1.28700700546872,103.849291800207,103.849291800207,049840,BOAT QUAY,BOAT QUAY CONSERVATION AREA,29777.6852708021,29936.2207668908
52 BOAT QUAY BOAT QUAY CONSERVATION AREA SINGAPORE 049841,52,BOAT QUAY CONSERVATION AREA,1.28704971337772,103.849278295255,103.849278295255,049841,BOAT QUAY,BOAT QUAY CONSERVATION AREA,29776.1822535349,29940.9431777094
53 BOAT QUAY BOAT QUAY CONSERVATION AREA SINGAPORE 049842,53,BOAT QUAY CONSERVATION AREA,1.28709723324476,103.849263910237,103.849263910237,049842,BOAT QUAY,BOAT QUAY CONSERVATION AREA,29774.5812890725,29946.1976694148
54 BOAT QUAY BOAT QUAY CONSERVATION AREA SINGAPORE 049843,54,BOAT QUAY CONSERVATION AREA,1.28715094684398,103.849253420684,103.849253420684,049843,BOAT QUAY,BOAT QUAY CONSERVATION AREA,29773.4138529403,29952.1370347887
55 BOAT QUAY BOAT QUAY CONSERVATION AREA SINGAPORE 049844,55,BOAT QUAY CONSERVATION AREA,1.28720413186897,103.84924225637,103.84924225637,049844,BOAT QUAY,BOAT QUAY CONSERVATION AREA,29772.1713219406,29958.0179526843
56 BOAT QUAY BOAT QUAY CONSERVATION AREA SINGAPORE 049845,56,BOAT QUAY CONSERVATION AREA,1.28725801984062,103.849231029778,103.849231029778,049845,BOAT QUAY,BOAT QUAY CONSERVATION AREA,29770.9218595726,29963.976598762
57 BOAT QUAY BOAT QUAY CONSERVATION AREA SINGAPORE 049846,57,BOAT QUAY CONSERVATION AREA,1.28731496701144,103.849226322329,103.849226322329,049846,BOAT QUAY,BOAT QUAY CONSERVATION AREA,29770.3979207743,29970.2735198271
58 BOAT QUAY BOAT QUAY CONSERVATION AREA SINGAPORE 049847,58,BOAT QUAY CONSERVATION AREA,1.28737381933188,103.84922673364,103.84922673364,049847,BOAT QUAY,BOAT QUAY CONSERVATION AREA,29770.4436556986,29976.7811060585
60 BOAT QUAY BOAT QUAY CONSERVATION AREA SINGAPORE 049848,60,BOAT QUAY CONSERVATION AREA,1.28746732489419,103.84922526422,103.84922526422,049848,BOAT QUAY,BOAT QUAY CONSERVATION AREA,29770.2800572459,29987.1204676889
61 BOAT QUAY BOAT QUAY CONSERVATION AREA SINGAPORE 049849,61,BOAT QUAY CONSERVATION AREA,1.28750864900923,103.849223425142,103.849223425142,049849,BOAT QUAY,BOAT QUAY CONSERVATION AREA,29770.0753548723,29991.68987385
62 BOAT QUAY BOAT QUAY CONSERVATION AREA SINGAPORE 049850,62,BOAT QUAY CONSERVATION AREA,1.28755040643524,103.849222925248,103.849222925248,049850,BOAT QUAY,BOAT QUAY CONSERVATION AREA,29770.0196920503,29996.3071942311
63 BOAT QUAY BOAT QUAY CONSERVATION AREA SINGAPORE 049851,63,BOAT QUAY CONSERVATION AREA,1.28759343699526,103.849222133265,103.849222133265,049851,BOAT QUAY,BOAT QUAY CONSERVATION AREA,29769.9315214138,30001.0652910024
64 BOAT QUAY BOAT QUAY CONSERVATION AREA SINGAPORE 049852,64,BOAT QUAY CONSERVATION AREA,1.28764022233879,103.849223277189,103.849223277189,049852,BOAT QUAY,BOAT QUAY CONSERVATION AREA,29770.0587982852,30006.2385737076
65 BOAT QUAY BOAT QUAY CONSERVATION AREA SINGAPORE 049853,65,BOAT QUAY CONSERVATION AREA,1.2876881970339,103.849227340992,103.849227340992,049853,BOAT QUAY,BOAT QUAY CONSERVATION AREA,29770.5110322302,30011.543370802
66 BOAT QUAY BOAT QUAY CONSERVATION AREA SINGAPORE 049854,66,BOAT QUAY CONSERVATION AREA,1.2877356412425,103.849230114294,103.849230114294,049854,BOAT QUAY,BOAT QUAY CONSERVATION AREA,29770.8196445918,30016.7895085439
67 BOAT QUAY BOAT QUAY CONSERVATION AREA SINGAPORE 049855,67,BOAT QUAY CONSERVATION AREA,1.2877833534287,103.84923400757,103.84923400757,049855,BOAT QUAY,BOAT QUAY CONSERVATION AREA,29771.252900511,30022.0652786419
68 BOAT QUAY BOAT QUAY CONSERVATION AREA SINGAPORE 049856,68,BOAT QUAY CONSERVATION AREA,1.28783002981286,103.849237311753,103.849237311753,049856,BOAT QUAY,BOAT QUAY CONSERVATION AREA,29771.6205959767,30027.2265146896
69 BOAT QUAY BOAT QUAY CONSERVATION AREA SINGAPORE 049857,69,BOAT QUAY CONSERVATION AREA,1.28787718331053,103.849241107117,103.849241107117,049857,BOAT QUAY,BOAT QUAY CONSERVATION AREA,29772.0429554218,30032.4405078329
70 BOAT QUAY BOAT QUAY CONSERVATION AREA SINGAPORE 049858,70,BOAT QUAY CONSERVATION AREA,1.28792333360911,103.849239744016,103.849239744016,049858,BOAT QUAY,BOAT QUAY CONSERVATION AREA,29771.8912220197,30037.543568816
71 BOAT QUAY BOAT QUAY CONSERVATION AREA SINGAPORE 049859,71,BOAT QUAY CONSERVATION AREA,1.28796872346317,103.849240643703,103.849240643703,049859,BOAT QUAY,BOAT QUAY CONSERVATION AREA,29771.9913182417,30042.5625453386
72 BOAT QUAY BOAT QUAY CONSERVATION AREA SINGAPORE 049860,72,BOAT QUAY CONSERVATION AREA,1.28801488719047,103.849236762703,103.849236762703,049860,BOAT QUAY,BOAT QUAY CONSERVATION AREA,29771.5593638457,30047.667089453
73 BOAT QUAY SINGAPORE 049861,73,NIL,1.28806315922683,103.849230092662,103.849230092662,049861,BOAT QUAY,73 BOAT QUAY SINGAPORE 049861,29770.8170112772,30053.0047575776
74 BOAT QUAY SINGAPORE 049862,74,NIL,1.28811091886962,103.849217904342,103.849217904342,049862,BOAT QUAY,74 BOAT QUAY SINGAPORE 049862,29769.460521319,30058.2857640367
75 BOAT QUAY SINGAPORE 049863,75,NIL,1.28815664877103,103.849207480824,103.849207480824,049863,BOAT QUAY,75 BOAT QUAY SINGAPORE 049863,29768.3004403068,30063.3423333969
76 BOAT QUAY HERITAGE COLLECTION ON BOAT QUAY QUAYSIDE WING SINGAPORE 049864,76,HERITAGE COLLECTION ON BOAT QUAY QUAYSIDE WING,1.28820659981053,103.849212778568,103.849212778568,049864,BOAT QUAY,HERITAGE COLLECTION ON BOAT QUAY QUAYSIDE WING,29768.8900000937,30068.8656653333
77 BOAT QUAY BOAT QUAY CONSERVATION AREA SINGAPORE 049865,77,BOAT QUAY CONSERVATION AREA,1.28824904310437,103.849185643277,103.849185643277,049865,BOAT QUAY,BOAT QUAY CONSERVATION AREA,29765.8700422868,30073.5588070136
78 BOAT QUAY BOAT QUAY CONSERVATION AREA SINGAPORE 049866,78,BOAT QUAY CONSERVATION AREA,1.28829498268648,103.849174997559,103.849174997559,049866,BOAT QUAY,BOAT QUAY CONSERVATION AREA,29764.685232332,30078.6385616474
79 BOAT QUAY BOAT QUAY CONSERVATION AREA SINGAPORE 049867,79,BOAT QUAY CONSERVATION AREA,1.28834088120836,103.849164389373,103.849164389373,049867,BOAT QUAY,BOAT QUAY CONSERVATION AREA,29763.5045993589,30083.7137760855
80 BOAT QUAY BOAT QUAY CONSERVATION AREA SINGAPORE 049868,80,BOAT QUAY CONSERVATION AREA,1.2883864882038,103.849153897043,103.849153897043,049868,BOAT QUAY,BOAT QUAY CONSERVATION AREA,29762.3368605468,30088.7567551211
81 BOAT QUAY BOAT QUAY CONSERVATION AREA SINGAPORE 049869,81,BOAT QUAY CONSERVATION AREA,1.2884323407382,103.849143324756,103.849143324756,049869,BOAT QUAY,BOAT QUAY CONSERVATION AREA,29761.1602229485,30093.8268845379
82 BOAT QUAY BOAT QUAY CONSERVATION AREA SINGAPORE 049870,82,BOAT QUAY CONSERVATION AREA,1.28848141284574,103.849144669679,103.849144669679,049870,BOAT QUAY,BOAT QUAY CONSERVATION AREA,29761.3098678598,30099.2530259788
83 BOAT QUAY SINGAPORE 049871,83,NIL,1.2885336716952,103.849155251547,103.849155251547,049871,BOAT QUAY,83 BOAT QUAY SINGAPORE 049871,29762.4875043025,30105.0315472856
84 BOAT QUAY SINGAPORE 049872,84,NIL,1.28858593847212,103.84916754982,103.84916754982,049872,BOAT QUAY,84 BOAT QUAY SINGAPORE 049872,29763.8561619902,30110.8109463658
85 BOAT QUAY SINGAPORE 049873,85,NIL,1.28864303690752,103.849180276748,103.849180276748,049873,BOAT QUAY,85 BOAT QUAY SINGAPORE 049873,29765.2725220202,30117.124605624
2 BATTERY ROAD MAYBANK MAYBANK TOWER SINGAPORE 049907,2,MAYBANK MAYBANK TOWER,1.28589200995529,103.852522972181,103.852522972181,049907,BATTERY ROAD,MAYBANK MAYBANK TOWER,30137.2885007495,29812.9327918608
4 BATTERY ROAD BANK OF CHINA BUILDING SINGAPORE 049908,4,BANK OF CHINA BUILDING,1.28557020283032,103.852308939795,103.852308939795,049908,BATTERY ROAD,BANK OF CHINA BUILDING,30113.4687477471,29777.3488421645
6 BATTERY ROAD SINGAPORE 049909,6,NIL,1.28546633858293,103.851764064473,103.851764064473,049909,BATTERY ROAD,6 BATTERY ROAD SINGAPORE 049909,30052.8287492525,29765.8636254743
9 BATTERY ROAD MYP CENTRE SINGAPORE 049910,9,MYP CENTRE,1.28513346970147,103.852316037433,103.852316037433,049910,BATTERY ROAD,MYP CENTRE,30114.2590145338,29729.0571519136
1 AMOY STREET AMOY HOTEL SINGAPORE 049944,1,AMOY HOTEL,1.28321798080315,103.848575643033,103.848575643033,049944,AMOY STREET,AMOY HOTEL,29697.9854926933,29517.2494899277
2 AMOY STREET AMOY HOTEL SINGAPORE 049945,2,AMOY HOTEL,1.28321798080315,103.848575643033,103.848575643033,049945,AMOY STREET,AMOY HOTEL,29697.9854926933,29517.2494899277
3 AMOY STREET AMOY HOTEL SINGAPORE 049946,3,AMOY HOTEL,1.28321798080315,103.848575643033,103.848575643033,049946,AMOY STREET,AMOY HOTEL,29697.9854926933,29517.2494899277
4 AMOY STREET AMOY HOTEL SINGAPORE 049947,4,AMOY HOTEL,1.28321798080315,103.848575643033,103.848575643033,049947,AMOY STREET,AMOY HOTEL,29697.9854926933,29517.2494899277
5 AMOY STREET AMOY HOTEL SINGAPORE 049948,5,AMOY HOTEL,1.28321798080315,103.848575643033,103.848575643033,049948,AMOY STREET,AMOY HOTEL,29697.9854926933,29517.2494899277
7 AMOY STREET AMOY HOTEL SINGAPORE 049949,7,AMOY HOTEL,1.28289484579763,103.848441558461,103.848441558461,049949,AMOY STREET,AMOY HOTEL,29683.0631951122,29481.5188010465
8 AMOY STREET AMOY HOTEL SINGAPORE 049950,8,AMOY HOTEL,1.28289484579763,103.848441558461,103.848441558461,049950,AMOY STREET,AMOY HOTEL,29683.0631951122,29481.5188010465
9 AMOY STREET AMOY HOTEL SINGAPORE 049951,9,AMOY HOTEL,1.28289484579763,103.848441558461,103.848441558461,049951,AMOY STREET,AMOY HOTEL,29683.0631951122,29481.5188010465
10 AMOY STREET AMOY HOTEL SINGAPORE 049952,10,AMOY HOTEL,1.28289484579763,103.848441558461,103.848441558461,049952,AMOY STREET,AMOY HOTEL,29683.0631951122,29481.5188010465
11 AMOY STREET AMOY HOTEL SINGAPORE 049953,11,AMOY HOTEL,1.28289484579763,103.848441558461,103.848441558461,049953,AMOY STREET,AMOY HOTEL,29683.0631951122,29481.5188010465
12 AMOY STREET AMOY HOTEL SINGAPORE 049954,12,AMOY HOTEL,1.28289484579763,103.848441558461,103.848441558461,049954,AMOY STREET,AMOY HOTEL,29683.0631951122,29481.5188010465
13 AMOY STREET AMOY HOTEL SINGAPORE 049955,13,AMOY HOTEL,1.28289484579763,103.848441558461,103.848441558461,049955,AMOY STREET,AMOY HOTEL,29683.0631951122,29481.5188010465
130 AMOY STREET FAR EAST SQUARE SINGAPORE 049959,130,FAR EAST SQUARE,1.28315431065233,103.8482272158,103.8482272158,049959,AMOY STREET,FAR EAST SQUARE,29659.2084523216,29510.2089450397
131 AMOY STREET FAR EAST SQUARE SINGAPORE 049960,131,FAR EAST SQUARE,1.28315769973068,103.848228946906,103.848228946906,049960,AMOY STREET,FAR EAST SQUARE,29659.4011080377,29510.5836929455
132 AMOY STREET FAR EAST SQUARE SINGAPORE 049961,132,FAR EAST SQUARE,1.28315769973068,103.848228946906,103.848228946906,049961,AMOY STREET,FAR EAST SQUARE,29659.4011080377,29510.5836929455
133 AMOY STREET FAR EAST SQUARE SINGAPORE 049962,133,FAR EAST SQUARE,1.28315769973068,103.848228946906,103.848228946906,049962,AMOY STREET,FAR EAST SQUARE,29659.4011080377,29510.5836929455
134 AMOY STREET FAR EAST SQUARE SINGAPORE 049963,134,FAR EAST SQUARE,1.28315769973068,103.848228946906,103.848228946906,049963,AMOY STREET,FAR EAST SQUARE,29659.4011080377,29510.5836929455
135 AMOY STREET DBS FAR EAST SQUARE SINGAPORE 049964,135,DBS FAR EAST SQUARE,1.28313657345428,103.848247624572,103.848247624572,049964,AMOY STREET,DBS FAR EAST SQUARE,29661.4797920873,29508.2476704996
137 AMOY STREET FAR EAST SQUARE SINGAPORE 049965,137,FAR EAST SQUARE,1.28338390089245,103.848374144669,103.848374144669,049965,AMOY STREET,FAR EAST SQUARE,29675.5602765046,29535.5959439706
