ADDRESS,BLK_NO,BUILDING,LATITUDE,LONGITUDE,LONGTITUDE,POSTAL,ROAD_NAME,SEARCHVAL,X,Y
101 CLEMENTI STREET 14 SUNSET WAY RESIDENCE SINGAPORE 120101,101,SUNSET WAY RESIDENCE,1.32208936757694,103.76893341249,103.76893341249,120101,CLEMENTI STREET 14,SUNSET WAY RESIDENCE,20834.5697785309,33815.5351213422
102 CLEMENTI STREET 14 SUNSET WAY RESIDENCE SINGAPORE 120102,102,SUNSET WAY RESIDENCE,1.32228557225905,103.769201884359,103.769201884359,120102,CLEMENTI STREET 14,SUNSET WAY RESIDENCE,20864.4486067817,33837.229668403
103 CLEMENTI STREET 14 SUNSET WAY RESIDENCE SINGAPORE 120103,103,SUNSET WAY RESIDENCE,1.32258854750628,103.769176205799,103.769176205799,120103,CLEMENTI STREET 14,SUNSET WAY RESIDENCE,20861.5917026019,33870.7312110905
104 CLEMENTI STREET 14 SUNSET WAY RESIDENCE SINGAPORE 120104,104,SUNSET WAY RESIDENCE,1.32294968512724,103.769189152266,103.769189152266,120104,CLEMENTI STREET 14,SUNSET WAY RESIDENCE,20863.0335482741,33910.6639436167
105 CLEMENTI STREET 12 MOUNT PLEASANT ANIMAL MEDICAL CENTRE SINGAPORE 120105,105,MOUNT PLEASANT ANIMAL MEDICAL CENTRE,1.32271179028812,103.76988810369,103.76988810369,120105,CLEMENTI STREET 12,MOUNT PLEASANT ANIMAL MEDICAL CENTRE,20940.8192396294,33884.3567374442
106 CLEMENTI STREET 12 SUNSET WAY RESIDENCE SINGAPORE 120106,106,SUNSET WAY RESIDENCE,1.32191467282846,103.769815226286,103.769815226286,120106,CLEMENTI STREET 12,SUNSET WAY RESIDENCE,20932.7064514179,33796.215733232
107 CLEMENTI STREET 12 SUNSET WAY RESIDENCE SINGAPORE 120107,107,SUNSET WAY RESIDENCE,1.32225475067051,103.769960685492,103.769960685492,120107,CLEMENTI STREET 12,SUNSET WAY RESIDENCE,20948.8955851886,33833.8194049466
108 CLEMENTI STREET 11 SUNSET WAY RESIDENCE SINGAPORE 120108,108,SUNSET WAY RESIDENCE,1.32212392900686,103.770265903384,103.770265903384,120108,CLEMENTI STREET 11,SUNSET WAY RESIDENCE,20982.8629521439,33819.3529432006
109 CLEMENTI STREET 11 OCBC CLEMENTI ST 11 - 7 ELEVEN SINGAPORE 120109,109,OCBC CLEMENTI ST 11 - 7 ELEVEN,1.32189101790957,103.770595265822,103.770595265822,120109,CLEMENTI STREET 11,OCBC CLEMENTI ST 11 - 7 ELEVEN,21019.5170869417,33793.5978855882
110 CLEMENTI STREET 13 SUNSET WAY RESIDENCE SINGAPORE 120110,110,SUNSET WAY RESIDENCE,1.32284507823139,103.770898772473,103.770898772473,120110,CLEMENTI STREET 13,SUNSET WAY RESIDENCE,21053.2970345421,33899.0921907611
111 CLEMENTI STREET 13 SUNSET WAY RESIDENCE SINGAPORE 120111,111,SUNSET WAY RESIDENCE,1.32321605375506,103.771126100117,103.771126100117,120111,CLEMENTI STREET 13,SUNSET WAY RESIDENCE,21078.5973762358,33940.1121492628
112 CLEMENTI STREET 13 SUNSET WAY RESIDENCE SINGAPORE 120112,112,SUNSET WAY RESIDENCE,1.32330123788358,103.769853488209,103.769853488209,120112,CLEMENTI STREET 13,SUNSET WAY RESIDENCE,20936.9685467407,33949.5349660777
113 CLEMENTI STREET 13 SUNSET WAY RESIDENCE SINGAPORE 120113,113,SUNSET WAY RESIDENCE,1.32368401078529,103.77013234931,103.77013234931,120113,CLEMENTI STREET 13,SUNSET WAY RESIDENCE,20968.0040962575,33991.8592627998
114 CLEMENTI STREET 13 SUNSET WAY RESIDENCE SINGAPORE 120114,114,SUNSET WAY RESIDENCE,1.32391547713763,103.770629507887,103.770629507887,120114,CLEMENTI STREET 13,SUNSET WAY RESIDENCE,21023.3335467409,34017.4522353616
115 CLEMENTI STREET 13 SUNSET WAY RESIDENCE SINGAPORE 120115,115,SUNSET WAY RESIDENCE,1.32354513274251,103.771328752409,103.771328752409,120115,CLEMENTI STREET 13,SUNSET WAY RESIDENCE,21101.1514734989,33976.4994717836
116 CLEMENTI STREET 13 SUNSET WAY RESIDENCE SINGAPORE 120116,116,SUNSET WAY RESIDENCE,1.32411253933745,103.771925036203,103.771925036203,120116,CLEMENTI STREET 13,SUNSET WAY RESIDENCE,21167.5134829748,34039.2387668248
117 CLEMENTI STREET 13 SUNSET WAY RESIDENCE SINGAPORE 120117,117,SUNSET WAY RESIDENCE,1.32446058239498,103.771184563895,103.771184563895,120117,CLEMENTI STREET 13,SUNSET WAY RESIDENCE,21085.107262834,34077.725658305
118 CLEMENTI STREET 13 SUNSET WAY RESIDENCE SINGAPORE 120118,118,SUNSET WAY RESIDENCE,1.32491798651946,103.771891149087,103.771891149087,120118,CLEMENTI STREET 13,SUNSET WAY RESIDENCE,21163.744392571,34128.301128462
201 CLEMENTI AVENUE 6 SINGAPORE 120201,201,NIL,1.32014419030202,103.763253531405,103.763253531405,120201,CLEMENTI AVENUE 6,201 CLEMENTI AVENUE 6 SINGAPORE 120201,20202.4489993295,33600.4643588364
202 CLEMENTI AVENUE 6 CLEMENTI VIEW SINGAPORE 120202,202,CLEMENTI VIEW,1.32069236445881,103.762714694971,103.762714694971,120202,CLEMENTI AVENUE 6,CLEMENTI VIEW,20142.483492584,33661.0803850871
203 CLEMENTI AVENUE 6 SINGAPORE 120203,203,NIL,1.32077128251778,103.76231687576,103.76231687576,120203,CLEMENTI AVENUE 6,203 CLEMENTI AVENUE 6 SINGAPORE 120203,20098.2103614602,33669.8080068529
204 CLEMENTI AVENUE 6 SINGAPORE 120204,204,NIL,1.32098588665274,103.763231689844,103.763231689844,120204,CLEMENTI AVENUE 6,204 CLEMENTI AVENUE 6 SINGAPORE 120204,20200.0208714074,33693.5349582173
205 CLEMENTI AVENUE 6 SINGAPORE 120205,205,NIL,1.3210599628039,103.762434749863,103.762434749863,120205,CLEMENTI AVENUE 6,205 CLEMENTI AVENUE 6 SINGAPORE 120205,20111.3295044471,33701.7284408733
206 CLEMENTI AVENUE 6 SINGAPORE 120206,206,NIL,1.32150115847495,103.762228657544,103.762228657544,120206,CLEMENTI AVENUE 6,206 CLEMENTI AVENUE 6 SINGAPORE 120206,20088.3948478242,33750.5142862238
207 CLEMENTI AVENUE 6 CLEMENTI GATEWAY SINGAPORE 120207,207,CLEMENTI GATEWAY,1.32231218996509,103.762352359641,103.762352359641,120207,CLEMENTI AVENUE 6,CLEMENTI GATEWAY,20102.1642379053,33840.19366071
208 CLEMENTI AVENUE 6 CLEMENTI GATEWAY SINGAPORE 120208,208,CLEMENTI GATEWAY,1.32239580834597,103.762120086045,103.762120086045,120208,CLEMENTI AVENUE 6,CLEMENTI GATEWAY,20076.3147441829,33849.4404994678
210 CLEMENTI AVENUE 6 CLEMENTI NORTHARC SINGAPORE 120210,210,CLEMENTI NORTHARC,1.3232932221292,103.762564058716,103.762564058716,120210,CLEMENTI AVENUE 6,CLEMENTI NORTHARC,20125.7273486732,33948.670572998
211 CLEMENTI AVENUE 6 CLEMENTI NORTHARC SINGAPORE 120211,211,CLEMENTI NORTHARC,1.32378247052154,103.76272148206,103.76272148206,120211,CLEMENTI AVENUE 6,CLEMENTI NORTHARC,20143.2485461403,34002.7686916366
212 CLEMENTI AVENUE 6 CLEMENTI NORTHARC SINGAPORE 120212,212,CLEMENTI NORTHARC,1.32331752355634,103.761259708032,103.761259708032,120212,CLEMENTI AVENUE 6,CLEMENTI NORTHARC,19980.5661244076,33951.3618810382
213 CLEMENTI AVENUE 6 SINGAPORE 120213,213,NIL,1.3231979565064,103.76132358914,103.76132358914,120213,CLEMENTI AVENUE 6,213 CLEMENTI AVENUE 6 SINGAPORE 120213,19987.6750749387,33938.1405533385
301 CLEMENTI AVENUE 4 CLEMENTI HAVEN SINGAPORE 120301,301,CLEMENTI HAVEN,1.32217649495476,103.764912144396,103.764912144396,120301,CLEMENTI AVENUE 4,CLEMENTI HAVEN,20387.0425960822,33825.1811948046
302 CLEMENTI AVENUE 4 CLEMENTI MEADOWS SINGAPORE 120302,302,CLEMENTI MEADOWS,1.32173863747461,103.764910229993,103.764910229993,120302,CLEMENTI AVENUE 4,CLEMENTI MEADOWS,20386.8282079538,33776.7651334107
303 CLEMENTI AVENUE 4 CLEMENTI MEADOWS SINGAPORE 120303,303,CLEMENTI MEADOWS,1.3213294766669,103.764815932724,103.764815932724,120303,CLEMENTI AVENUE 4,CLEMENTI MEADOWS,20376.3326029917,33731.5224885009
304 CLEMENTI AVENUE 4 CLEMENTI MEADOWS SINGAPORE 120304,304,CLEMENTI MEADOWS,1.3209205726035,103.764859212465,103.764859212465,120304,CLEMENTI AVENUE 4,CLEMENTI MEADOWS,20381.14796679,33686.3078112081
305 CLEMENTI AVENUE 4 CLEMENTI MEADOWS SINGAPORE 120305,305,CLEMENTI MEADOWS,1.32206108860648,103.76601401343,103.76601401343,120305,CLEMENTI AVENUE 4,CLEMENTI MEADOWS,20509.669397275,33812.4167925883
306 CLEMENTI AVENUE 4 CLEMENTI MEADOWS SINGAPORE 120306,306,CLEMENTI MEADOWS,1.32143826057396,103.765901268051,103.765901268051,120306,CLEMENTI AVENUE 4,CLEMENTI MEADOWS,20497.1200793507,33743.5479584318
307 CLEMENTI AVENUE 4 CLEMENTI MEADOWS SINGAPORE 120307,307,CLEMENTI MEADOWS,1.321415896635,103.76710548935,103.76710548935,120307,CLEMENTI AVENUE 4,CLEMENTI MEADOWS,20631.1379940715,33741.0714622717
308 CLEMENTI AVENUE 4 CLEMENTI MEADOWS SINGAPORE 120308,308,CLEMENTI MEADOWS,1.32105185036523,103.766910446634,103.766910446634,120308,CLEMENTI AVENUE 4,CLEMENTI MEADOWS,20609.4305831166,33700.8176469747
309 CLEMENTI AVENUE 4 CLEMENTI MEADOWS SINGAPORE 120309,309,CLEMENTI MEADOWS,1.32091981411778,103.766377598785,103.766377598785,120309,CLEMENTI AVENUE 4,CLEMENTI MEADOWS,20550.1294586137,33686.2193378918
310 CLEMENTI AVENUE 4 CLEMENTI MEADOWS SINGAPORE 120310,310,CLEMENTI MEADOWS,1.32027016006349,103.765944899873,103.765944899873,120310,CLEMENTI AVENUE 4,CLEMENTI MEADOWS,20501.9723700881,33614.3851796389
311 CLEMENTI AVENUE 4 TRIVELIS SINGAPORE 120311,311,TRIVELIS,1.31935456047475,103.7651093416,103.7651093416,120311,CLEMENTI AVENUE 4,TRIVELIS,20408.980134517,33513.1453422569
312 CLEMENTI AVENUE 4 CLEMENTI RIDGES SINGAPORE 120312,312,CLEMENTI RIDGES,1.31906441748857,103.763959814303,103.763959814303,120312,CLEMENTI AVENUE 4,CLEMENTI RIDGES,20281.0480519421,33481.0663342699
315 CLEMENTI AVENUE 4 CLEMENTI MEADOWS SINGAPORE 120315,315,CLEMENTI MEADOWS,1.31847036567508,103.765419463873,103.765419463873,120315,CLEMENTI AVENUE 4,CLEMENTI MEADOWS,20443.491053924,33415.3746092934
316 CLEMENTI AVENUE 4 CLEMENTI MEADOWS SINGAPORE 120316,316,CLEMENTI MEADOWS,1.3184700954521,103.764526086951,103.764526086951,120316,CLEMENTI AVENUE 4,CLEMENTI MEADOWS,20344.0668718135,33415.3474589121
317 CLEMENTI AVENUE 4 CLEMENTI MEADOWS SINGAPORE 120317,317,CLEMENTI MEADOWS,1.31803800701388,103.764519142282,103.764519142282,120317,CLEMENTI AVENUE 4,CLEMENTI MEADOWS,20343.2926773261,33367.5693255421
318 CLEMENTI AVENUE 4 CLEMENTI MEADOWS SINGAPORE 120318,318,CLEMENTI MEADOWS,1.31803746016205,103.765413358653,103.765413358653,120318,CLEMENTI AVENUE 4,CLEMENTI MEADOWS,20442.8102967022,33367.5061259922
319 CLEMENTI AVENUE 4 CLEMENTI MEADOWS SINGAPORE 120319,319,CLEMENTI MEADOWS,1.31738023737382,103.764787022864,103.764787022864,120319,CLEMENTI AVENUE 4,CLEMENTI MEADOWS,20373.1031907378,33294.8356633503
320 CLEMENTI AVENUE 4 CLEMENTI MEADOWS SINGAPORE 120320,320,CLEMENTI MEADOWS,1.316901343761,103.765310715228,103.765310715228,120320,CLEMENTI AVENUE 4,CLEMENTI MEADOWS,20431.3836485613,33241.8804335091
321 CLEMENTI AVENUE 5 SINGAPORE 120321,321,NIL,1.31655029232794,103.766331105347,103.766331105347,120321,CLEMENTI AVENUE 5,321 CLEMENTI AVENUE 5 SINGAPORE 120321,20544.9421921,33203.0598677769
322 CLEMENTI AVENUE 5 SINGAPORE 120322,322,NIL,1.31615298556523,103.766328328229,103.766328328229,120322,CLEMENTI AVENUE 5,322 CLEMENTI AVENUE 5 SINGAPORE 120322,20544.6319452673,33159.1277054902
323 CLEMENTI AVENUE 5 SINGAPORE 120323,323,NIL,1.31582936905013,103.767090144326,103.767090144326,120323,CLEMENTI AVENUE 5,323 CLEMENTI AVENUE 5 SINGAPORE 120323,20629.4138086466,33123.3415656611
324 CLEMENTI AVENUE 5 SINGAPORE 120324,324,NIL,1.31513509080723,103.766054474051,103.766054474051,120324,CLEMENTI AVENUE 5,324 CLEMENTI AVENUE 5 SINGAPORE 120324,20514.151571108,33046.5748762451
325 CLEMENTI AVENUE 5 SINGAPORE 120325,325,NIL,1.315096685325,103.766817400667,103.766817400667,120325,CLEMENTI AVENUE 5,325 CLEMENTI AVENUE 5 SINGAPORE 120325,20599.0578964362,33042.3259172272
326 CLEMENTI AVENUE 5 SINGAPORE 120326,326,NIL,1.31443081636431,103.766358328432,103.766358328432,120326,CLEMENTI AVENUE 5,326 CLEMENTI AVENUE 5 SINGAPORE 120326,20547.96557019,32968.6988652274
327 CLEMENTI AVENUE 5 SINGAPORE 120327,327,NIL,1.31398325156569,103.766533052946,103.766533052946,120327,CLEMENTI AVENUE 5,327 CLEMENTI AVENUE 5 SINGAPORE 120327,20567.40942025,32919.2088957708
328 CLEMENTI AVENUE 2 SINGAPORE 120328,328,NIL,1.31399161476536,103.767089003977,103.767089003977,120328,CLEMENTI AVENUE 2,328 CLEMENTI AVENUE 2 SINGAPORE 120328,20629.28150729,32920.1320087388
329 CLEMENTI AVENUE 2 SINGAPORE 120329,329,NIL,1.31306718149221,103.767339299757,103.767339299757,120329,CLEMENTI AVENUE 2,329 CLEMENTI AVENUE 2 SINGAPORE 120329,20657.1343480507,32817.9121243116
330 CLEMENTI AVENUE 2 SINGAPORE 120330,330,NIL,1.3137447051106,103.767781824632,103.767781824632,120330,CLEMENTI AVENUE 2,330 CLEMENTI AVENUE 2 SINGAPORE 120330,20706.3851398993,32892.8279567901
331 CLEMENTI AVENUE 2 SINGAPORE 120331,331,NIL,1.31413785421482,103.767942210615,103.767942210615,120331,CLEMENTI AVENUE 2,331 CLEMENTI AVENUE 2 SINGAPORE 120331,20724.2357135648,32936.299924653
332 CLEMENTI AVENUE 2 SINGAPORE 120332,332,NIL,1.31474029464441,103.76748755096,103.76748755096,120332,CLEMENTI AVENUE 2,332 CLEMENTI AVENUE 2 SINGAPORE 120332,20673.6381780477,33002.9160641208
333 CLEMENTI AVENUE 2 SINGAPORE 120333,333,NIL,1.31518419506769,103.767498748964,103.767498748964,120333,CLEMENTI AVENUE 2,333 CLEMENTI AVENUE 2 SINGAPORE 120333,20674.8857032647,33052.0002912562
334 CLEMENTI AVENUE 2 SINGAPORE 120334,334,NIL,1.31518502692041,103.768432708555,103.768432708555,120334,CLEMENTI AVENUE 2,334 CLEMENTI AVENUE 2 SINGAPORE 120334,20778.8264739057,33052.0895515401
335 CLEMENTI AVENUE 2 SINGAPORE 120335,335,NIL,1.31699411182356,103.768506615632,103.768506615632,120335,CLEMENTI AVENUE 2,335 CLEMENTI AVENUE 2 SINGAPORE 120335,20787.0568229659,33252.1287793126
336 CLEMENTI AVENUE 2 SINGAPORE 120336,336,NIL,1.31667943214563,103.769231150532,103.769231150532,120336,CLEMENTI AVENUE 2,336 CLEMENTI AVENUE 2 SINGAPORE 120336,20867.6896722093,33217.3310102243
337 CLEMENTI AVENUE 2 SINGAPORE 120337,337,NIL,1.31605567747075,103.769112678697,103.769112678697,120337,CLEMENTI AVENUE 2,337 CLEMENTI AVENUE 2 SINGAPORE 120337,20854.5031224238,33148.359718943
338 CLEMENTI AVENUE 2 SINGAPORE 120338,338,NIL,1.3162903980152,103.769532089119,103.769532089119,120338,CLEMENTI AVENUE 2,338 CLEMENTI AVENUE 2 SINGAPORE 120338,20901.1801368138,33174.3127291687
339 CLEMENTI AVENUE 5 SINGAPORE 120339,339,NIL,1.31966316716168,103.769139839665,103.769139839665,120339,CLEMENTI AVENUE 5,339 CLEMENTI AVENUE 5 SINGAPORE 120339,20857.5361559996,33547.2575717829
340 CLEMENTI AVENUE 5 SINGAPORE 120340,340,NIL,1.31872875423273,103.77007125633,103.77007125633,120340,CLEMENTI AVENUE 5,340 CLEMENTI AVENUE 5 SINGAPORE 120340,20961.1911060708,33443.932270322
341 CLEMENTI AVENUE 5 SINGAPORE 120341,341,NIL,1.31912053086005,103.769057716535,103.769057716535,120341,CLEMENTI AVENUE 5,341 CLEMENTI AVENUE 5 SINGAPORE 120341,20848.3951038448,33487.255834261
342 CLEMENTI AVENUE 5 SINGAPORE 120342,342,NIL,1.31836321447687,103.769846484274,103.769846484274,120342,CLEMENTI AVENUE 5,342 CLEMENTI AVENUE 5 SINGAPORE 120342,20936.1751320837,33403.513373442
343 CLEMENTI AVENUE 5 SINGAPORE 120343,343,NIL,1.31790852573142,103.770934449602,103.770934449602,120343,CLEMENTI AVENUE 5,343 CLEMENTI AVENUE 5 SINGAPORE 120343,21057.2538469816,33353.2331371978
344 CLEMENTI AVENUE 5 SINGAPORE 120344,344,NIL,1.31812073993323,103.769088401723,103.769088401723,120344,CLEMENTI AVENUE 5,344 CLEMENTI AVENUE 5 SINGAPORE 120344,20851.8072136501,33376.7039306164
345 CLEMENTI AVENUE 5 SINGAPORE 120345,345,NIL,1.31770281154049,103.769076731999,103.769076731999,120345,CLEMENTI AVENUE 5,345 CLEMENTI AVENUE 5 SINGAPORE 120345,20850.5072945533,33330.4915600438
346 CLEMENTI AVENUE 5 SINGAPORE 120346,346,NIL,1.31701655142406,103.770055178868,103.770055178868,120346,CLEMENTI AVENUE 5,346 CLEMENTI AVENUE 5 SINGAPORE 120346,20959.3970318716,33254.6056084186
347 CLEMENTI AVENUE 5 SINGAPORE 120347,347,NIL,1.31717947419106,103.770788849239,103.770788849239,120347,CLEMENTI AVENUE 5,347 CLEMENTI AVENUE 5 SINGAPORE 120347,21041.0479144789,33272.6187211573
348 CLEMENTI AVENUE 5 SINGAPORE 120348,348,NIL,1.31677716280701,103.770897098036,103.770897098036,120348,CLEMENTI AVENUE 5,348 CLEMENTI AVENUE 5 SINGAPORE 120348,21053.0938455677,33228.1328666452
349 CLEMENTI AVENUE 2 SINGAPORE 120349,349,NIL,1.31595863810442,103.771054408276,103.771054408276,120349,CLEMENTI AVENUE 2,349 CLEMENTI AVENUE 2 SINGAPORE 120349,21070.5986983227,33137.6241191383
350 CLEMENTI AVENUE 2 SINGAPORE 120350,350,NIL,1.31562015307532,103.770191690378,103.770191690378,120350,CLEMENTI AVENUE 2,350 CLEMENTI AVENUE 2 SINGAPORE 120350,20974.5855363691,33100.1985745076
351 CLEMENTI AVENUE 2 SINGAPORE 120351,351,NIL,1.31535006995344,103.770861377512,103.770861377512,120351,CLEMENTI AVENUE 2,351 CLEMENTI AVENUE 2 SINGAPORE 120351,21049.1145440163,33070.3322772011
352 CLEMENTI AVENUE 2 CLEMENTI AVENUE 2 SHOPPING CENTRE SINGAPORE 120352,352,CLEMENTI AVENUE 2 SHOPPING CENTRE,1.31427860227337,103.771350557894,103.771350557894,120352,CLEMENTI AVENUE 2,CLEMENTI AVENUE 2 SHOPPING CENTRE,21103.5526931826,32951.8534610327
353 CLEMENTI AVENUE 2 CLEMENTI AVE 2 MARKET/COOKED FOOD CENTRE SINGAPORE 120353,353,CLEMENTI AVE 2 MARKET/COOKED FOOD CENTRE,1.31438064686094,103.770772811625,103.770772811625,120353,CLEMENTI AVENUE 2,CLEMENTI AVE 2 MARKET/COOKED FOOD CENTRE,21039.2553234119,32963.1386366189
354 CLEMENTI AVENUE 2 CLEMENTI AVENUE 2 SHOPPING CENTRE SINGAPORE 120354,354,CLEMENTI AVENUE 2 SHOPPING CENTRE,1.31353040268509,103.770859840939,103.770859840939,120354,CLEMENTI AVENUE 2,CLEMENTI AVENUE 2 SHOPPING CENTRE,21048.9385054223,32869.12270757
355 CLEMENTI AVENUE 2 SINGAPORE 120355,355,NIL,1.3144512993879,103.769564479655,103.769564479655,120355,CLEMENTI AVENUE 2,355 CLEMENTI AVENUE 2 SINGAPORE 120355,20904.779696241,32970.9544353746
356 CLEMENTI AVENUE 2 SINGAPORE 120356,356,NIL,1.31395967091571,103.769831365969,103.769831365969,120356,CLEMENTI AVENUE 2,356 CLEMENTI AVENUE 2 SINGAPORE 120356,20934.4802158,32916.5918956306
357 CLEMENTI AVENUE 2 SINGAPORE 120357,357,NIL,1.31408279564086,103.769202736616,103.769202736616,120357,CLEMENTI AVENUE 2,357 CLEMENTI AVENUE 2 SINGAPORE 120357,20864.5200997591,32930.2081902493
358 CLEMENTI AVENUE 2 SINGAPORE 120358,358,NIL,1.31358574940402,103.769084332627,103.769084332627,120358,CLEMENTI AVENUE 2,358 CLEMENTI AVENUE 2 SINGAPORE 120358,20851.3414499164,32875.2476762198
359 CLEMENTI AVENUE 2 SINGAPORE 120359,359,NIL,1.31349292425577,103.769854781007,103.769854781007,120359,CLEMENTI AVENUE 2,359 CLEMENTI AVENUE 2 SINGAPORE 120359,20937.084775799,32864.981351234
362 CLEMENTI AVENUE 2 SINGAPORE 120362,362,NIL,1.31271692776983,103.769902553813,103.769902553813,120362,CLEMENTI AVENUE 2,362 CLEMENTI AVENUE 2 SINGAPORE 120362,20942.3992586471,32779.1754614301
363 CLEMENTI AVENUE 2 SINGAPORE 120363,363,NIL,1.31282068300245,103.768916982632,103.768916982632,120363,CLEMENTI AVENUE 2,363 CLEMENTI AVENUE 2 SINGAPORE 120363,20832.7148051485,32790.6509923656
364 CLEMENTI AVENUE 2 SINGAPORE 120364,364,NIL,1.31240641918888,103.768752275192,103.768752275192,120364,CLEMENTI AVENUE 2,364 CLEMENTI AVENUE 2 SINGAPORE 120364,20814.3832429536,32744.8442733102
365 CLEMENTI AVENUE 2 SINGAPORE 120365,365,NIL,1.3122997890586,103.769943830728,103.769943830728,120365,CLEMENTI AVENUE 2,365 CLEMENTI AVENUE 2 SINGAPORE 120365,20946.9918198166,32733.0502626505
366 CLEMENTI AVENUE 2 SINGAPORE 120366,366,NIL,1.31254953553443,103.771676380482,103.771676380482,120366,CLEMENTI AVENUE 2,366 CLEMENTI AVENUE 2 SINGAPORE 120366,21139.8089250671,32760.6611411497
367 CLEMENTI AVENUE 2 SINGAPORE 120367,367,NIL,1.31294067164982,103.77164865498,103.77164865498,120367,CLEMENTI AVENUE 2,367 CLEMENTI AVENUE 2 SINGAPORE 120367,21136.72440565,32803.9110630825
371 CLEMENTI AVENUE 4 SINGAPORE 120371,371,NIL,1.32057465713359,103.768211873157,103.768211873157,120371,CLEMENTI AVENUE 4,371 CLEMENTI AVENUE 4 SINGAPORE 120371,20754.2651855703,33648.0482020192
372 CLEMENTI AVENUE 4 SINGAPORE 120372,372,NIL,1.31978885138438,103.767787535116,103.767787535116,120372,CLEMENTI AVENUE 4,372 CLEMENTI AVENUE 4 SINGAPORE 120372,20707.038232184,33561.1590210758
373 CLEMENTI AVENUE 4 SINGAPORE 120373,373,NIL,1.31949018164234,103.767337871668,103.767337871668,120373,CLEMENTI AVENUE 4,373 CLEMENTI AVENUE 4 SINGAPORE 120373,20656.9942072853,33528.1349558346
374 CLEMENTI AVENUE 4 SINGAPORE 120374,374,NIL,1.31912618587195,103.766983653394,103.766983653394,120374,CLEMENTI AVENUE 4,374 CLEMENTI AVENUE 4 SINGAPORE 120374,20617.5720956447,33487.8871941324
375 CLEMENTI AVENUE 4 SINGAPORE 120375,375,NIL,1.31849298732441,103.766701647482,103.766701647482,120375,CLEMENTI AVENUE 4,375 CLEMENTI AVENUE 4 SINGAPORE 120375,20586.1857099291,33417.8721417021
376 CLEMENTI AVENUE 4 SINGAPORE 120376,376,NIL,1.31810006477416,103.766692603667,103.766692603667,120376,CLEMENTI AVENUE 4,376 CLEMENTI AVENUE 4 SINGAPORE 120376,20585.1780584836,33374.4247817099
377 CLEMENTI AVENUE 5 SINGAPORE 120377,377,NIL,1.31756398951141,103.767975202583,103.767975202583,120377,CLEMENTI AVENUE 5,377 CLEMENTI AVENUE 5 SINGAPORE 120377,20727.9173294967,33315.1445118487
378 CLEMENTI AVENUE 5 SINGAPORE 120378,378,NIL,1.31741204180126,103.767416985995,103.767416985995,120378,CLEMENTI AVENUE 5,378 CLEMENTI AVENUE 5 SINGAPORE 120378,20665.7927772049,33298.3445398975
379 CLEMENTI AVENUE 5 SINGAPORE 120379,379,NIL,1.31797801720797,103.767831518404,103.767831518404,120379,CLEMENTI AVENUE 5,379 CLEMENTI AVENUE 5 SINGAPORE 120379,20711.9278736142,33360.9260176718
380 CLEMENTI AVENUE 5 SINGAPORE 120380,380,NIL,1.31834429050422,103.767572030573,103.767572030573,120380,CLEMENTI AVENUE 5,380 CLEMENTI AVENUE 5 SINGAPORE 120380,20683.0504616043,33401.4274250772
381 CLEMENTI AVENUE 5 SINGAPORE 120381,381,NIL,1.3185553480936,103.768028348058,103.768028348058,120381,CLEMENTI AVENUE 5,381 CLEMENTI AVENUE 5 SINGAPORE 120381,20733.8347808495,33424.7637681104
410 COMMONWEALTH AVENUE WEST SINGAPORE 120410,410,NIL,1.31144123230238,103.769691998438,103.769691998438,120410,COMMONWEALTH AVENUE WEST,410 COMMONWEALTH AVENUE WEST SINGAPORE 120410,20918.9628496589,32638.1161240488
411 COMMONWEALTH AVENUE WEST SINGAPORE 120411,411,NIL,1.31087920188873,103.769572621889,103.769572621889,120411,COMMONWEALTH AVENUE WEST,411 COMMONWEALTH AVENUE WEST SINGAPORE 120411,20905.6757798987,32575.9699906837
412 COMMONWEALTH AVENUE WEST SINGAPORE 120412,412,NIL,1.31090863920106,103.77066433167,103.77066433167,120412,COMMONWEALTH AVENUE WEST,412 COMMONWEALTH AVENUE WEST SINGAPORE 120412,21027.1729194038,32579.2219525874
413 COMMONWEALTH AVENUE WEST SINGAPORE 120413,413,NIL,1.31134730442536,103.771097378247,103.771097378247,120413,COMMONWEALTH AVENUE WEST,413 COMMONWEALTH AVENUE WEST SINGAPORE 120413,21075.3681455888,32627.7261240818
414 COMMONWEALTH AVENUE WEST SINGAPORE 120414,414,NIL,1.31158107279643,103.771625045985,103.771625045985,120414,COMMONWEALTH AVENUE WEST,414 COMMONWEALTH AVENUE WEST SINGAPORE 120414,21134.0932400934,32653.5735898502
415 COMMONWEALTH AVENUE WEST SINGAPORE 120415,415,NIL,1.31098804719696,103.771585053355,103.771585053355,120415,COMMONWEALTH AVENUE WEST,415 COMMONWEALTH AVENUE WEST SINGAPORE 120415,21129.6408196883,32587.999940278
416 CLEMENTI AVENUE 1 CASA CLEMENTI SINGAPORE 120416,416,CASA CLEMENTI,1.31033592235344,103.771355673383,103.771355673383,120416,CLEMENTI AVENUE 1,CASA CLEMENTI,21104.1111980183,32515.8919173069
417 CLEMENTI AVENUE 1 CASA CLEMENTI SINGAPORE 120417,417,CASA CLEMENTI,1.31022566649471,103.770901847179,103.770901847179,120417,CLEMENTI AVENUE 1,CASA CLEMENTI,21053.6042848444,32503.701638205
418 CLEMENTI AVENUE 1 CASA CLEMENTI SINGAPORE 120418,418,CASA CLEMENTI,1.31017571904177,103.77000324485,103.77000324485,120418,CLEMENTI AVENUE 1,CASA CLEMENTI,20953.5981099429,32498.181211995
419 CLEMENTI AVENUE 1 CASA CLEMENTI SINGAPORE 120419,419,CASA CLEMENTI,1.31021835222862,103.769589800875,103.769589800875,120419,CLEMENTI AVENUE 1,CASA CLEMENTI,20907.5857804753,32502.8965401072
420 CLEMENTI AVENUE 1 CASA CLEMENTI SINGAPORE 120420,420,CASA CLEMENTI,1.31004548976462,103.769123845594,103.769123845594,120420,CLEMENTI AVENUE 1,CASA CLEMENTI,20855.7288244236,32483.7836099118
421 CLEMENTI AVENUE 1 CASA CLEMENTI SINGAPORE 120421,421,CASA CLEMENTI,1.30909798702908,103.768355913054,103.768355913054,120421,CLEMENTI AVENUE 1,CASA CLEMENTI,20770.2623900566,32379.0157666169
422 CLEMENTI AVENUE 1 CASA CLEMENTI SINGAPORE 120422,422,CASA CLEMENTI,1.30920998855189,103.769336312288,103.769336312288,120422,CLEMENTI AVENUE 1,CASA CLEMENTI,20879.3720242772,32391.3975209836
423 CLEMENTI AVENUE 1 CASA CLEMENTI SINGAPORE 120423,423,CASA CLEMENTI,1.30945612208303,103.769918822857,103.769918822857,120423,CLEMENTI AVENUE 1,CASA CLEMENTI,20944.2007182343,32418.6120705027
424 CLEMENTI AVENUE 1 CASA CLEMENTI SINGAPORE 120424,424,CASA CLEMENTI,1.30954013201631,103.770500847759,103.770500847759,120424,CLEMENTI AVENUE 1,CASA CLEMENTI,21008.9748995528,32427.8998315744
425 CLEMENTI AVENUE 1 CASA CLEMENTI SINGAPORE 120425,425,CASA CLEMENTI,1.30962652347548,103.771123130536,103.771123130536,120425,CLEMENTI AVENUE 1,CASA CLEMENTI,21078.2294083573,32437.450833302
426 CLEMENTI AVENUE 3 SINGAPORE 120426,426,NIL,1.31158040643011,103.764211279777,103.764211279777,120426,CLEMENTI AVENUE 3,426 CLEMENTI AVENUE 3 SINGAPORE 120426,20309.0107957516,32653.5214683823
427 CLEMENTI AVENUE 3 SINGAPORE 120427,427,NIL,1.31197064490002,103.763802999659,103.763802999659,120427,CLEMENTI AVENUE 3,427 CLEMENTI AVENUE 3 SINGAPORE 120427,20263.5742541384,32696.673322048
428 CLEMENTI AVENUE 3 SINGAPORE 120428,428,NIL,1.31251199063401,103.763268836507,103.763268836507,120428,CLEMENTI AVENUE 3,428 CLEMENTI AVENUE 3 SINGAPORE 120428,20204.1286000134,32756.5342529099
429 CLEMENTI AVENUE 3 SINGAPORE 120429,429,NIL,1.31291218870832,103.762860973019,103.762860973019,120429,CLEMENTI AVENUE 3,429 CLEMENTI AVENUE 3 SINGAPORE 120429,20158.7384894872,32800.7874071635
430 CLEMENTI AVENUE 3 SINGAPORE 120430,430,NIL,1.31329277085705,103.762553042236,103.762553042236,120430,CLEMENTI AVENUE 3,430 CLEMENTI AVENUE 3 SINGAPORE 120430,20124.4698955584,32842.8712247573
431 CLEMENTI AVENUE 3 SINGAPORE 120431,431,NIL,1.31377438724798,103.762535189721,103.762535189721,120431,CLEMENTI AVENUE 3,431 CLEMENTI AVENUE 3 SINGAPORE 120431,20122.4845882384,32896.1259865649
432 CLEMENTI AVENUE 3 SINGAPORE 120432,432,NIL,1.31402057628905,103.762740587497,103.762740587497,120432,CLEMENTI AVENUE 3,432 CLEMENTI AVENUE 3 SINGAPORE 120432,20145.3441802608,32923.3476793282
433 CLEMENTI AVENUE 3 SINGAPORE 120433,433,NIL,1.3140162229847,103.761827364842,103.761827364842,120433,CLEMENTI AVENUE 3,433 CLEMENTI AVENUE 3 SINGAPORE 120433,20043.7111617699,32922.8692030422
434 CLEMENTI AVENUE 3 SINGAPORE 120434,434,NIL,1.31456889716041,103.761612603199,103.761612603199,120434,CLEMENTI AVENUE 3,434 CLEMENTI AVENUE 3 SINGAPORE 120434,20019.8119855793,32983.9818058349
435 CLEMENTI AVENUE 3 SINGAPORE 120435,435,NIL,1.31456210565181,103.76253024021,103.76253024021,120435,CLEMENTI AVENUE 3,435 CLEMENTI AVENUE 3 SINGAPORE 120435,20121.9362231772,32983.2279211637
439 CLEMENTI AVENUE 3 CLEMENTI CASCADIA SINGAPORE 120439,439,CLEMENTI CASCADIA,1.31614584674176,103.763293369461,103.763293369461,120439,CLEMENTI AVENUE 3,CLEMENTI CASCADIA,20206.8701529065,33158.3476087451
440 CLEMENTI AVENUE 3 CLEMENTI CASCADIA SINGAPORE 120440,440,CLEMENTI CASCADIA,1.31623186133299,103.763939019821,103.763939019821,120440,CLEMENTI AVENUE 3,CLEMENTI CASCADIA,20278.7251052642,33167.8566590454
441 COMMONWEALTH AVENUE WEST CLEMENTI BUS INTERCHANGE SINGAPORE 120441,441,CLEMENTI BUS INTERCHANGE,1.31500833186914,103.764197847511,103.764197847511,120441,COMMONWEALTH AVENUE WEST,CLEMENTI BUS INTERCHANGE,20307.5263932943,33032.5641595311
442 CLEMENTI AVENUE 3 SINGAPORE 120442,442,NIL,1.31412254184755,103.764518594142,103.764518594142,120442,CLEMENTI AVENUE 3,442 CLEMENTI AVENUE 3 SINGAPORE 120442,20343.2197314855,32934.616994489
443 CLEMENTI AVENUE 3 SINGAPORE 120443,443,NIL,1.31421051581741,103.764010395621,103.764010395621,120443,CLEMENTI AVENUE 3,443 CLEMENTI AVENUE 3 SINGAPORE 120443,20286.6623391705,32944.3462746404
445 CLEMENTI AVENUE 3 CLEMENTI CREST SINGAPORE 120445,445,CLEMENTI CREST,1.31335932628171,103.763902569669,103.763902569669,120445,CLEMENTI AVENUE 3,CLEMENTI CREST,20274.6597215673,32850.2263750676
446 CLEMENTI AVENUE 3 SINGAPORE 120446,446,NIL,1.31251305732378,103.764927758669,103.764927758669,120446,CLEMENTI AVENUE 3,446 CLEMENTI AVENUE 3 SINGAPORE 120446,20388.7509816196,32756.6470919531
447 CLEMENTI AVENUE 3 SINGAPORE 120447,447,NIL,1.31287039829397,103.76482165678,103.76482165678,120447,CLEMENTI AVENUE 3,447 CLEMENTI AVENUE 3 SINGAPORE 120447,20376.9439254589,32796.1603707615
448 CLEMENTI AVENUE 3 MARKET & HAWKER CENTRE (BLK 448 CLEMENTI AVENUE 3) SINGAPORE 120448,448,MARKET & HAWKER CENTRE (BLK 448 CLEMENTI AVENUE 3),1.31306036053189,103.764521290707,103.764521290707,120448,CLEMENTI AVENUE 3,MARKET & HAWKER CENTRE (BLK 448 CLEMENTI AVENUE 3),20343.5165998694,32817.1663514599
449 CLEMENTI AVENUE 3 SINGAPORE 120449,449,NIL,1.31361567894894,103.764809966953,103.764809966953,120449,CLEMENTI AVENUE 3,449 CLEMENTI AVENUE 3 SINGAPORE 120449,20375.6452170815,32878.5697690398
450 CLEMENTI AVENUE 3 SINGAPORE 120450,450,NIL,1.31353886128,103.765476305204,103.765476305204,120450,CLEMENTI AVENUE 3,450 CLEMENTI AVENUE 3 SINGAPORE 120450,20449.8021101374,32870.073636815
451 CLEMENTI AVENUE 3 CLEMENTI POLYCLINIC SINGAPORE 120451,451,CLEMENTI POLYCLINIC,1.31248109025097,103.765476495005,103.765476495005,120451,CLEMENTI AVENUE 3,CLEMENTI POLYCLINIC,20449.8200590517,32753.1106715389
453 CLEMENTI AVENUE 3 SINGAPORE 120453,453,NIL,1.31192106821964,103.766016890178,103.766016890178,120453,CLEMENTI AVENUE 3,453 CLEMENTI AVENUE 3 SINGAPORE 120453,20509.9592737556,32691.1846469529
454 CLEMENTI AVENUE 3 SINGAPORE 120454,454,NIL,1.31226929073949,103.766430370318,103.766430370318,120454,CLEMENTI AVENUE 3,454 CLEMENTI AVENUE 3 SINGAPORE 120454,20555.9767487803,32729.6880950201
455 CLEMENTI AVENUE 3 SINGAPORE 120455,455,NIL,1.31211920438883,103.76667352921,103.76667352921,120455,CLEMENTI AVENUE 3,455 CLEMENTI AVENUE 3 SINGAPORE 120455,20583.0375974784,32713.0915844552
456 CLEMENTI AVENUE 3 SINGAPORE 120456,456,NIL,1.31192806813885,103.766985274381,103.766985274381,120456,CLEMENTI AVENUE 3,456 CLEMENTI AVENUE 3 SINGAPORE 120456,20617.7313355068,32691.955784373
457 CLEMENTI AVENUE 3 SINGAPORE 120457,457,NIL,1.31179955737888,103.767250190991,103.767250190991,120457,CLEMENTI AVENUE 3,457 CLEMENTI AVENUE 3 SINGAPORE 120457,20647.2136834394,32677.744935751
458 CLEMENTI AVENUE 3 SINGAPORE 120458,458,NIL,1.31156993573207,103.76686707803,103.76686707803,120458,CLEMENTI AVENUE 3,458 CLEMENTI AVENUE 3 SINGAPORE 120458,20604.5761433523,32652.3556667212
459 CLEMENTI AVENUE 3 SINGAPORE 120459,459,NIL,1.31138941636299,103.767093175978,103.767093175978,120459,CLEMENTI AVENUE 3,459 CLEMENTI AVENUE 3 SINGAPORE 120459,20629.7381906277,32632.3940827996
460 CLEMENTI AVENUE 3 SINGAPORE 120460,460,NIL,1.31115141655133,103.766935151813,103.766935151813,120460,CLEMENTI AVENUE 3,460 CLEMENTI AVENUE 3 SINGAPORE 120460,20612.1508878851,32606.077735696
461 CLEMENTI AVENUE 3 SINGAPORE 120461,461,NIL,1.31109915509699,103.766399536327,103.766399536327,120461,CLEMENTI AVENUE 3,461 CLEMENTI AVENUE 3 SINGAPORE 120461,20552.5417563803,32600.3005159125
462 CLEMENTI AVENUE 3 SINGAPORE 120462,462,NIL,1.31109876019725,103.765906379277,103.765906379277,120462,CLEMENTI AVENUE 3,462 CLEMENTI AVENUE 3 SINGAPORE 120462,20497.6580019565,32600.2583223432
463 CLEMENTI AVENUE 1 CLEMENTI PEAKS SINGAPORE 120463,463,CLEMENTI PEAKS,1.31096580515636,103.767863406037,103.767863406037,120463,CLEMENTI AVENUE 1,CLEMENTI PEAKS,20715.4563335478,32585.5510485191
464 CLEMENTI AVENUE 1 CLEMENTI PEAKS SINGAPORE 120464,464,CLEMENTI PEAKS,1.31144845383029,103.768785547307,103.768785547307,120464,CLEMENTI AVENUE 1,CLEMENTI PEAKS,20818.0833828915,32638.9172267746
465 CLEMENTI AVENUE 1 SINGAPORE 120465,465,NIL,1.30924251597431,103.767106335451,103.767106335451,120465,CLEMENTI AVENUE 1,465 CLEMENTI AVENUE 1 SINGAPORE 120465,20631.1964415479,32395.0006823018
466 CLEMENTI AVENUE 1 CLEMENTI PEAKS SINGAPORE 120466,466,CLEMENTI PEAKS,1.30935404582758,103.766876166464,103.766876166464,120466,CLEMENTI AVENUE 1,CLEMENTI PEAKS,20605.5811009472,32407.3337657508
501 WEST COAST DRIVE SINGAPORE 120501,501,NIL,1.31231254760543,103.759312529215,103.759312529215,120501,WEST COAST DRIVE,501 WEST COAST DRIVE SINGAPORE 120501,19763.8282618942,32734.4935309179
502 WEST COAST DRIVE AYER RAJAH MARKET SINGAPORE 120502,502,AYER RAJAH MARKET,1.31188595916451,103.75908093731,103.75908093731,120502,WEST COAST DRIVE,AYER RAJAH MARKET,19738.0528641958,32687.3242985774
503 WEST COAST DRIVE AYER RAJAH FOOD CENTRE SINGAPORE 120503,503,AYER RAJAH FOOD CENTRE,1.31174207466131,103.75981203081,103.75981203081,120503,WEST COAST DRIVE,AYER RAJAH FOOD CENTRE,19819.4162312262,32671.4118747134
504 WEST COAST DRIVE SINGAPORE 120504,504,NIL,1.31225340748607,103.759601815642,103.759601815642,120504,WEST COAST DRIVE,504 WEST COAST DRIVE SINGAPORE 120504,19796.0229238467,32727.9531644601
505 WEST COAST DRIVE SINGAPORE 120505,505,NIL,1.31228054125456,103.759981529056,103.759981529056,120505,WEST COAST DRIVE,505 WEST COAST DRIVE SINGAPORE 120505,19838.2815390453,32730.9522373602
506 WEST COAST DRIVE WEST COAST VISTA SINGAPORE 120506,506,WEST COAST VISTA,1.31251696940456,103.760867377122,103.760867377122,120506,WEST COAST DRIVE,WEST COAST VISTA,19936.8688416742,32757.0923945289
507 WEST COAST DRIVE WEST COAST VISTA SINGAPORE 120507,507,WEST COAST VISTA,1.31207968902337,103.760802118745,103.760802118745,120507,WEST COAST DRIVE,WEST COAST VISTA,19929.6047979938,32708.7403499205
508 WEST COAST DRIVE WEST COAST VISTA SINGAPORE 120508,508,WEST COAST VISTA,1.31165973523805,103.761761494233,103.761761494233,120508,WEST COAST DRIVE,WEST COAST VISTA,20036.3729312615,32662.3009089343
509 WEST COAST DRIVE STAR KIDSCAMPUS SINGAPORE 120509,509,STAR KIDSCAMPUS,1.31115776641946,103.761017540932,103.761017540932,120509,WEST COAST DRIVE,STAR KIDSCAMPUS,19953.5763146663,32606.7981137093
510 WEST COAST DRIVE WEST COAST VISTA SINGAPORE 120510,510,WEST COAST VISTA,1.31082250334147,103.760805958742,103.760805958742,120510,WEST COAST DRIVE,WEST COAST VISTA,19930.0281260144,32569.7270979714
511 WEST COAST DRIVE WEST COAST VISTA SINGAPORE 120511,511,WEST COAST VISTA,1.31032016677093,103.760411562158,103.760411562158,120511,WEST COAST DRIVE,WEST COAST VISTA,19886.1338592432,32514.182532927
512 WEST COAST DRIVE WEST COAST VISTA SINGAPORE 120512,512,WEST COAST VISTA,1.30995900089387,103.760210268491,103.760210268491,120512,WEST COAST DRIVE,WEST COAST VISTA,19863.7305873428,32474.2472881582
513 WEST COAST ROAD WEST COAST PRIDE SINGAPORE 120513,513,WEST COAST PRIDE,1.30866602211237,103.760258216299,103.760258216299,120513,WEST COAST ROAD,WEST COAST PRIDE,19869.0625650864,32331.2760735862
514 WEST COAST ROAD WEST COAST PRIDE SINGAPORE 120514,514,WEST COAST PRIDE,1.30897250380713,103.75923292909,103.75923292909,120514,WEST COAST ROAD,WEST COAST PRIDE,19754.958592481,32365.1686180849
515 WEST COAST ROAD WEST COAST PRIDE SINGAPORE 120515,515,WEST COAST PRIDE,1.30838274486859,103.759784091667,103.759784091667,120515,WEST COAST ROAD,WEST COAST PRIDE,19816.2959653204,32299.9542494789
516 WEST COAST ROAD WEST COAST PRIDE SINGAPORE 120516,516,WEST COAST PRIDE,1.30816762157583,103.760445558856,103.760445558856,120516,WEST COAST ROAD,WEST COAST PRIDE,19889.9104561079,32276.164855266
517 WEST COAST ROAD WEST COAST PRIDE SINGAPORE 120517,517,WEST COAST PRIDE,1.30747684361156,103.760157277816,103.760157277816,120517,WEST COAST ROAD,WEST COAST PRIDE,19857.8252129164,32199.7830535304
518 WEST COAST ROAD WEST COAST PRIDE SINGAPORE 120518,518,WEST COAST PRIDE,1.30821759885498,103.758943172302,103.758943172302,120518,WEST COAST ROAD,WEST COAST PRIDE,19722.7088730661,32281.6959963422
519 WEST COAST ROAD WEST COAST PRIDE SINGAPORE 120519,519,WEST COAST PRIDE,1.30766409641887,103.759364910368,103.759364910368,120519,WEST COAST ROAD,WEST COAST PRIDE,19769.6426204937,32220.4911064673
520 WEST COAST ROAD WEST COAST PRIDE SINGAPORE 120520,520,WEST COAST PRIDE,1.30714774352277,103.759628391282,103.759628391282,120520,WEST COAST ROAD,WEST COAST PRIDE,19798.9639427522,32163.3945505582
601 CLEMENTI WEST STREET 1 SINGAPORE 120601,601,NIL,1.30477461299303,103.765253754328,103.765253754328,120601,CLEMENTI WEST STREET 1,601 CLEMENTI WEST STREET 1 SINGAPORE 120601,20425.0080004707,31900.9681351986
602 CLEMENTI WEST STREET 1 SINGAPORE 120602,602,NIL,1.30512415125823,103.766300972142,103.766300972142,120602,CLEMENTI WEST STREET 1,602 CLEMENTI WEST STREET 1 SINGAPORE 120602,20541.5548415063,31939.6151745804
603 CLEMENTI WEST STREET 1 SINGAPORE 120603,603,NIL,1.3047886514707,103.767329303088,103.767329303088,120603,CLEMENTI WEST STREET 1,603 CLEMENTI WEST STREET 1 SINGAPORE 120603,20655.9977247259,31902.5142843425
604 CLEMENTI WEST STREET 1 SINGAPORE 120604,604,NIL,1.30542777397595,103.767493297152,103.767493297152,120604,CLEMENTI WEST STREET 1,604 CLEMENTI WEST STREET 1 SINGAPORE 120604,20674.2506204303,31973.1847294252
605 CLEMENTI WEST STREET 1 SINGAPORE 120605,605,NIL,1.30538490099306,103.768020281,103.768020281,120605,CLEMENTI WEST STREET 1,605 CLEMENTI WEST STREET 1 SINGAPORE 120605,20732.8989855964,31968.4425233454
606 CLEMENTI WEST STREET 1 SINGAPORE 120606,606,NIL,1.30485353584518,103.767990336741,103.767990336741,120606,CLEMENTI WEST STREET 1,606 CLEMENTI WEST STREET 1 SINGAPORE 120606,20729.5649369219,31909.6869489811
607 CLEMENTI WEST STREET 1 SINGAPORE 120607,607,NIL,1.30423592481834,103.76785339614,103.76785339614,120607,CLEMENTI WEST STREET 1,607 CLEMENTI WEST STREET 1 SINGAPORE 120607,20714.3229186293,31841.3950528633
608 CLEMENTI WEST STREET 1 SINGAPORE 120608,608,NIL,1.30434110257324,103.766529796163,103.766529796163,120608,CLEMENTI WEST STREET 1,608 CLEMENTI WEST STREET 1 SINGAPORE 120608,20567.0185697759,31853.0289458875
609 CLEMENTI WEST STREET 1 SINGAPORE 120609,609,NIL,1.30409242562108,103.765522148085,103.765522148085,120609,CLEMENTI WEST STREET 1,609 CLEMENTI WEST STREET 1 SINGAPORE 120609,20454.8757506395,31825.5345083233
610 CLEMENTI WEST STREET 1 SINGAPORE 120610,610,NIL,1.30454704525517,103.768773617907,103.768773617907,120610,CLEMENTI WEST STREET 1,610 CLEMENTI WEST STREET 1 SINGAPORE 120610,20816.7361246683,31875.7945255525
611 CLEMENTI WEST STREET 1 SINGAPORE 120611,611,NIL,1.3036973994055,103.769476900942,103.769476900942,120611,CLEMENTI WEST STREET 1,611 CLEMENTI WEST STREET 1 SINGAPORE 120611,20895.0027440162,31781.8430067748
612 CLEMENTI WEST STREET 1 SINGAPORE 120612,612,NIL,1.303442198537,103.768633365525,103.768633365525,120612,CLEMENTI WEST STREET 1,612 CLEMENTI WEST STREET 1 SINGAPORE 120612,20801.1241710791,31753.6265869942
613 CLEMENTI WEST STREET 1 SINGAPORE 120613,613,NIL,1.30373748080136,103.767838195196,103.767838195196,120613,CLEMENTI WEST STREET 1,613 CLEMENTI WEST STREET 1 SINGAPORE 120613,20712.6297578886,31786.2796878275
701 WEST COAST ROAD SINGAPORE 120701,701,NIL,1.30761194155051,103.761376368247,103.761376368247,120701,WEST COAST ROAD,701 WEST COAST ROAD SINGAPORE 120701,19993.4991798298,32214.7175793778
702 WEST COAST ROAD SINGAPORE 120702,702,NIL,1.30726692567512,103.761107748856,103.761107748856,120702,WEST COAST ROAD,702 WEST COAST ROAD SINGAPORE 120702,19963.6032199003,32176.5683272555
703 WEST COAST ROAD SINGAPORE 120703,703,NIL,1.30674896245195,103.760633580535,103.760633580535,120703,WEST COAST ROAD,703 WEST COAST ROAD SINGAPORE 120703,19910.8309902893,32119.2960959692
704 WEST COAST ROAD SINGAPORE 120704,704,NIL,1.30634750622019,103.760538027126,103.760538027126,120704,WEST COAST ROAD,704 WEST COAST ROAD SINGAPORE 120704,19900.1954867067,32074.9054039977
705 CLEMENTI WEST STREET 2 SINGAPORE 120705,705,NIL,1.30566420848829,103.760650698612,103.760650698612,120705,CLEMENTI WEST STREET 2,705 CLEMENTI WEST STREET 2 SINGAPORE 120705,19912.7326066345,31999.3494339306
706 CLEMENTI WEST STREET 2 SINGAPORE 120706,706,NIL,1.30676076028652,103.762363136976,103.762363136976,120706,CLEMENTI WEST STREET 2,706 CLEMENTI WEST STREET 2 SINGAPORE 120706,20103.3147845026,32120.5951372944
707 CLEMENTI WEST STREET 2 SINGAPORE 120707,707,NIL,1.30628748271347,103.762394965532,103.762394965532,120707,CLEMENTI WEST STREET 2,707 CLEMENTI WEST STREET 2 SINGAPORE 120707,20106.8555332376,32068.2623988073
708 CLEMENTI WEST STREET 2 SINGAPORE 120708,708,NIL,1.30571872306759,103.762167768843,103.762167768843,120708,CLEMENTI WEST STREET 2,708 CLEMENTI WEST STREET 2 SINGAPORE 120708,20081.5688424045,32005.3725508153
709 CLEMENTI WEST STREET 2 SINGAPORE 120709,709,NIL,1.30533046157853,103.762003588469,103.762003588469,120709,CLEMENTI WEST STREET 2,709 CLEMENTI WEST STREET 2 SINGAPORE 120709,20063.2958487589,31962.4410783369
710 CLEMENTI WEST STREET 2 SINGAPORE 120710,710,NIL,1.30628911866015,103.76151810816,103.76151810816,120710,CLEMENTI WEST STREET 2,710 CLEMENTI WEST STREET 2 SINGAPORE 120710,20009.2693441706,32068.4460649323
711 CLEMENTI WEST STREET 2 SINGAPORE 120711,711,NIL,1.30484423498146,103.76110706384,103.76110706384,120711,CLEMENTI WEST STREET 2,711 CLEMENTI WEST STREET 2 SINGAPORE 120711,19963.5192867815,31908.6794488747
712 CLEMENTI WEST STREET 2 SINGAPORE 120712,712,NIL,1.304974887429,103.761861975982,103.761861975982,120712,CLEMENTI WEST STREET 2,712 CLEMENTI WEST STREET 2 SINGAPORE 120712,20047.5345529374,31923.1239360645
713 CLEMENTI WEST STREET 2 SINGAPORE 120713,713,NIL,1.3041278418713,103.762206285308,103.762206285308,120713,CLEMENTI WEST STREET 2,713 CLEMENTI WEST STREET 2 SINGAPORE 120713,20085.8504000418,31829.4608409032
714 CLEMENTI WEST STREET 2 SINGAPORE 120714,714,NIL,1.30430341306691,103.761682084014,103.761682084014,120714,CLEMENTI WEST STREET 2,714 CLEMENTI WEST STREET 2 SINGAPORE 120714,20027.5121001005,31848.8762693256
715 CLEMENTI WEST STREET 2 VISTA 18 SINGAPORE 120715,715,VISTA 18,1.30315360303876,103.761943675943,103.761943675943,120715,CLEMENTI WEST STREET 2,VISTA 18,20056.6213043295,31721.735270774
716 CLEMENTI WEST STREET 2 SINGAPORE 120716,716,NIL,1.30240953060904,103.762804760851,103.762804760851,120716,CLEMENTI WEST STREET 2,716 CLEMENTI WEST STREET 2 SINGAPORE 120716,20152.4499829225,31639.4568117913
717 CLEMENTI WEST STREET 2 VISTA 18 SINGAPORE 120717,717,VISTA 18,1.30323440870789,103.762464847394,103.762464847394,120717,CLEMENTI WEST STREET 2,VISTA 18,20114.6232361672,31730.6687148288
720 CLEMENTI WEST STREET 2 SINGAPORE 120720,720,NIL,1.30246408847832,103.763750972451,103.763750972451,120720,CLEMENTI WEST STREET 2,720 CLEMENTI WEST STREET 2 SINGAPORE 120720,20257.7549921256,31645.4866179004
721 CLEMENTI WEST STREET 2 SINGAPORE 120721,721,NIL,1.3024620264944,103.764555289938,103.764555289938,120721,CLEMENTI WEST STREET 2,721 CLEMENTI WEST STREET 2 SINGAPORE 120721,20347.2682861835,31645.2561574709
722 CLEMENTI WEST STREET 2 SINGAPORE 120722,722,NIL,1.30297959881951,103.76371403028,103.76371403028,120722,CLEMENTI WEST STREET 2,722 CLEMENTI WEST STREET 2 SINGAPORE 120722,20253.6452355636,31702.4892522544
723 CLEMENTI WEST STREET 2 SINGAPORE 120723,723,NIL,1.30310124001611,103.763413053663,103.763413053663,120723,CLEMENTI WEST STREET 2,723 CLEMENTI WEST STREET 2 SINGAPORE 120723,20220.1496254029,31715.940646898
724 CLEMENTI WEST STREET 2 SINGAPORE 120724,724,NIL,1.30360871033936,103.763359143047,103.763359143047,120724,CLEMENTI WEST STREET 2,724 CLEMENTI WEST STREET 2 SINGAPORE 120724,20214.1514190696,31772.0543105733
725 CLEMENTI WEST STREET 2 SINGAPORE 120725,725,NIL,1.30347105130136,103.763705543782,103.763705543782,120725,CLEMENTI WEST STREET 2,725 CLEMENTI WEST STREET 2 SINGAPORE 120725,20252.7022667993,31756.8316032533
726 CLEMENTI WEST STREET 2 DBS CLEMENTI WEST STREET 2 SINGAPORE 120726,726,DBS CLEMENTI WEST STREET 2,1.30378203325462,103.764264494666,103.764264494666,120726,CLEMENTI WEST STREET 2,DBS CLEMENTI WEST STREET 2,20314.9093901506,31791.2166986521
727 CLEMENTI WEST STREET 2 SINGAPORE 120727,727,NIL,1.30428947930429,103.764084285428,103.764084285428,120727,CLEMENTI WEST STREET 2,727 CLEMENTI WEST STREET 2 SINGAPORE 120727,20294.8552770028,31847.3280619588
728 CLEMENTI WEST STREET 2 SINGAPORE 120728,728,NIL,1.30520206759029,103.763833368922,103.763833368922,120728,CLEMENTI WEST STREET 2,728 CLEMENTI WEST STREET 2 SINGAPORE 120728,20266.9333344353,31948.2382204626
729 CLEMENTI WEST STREET 2 SINGAPORE 120729,729,NIL,1.30492724290307,103.763519401903,103.763519401903,120729,CLEMENTI WEST STREET 2,729 CLEMENTI WEST STREET 2 SINGAPORE 120729,20231.9908238491,31917.8504663333
730 CLEMENTI WEST STREET 2 SINGAPORE 120730,730,NIL,1.304777153125,103.763121970707,103.763121970707,120730,CLEMENTI WEST STREET 2,730 CLEMENTI WEST STREET 2 SINGAPORE 120730,20187.7598862955,31901.2555297036
731 CLEMENTI WEST STREET 2 SINGAPORE 120731,731,NIL,1.30440046544571,103.762746222568,103.762746222568,120731,CLEMENTI WEST STREET 2,731 CLEMENTI WEST STREET 2 SINGAPORE 120731,20145.9413675796,31859.6044837423
801 WEST COAST CRESCENT WEST COAST PARKVIEW SINGAPORE 120801,801,WEST COAST PARKVIEW,1.29971617660023,103.763834786591,103.763834786591,120801,WEST COAST CRESCENT,WEST COAST PARKVIEW,20267.0743832402,31341.6361967251
802 WEST COAST CRESCENT SINGAPORE 120802,802,NIL,1.30089665517925,103.764168068528,103.764168068528,120802,WEST COAST CRESCENT,802 WEST COAST CRESCENT SINGAPORE 120802,20304.1692804163,31472.1665132903
107A CLEMENTI STREET 12 DBS CLEMENTI STREET 12 SINGAPORE 121107,107A,DBS CLEMENTI STREET 12,1.32212591757233,103.770069419212,103.770069419212,121107,CLEMENTI STREET 12,DBS CLEMENTI STREET 12,20960.996210523,33819.5733849257
108A CLEMENTI STREET 11 SUNSET WAY RESIDENCE SINGAPORE 121108,108A,SUNSET WAY RESIDENCE,1.32225838486098,103.77014655331,103.77014655331,121108,CLEMENTI STREET 11,SUNSET WAY RESIDENCE,20969.5808463329,33834.2207281422
109A CLEMENTI STREET 11 SUNSET WAY RESIDENCE SINGAPORE 121109,109A,SUNSET WAY RESIDENCE,1.32166986600207,103.770351564503,103.770351564503,121109,CLEMENTI STREET 11,SUNSET WAY RESIDENCE,20992.3949153079,33769.1447144896
113A CLEMENTI STREET 13 SINGAPORE 121113,113A,NIL,1.32370061941892,103.769671092663,103.769671092663,121113,CLEMENTI STREET 13,113A CLEMENTI STREET 13 SINGAPORE 121113,20916.6708671283,33993.6970742363
114A CLEMENTI STREET 13 SINGAPORE 121114,114A,NIL,1.32427603561657,103.770527295381,103.770527295381,121114,CLEMENTI STREET 13,114A CLEMENTI STREET 13 SINGAPORE 121114,21011.9593227478,34057.3212537821
208A CLEMENTI AVENUE 6 CLEMENTI GATEWAY SINGAPORE 121208,208A,CLEMENTI GATEWAY,1.32200240528559,103.762448319374,103.762448319374,121208,CLEMENTI AVENUE 6,CLEMENTI GATEWAY,20112.8426312208,33805.9389295168
209A CLEMENTI AVENUE 6 CLEMENTI NORTHARC SINGAPORE 121209,209A,CLEMENTI NORTHARC,1.32220922708728,103.76364056113,103.76364056113,121209,CLEMENTI AVENUE 6,CLEMENTI NORTHARC,20245.5280282265,33828.804484332
210A CLEMENTI AVENUE 6 CLEMENTI NORTHARC SINGAPORE 121210,210A,CLEMENTI NORTHARC,1.32175018587424,103.762988191669,103.762988191669,121210,CLEMENTI AVENUE 6,CLEMENTI NORTHARC,20172.9243064877,33778.0480721686
211A CLEMENTI AVENUE 6 CLEMENTI NORTHARC SINGAPORE 121211,211A,CLEMENTI NORTHARC,1.32355604532383,103.762101342527,103.762101342527,121211,CLEMENTI AVENUE 6,CLEMENTI NORTHARC,20074.2324582431,33977.7337093558
306A CLEMENTI AVENUE 4 CLEMENTI MEADOWS SINGAPORE 121306,306A,CLEMENTI MEADOWS,1.32123832429366,103.765722540034,103.765722540034,121306,CLEMENTI AVENUE 4,CLEMENTI MEADOWS,20477.228807955,33721.4405560736
309A CLEMENTI AVENUE 4 CLEMENTI MEADOWS SINGAPORE 121309,309A,CLEMENTI MEADOWS,1.32052407932837,103.766270694967,103.766270694967,121309,CLEMENTI AVENUE 4,CLEMENTI MEADOWS,20538.2309326064,33642.4613073152
311A CLEMENTI AVENUE 4 TRIVELIS SINGAPORE 121311,311A,TRIVELIS,1.31911656776897,103.765492195959,103.765492195959,121311,CLEMENTI AVENUE 4,TRIVELIS,20451.5873763524,33486.8281476516
312A CLEMENTI AVENUE 4 CLEMENTI RIDGES SINGAPORE 121312,312A,CLEMENTI RIDGES,1.31908894426179,103.764441220265,103.764441220265,121312,CLEMENTI AVENUE 4,CLEMENTI RIDGES,20334.6239267895,33483.7768927477
317A CLEMENTI AVENUE 4 CLEMENTI MEADOWS SINGAPORE 121317,317A,CLEMENTI MEADOWS,1.31774935284047,103.764421685354,103.764421685354,121317,CLEMENTI AVENUE 4,CLEMENTI MEADOWS,20332.4457821455,33335.6517064441
318A CLEMENTI AVENUE 4 CLEMENTI MEADOWS SINGAPORE 121318,318A,CLEMENTI MEADOWS,1.31744554123034,103.765182963117,103.765182963117,121318,CLEMENTI AVENUE 4,CLEMENTI MEADOWS,20417.1677149171,33302.0554249696
331A CLEMENTI AVENUE 2 SINGAPORE 121331,331A,NIL,1.31455857189241,103.768232737658,103.768232737658,121331,CLEMENTI AVENUE 2,331A CLEMENTI AVENUE 2 SINGAPORE 121331,20756.5698201191,32982.8199087437
336A CLEMENTI AVENUE 2 SINGAPORE 121336,336A,NIL,1.31642903160061,103.769022820399,103.769022820399,121336,CLEMENTI AVENUE 2,336A CLEMENTI AVENUE 2 SINGAPORE 121336,20844.5038215909,33189.6435839944
340A CLEMENTI AVENUE 5 SINGAPORE 121340,340A,NIL,1.31815768020359,103.770313873331,103.770313873331,121340,CLEMENTI AVENUE 5,340A CLEMENTI AVENUE 5 SINGAPORE 121340,20988.190419958,33380.7851142008
344A CLEMENTI AVENUE 5 SINGAPORE 121344,344A,NIL,1.31792483533338,103.769604434858,103.769604434858,121344,CLEMENTI AVENUE 5,344A CLEMENTI AVENUE 5 SINGAPORE 121344,20909.236142288,33355.0403174348
349A CLEMENTI AVENUE 2 SINGAPORE 121349,349A,NIL,1.31571465536867,103.771457185927,103.771457185927,121349,CLEMENTI AVENUE 2,349A CLEMENTI AVENUE 2 SINGAPORE 121349,21115.423312109,33110.6446307786
353A CLEMENTI AVENUE 2 CLEMENTI AVENUE 2 SHOPPING CENTRE SINGAPORE 121353,353A,CLEMENTI AVENUE 2 SHOPPING CENTRE,1.31466925871322,103.770579164108,103.770579164108,121353,CLEMENTI AVENUE 2,CLEMENTI AVENUE 2 SHOPPING CENTRE,21017.7050032923,32995.0524116829
358A CLEMENTI AVENUE 2 SINGAPORE 121358,358A,NIL,1.31339126483896,103.7686880067,103.7686880067,121358,CLEMENTI AVENUE 2,358A CLEMENTI AVENUE 2 SINGAPORE 121358,20807.2335819844,32853.7436963841
366A CLEMENTI AVENUE 2 SINGAPORE 121366,366A,NIL,1.31279891318752,103.771840111445,103.771840111445,121366,CLEMENTI AVENUE 2,366A CLEMENTI AVENUE 2 SINGAPORE 121366,21158.031310644,32788.2356072646
413A COMMONWEALTH AVENUE WEST MULTI STOREY CAR PARK SINGAPORE 121413,413A,MULTI STOREY CAR PARK,1.31152715329975,103.770503601735,103.770503601735,121413,COMMONWEALTH AVENUE WEST,MULTI STOREY CAR PARK,21009.2869019294,32647.6145502869
416A CLEMENTI AVENUE 1 CASA CLEMENTI SINGAPORE 121416,416A,CASA CLEMENTI,1.30982536445828,103.77007316985,103.77007316985,121416,CLEMENTI AVENUE 1,CASA CLEMENTI,20961.3791307854,32459.4405840077
420A CLEMENTI AVENUE 1 CASA CLEMENTI SINGAPORE 121420,420A,CASA CLEMENTI,1.30979102116855,103.768657661297,103.768657661297,121420,CLEMENTI AVENUE 1,CASA CLEMENTI,20803.8461405868,32455.6470976081
423A CLEMENTI AVENUE 1 CASA CLEMENTI SINGAPORE 121423,423A,CASA CLEMENTI,1.3095085517535,103.770219999871,103.770219999871,121423,CLEMENTI AVENUE 1,CASA CLEMENTI,20977.7190596508,32424.4086315297
427A CLEMENTI AVENUE 3 SINGAPORE 121427,427A,NIL,1.31212322110465,103.763892091482,103.763892091482,121427,CLEMENTI AVENUE 3,427A CLEMENTI AVENUE 3 SINGAPORE 121427,20273.4898034604,32713.544151349
431A CLEMENTI AVENUE 3 SINGAPORE 121431,431A,NIL,1.31380878013602,103.763017173397,103.763017173397,121431,CLEMENTI AVENUE 3,431A CLEMENTI AVENUE 3 SINGAPORE 121431,20176.1249036221,32899.9274637103
432A CLEMENTI AVENUE 3 SINGAPORE 121432,432A,NIL,1.31423862247768,103.763116440691,103.763116440691,121432,CLEMENTI AVENUE 3,432A CLEMENTI AVENUE 3 SINGAPORE 121432,20187.1737467907,32947.4569455944
440A CLEMENTI AVENUE 3 ANANIAS CENTRE (CLEMENTI) SINGAPORE 121440,440A,ANANIAS CENTRE (CLEMENTI),1.31599867398385,103.764197624976,103.764197624976,121440,CLEMENTI AVENUE 3,ANANIAS CENTRE (CLEMENTI),20307.5046608821,33142.0711821094
441A CLEMENTI AVENUE 3 CLEMENTI TOWERS SINGAPORE 121441,441A,CLEMENTI TOWERS,1.31463913092205,103.764797687774,103.764797687774,121441,CLEMENTI AVENUE 3,CLEMENTI TOWERS,20374.281765487,32991.737946393
445A CLEMENTI AVENUE 3 CLEMENTI CREST SINGAPORE 121445,445A,CLEMENTI CREST,1.31275318886737,103.76415727081,103.76415727081,121445,CLEMENTI AVENUE 3,CLEMENTI CREST,20303.0036906311,32783.201981036
455A CLEMENTI AVENUE 3 MULTI STOREY CAR PARK SINGAPORE 121455,455A,MULTI STOREY CAR PARK,1.31169266551532,103.766521577208,103.766521577208,121455,CLEMENTI AVENUE 3,MULTI STOREY CAR PARK,20566.1255129166,32665.9275279399
459A CLEMENTI AVENUE 3 SINGAPORE 121459,459A,NIL,1.31159268362233,103.767232133906,103.767232133906,121459,CLEMENTI AVENUE 3,459A CLEMENTI AVENUE 3 SINGAPORE 121459,20645.2034958368,32654.8699373249
462A CLEMENTI AVENUE 3 MULTI STOREY CAR PARK SINGAPORE 121462,462A,MULTI STOREY CAR PARK,1.31150063886887,103.765637479643,103.765637479643,121462,CLEMENTI AVENUE 3,MULTI STOREY CAR PARK,20467.7331966385,32644.6968377288
464A CLEMENTI AVENUE 1 CLEMENTI PEAKS SINGAPORE 121464,464A,CLEMENTI PEAKS,1.31105769992309,103.768498489284,103.768498489284,121464,CLEMENTI AVENUE 1,CLEMENTI PEAKS,20786.1354050059,32595.7104669847
465A CLEMENTI AVENUE 1 CLEMENTI PEAKS SINGAPORE 121465,465A,CLEMENTI PEAKS,1.30925465460081,103.767662729749,103.767662729749,121465,CLEMENTI AVENUE 1,CLEMENTI PEAKS,20693.1179864733,32396.3412815686
466A CLEMENTI AVENUE 1 CLEMENTI PEAKS SINGAPORE 121466,466A,CLEMENTI PEAKS,1.30982448322565,103.767224336586,103.767224336586,121466,CLEMENTI AVENUE 1,CLEMENTI PEAKS,20644.3305671858,32459.3513237238
502A WEST COAST DRIVE SINGAPORE 121502,502A,NIL,1.31216271735447,103.759352629171,103.759352629171,121502,WEST COAST DRIVE,502A WEST COAST DRIVE SINGAPORE 121502,19768.290519393,32717.9259262793
503A WEST COAST DRIVE SINGAPORE 121503,503A,NIL,1.31158433733425,103.759907020985,103.759907020985,121503,WEST COAST DRIVE,503A WEST COAST DRIVE SINGAPORE 121503,19829.9872337356,32653.9697674885
801A WEST COAST CRESCENT WEST COAST PARKVIEW SINGAPORE 121801,801A,WEST COAST PARKVIEW,1.3004819228405,103.763997215747,103.763997215747,121801,WEST COAST CRESCENT,WEST COAST PARKVIEW,20285.1536315223,31426.3080359828
208B CLEMENTI AVENUE 6 CLEMENTI GATEWAY SINGAPORE 122208,208B,CLEMENTI GATEWAY,1.32262137935118,103.762449443017,103.762449443017,122208,CLEMENTI AVENUE 6,CLEMENTI GATEWAY,20112.9696356803,33874.3819536772
209B CLEMENTI AVENUE 6 CLEMENTI NORTHARC SINGAPORE 122209,209B,CLEMENTI NORTHARC,1.32307183298737,103.763858722838,103.763858722838,122209,CLEMENTI AVENUE 6,CLEMENTI NORTHARC,20269.8099430725,33924.186407486
210B CLEMENTI AVENUE 6 CLEMENTI NORTHARC SINGAPORE 122210,210B,CLEMENTI NORTHARC,1.32290892512593,103.763155616264,103.763155616264,122210,CLEMENTI AVENUE 6,CLEMENTI NORTHARC,20191.5606370103,33906.1750805583
311B CLEMENTI AVENUE 4 TRIVELIS SINGAPORE 122311,311B,TRIVELIS,1.31944669077178,103.765649446368,103.765649446368,122311,CLEMENTI AVENUE 4,TRIVELIS,20469.0888088262,33523.3310030662
312B CLEMENTI AVENUE 4 CLEMENTI RIDGES SINGAPORE 122312,312B,CLEMENTI RIDGES,1.3196729696325,103.764455532029,103.764455532029,122312,CLEMENTI AVENUE 4,CLEMENTI RIDGES,20336.2184744393,33548.3554218207
423B CLEMENTI AVENUE 1 CASA CLEMENTI SINGAPORE 122423,423B,CASA CLEMENTI,1.30944076565903,103.770144496342,103.770144496342,122423,CLEMENTI AVENUE 1,CASA CLEMENTI,20969.3160317438,32416.913400989
440B CLEMENTI AVENUE 3 CLEMENTI CASCADIA SINGAPORE 122440,440B,CLEMENTI CASCADIA,1.31623936538205,103.763566375801,103.763566375801,122440,CLEMENTI AVENUE 3,CLEMENTI CASCADIA,20237.2534273742,33168.6875757352
441B CLEMENTI AVENUE 3 CLEMENTI TOWERS SINGAPORE 122441,441B,CLEMENTI TOWERS,1.31457621542954,103.764158883788,103.764158883788,122441,CLEMENTI AVENUE 3,CLEMENTI TOWERS,20303.1887793522,32984.7830296308
445B CLEMENTI AVENUE 3 CLEMENTI CREST SINGAPORE 122445,445B,CLEMENTI CREST,1.31266626044778,103.764623618127,103.764623618127,122445,CLEMENTI AVENUE 3,CLEMENTI CREST,20354.9034758797,32773.588445656
462B CLEMENTI AVENUE 3 SINGAPORE 122462,462B,NIL,1.31145246090628,103.766064942019,103.766064942019,122462,CLEMENTI AVENUE 3,462B CLEMENTI AVENUE 3 SINGAPORE 122462,20515.3055985235,32639.3682802673
464B CLEMENTI AVENUE 1 CLEMENTI PEAKS SINGAPORE 122464,464B,CLEMENTI PEAKS,1.31013743458055,103.767972774309,103.767972774309,122464,CLEMENTI AVENUE 1,CLEMENTI PEAKS,20727.6256066691,32493.9537129775
801B WEST COAST CRESCENT WEST COAST PARKVIEW SINGAPORE 122801,801B,WEST COAST PARKVIEW,1.30050793795889,103.763615754331,103.763615754331,122801,WEST COAST CRESCENT,WEST COAST PARKVIEW,20242.7004537238,31429.1858250704
208C CLEMENTI AVENUE 6 CLEMENTI GATEWAY SINGAPORE 123208,208C,CLEMENTI GATEWAY,1.32193051221924,103.762204414115,103.762204414115,123208,CLEMENTI AVENUE 6,CLEMENTI GATEWAY,20085.698152083,33797.9901332408
210C CLEMENTI AVENUE 6 CLEMENTI NORTHARC SINGAPORE 123210,210C,CLEMENTI NORTHARC,1.32343984698177,103.76326051224,103.76326051224,123210,CLEMENTI AVENUE 6,CLEMENTI NORTHARC,20203.2361787818,33964.8814089131
311C CLEMENTI AVENUE 4 NOBLELAND ARTS N LEARNING PLACE @CLEMENTI PTE. LTD. SINGAPORE 123311,311C,NOBLELAND ARTS N LEARNING PLACE @CLEMENTI PTE. LTD.,1.32010579446331,103.765573473984,103.765573473984,123311,CLEMENTI AVENUE 4,NOBLELAND ARTS N LEARNING PLACE @CLEMENTI PTE. LTD.,20460.6358084772,33596.2115860526
312C CLEMENTI AVENUE 4 CLEMENTI RIDGES SINGAPORE 123312,312C,CLEMENTI RIDGES,1.31952267914453,103.764025116013,103.764025116013,123312,CLEMENTI AVENUE 4,CLEMENTI RIDGES,20288.3169082319,33531.7383895628
440C CLEMENTI AVENUE 3 CLEMENTI CASCADIA SINGAPORE 123440,440C,CLEMENTI CASCADIA,1.31663371565974,103.763934137674,103.763934137674,123440,CLEMENTI AVENUE 3,CLEMENTI CASCADIA,20278.1830056757,33212.2916936148
801C WEST COAST CRESCENT WEST COAST PARKVIEW SINGAPORE 123801,801C,WEST COAST PARKVIEW,1.30113464900427,103.763324886589,103.763324886589,123801,WEST COAST CRESCENT,WEST COAST PARKVIEW,20210.3313876484,31498.4852515627
208D CLEMENTI AVENUE 6 CLEMENTI GATEWAY SINGAPORE 124208,208D,CLEMENTI GATEWAY,1.32281068946531,103.762168354448,103.762168354448,124208,CLEMENTI AVENUE 6,CLEMENTI GATEWAY,20081.6878561163,33895.3158057723
311D CLEMENTI AVENUE 4 TRIVELIS SINGAPORE 124311,311D,TRIVELIS,1.31922257665587,103.765857036892,103.765857036892,124311,CLEMENTI AVENUE 4,TRIVELIS,20492.1909382017,33498.5489703249
312D CLEMENTI AVENUE 4 CLEMENTI RIDGES SINGAPORE 124312,312D,CLEMENTI RIDGES,1.3192998739467,103.764657227386,103.764657227386,124312,CLEMENTI AVENUE 4,CLEMENTI RIDGES,20358.664060981,33507.0997665301
