ADDRESS,BLK_NO,BUILDING,LATITUDE,LONGITUDE,LONGTITUDE,POSTAL,ROAD_NAME,SEARCHVAL,X,Y
1 LORONG 7 TOA PAYOH KIM KEAT COURT SINGAPORE 310001,1,KIM KEAT COURT,1.33943033543358,103.853442790992,103.853442790992,310001,LORONG 7 TOA PAYOH,KIM KEAT COURT,30239.6090564895,35732.926715726
2 LORONG 7 TOA PAYOH KIM KEAT COURT SINGAPORE 310002,2,KIM KEAT COURT,1.33860752552334,103.853515565238,103.853515565238,310002,LORONG 7 TOA PAYOH,KIM KEAT COURT,30247.7087992001,35641.9446677584
3 LORONG 7 TOA PAYOH KIM KEAT COURT SINGAPORE 310003,3,KIM KEAT COURT,1.33919545395688,103.854450883864,103.854450883864,310003,LORONG 7 TOA PAYOH,KIM KEAT COURT,30351.7992147533,35706.9556657821
4 LORONG 7 TOA PAYOH KIM KEAT COURT SINGAPORE 310004,4,KIM KEAT COURT,1.33904479783226,103.85554106336,103.85554106336,310004,LORONG 7 TOA PAYOH,KIM KEAT COURT,30473.1246742541,35690.2979533542
5 LORONG 7 TOA PAYOH SINGAPORE 310005,5,NIL,1.33865954756919,103.855806480101,103.855806480101,310005,LORONG 7 TOA PAYOH,5 LORONG 7 TOA PAYOH SINGAPORE 310005,30502.6631087596,35647.6992168222
6 LORONG 7 TOA PAYOH PCF SPARKLETOTS PRESCHOOL @ TOA PAYOH EAST-NOVENA BLK 6 (KN) SINGAPORE 310006,6,PCF SPARKLETOTS PRESCHOOL @ TOA PAYOH EAST-NOVENA BLK 6 (KN),1.33858279721249,103.85719237771,103.85719237771,310006,LORONG 7 TOA PAYOH,PCF SPARKLETOTS PRESCHOOL @ TOA PAYOH EAST-NOVENA BLK 6 (KN),30656.8987956159,35639.2140113395
7 LORONG 7 TOA PAYOH TOA PAYOH COURT SINGAPORE 310007,7,TOA PAYOH COURT,1.33805369690152,103.857286902601,103.857286902601,310007,LORONG 7 TOA PAYOH,TOA PAYOH COURT,30667.4189781807,35580.7089045402
8 LORONG 7 TOA PAYOH TOA PAYOH COURT SINGAPORE 310008,8,TOA PAYOH COURT,1.3378805011388,103.856612802183,103.856612802183,310008,LORONG 7 TOA PAYOH,TOA PAYOH COURT,30592.3989633014,35561.5570799876
9 LORONG 7 TOA PAYOH TOA PAYOH COURT SINGAPORE 310009,9,TOA PAYOH COURT,1.337504820026,103.857839466376,103.857839466376,310009,LORONG 7 TOA PAYOH,TOA PAYOH COURT,30728.9140472151,35520.0175110102
10 LORONG 7 TOA PAYOH TOA PAYOH COURT SINGAPORE 310010,10,TOA PAYOH COURT,1.33716527577081,103.857228807914,103.857228807914,310010,LORONG 7 TOA PAYOH,TOA PAYOH COURT,30660.95461463,35482.4717722144
11 LORONG 8 TOA PAYOH TOA PAYOH COURT SINGAPORE 310011,11,TOA PAYOH COURT,1.33723344302177,103.858841063408,103.858841063408,310011,LORONG 8 TOA PAYOH,TOA PAYOH COURT,30840.3814665629,35490.0111637432
12 LORONG 7 TOA PAYOH TOA PAYOH COURT SINGAPORE 310012,12,TOA PAYOH COURT,1.33674610724551,103.857615884177,103.857615884177,310012,LORONG 7 TOA PAYOH,TOA PAYOH COURT,30704.0325538805,35436.1226811614
13 LORONG 7 TOA PAYOH TOA PAYOH COURT SINGAPORE 310013,13,TOA PAYOH COURT,1.33628332874341,103.859026987388,103.859026987388,310013,LORONG 7 TOA PAYOH,TOA PAYOH COURT,30861.0739314882,35384.9525964633
14 LORONG 7 TOA PAYOH TOA PAYOH COURT SINGAPORE 310014,14,TOA PAYOH COURT,1.33666896706719,103.858353616452,103.858353616452,310014,LORONG 7 TOA PAYOH,TOA PAYOH COURT,30786.1344294455,35427.5937384404
15 LORONG 7 TOA PAYOH SINGAPORE 310015,15,NIL,1.33592183813398,103.859058481639,103.859058481639,310015,LORONG 7 TOA PAYOH,15 LORONG 7 TOA PAYOH SINGAPORE 310015,30864.5793272182,35344.9808485061
17 LORONG 7 TOA PAYOH SINGAPORE 310017,17,NIL,1.33642660399461,103.85660811051,103.85660811051,310017,LORONG 7 TOA PAYOH,17 LORONG 7 TOA PAYOH SINGAPORE 310017,30591.8783539822,35400.7925587744
18 LORONG 7 TOA PAYOH KIM KEAT PALM SINGAPORE 310018,18,KIM KEAT PALM,1.33575723665506,103.856789628423,103.856789628423,310018,LORONG 7 TOA PAYOH,KIM KEAT PALM,30612.0800840864,35326.7775317598
19 LORONG 7 TOA PAYOH DBS TOA PAYOH LORONG 6 SINGAPORE 310019,19,DBS TOA PAYOH LORONG 6,1.33550840671604,103.856434376839,103.856434376839,310019,LORONG 7 TOA PAYOH,DBS TOA PAYOH LORONG 6,30572.5445885789,35299.2628146447
20 LORONG 7 TOA PAYOH KIM KEAT PALM SINGAPORE 310020,20,KIM KEAT PALM,1.3349672085704,103.857205938309,103.857205938309,310020,LORONG 7 TOA PAYOH,KIM KEAT PALM,30658.4118315866,35239.4207104687
21 LORONG 7 TOA PAYOH KIM KEAT PALM SINGAPORE 310021,21,KIM KEAT PALM,1.33544818177957,103.857495922448,103.857495922448,310021,LORONG 7 TOA PAYOH,KIM KEAT PALM,30690.6834952896,35292.6045846585
22 LORONG 7 TOA PAYOH KIM KEAT PALM MARKET AND FOOD CENTRE SINGAPORE 310022,22,KIM KEAT PALM MARKET AND FOOD CENTRE,1.33523150124559,103.857036086872,103.857036086872,310022,LORONG 7 TOA PAYOH,KIM KEAT PALM MARKET AND FOOD CENTRE,30639.5088703949,35268.6446606237
23 TOA PAYOH EAST KIM KEAT PALM SINGAPORE 310023,23,KIM KEAT PALM,1.33455570085904,103.857191175608,103.857191175608,310023,TOA PAYOH EAST,KIM KEAT PALM,30656.7693394497,35193.918275455
25 TOA PAYOH EAST SINGAPORE 310025,25,NIL,1.33356606706026,103.856981751253,103.856981751253,310025,TOA PAYOH EAST,25 TOA PAYOH EAST SINGAPORE 310025,30633.463657883,35084.4894048106
26 TOA PAYOH EAST SINGAPORE 310026,26,NIL,1.33291837032644,103.856763112528,103.856763112528,310026,TOA PAYOH EAST,26 TOA PAYOH EAST SINGAPORE 310026,30609.1321338126,35012.8701795097
27 TOA PAYOH EAST SINGAPORE 310027,27,NIL,1.33227000712346,103.856360426029,103.856360426029,310027,TOA PAYOH EAST,27 TOA PAYOH EAST SINGAPORE 310027,30564.3179927478,34941.1770700607
29 LORONG 5 TOA PAYOH SINGAPORE 310029,29,NIL,1.33309079499322,103.853798045165,103.853798045165,310029,LORONG 5 TOA PAYOH,29 LORONG 5 TOA PAYOH SINGAPORE 310029,30279.1508780066,35031.9330767263
31 LORONG 5 TOA PAYOH SINGAPORE 310031,31,NIL,1.33321836455417,103.854517221385,103.854517221385,310031,LORONG 5 TOA PAYOH,31 LORONG 5 TOA PAYOH SINGAPORE 310031,30359.1875690427,35046.0397429504
34 LORONG 5 TOA PAYOH EAST PAYOH SPRING SINGAPORE 310034,34,EAST PAYOH SPRING,1.33479973301368,103.854155463,103.854155463,310034,LORONG 5 TOA PAYOH,EAST PAYOH SPRING,30318.9261564808,35220.8990350682
35 LORONG 5 TOA PAYOH EAST PAYOH SPRING SINGAPORE 310035,35,EAST PAYOH SPRING,1.33432779682797,103.854490770408,103.854490770408,310035,LORONG 5 TOA PAYOH,EAST PAYOH SPRING,30356.2427969063,35168.7150637209
36 LORONG 5 TOA PAYOH EAST PAYOH SPRING SINGAPORE 310036,36,EAST PAYOH SPRING,1.33482139850243,103.855272944611,103.855272944611,310036,LORONG 5 TOA PAYOH,EAST PAYOH SPRING,30443.2900977954,35223.2957750913
37 LORONG 5 TOA PAYOH EAST PAYOH SPRING SINGAPORE 310037,37,EAST PAYOH SPRING,1.33452611314579,103.855915402039,103.855915402039,310037,LORONG 5 TOA PAYOH,EAST PAYOH SPRING,30514.7891592002,35190.6452773027
38 LORONG 5 TOA PAYOH EAST PAYOH SPRING SINGAPORE 310038,38,EAST PAYOH SPRING,1.335341002234,103.854859409729,103.854859409729,310038,LORONG 5 TOA PAYOH,EAST PAYOH SPRING,30397.2675074814,35280.7504920512
43 LORONG 5 TOA PAYOH EAST PAYOH SPRING SINGAPORE 310043,43,EAST PAYOH SPRING,1.3359069234545,103.854314596382,103.854314596382,310043,LORONG 5 TOA PAYOH,EAST PAYOH SPRING,30336.6349851787,35343.3266426604
44 LORONG 5 TOA PAYOH EAST PAYOH SPRING SINGAPORE 310044,44,EAST PAYOH SPRING,1.33623149606503,103.854043122839,103.854043122839,310044,LORONG 5 TOA PAYOH,EAST PAYOH SPRING,30306.4225432118,35379.2159660459
45 LORONG 5 TOA PAYOH EAST PAYOH SPRING SINGAPORE 310045,45,EAST PAYOH SPRING,1.33586537201904,103.853751144736,103.853751144736,310045,LORONG 5 TOA PAYOH,EAST PAYOH SPRING,30273.9288033117,35338.7315692492
46 LORONG 5 TOA PAYOH EAST PAYOH SPRING SINGAPORE 310046,46,EAST PAYOH SPRING,1.33646658279122,103.853221418049,103.853221418049,310046,LORONG 5 TOA PAYOH,EAST PAYOH SPRING,30214.9752763333,35405.2098985855
47 LORONG 6 TOA PAYOH EAST PAYOH SPRING SINGAPORE 310047,47,EAST PAYOH SPRING,1.33691029763166,103.854030352751,103.854030352751,310047,LORONG 6 TOA PAYOH,EAST PAYOH SPRING,30305.0007349439,35454.2743607275
48 LORONG 5 TOA PAYOH EAST PAYOH SPRING SINGAPORE 310048,48,EAST PAYOH SPRING,1.337083957059,103.85354103689,103.85354103689,310048,LORONG 5 TOA PAYOH,EAST PAYOH SPRING,30250.5449092751,35473.4762787949
49 LORONG 5 TOA PAYOH EAST PAYOH PALM SINGAPORE 310049,49,EAST PAYOH PALM,1.33737120983889,103.853113423858,103.853113423858,310049,LORONG 5 TOA PAYOH,EAST PAYOH PALM,30202.9558599992,35505.2388350107
50 LORONG 5 TOA PAYOH EAST PAYOH PALM SINGAPORE 310050,50,EAST PAYOH PALM,1.33698988933191,103.852692901602,103.852692901602,310050,LORONG 5 TOA PAYOH,EAST PAYOH PALM,30156.1565326871,35463.0739900265
51 LORONG 6 TOA PAYOH EAST PAYOH PALM SINGAPORE 310051,51,EAST PAYOH PALM,1.33778337648439,103.852507455855,103.852507455855,310051,LORONG 6 TOA PAYOH,EAST PAYOH PALM,30135.5177026298,35550.8135802392
52 LORONG 6 TOA PAYOH EAST PAYOH PALM SINGAPORE 310052,52,EAST PAYOH PALM,1.33824914332833,103.852481978622,103.852481978622,310052,LORONG 6 TOA PAYOH,EAST PAYOH PALM,30132.6819557715,35602.3156744484
53 LORONG 5 TOA PAYOH TOA PAYOH VISTA SINGAPORE 310053,53,TOA PAYOH VISTA,1.33780452154069,103.85079328117,103.85079328117,310053,LORONG 5 TOA PAYOH,TOA PAYOH VISTA,29944.7482870147,35553.1502685808
54 LORONG 5 TOA PAYOH TOA PAYOH VISTA SINGAPORE 310054,54,TOA PAYOH VISTA,1.3373566637027,103.850390748824,103.850390748824,310054,LORONG 5 TOA PAYOH,TOA PAYOH VISTA,29899.9510657536,35503.6281242576
55 LORONG 5 TOA PAYOH MY FIRST SKOOL SINGAPORE 310055,55,MY FIRST SKOOL,1.33735976862599,103.85119779562,103.85119779562,310055,LORONG 5 TOA PAYOH,MY FIRST SKOOL,29989.7667975053,35503.972089624
56 LORONG 4 TOA PAYOH TOA PAYOH VISTA SINGAPORE 310056,56,TOA PAYOH VISTA,1.33702929645869,103.850382795362,103.850382795362,310056,LORONG 4 TOA PAYOH,TOA PAYOH VISTA,29899.066181249,35467.4295226149
57 LORONG 5 TOA PAYOH TOA PAYOH VISTA SINGAPORE 310057,57,TOA PAYOH VISTA,1.33705392055699,103.851495573635,103.851495573635,310057,LORONG 5 TOA PAYOH,TOA PAYOH VISTA,30022.9065772491,35470.1532173976
58 LORONG 4 TOA PAYOH TOA PAYOH VISTA SINGAPORE 310058,58,TOA PAYOH VISTA,1.33674625537365,103.850524640565,103.850524640565,310058,LORONG 4 TOA PAYOH,TOA PAYOH VISTA,29914.8522665491,35436.1323971841
59 LORONG 5 TOA PAYOH TOA PAYOH VISTA SINGAPORE 310059,59,TOA PAYOH VISTA,1.33675035701881,103.851794384284,103.851794384284,310059,LORONG 5 TOA PAYOH,TOA PAYOH VISTA,30056.1612845277,35436.586961763
60 LORONG 4 TOA PAYOH TOA PAYOH VISTA SINGAPORE 310060,60,TOA PAYOH VISTA,1.33632813877246,103.850756428954,103.850756428954,310060,LORONG 4 TOA PAYOH,TOA PAYOH VISTA,29940.6481859405,35389.8993838467
61 LORONG 5 TOA PAYOH TOA PAYOH VISTA SINGAPORE 310061,61,TOA PAYOH VISTA,1.33645683383018,103.852110981584,103.852110981584,310061,LORONG 5 TOA PAYOH,TOA PAYOH VISTA,30091.3954574056,35404.1309357714
62 LORONG 4 TOA PAYOH TOA PAYOH VISTA SINGAPORE 310062,62,TOA PAYOH VISTA,1.33630140095745,103.85148836375,103.85148836375,310062,LORONG 4 TOA PAYOH,TOA PAYOH VISTA,30022.1048086286,35386.9434428252
63 LORONG 5 TOA PAYOH SINGAPORE 310063,63,NIL,1.33615218178606,103.852029508505,103.852029508505,310063,LORONG 5 TOA PAYOH,63 LORONG 5 TOA PAYOH SINGAPORE 310063,30082.3286223467,35370.444001684
64 LORONG 5 TOA PAYOH SINGAPORE 310064,64,NIL,1.33568841023376,103.852783285399,103.852783285399,310064,LORONG 5 TOA PAYOH,64 LORONG 5 TOA PAYOH SINGAPORE 310064,30166.2164300233,35319.1631664354
66 LORONG 4 TOA PAYOH TOA PAYOH VISTA SINGAPORE 310066,66,TOA PAYOH VISTA,1.3350133256365,103.851778402294,103.851778402294,310066,LORONG 4 TOA PAYOH,TOA PAYOH VISTA,30054.3840998635,35244.5149029326
68 LORONG 5 TOA PAYOH SINGAPORE 310068,68,NIL,1.33480634877878,103.852975463498,103.852975463498,310068,LORONG 5 TOA PAYOH,68 LORONG 5 TOA PAYOH SINGAPORE 310068,30187.6046045534,35221.6294923201
69 LORONG 4 TOA PAYOH TOA PAYOH VISTA SINGAPORE 310069,69,TOA PAYOH VISTA,1.33418088520743,103.852706937473,103.852706937473,310069,LORONG 4 TOA PAYOH,TOA PAYOH VISTA,30157.7210242292,35152.468693193
70 LORONG 4 TOA PAYOH TOA PAYOH VISTA SINGAPORE 310070,70,TOA PAYOH VISTA,1.33444874946936,103.852333287558,103.852333287558,310070,LORONG 4 TOA PAYOH,TOA PAYOH VISTA,30116.1374758715,35182.0874286592
71 LORONG 4 TOA PAYOH TOA PAYOH VISTA SINGAPORE 310071,71,TOA PAYOH VISTA,1.33417429846958,103.852204554719,103.852204554719,310071,LORONG 4 TOA PAYOH,TOA PAYOH VISTA,30101.8110943548,35151.7399309482
72 LORONG 5 TOA PAYOH TOA PAYOH VISTA SINGAPORE 310072,72,TOA PAYOH VISTA,1.33387681149467,103.852072555858,103.852072555858,310072,LORONG 5 TOA PAYOH,TOA PAYOH VISTA,30087.1212548893,35118.8452310693
73 LORONG 4 TOA PAYOH DBS TOA PAYOH LORONG 4/73 SINGAPORE 310073,73,DBS TOA PAYOH LORONG 4/73,1.33432001132262,103.851714329027,103.851714329027,310073,LORONG 4 TOA PAYOH,DBS TOA PAYOH LORONG 4/73,30047.2539920118,35167.8516997527
74 LORONG 4 TOA PAYOH TOA PAYOH VISTA MARKET SINGAPORE 310074,74,TOA PAYOH VISTA MARKET,1.33448024685735,103.852008662574,103.852008662574,310074,LORONG 4 TOA PAYOH,TOA PAYOH VISTA MARKET,30080.0100947944,35185.5699720625
75 LORONG 5 TOA PAYOH HAWKER CENTRE (BLK 75 TOA PAYOH LORONG 5) SINGAPORE 310075,75,HAWKER CENTRE (BLK 75 TOA PAYOH LORONG 5),1.33598912959849,103.852992935608,103.852992935608,310075,LORONG 5 TOA PAYOH,HAWKER CENTRE (BLK 75 TOA PAYOH LORONG 5),30189.548020984,35352.4153614715
80 LORONG 4 TOA PAYOH SINGAPORE 310080,80,NIL,1.33526346112013,103.848516803547,103.848516803547,310080,LORONG 4 TOA PAYOH,80 LORONG 4 TOA PAYOH SINGAPORE 310080,29691.4022970386,35272.1711228713
81 LORONG 4 TOA PAYOH SINGAPORE 310081,81,NIL,1.33541034865574,103.850423493461,103.850423493461,310081,LORONG 4 TOA PAYOH,81 LORONG 4 TOA PAYOH SINGAPORE 310081,29903.596693052,35288.4145876728
82 LORONG 4 TOA PAYOH SINGAPORE 310082,82,NIL,1.33602016892329,103.848513782194,103.848513782194,310082,LORONG 4 TOA PAYOH,82 LORONG 4 TOA PAYOH SINGAPORE 310082,29691.0655354513,35355.843997594
83 LORONG 2 TOA PAYOH SINGAPORE 310083,83,NIL,1.33578791220733,103.847991955843,103.847991955843,310083,LORONG 2 TOA PAYOH,83 LORONG 2 TOA PAYOH SINGAPORE 310083,29632.9919290282,35330.1618858222
84 LORONG 2 TOA PAYOH SINGAPORE 310084,84,NIL,1.33522145763857,103.847653597573,103.847653597573,310084,LORONG 2 TOA PAYOH,84 LORONG 2 TOA PAYOH SINGAPORE 310084,29595.3365898654,35267.5260164812
85 LORONG 4 TOA PAYOH SINGAPORE 310085,85,NIL,1.33628536216028,103.848428644103,103.848428644103,310085,LORONG 4 TOA PAYOH,85 LORONG 4 TOA PAYOH SINGAPORE 310085,29681.5903852927,35385.1676504873
86 LORONG 2 TOA PAYOH SINGAPORE 310086,86,NIL,1.33576224832845,103.847631110791,103.847631110791,310086,LORONG 2 TOA PAYOH,86 LORONG 2 TOA PAYOH SINGAPORE 310086,29592.8337000236,35327.3238688651
91 LORONG 3 TOA PAYOH TOA PAYOH PALM SPRING SINGAPORE 310091,91,TOA PAYOH PALM SPRING,1.33822603074183,103.848596916655,103.848596916655,310091,LORONG 3 TOA PAYOH,TOA PAYOH PALM SPRING,29700.3160063671,35599.7569704447
92 LORONG 4 TOA PAYOH TOA PAYOH PALM SPRING SINGAPORE 310092,92,TOA PAYOH PALM SPRING,1.33807081646129,103.849457178811,103.849457178811,310092,LORONG 4 TOA PAYOH,TOA PAYOH PALM SPRING,29796.054123153,35582.5947815329
93 LORONG 4 TOA PAYOH MARKET & HAWKER CENTRE (BLK 93 TOA PAYOH LORONG 4) SINGAPORE 310093,93,MARKET & HAWKER CENTRE (BLK 93 TOA PAYOH LORONG 4),1.33841734487834,103.849484966375,103.849484966375,310093,LORONG 4 TOA PAYOH,MARKET & HAWKER CENTRE (BLK 93 TOA PAYOH LORONG 4),29799.1463306379,35620.9121420365
94 LORONG 4 TOA PAYOH TOA PAYOH PALM SPRING SINGAPORE 310094,94,TOA PAYOH PALM SPRING,1.33889442783825,103.849538318068,103.849538318068,310094,LORONG 4 TOA PAYOH,TOA PAYOH PALM SPRING,29805.0834561801,35673.6655752305
95 LORONG 4 TOA PAYOH DBS TRADE_BRANCH SINGAPORE 310095,95,DBS TRADE_BRANCH,1.338974038346,103.849002148998,103.849002148998,310095,LORONG 4 TOA PAYOH,DBS TRADE_BRANCH,29745.4135162951,35682.468110254
96 LORONG 3 TOA PAYOH TOA PAYOH PALM SPRING SINGAPORE 310096,96,TOA PAYOH PALM SPRING,1.33862406463359,103.848379785457,103.848379785457,310096,LORONG 3 TOA PAYOH,TOA PAYOH PALM SPRING,29676.1513496907,35643.7693731561
97 LORONG 3 TOA PAYOH PCF SPARKLETOTS PRESCHOOL @ TOA PAYOH CENTRAL BLK 97 (KN) SINGAPORE 310097,97,PCF SPARKLETOTS PRESCHOOL @ TOA PAYOH CENTRAL BLK 97 (KN),1.33862553170269,103.847769289898,103.847769289898,310097,LORONG 3 TOA PAYOH,PCF SPARKLETOTS PRESCHOOL @ TOA PAYOH CENTRAL BLK 97 (KN),29608.20971468,35643.9311857969
98 LORONG 1 TOA PAYOH TOA PAYOH PALM SPRING SINGAPORE 310098,98,TOA PAYOH PALM SPRING,1.33917577957921,103.848380074395,103.848380074395,310098,LORONG 1 TOA PAYOH,TOA PAYOH PALM SPRING,29676.1831310736,35704.7751905024
99A LORONG 2 TOA PAYOH TOA PAYOH PALM SPRING SINGAPORE 310099,99A,TOA PAYOH PALM SPRING,1.33878534348177,103.846873055688,103.846873055688,310099,LORONG 2 TOA PAYOH,TOA PAYOH PALM SPRING,29508.4683241006,35661.6017860323
100 LORONG 1 TOA PAYOH TOA PAYOH PALM SPRING SINGAPORE 310100,100,TOA PAYOH PALM SPRING,1.33956400517882,103.848585713817,103.848585713817,310100,LORONG 1 TOA PAYOH,TOA PAYOH PALM SPRING,29699.0683298102,35747.7033335008
101A LORONG 2 TOA PAYOH TOA PAYOH PALM SPRING SINGAPORE 310101,101A,TOA PAYOH PALM SPRING,1.33974126719163,103.847264187382,103.847264187382,310101,LORONG 2 TOA PAYOH,TOA PAYOH PALM SPRING,29551.9964996083,35767.3031847496
103 LORONG 1 TOA PAYOH TOA PAYOH BLOOM SINGAPORE 310103,103,TOA PAYOH BLOOM,1.34010929042644,103.848184574089,103.848184574089,310103,LORONG 1 TOA PAYOH,TOA PAYOH BLOOM,29654.4254147308,35807.9979137667
104 LORONG 1 TOA PAYOH TOA PAYOH BLOOM SINGAPORE 310104,104,TOA PAYOH BLOOM,1.34010887675625,103.849107848181,103.849107848181,310104,LORONG 1 TOA PAYOH,TOA PAYOH BLOOM,29757.1758969119,35807.9528144691
105 LORONG 1 TOA PAYOH TOA PAYOH BLOOM SINGAPORE 310105,105,TOA PAYOH BLOOM,1.3404226406096,103.849109442063,103.849109442063,310105,LORONG 1 TOA PAYOH,TOA PAYOH BLOOM,29757.3530554203,35842.647218395
106 LORONG 1 TOA PAYOH TOA PAYOH BLOOM SINGAPORE 310106,106,TOA PAYOH BLOOM,1.34042195552491,103.848185018749,103.848185018749,310106,LORONG 1 TOA PAYOH,TOA PAYOH BLOOM,29654.4746910082,35842.5708220024
107 LORONG 1 TOA PAYOH DBS TOA PAYOH NORTH BRANCH SINGAPORE 310107,107,DBS TOA PAYOH NORTH BRANCH,1.34121948900326,103.847288831588,103.847288831588,310107,LORONG 1 TOA PAYOH,DBS TOA PAYOH NORTH BRANCH,29554.7382038413,35930.7574097998
108 LORONG 1 TOA PAYOH TOA PAYOH NORTH SINGAPORE 310108,108,TOA PAYOH NORTH,1.34155252910062,103.847295147125,103.847295147125,310108,LORONG 1 TOA PAYOH,TOA PAYOH NORTH,29555.4408448152,35967.5832851361
109 LORONG 1 TOA PAYOH TOA PAYOH NORTH SINGAPORE 310109,109,TOA PAYOH NORTH,1.34123727120826,103.846202460812,103.846202460812,310109,LORONG 1 TOA PAYOH,TOA PAYOH NORTH,29433.8368593287,35932.7230126616
110 LORONG 1 TOA PAYOH TOA PAYOH NORTH SINGAPORE 310110,110,TOA PAYOH NORTH,1.34155275067394,103.846385947783,103.846385947783,310110,LORONG 1 TOA PAYOH,TOA PAYOH NORTH,29454.2567913271,35967.6072271112
111 LORONG 1 TOA PAYOH OCBC TOA PAYOH LORONG 1 - 7 ELEVEN SINGAPORE 310111,111,OCBC TOA PAYOH LORONG 1 - 7 ELEVEN,1.34121955722461,103.84549278032,103.84549278032,310111,LORONG 1 TOA PAYOH,OCBC TOA PAYOH LORONG 1 - 7 ELEVEN,29354.8570960155,35930.7638871484
112 LORONG 1 TOA PAYOH TOA PAYOH NORTH SINGAPORE 310112,112,TOA PAYOH NORTH,1.34155339914007,103.845489613448,103.845489613448,310112,LORONG 1 TOA PAYOH,TOA PAYOH NORTH,29354.5044740057,35967.6784174088
113 LORONG 1 TOA PAYOH TOA PAYOH NORTH SINGAPORE 310113,113,TOA PAYOH NORTH,1.34128334016832,103.844605484696,103.844605484696,310113,LORONG 1 TOA PAYOH,TOA PAYOH NORTH,29256.1106443284,35937.816206282
114 LORONG 1 TOA PAYOH TOA PAYOH NORTH SINGAPORE 310114,114,TOA PAYOH NORTH,1.34094034792461,103.844305919348,103.844305919348,310114,LORONG 1 TOA PAYOH,TOA PAYOH NORTH,29222.7724276828,35899.8897265196
115 LORONG 1 TOA PAYOH TOA PAYOH NORTH SINGAPORE 310115,115,TOA PAYOH NORTH,1.34063140668544,103.844305221987,103.844305221987,310115,LORONG 1 TOA PAYOH,TOA PAYOH NORTH,29222.6949719125,35865.7285839338
116 LORONG 2 TOA PAYOH TOA PAYOH VIEW SINGAPORE 310116,116,TOA PAYOH VIEW,1.34047287241805,103.846142516335,103.846142516335,310116,LORONG 2 TOA PAYOH,TOA PAYOH VIEW,29427.1661286652,35848.1996681318
117 LORONG 1 TOA PAYOH TOA PAYOH VIEW SINGAPORE 310117,117,TOA PAYOH VIEW,1.34002063627855,103.845413792089,103.845413792089,310117,LORONG 1 TOA PAYOH,TOA PAYOH VIEW,29346.0672130082,35798.1932966039
118 LORONG 1 TOA PAYOH TOA PAYOH VIEW SINGAPORE 310118,118,TOA PAYOH VIEW,1.33956301707324,103.844893597061,103.844893597061,310118,LORONG 1 TOA PAYOH,TOA PAYOH VIEW,29288.1753355591,35747.5918262489
119 LORONG 1 TOA PAYOH TOA PAYOH VIEW SINGAPORE 310119,119,TOA PAYOH VIEW,1.33910923815144,103.844687382414,103.844687382414,310119,LORONG 1 TOA PAYOH,TOA PAYOH VIEW,29265.226089769,35697.4151670467
120 LORONG 2 TOA PAYOH TOA PAYOH VIEW SINGAPORE 310120,120,TOA PAYOH VIEW,1.33913568992412,103.845562921008,103.845562921008,310120,LORONG 2 TOA PAYOH,TOA PAYOH VIEW,29362.6641473239,35700.3405374046
121 LORONG 2 TOA PAYOH TOA PAYOH VIEW SINGAPORE 310121,121,TOA PAYOH VIEW,1.3391626233715,103.846243540344,103.846243540344,310121,LORONG 2 TOA PAYOH,TOA PAYOH VIEW,29438.4097765768,35703.3190886099
122 LORONG 2 TOA PAYOH TOA PAYOH VIEW SINGAPORE 310122,122,TOA PAYOH VIEW,1.33980523961553,103.846281196306,103.846281196306,310122,LORONG 2 TOA PAYOH,TOA PAYOH VIEW,29442.6001065103,35774.376328256
123 LORONG 1 TOA PAYOH TOA PAYOH VIEW SINGAPORE 310123,123,TOA PAYOH VIEW,1.33864901784911,103.845703844955,103.845703844955,310123,LORONG 1 TOA PAYOH,TOA PAYOH VIEW,29378.3477452304,35646.5269075446
124 LORONG 1 TOA PAYOH TOA PAYOH VIEW SINGAPORE 310124,124,TOA PAYOH VIEW,1.33864876713615,103.844627302235,103.844627302235,310124,LORONG 1 TOA PAYOH,TOA PAYOH VIEW,29258.5400435058,35646.4986069798
125 LORONG 1 TOA PAYOH TOA PAYOH VIEW SINGAPORE 310125,125,TOA PAYOH VIEW,1.33833133395207,103.845737117132,103.845737117132,310125,LORONG 1 TOA PAYOH,TOA PAYOH VIEW,29382.0507606268,35611.3990660943
126 LORONG 1 TOA PAYOH TOA PAYOH VIEW SINGAPORE 310126,126,TOA PAYOH VIEW,1.33781465652998,103.84513085219,103.84513085219,310126,LORONG 1 TOA PAYOH,TOA PAYOH VIEW,29314.5802165149,35554.2671874482
127 LORONG 1 TOA PAYOH DBS TOA PAYOH LORONG 1-127 SINGAPORE 310127,127,DBS TOA PAYOH LORONG 1-127,1.33804625287728,103.844733922883,103.844733922883,310127,LORONG 1 TOA PAYOH,DBS TOA PAYOH LORONG 1-127,29270.4060919667,35579.8757177517
128 LORONG 1 TOA PAYOH OCBC TOA PAYOH LORONG 1 SINGAPORE 310128,128,OCBC TOA PAYOH LORONG 1,1.33781616112252,103.844214270088,103.844214270088,310128,LORONG 1 TOA PAYOH,OCBC TOA PAYOH LORONG 1,29212.5743872691,35554.4330862667
130 LORONG 1 TOA PAYOH TOA PAYOH CREST SINGAPORE 310130,130,TOA PAYOH CREST,1.33700793292517,103.842850175189,103.842850175189,310130,LORONG 1 TOA PAYOH,TOA PAYOH CREST,29060.7654965427,35465.0627176277
131 LORONG 1 TOA PAYOH PCF SPARKLETOTS PRESCHOOL @ TOA PAYOH WEST-BALESTIER BLK 131 (DS) SINGAPORE 310131,131,PCF SPARKLETOTS PRESCHOOL @ TOA PAYOH WEST-BALESTIER BLK 131 (DS),1.3379617298204,103.843250722733,103.843250722733,310131,LORONG 1 TOA PAYOH,PCF SPARKLETOTS PRESCHOOL @ TOA PAYOH WEST-BALESTIER BLK 131 (DS),29105.3417615229,35570.5288735759
138 LORONG 1A TOA PAYOH THE PEAK @ TOA PAYOH SINGAPORE 310138,138,THE PEAK @ TOA PAYOH,1.33669264885385,103.844796096205,103.844796096205,310138,LORONG 1A TOA PAYOH,THE PEAK @ TOA PAYOH,29277.3260189397,35430.2011436298
139 LORONG 1A TOA PAYOH THE PEAK @ TOA PAYOH SINGAPORE 310139,139,THE PEAK @ TOA PAYOH,1.33623419129905,103.844343000495,103.844343000495,310139,LORONG 1A TOA PAYOH,THE PEAK @ TOA PAYOH,29226.9014952173,35379.5070229769
141A LORONG 2 TOA PAYOH MULTI STOREY CAR PARK SINGAPORE 310141,141A,MULTI STOREY CAR PARK,1.33522519648881,103.845603742006,103.845603742006,310141,LORONG 2 TOA PAYOH,MULTI STOREY CAR PARK,29367.2092482951,35267.9382058829
142 LORONG 2 TOA PAYOH SINGAPORE 310142,142,NIL,1.33583774995002,103.845162997311,103.845162997311,310142,LORONG 2 TOA PAYOH,142 LORONG 2 TOA PAYOH SINGAPORE 310142,29318.1586791575,35335.6709918063
143 LORONG 2 TOA PAYOH SINGAPORE 310143,143,NIL,1.33588435399266,103.843991340255,103.843991340255,310143,LORONG 2 TOA PAYOH,143 LORONG 2 TOA PAYOH SINGAPORE 310143,29187.7655976312,35340.8236317467
144 LORONG 2 TOA PAYOH SINGAPORE 310144,144,NIL,1.33535073315709,103.84402714867,103.84402714867,310144,LORONG 2 TOA PAYOH,144 LORONG 2 TOA PAYOH SINGAPORE 310144,29191.7509527793,35281.818588661
145 LORONG 2 TOA PAYOH TOA PAYOH TOWERS SINGAPORE 310145,145,TOA PAYOH TOWERS,1.33521035428159,103.846162940767,103.846162940767,310145,LORONG 2 TOA PAYOH,TOA PAYOH TOWERS,29429.4421902364,35266.297348218
146 LORONG 2 TOA PAYOH TOA PAYOH TOWERS SINGAPORE 310146,146,TOA PAYOH TOWERS,1.33466409464552,103.846451369821,103.846451369821,310146,LORONG 2 TOA PAYOH,TOA PAYOH TOWERS,29461.5416291123,35205.8949231282
147 LORONG 2 TOA PAYOH TOA PAYOH TOWERS SINGAPORE 310147,147,TOA PAYOH TOWERS,1.33454683171677,103.845077697814,103.845077697814,310147,LORONG 2 TOA PAYOH,TOA PAYOH TOWERS,29308.6664275881,35192.9278162234
148 LORONG 1 TOA PAYOH SINGAPORE 310148,148,NIL,1.33468442744467,103.843608473402,103.843608473402,310148,LORONG 1 TOA PAYOH,148 LORONG 1 TOA PAYOH SINGAPORE 310148,29145.1571148084,35208.1417155601
149 LORONG 1 TOA PAYOH SINGAPORE 310149,149,NIL,1.33378491718625,103.84376074201,103.84376074201,310149,LORONG 1 TOA PAYOH,149 LORONG 1 TOA PAYOH SINGAPORE 310149,29162.1034324598,35108.6785482857
150 LORONG 1 TOA PAYOH SINGAPORE 310150,150,NIL,1.3337851960671,103.844516226599,103.844516226599,310150,LORONG 1 TOA PAYOH,150 LORONG 1 TOA PAYOH SINGAPORE 310150,29246.180959858,35108.7097545769
152 LORONG 2 TOA PAYOH TOA PAYOH TOWERS SINGAPORE 310152,152,TOA PAYOH TOWERS,1.33416708512554,103.845891140252,103.845891140252,310152,LORONG 2 TOA PAYOH,TOA PAYOH TOWERS,29399.1942439247,35150.9378293809
153 LORONG 2 TOA PAYOH TOA PAYOH SAPPHIRE SINGAPORE 310153,153,TOA PAYOH SAPPHIRE,1.3335705754336,103.845723776813,103.845723776813,310153,LORONG 2 TOA PAYOH,TOA PAYOH SAPPHIRE,29380.5687796082,35084.9787473027
154 LORONG 2 TOA PAYOH TOA PAYOH SAPPHIRE SINGAPORE 310154,154,TOA PAYOH SAPPHIRE,1.3332878303261,103.846165629616,103.846165629616,310154,LORONG 2 TOA PAYOH,TOA PAYOH SAPPHIRE,29429.7425394394,35053.7144929022
155 LORONG 1 TOA PAYOH TOA PAYOH SAPPHIRE SINGAPORE 310155,155,TOA PAYOH SAPPHIRE,1.33279631135029,103.845588638625,103.845588638625,310155,LORONG 1 TOA PAYOH,TOA PAYOH SAPPHIRE,29365.5297384141,34999.3645143714
156 LORONG 1 TOA PAYOH TOA PAYOH SAPPHIRE SINGAPORE 310156,156,TOA PAYOH SAPPHIRE,1.33256473217629,103.845206893398,103.845206893398,310156,LORONG 1 TOA PAYOH,TOA PAYOH SAPPHIRE,29323.0455964683,34973.7574671991
157 LORONG 1 TOA PAYOH SINGAPORE 310157,157,NIL,1.33220626321248,103.845452861739,103.845452861739,310157,LORONG 1 TOA PAYOH,157 LORONG 1 TOA PAYOH SINGAPORE 310157,29350.4195069233,34934.1199383177
158 LORONG 1 TOA PAYOH CARE CORNER FAMILY SERVICE CENTRE (TOA PAYOH) SINGAPORE 310158,158,CARE CORNER FAMILY SERVICE CENTRE (TOA PAYOH),1.3314342903894,103.845119426857,103.845119426857,310158,LORONG 1 TOA PAYOH,CARE CORNER FAMILY SERVICE CENTRE (TOA PAYOH),29313.312078801,34848.7589576058
159 LORONG 1 TOA PAYOH CARE CORNER STUDENT CARE CENTRE (TOA PAYOH) SINGAPORE 310159,159,CARE CORNER STUDENT CARE CENTRE (TOA PAYOH),1.3307454292856,103.845601223103,103.845601223103,310159,LORONG 1 TOA PAYOH,CARE CORNER STUDENT CARE CENTRE (TOA PAYOH),29366.931388204,34772.5884869341
160 LORONG 1 TOA PAYOH TOA PAYOH GREEN SINGAPORE 310160,160,TOA PAYOH GREEN,1.33094394405829,103.845020058262,103.845020058262,310160,LORONG 1 TOA PAYOH,TOA PAYOH GREEN,29302.2536406815,34794.5389195289
161 LORONG 1 TOA PAYOH TOA PAYOH GREEN SINGAPORE 310161,161,TOA PAYOH GREEN,1.33050932305378,103.845003635197,103.845003635197,310161,LORONG 1 TOA PAYOH,TOA PAYOH GREEN,29300.4261506293,34746.480746774
163 LORONG 1 TOA PAYOH TOA PAYOH GREEN SINGAPORE 310163,163,TOA PAYOH GREEN,1.33206060664774,103.84410502428,103.84410502428,310163,LORONG 1 TOA PAYOH,TOA PAYOH GREEN,29200.4192795642,34918.0132848024
168 LORONG 1 TOA PAYOH TOA PAYOH GREEN SINGAPORE 310168,168,TOA PAYOH GREEN,1.33176643070234,103.843423249665,103.843423249665,310168,LORONG 1 TOA PAYOH,TOA PAYOH GREEN,29124.5449811127,34885.4844945781
169 LORONG 1 TOA PAYOH NTUC ELDERCARE CENTRE SILVER CIRCLE (TOA PAYOH) SINGAPORE 310169,169,NTUC ELDERCARE CENTRE SILVER CIRCLE (TOA PAYOH),1.33172599846081,103.842799470193,103.842799470193,310169,LORONG 1 TOA PAYOH,NTUC ELDERCARE CENTRE SILVER CIRCLE (TOA PAYOH),29055.1248156335,34881.0134290941
170 LORONG 1 TOA PAYOH TOA PAYOH GREEN SINGAPORE 310170,170,TOA PAYOH GREEN,1.33131927016888,103.842668711023,103.842668711023,310170,LORONG 1 TOA PAYOH,TOA PAYOH GREEN,29040.5728468336,34836.0394428093
171 LORONG 1 TOA PAYOH TOA PAYOH GREEN SINGAPORE 310171,171,TOA PAYOH GREEN,1.33068534910935,103.842659017362,103.842659017362,310171,LORONG 1 TOA PAYOH,TOA PAYOH GREEN,29039.4943077695,34765.9436959326
172 LORONG 1 TOA PAYOH TOA PAYOH GREEN SINGAPORE 310172,172,TOA PAYOH GREEN,1.33035489391143,103.843053387382,103.843053387382,310172,LORONG 1 TOA PAYOH,TOA PAYOH GREEN,29083.3837619312,34729.4038227741
173 LORONG 1 TOA PAYOH TOA PAYOH GREEN SINGAPORE 310173,173,TOA PAYOH GREEN,1.33000819866672,103.842532936051,103.842532936051,310173,LORONG 1 TOA PAYOH,TOA PAYOH GREEN,29025.4630390937,34691.0678171925
174 LORONG 1 TOA PAYOH TOA PAYOH GREEN SINGAPORE 310174,174,TOA PAYOH GREEN,1.3306720968474,103.84191793174,103.84191793174,310174,LORONG 1 TOA PAYOH,TOA PAYOH GREEN,28957.0191371609,34764.4780293573
175 LORONG 2 TOA PAYOH TOA PAYOH CENTRAL SINGAPORE 310175,175,TOA PAYOH CENTRAL,1.33339638797854,103.847053798767,103.847053798767,310175,LORONG 2 TOA PAYOH,TOA PAYOH CENTRAL,29528.5864237659,35065.7187752444
177 TOA PAYOH CENTRAL TOA PAYOH CENTRAL SINGAPORE 310177,177,TOA PAYOH CENTRAL,1.33390034057387,103.848854818382,103.848854818382,310177,TOA PAYOH CENTRAL,TOA PAYOH CENTRAL,29729.0207395293,35121.4444639031
178 TOA PAYOH CENTRAL TOA PAYOH CENTRAL SINGAPORE 310178,178,TOA PAYOH CENTRAL,1.33358025794591,103.84926452128,103.84926452128,310178,TOA PAYOH CENTRAL,TOA PAYOH CENTRAL,29774.6166118095,35086.0516565219
179 TOA PAYOH CENTRAL TOA PAYOH CENTRAL SINGAPORE 310179,179,TOA PAYOH CENTRAL,1.3339009997633,103.850092878516,103.850092878516,310179,TOA PAYOH CENTRAL,TOA PAYOH CENTRAL,29866.8038703529,35121.5182572473
181 LORONG 4 TOA PAYOH SINGAPORE 310181,181,NIL,1.33361936151806,103.850978678264,103.850978678264,310181,LORONG 4 TOA PAYOH,181 LORONG 4 TOA PAYOH SINGAPORE 310181,29965.3843324175,35090.3768303227
183 TOA PAYOH CENTRAL TOA PAYOH CENTRAL SINGAPORE 310183,183,TOA PAYOH CENTRAL,1.33335596212429,103.848865687447,103.848865687447,310183,TOA PAYOH CENTRAL,TOA PAYOH CENTRAL,29730.2307324465,35061.2498890553
184 TOA PAYOH CENTRAL TOA PAYOH CENTRAL SINGAPORE 310184,184,TOA PAYOH CENTRAL,1.33259000918315,103.849677717253,103.849677717253,310184,TOA PAYOH CENTRAL,TOA PAYOH CENTRAL,29820.6017303597,34976.5553185418
185 TOA PAYOH CENTRAL TOA PAYOH CENTRAL SINGAPORE 310185,185,TOA PAYOH CENTRAL,1.33272795858038,103.849994231509,103.849994231509,310185,TOA PAYOH CENTRAL,TOA PAYOH CENTRAL,29855.8263688227,34991.8092926871
186 TOA PAYOH CENTRAL TOA PAYOH CENTRAL SINGAPORE 310186,186,TOA PAYOH CENTRAL,1.3326539531256,103.85021164455,103.85021164455,310186,TOA PAYOH CENTRAL,TOA PAYOH CENTRAL,29880.0222317902,34983.6263130214
190 LORONG 6 TOA PAYOH CARE 24-HR MEDICAL CENTRE SINGAPORE 310190,190,CARE 24-HR MEDICAL CENTRE,1.33297850244995,103.848832062985,103.848832062985,310190,LORONG 6 TOA PAYOH,CARE 24-HR MEDICAL CENTRE,29726.488943764,35019.5123069286
191 LORONG 4 TOA PAYOH TOA PAYOH CENTRAL SINGAPORE 310191,191,TOA PAYOH CENTRAL,1.33189327620475,103.851025403234,103.851025403234,310191,LORONG 4 TOA PAYOH,TOA PAYOH CENTRAL,29970.5857038116,34899.5151881613
192 LORONG 4 TOA PAYOH SINGAPORE 310192,192,NIL,1.33166814812852,103.850487239503,103.850487239503,310192,LORONG 4 TOA PAYOH,192 LORONG 4 TOA PAYOH SINGAPORE 310192,29910.6938390704,34874.6212546844
193 LORONG 4 TOA PAYOH TOA PAYOH CENTRAL SINGAPORE 310193,193,TOA PAYOH CENTRAL,1.33159005591995,103.851295104405,103.851295104405,310193,LORONG 4 TOA PAYOH,TOA PAYOH CENTRAL,30000.6008893289,34865.9868583102
194 KIM KEAT AVENUE KIM KEAT VIEW SINGAPORE 310194,194,KIM KEAT VIEW,1.33093933675526,103.858181909317,103.858181909317,310194,KIM KEAT AVENUE,KIM KEAT VIEW,30767.0316390255,34794.0403150339
195 KIM KEAT AVENUE ADVENTIST HOME FOR THE ELDERS SINGAPORE 310195,195,ADVENTIST HOME FOR THE ELDERS,1.33008102222991,103.858354604112,103.858354604112,310195,KIM KEAT AVENUE,ADVENTIST HOME FOR THE ELDERS,30786.2517481502,34699.13247931
196 KIM KEAT AVENUE GOLDEN CLOVER SINGAPORE 310196,196,GOLDEN CLOVER,1.33130492413517,103.859019241044,103.859019241044,310196,KIM KEAT AVENUE,GOLDEN CLOVER,30860.2175896922,34834.4660524782
199 TOA PAYOH NORTH DEERLAND PRE - SCHOOL BY BISHAN NORTH CCC SINGAPORE 310199,199,DEERLAND PRE - SCHOOL BY BISHAN NORTH CCC,1.34203351013688,103.850648936995,103.850648936995,310199,TOA PAYOH NORTH,DEERLAND PRE - SCHOOL BY BISHAN NORTH CCC,29928.6810121462,36020.7700953204
200 TOA PAYOH NORTH TOA PAYOH SPRING SINGAPORE 310200,200,TOA PAYOH SPRING,1.34167292743585,103.851007776843,103.851007776843,310200,TOA PAYOH NORTH,TOA PAYOH SPRING,29968.616287183,35980.898988409
201 TOA PAYOH NORTH TOA PAYOH SPRING SINGAPORE 310201,201,TOA PAYOH SPRING,1.34113803607795,103.850126597142,103.850126597142,310201,TOA PAYOH NORTH,TOA PAYOH SPRING,29870.5509256655,35921.7527451795
202 TOA PAYOH NORTH TOA PAYOH SPRING SINGAPORE 310202,202,TOA PAYOH SPRING,1.34152911615925,103.849589127712,103.849589127712,310202,TOA PAYOH NORTH,TOA PAYOH SPRING,29810.7360929428,35964.9959778879
203 TOA PAYOH NORTH TOA PAYOH NORTH POST OFFICE SINGAPORE 310203,203,TOA PAYOH NORTH POST OFFICE,1.34205287411841,103.84939599719,103.84939599719,310203,TOA PAYOH NORTH,TOA PAYOH NORTH POST OFFICE,29789.2423739536,36022.9103141818
204 TOA PAYOH NORTH TOA PAYOH SPRING SINGAPORE 310204,204,TOA PAYOH SPRING,1.34148414007449,103.849067723667,103.849067723667,310204,TOA PAYOH NORTH,TOA PAYOH SPRING,29752.7094926983,35960.0223730728
205 TOA PAYOH NORTH PCF SPARKLETOTS PRESCHOOL @ TOA PAYOH WEST-BALESTIER BLK 205 (KN) SINGAPORE 310205,205,PCF SPARKLETOTS PRESCHOOL @ TOA PAYOH WEST-BALESTIER BLK 205 (KN),1.34220948332494,103.847727620222,103.847727620222,310205,TOA PAYOH NORTH,PCF SPARKLETOTS PRESCHOOL @ TOA PAYOH WEST-BALESTIER BLK 205 (KN),29603.5699959919,36040.2262039147
206 TOA PAYOH NORTH AI ZI LEARNING CENTRE SINGAPORE 310206,206,AI ZI LEARNING CENTRE,1.34231481416805,103.84650890023,103.84650890023,310206,TOA PAYOH NORTH,AI ZI LEARNING CENTRE,29467.9396149749,36051.8723857403
207 TOA PAYOH NORTH BOON TECK NEIGHBOURHOOD POLICE POST SINGAPORE 310207,207,BOON TECK NEIGHBOURHOOD POLICE POST,1.3423823110644,103.845598140612,103.845598140612,310207,TOA PAYOH NORTH,BOON TECK NEIGHBOURHOOD POLICE POST,29366.5819140645,36059.3353203423
208 TOA PAYOH NORTH TOA PAYOH NORTH SINGAPORE 310208,208,TOA PAYOH NORTH,1.34189361849197,103.845207805828,103.845207805828,310208,TOA PAYOH NORTH,TOA PAYOH NORTH,29323.1421513371,36005.2979798149
209 TOA PAYOH NORTH TOA PAYOH NORTH SINGAPORE 310209,209,TOA PAYOH NORTH,1.34185348292638,103.84481468336,103.84481468336,310209,TOA PAYOH NORTH,TOA PAYOH NORTH,29279.3918996323,36000.8597853631
210 LORONG 8 TOA PAYOH BLK 210 LORONG 8 TOA PAYOH MARKET & FOOD CENTRE SINGAPORE 310210,210,BLK 210 LORONG 8 TOA PAYOH MARKET & FOOD CENTRE,1.34021600857625,103.85487256444,103.85487256444,310210,LORONG 8 TOA PAYOH,BLK 210 LORONG 8 TOA PAYOH MARKET & FOOD CENTRE,30398.7267572442,35819.8037894741
211 LORONG 8 TOA PAYOH SINGAPORE 310211,211,NIL,1.34042178857688,103.853768900549,103.853768900549,310211,LORONG 8 TOA PAYOH,211 LORONG 8 TOA PAYOH SINGAPORE 310211,30275.9006413789,35842.5568381939
212 LORONG 8 TOA PAYOH SINGAPORE 310212,212,NIL,1.34064293639026,103.85433449712,103.85433449712,310212,LORONG 8 TOA PAYOH,212 LORONG 8 TOA PAYOH SINGAPORE 310212,30338.8452441534,35867.0107659921
213 LORONG 8 TOA PAYOH SINGAPORE 310213,213,NIL,1.34100493622927,103.85441254396,103.85441254396,310213,LORONG 8 TOA PAYOH,213 LORONG 8 TOA PAYOH SINGAPORE 310213,30347.530672349,35907.0389334708
214 LORONG 8 TOA PAYOH SINGAPORE 310214,214,NIL,1.34183370695987,103.854370726041,103.854370726041,310214,LORONG 8 TOA PAYOH,214 LORONG 8 TOA PAYOH SINGAPORE 310214,30342.876001277,35998.6801273208
215 LORONG 8 TOA PAYOH SINGAPORE 310215,215,NIL,1.34182813684783,103.855107925609,103.855107925609,310215,LORONG 8 TOA PAYOH,215 LORONG 8 TOA PAYOH SINGAPORE 310215,30424.9183397181,35998.0649305508
216 LORONG 8 TOA PAYOH SINGAPORE 310216,216,NIL,1.3424720602594,103.854178690288,103.854178690288,310216,LORONG 8 TOA PAYOH,216 LORONG 8 TOA PAYOH SINGAPORE 310216,30321.5038990462,36069.2657917794
217 LORONG 8 TOA PAYOH SINGAPORE 310217,217,NIL,1.34265870846085,103.854665608196,103.854665608196,310217,LORONG 8 TOA PAYOH,217 LORONG 8 TOA PAYOH SINGAPORE 310217,30375.6923978832,36089.9048639815
218 LORONG 8 TOA PAYOH SINGAPORE 310218,218,NIL,1.34272583549089,103.855151579728,103.855151579728,310218,LORONG 8 TOA PAYOH,218 LORONG 8 TOA PAYOH SINGAPORE 310218,30429.7756852098,36097.3279053811
219 LORONG 8 TOA PAYOH SINGAPORE 310219,219,NIL,1.3427643319014,103.855872559307,103.855872559307,310219,LORONG 8 TOA PAYOH,219 LORONG 8 TOA PAYOH SINGAPORE 310219,30510.0128411017,36101.5853697024
220 LORONG 8 TOA PAYOH SINGAPORE 310220,220,NIL,1.34261673404284,103.856454868244,103.856454868244,310220,LORONG 8 TOA PAYOH,220 LORONG 8 TOA PAYOH SINGAPORE 310220,30574.8176536197,36085.2653571684
221 LORONG 8 TOA PAYOH SINGAPORE 310221,221,NIL,1.34262180790845,103.856971772685,103.856971772685,310221,LORONG 8 TOA PAYOH,221 LORONG 8 TOA PAYOH SINGAPORE 310221,30632.3435003413,36085.8269493394
222 LORONG 8 TOA PAYOH SINGAPORE 310222,222,NIL,1.34177310664554,103.856039796964,103.856039796964,310222,LORONG 8 TOA PAYOH,222 LORONG 8 TOA PAYOH SINGAPORE 310222,30528.6255928651,35991.9809144847
223 LORONG 8 TOA PAYOH SINGAPORE 310223,223,NIL,1.34126479712806,103.855552754659,103.855552754659,310223,LORONG 8 TOA PAYOH,223 LORONG 8 TOA PAYOH SINGAPORE 310223,30474.4235642394,35935.7741464917
224 LORONG 8 TOA PAYOH SINGAPORE 310224,224,NIL,1.34117607884148,103.85606624411,103.85606624411,310224,LORONG 8 TOA PAYOH,224 LORONG 8 TOA PAYOH SINGAPORE 310224,30531.569487229,35925.9646561854
225 LORONG 8 TOA PAYOH NKF DIALYSIS CENTRE TOA PAYOH SINGAPORE 310225,225,NKF DIALYSIS CENTRE TOA PAYOH,1.33950922302573,103.85564679729,103.85564679729,310225,LORONG 8 TOA PAYOH,NKF DIALYSIS CENTRE TOA PAYOH,30484.8912621196,35741.6518252492
226 LORONG 8 TOA PAYOH TOA PAYOH EIGHT SINGAPORE 310226,226,TOA PAYOH EIGHT,1.33951566601807,103.857051021906,103.857051021906,310226,LORONG 8 TOA PAYOH,TOA PAYOH EIGHT,30641.1664057197,35742.3657259122
227 LORONG 8 TOA PAYOH TOA PAYOH EIGHT SINGAPORE 310227,227,TOA PAYOH EIGHT,1.33951514445795,103.857970837281,103.857970837281,310227,LORONG 8 TOA PAYOH,TOA PAYOH EIGHT,30743.5320002194,35742.3090642467
228 LORONG 8 TOA PAYOH TOA PAYOH EIGHT SINGAPORE 310228,228,TOA PAYOH EIGHT,1.33914880025231,103.858779661838,103.858779661838,310228,LORONG 8 TOA PAYOH,TOA PAYOH EIGHT,30833.5459267283,35701.8015124425
229 LORONG 8 TOA PAYOH TOA PAYOH EIGHT SINGAPORE 310229,229,TOA PAYOH EIGHT,1.3387183120625,103.85919463592,103.85919463592,310229,LORONG 8 TOA PAYOH,TOA PAYOH EIGHT,30879.728604408,35654.2008099929
230 LORONG 8 TOA PAYOH TOA PAYOH EIGHT SINGAPORE 310230,230,TOA PAYOH EIGHT,1.33825592680641,103.859303071005,103.859303071005,310230,LORONG 8 TOA PAYOH,TOA PAYOH EIGHT,30891.7968127327,35603.0727372579
231 LORONG 8 TOA PAYOH KIM KEAT NEIGHBOURHOOD POLICE POST SINGAPORE 310231,231,KIM KEAT NEIGHBOURHOOD POLICE POST,1.33696011414514,103.859489719839,103.859489719839,310231,LORONG 8 TOA PAYOH,KIM KEAT NEIGHBOURHOOD POLICE POST,30912.5703655854,35459.7886122689
232 LORONG 8 TOA PAYOH PCF SPARKLETOTS PRESCHOOL @ TOA PAYOH EAST-NOVENA 232 (CC) SINGAPORE 310232,232,PCF SPARKLETOTS PRESCHOOL @ TOA PAYOH EAST-NOVENA 232 (CC),1.3375718690811,103.858843935428,103.858843935428,310232,LORONG 8 TOA PAYOH,PCF SPARKLETOTS PRESCHOOL @ TOA PAYOH EAST-NOVENA 232 (CC),30840.7007029876,35527.4325919282
233 LORONG 8 TOA PAYOH TOA PAYOH EIGHT SINGAPORE 310233,233,TOA PAYOH EIGHT,1.33828365922679,103.858467966719,103.858467966719,310233,LORONG 8 TOA PAYOH,TOA PAYOH EIGHT,30798.8585752444,35606.1382786483
234 LORONG 8 TOA PAYOH TOA PAYOH EIGHT SINGAPORE 310234,234,TOA PAYOH EIGHT,1.33860148626926,103.857914069837,103.857914069837,310234,LORONG 8 TOA PAYOH,TOA PAYOH EIGHT,30737.2154049659,35641.2813448943
235 LORONG 8 TOA PAYOH TOA PAYOH EIGHT SINGAPORE 310235,235,TOA PAYOH EIGHT,1.33894969177117,103.857138926344,103.857138926344,310235,LORONG 8 TOA PAYOH,TOA PAYOH EIGHT,30650.9498352921,35679.7832795624
236 LORONG 1 TOA PAYOH SINGAPORE 310236,236,NIL,1.34027351637589,103.852085014347,103.852085014347,310236,LORONG 1 TOA PAYOH,236 LORONG 1 TOA PAYOH SINGAPORE 310236,30088.5023527183,35826.1601568591
237 LORONG 1 TOA PAYOH SINGAPORE 310237,237,NIL,1.33977315087539,103.852242265569,103.852242265569,310237,LORONG 1 TOA PAYOH,237 LORONG 1 TOA PAYOH SINGAPORE 310237,30106.0031495634,35770.8324316517
238 LORONG 1 TOA PAYOH SINGAPORE 310238,238,NIL,1.3402100624015,103.851574634389,103.851574634389,310238,LORONG 1 TOA PAYOH,238 LORONG 1 TOA PAYOH SINGAPORE 310238,30031.702604657,35819.1433118023
239 LORONG 1 TOA PAYOH SINGAPORE 310239,239,NIL,1.34050894159915,103.851040712112,103.851040712112,310239,LORONG 1 TOA PAYOH,239 LORONG 1 TOA PAYOH SINGAPORE 310239,29972.2825572463,35852.1914098244
240 LORONG 1 TOA PAYOH SINGAPORE 310240,240,NIL,1.34087644567662,103.850829960636,103.850829960636,310240,LORONG 1 TOA PAYOH,240 LORONG 1 TOA PAYOH SINGAPORE 310240,29948.8278966639,35892.827963775
241 KIM KEAT LINK SINGAPORE 310241,241,NIL,1.33050536301596,103.855776378989,103.855776378989,310241,KIM KEAT LINK,241 KIM KEAT LINK SINGAPORE 310241,30499.3214022852,34746.0511532817
242 KIM KEAT LINK SINGAPORE 310242,242,NIL,1.32985845976054,103.855821390119,103.855821390119,310242,KIM KEAT LINK,242 KIM KEAT LINK SINGAPORE 310242,30504.3313286817,34674.5199472774
243 KIM KEAT LINK SINGAPORE 310243,243,NIL,1.33024058590573,103.856533205246,103.856533205246,310243,KIM KEAT LINK,243 KIM KEAT LINK SINGAPORE 310243,30583.5486351307,34716.7742341552
244 KIM KEAT LINK SINGAPORE 310244,244,NIL,1.33069367982742,103.85635902134,103.85635902134,310244,KIM KEAT LINK,244 KIM KEAT LINK SINGAPORE 310244,30564.1632930832,34766.8748601843
245 KIM KEAT LINK SINGAPORE 310245,245,NIL,1.33107747701121,103.856607585662,103.856607585662,310245,KIM KEAT LINK,245 KIM KEAT LINK SINGAPORE 310245,30591.8255363507,34809.3134488147
246 KIM KEAT LINK SINGAPORE 310246,246,NIL,1.33078082665669,103.855844268285,103.855844268285,310246,KIM KEAT LINK,246 KIM KEAT LINK SINGAPORE 310246,30506.8765028967,34776.5105819963
247 KIM KEAT LINK SINGAPORE 310247,247,NIL,1.33106275926124,103.855267005685,103.855267005685,310247,KIM KEAT LINK,247 KIM KEAT LINK SINGAPORE 310247,30442.632858797,34807.6846680734
248 KIM KEAT LINK SINGAPORE 310248,248,NIL,1.33136716741014,103.855879359987,103.855879359987,310248,KIM KEAT LINK,248 KIM KEAT LINK SINGAPORE 310248,30510.7812544042,34841.3451782111
249 KIM KEAT LINK SINGAPORE 310249,249,NIL,1.33131573283592,103.85665702204,103.85665702204,310249,KIM KEAT LINK,249 KIM KEAT LINK SINGAPORE 310249,30597.3270450709,34835.6586110368
250 KIM KEAT LINK SINGAPORE 310250,250,NIL,1.33199426583747,103.856650727575,103.856650727575,310250,KIM KEAT LINK,250 KIM KEAT LINK SINGAPORE 310250,30596.6258266922,34910.6873128284
251 KIM KEAT LINK SINGAPORE 310251,251,NIL,1.3315468916112,103.85701736179,103.85701736179,310251,KIM KEAT LINK,251 KIM KEAT LINK SINGAPORE 310251,30637.4288848219,34861.2193481941
252 KIM KEAT LINK SINGAPORE 310252,252,NIL,1.33121483034864,103.857241754706,103.857241754706,310252,KIM KEAT LINK,252 KIM KEAT LINK SINGAPORE 310252,30662.4018480042,34824.5019533113
253 KIM KEAT AVENUE SINGAPORE 310253,253,NIL,1.33112194856316,103.857779754242,103.857779754242,310253,KIM KEAT AVENUE,253 KIM KEAT AVENUE SINGAPORE 310253,30722.2757335622,34814.2321475074
254 KIM KEAT AVENUE SINGAPORE 310254,254,NIL,1.33173315408576,103.858329268353,103.858329268353,310254,KIM KEAT AVENUE,254 KIM KEAT AVENUE SINGAPORE 310254,30783.4302877802,34881.8167413827
255 KIM KEAT AVENUE SINGAPORE 310255,255,NIL,1.3316593734688,103.857761545923,103.857761545923,310255,KIM KEAT AVENUE,255 KIM KEAT AVENUE SINGAPORE 310255,30720.2487472286,34873.657824764
256 KIM KEAT AVENUE SINGAPORE 310256,256,NIL,1.33219206746415,103.858498713624,103.858498713624,310256,KIM KEAT AVENUE,256 KIM KEAT AVENUE SINGAPORE 310256,30802.2872719038,34932.5612279605
257 KIM KEAT AVENUE SINGAPORE 310257,257,NIL,1.33260688502861,103.857270508532,103.857270508532,310257,KIM KEAT AVENUE,257 KIM KEAT AVENUE SINGAPORE 310257,30665.6003566468,34978.4282711055
258 KIM KEAT AVENUE SINGAPORE 310258,258,NIL,1.33284519984898,103.85782877187,103.85782877187,310258,KIM KEAT AVENUE,258 KIM KEAT AVENUE SINGAPORE 310258,30727.7289951164,35004.7805160377
259 KIM KEAT AVENUE SINGAPORE 310259,259,NIL,1.33389588710225,103.857558824931,103.857558824931,310259,KIM KEAT AVENUE,259 KIM KEAT AVENUE SINGAPORE 310259,30697.6855695704,35120.9598432146
260 KIM KEAT AVENUE DBS KIM KEAT AVENUE SINGAPORE 310260,260,DBS KIM KEAT AVENUE,1.331999623417,103.857378530285,103.857378530285,310260,KIM KEAT AVENUE,DBS KIM KEAT AVENUE,30677.6227089753,34911.2805047724
261 TOA PAYOH EAST TOA PAYOH APEX SINGAPORE 310261,261,TOA PAYOH APEX,1.33350386216852,103.855237846252,103.855237846252,310261,TOA PAYOH EAST,TOA PAYOH APEX,30439.3853160199,35077.609310504
262 TOA PAYOH EAST TOA PAYOH APEX SINGAPORE 310262,262,TOA PAYOH APEX,1.33320440397645,103.855618262704,103.855618262704,310262,TOA PAYOH EAST,TOA PAYOH APEX,30481.7219923483,35044.4971351605
263 TOA PAYOH EAST TOA PAYOH APEX SINGAPORE 310263,263,TOA PAYOH APEX,1.33296386438488,103.855447426238,103.855447426238,310263,TOA PAYOH EAST,TOA PAYOH APEX,30462.7099150764,35017.8993260767
264 TOA PAYOH EAST TOA PAYOH APEX SINGAPORE 310264,264,TOA PAYOH APEX,1.332464536405,103.855237512058,103.855237512058,310264,TOA PAYOH EAST,TOA PAYOH APEX,30439.3491457794,34962.6859835796
265 KIM KEAT AVENUE KIM KEAT BEACON SINGAPORE 310265,265,KIM KEAT BEACON,1.33168175932571,103.860094969162,103.860094969162,310265,KIM KEAT AVENUE,KIM KEAT BEACON,30979.9345480027,34876.1358343232
266 KIM KEAT AVENUE KIM KEAT BEACON SINGAPORE 310266,266,KIM KEAT BEACON,1.33206857237098,103.859486715607,103.859486715607,310266,KIM KEAT AVENUE,KIM KEAT BEACON,30912.2417763537,34918.9069167543
267 KIM KEAT AVENUE KIM KEAT BEACON SINGAPORE 310267,267,KIM KEAT BEACON,1.33169355658924,103.859028415515,103.859028415515,310267,KIM KEAT AVENUE,KIM KEAT BEACON,30861.2381655676,34877.4390526302
268 TOA PAYOH EAST KIM KEAT RIPPLES SINGAPORE 310268,268,KIM KEAT RIPPLES,1.33323663400855,103.858374081603,103.858374081603,310268,TOA PAYOH EAST,KIM KEAT RIPPLES,30788.4158484507,35048.0639143623
269 TOA PAYOH EAST KIM KEAT RIPPLES SINGAPORE 310269,269,KIM KEAT RIPPLES,1.33287876745791,103.859287716786,103.859287716786,310269,TOA PAYOH EAST,KIM KEAT RIPPLES,30890.0943294521,35008.4939133525
270 TOA PAYOH EAST KIM KEAT RIPPLES SINGAPORE 310270,270,KIM KEAT RIPPLES,1.33369641263342,103.859096360145,103.859096360145,310270,TOA PAYOH EAST,KIM KEAT RIPPLES,30868.7973826248,35098.9047136642
400 LORONG 1 TOA PAYOH TOA PAYOH RIDGE SINGAPORE 310400,400,TOA PAYOH RIDGE,1.34076244714583,103.843451128271,103.843451128271,310400,LORONG 1 TOA PAYOH,TOA PAYOH RIDGE,29127.6434843373,35880.2179585435
401 LORONG 1 TOA PAYOH TOA PAYOH RIDGE SINGAPORE 310401,401,TOA PAYOH RIDGE,1.34021483289258,103.843797325409,103.843797325409,310401,LORONG 1 TOA PAYOH,TOA PAYOH RIDGE,29166.1717521511,35819.6657372005
402 LORONG 1 TOA PAYOH TOA PAYOH RIDGE SINGAPORE 310402,402,TOA PAYOH RIDGE,1.34025200198816,103.843003075373,103.843003075373,310402,LORONG 1 TOA PAYOH,TOA PAYOH RIDGE,29077.780250106,35823.7753424216
403 LORONG 1 TOA PAYOH TOA PAYOH RIDGE SINGAPORE 310403,403,TOA PAYOH RIDGE,1.3391241670553,103.843430614853,103.843430614853,310403,LORONG 1 TOA PAYOH,TOA PAYOH RIDGE,29125.3613086334,35699.0653169826
404 LORONG 1 TOA PAYOH TOA PAYOH RIDGE SINGAPORE 310404,404,TOA PAYOH RIDGE,1.33912565227474,103.842831860075,103.842831860075,310404,LORONG 1 TOA PAYOH,TOA PAYOH RIDGE,29058.7263122117,35699.2292786501
460 LORONG 6 TOA PAYOH HDB HUB SINGAPORE 310460,460,HDB HUB,1.3319945640368,103.849796100473,103.849796100473,310460,LORONG 6 TOA PAYOH,HDB HUB,29833.7769901883,34910.7141302619
470 LORONG 6 TOA PAYOH HDB HUB SINGAPORE 310470,470,HDB HUB,1.33206170416163,103.849381957636,103.849381957636,310470,LORONG 6 TOA PAYOH,HDB HUB,29787.6871444136,34918.1378375553
480 LORONG 6 TOA PAYOH BRITISH COUNCIL (TOA PAYOH CENTRE) SINGAPORE 310480,480,BRITISH COUNCIL (TOA PAYOH CENTRE),1.33202548854255,103.848335264381,103.848335264381,310480,LORONG 6 TOA PAYOH,BRITISH COUNCIL (TOA PAYOH CENTRE),29671.2010814901,34914.1325660739
490 LORONG 6 TOA PAYOH CENTRAL SINGAPORE COMMUNITY DEVELOPMENT COUNCIL SINGAPORE 310490,490,CENTRAL SINGAPORE COMMUNITY DEVELOPMENT COUNCIL,1.3325746127759,103.848267915547,103.848267915547,310490,LORONG 6 TOA PAYOH,CENTRAL SINGAPORE COMMUNITY DEVELOPMENT COUNCIL,29663.7054877337,34974.8518666867
500 LORONG 6 TOA PAYOH CITIBANK TOA PAYOH HUB SINGAPORE 310500,500,CITIBANK TOA PAYOH HUB,1.33296549735939,103.847050346651,103.847050346651,310500,LORONG 6 TOA PAYOH,CITIBANK TOA PAYOH HUB,29528.20250466,35018.073094571
520 LORONG 6 TOA PAYOH DBS NTUC TOA PAYOH HDB CENTRE SINGAPORE 310520,520,DBS NTUC TOA PAYOH HDB CENTRE,1.33311013128172,103.847431763341,103.847431763341,310520,LORONG 6 TOA PAYOH,DBS NTUC TOA PAYOH HDB CENTRE,29570.6501131495,35034.0662128795
530 LORONG 6 TOA PAYOH HDB HUB SINGAPORE 310530,530,HDB HUB,1.33221204872779,103.847030249246,103.847030249246,310530,LORONG 6 TOA PAYOH,HDB HUB,29525.9663362913,34934.760590462
3A LORONG 7 TOA PAYOH MULTI STOREY CAR PARK SINGAPORE 311003,3A,MULTI STOREY CAR PARK,1.3395249873009,103.854481309074,103.854481309074,311003,LORONG 7 TOA PAYOH,MULTI STOREY CAR PARK,30355.1849006079,35743.3938082475
4A LORONG 7 TOA PAYOH MULTI STOREY CAR PARK SINGAPORE 311004,4A,MULTI STOREY CAR PARK,1.33926636778861,103.855881383112,103.855881383112,311004,LORONG 7 TOA PAYOH,MULTI STOREY CAR PARK,30510.9983969191,35714.7983727753
7A LORONG 7 TOA PAYOH TOA PAYOH COURT SINGAPORE 311007,7A,TOA PAYOH COURT,1.3379821447713,103.85700634008,103.85700634008,311007,LORONG 7 TOA PAYOH,TOA PAYOH COURT,30636.1954342173,35572.7967325244
10A LORONG 7 TOA PAYOH MULTI STOREY CAR PARK SINGAPORE 311010,10A,MULTI STOREY CAR PARK,1.33717164294913,103.857793534302,103.857793534302,311010,LORONG 7 TOA PAYOH,MULTI STOREY CAR PARK,30723.8026625374,35483.1764411442
11A LORONG 8 TOA PAYOH MULTI STOREY CAR PARK SINGAPORE 311011,11A,MULTI STOREY CAR PARK,1.33664811411799,103.859294955765,103.859294955765,311011,LORONG 8 TOA PAYOH,MULTI STOREY CAR PARK,30890.8955532489,35425.2890130877
14A LORONG 7 TOA PAYOH MY FIRST SKOOL SINGAPORE 311014,14A,MY FIRST SKOOL,1.3362682080095,103.858315233952,103.858315233952,311014,LORONG 7 TOA PAYOH,MY FIRST SKOOL,30781.8633142635,35383.2798060756
17A LORONG 7 TOA PAYOH SINGAPORE 311017,17A,NIL,1.3361521037875,103.856983112445,103.856983112445,311017,LORONG 7 TOA PAYOH,17A LORONG 7 TOA PAYOH SINGAPORE 311017,30633.6123947548,35370.4401273821
18A LORONG 6 TOA PAYOH MULTI STOREY CAR PARK SINGAPORE 311018,18A,MULTI STOREY CAR PARK,1.33607385973965,103.856580484014,103.856580484014,311018,LORONG 6 TOA PAYOH,MULTI STOREY CAR PARK,30588.8041862156,35361.7878728975
19A LORONG 7 TOA PAYOH KIM KEAT PALM SINGAPORE 311019,19A,KIM KEAT PALM,1.33475933595083,103.856537998928,103.856537998928,311019,LORONG 7 TOA PAYOH,KIM KEAT PALM,30584.0774168065,35216.4345074706
21A LORONG 7 TOA PAYOH SINGAPORE 311021,21A,NIL,1.33544947232089,103.857727237707,103.857727237707,311021,LORONG 7 TOA PAYOH,21A LORONG 7 TOA PAYOH SINGAPORE 311021,30716.4264457095,35292.7475403454
34A LORONG 5 TOA PAYOH SINGAPORE 311034,34A,NIL,1.3341787534437,103.854099219029,103.854099219029,311034,LORONG 5 TOA PAYOH,34A LORONG 5 TOA PAYOH SINGAPORE 311034,30312.6673730761,35152.2342373915
35A LORONG 5 TOA PAYOH MULTI STOREY CAR PARK SINGAPORE 311035,35A,MULTI STOREY CAR PARK,1.33488691689286,103.854606003745,103.854606003745,311035,LORONG 5 TOA PAYOH,MULTI STOREY CAR PARK,30369.0665243715,35230.5398116335
52A LORONG 5 TOA PAYOH SINGAPORE 311052,52A,NIL,1.33844272079926,103.852359264724,103.852359264724,311052,LORONG 5 TOA PAYOH,52A LORONG 5 TOA PAYOH SINGAPORE 311052,30119.0250415178,35623.7203752976
60A LORONG 4 TOA PAYOH MULTI STOREY CAR PARK SINGAPORE 311060,60A,MULTI STOREY CAR PARK,1.33648655165748,103.851122278329,103.851122278329,311060,LORONG 4 TOA PAYOH,MULTI STOREY CAR PARK,29981.3632247737,35407.4161621872
62A LORONG 4 TOA PAYOH GOLDEN LOTUS SINGAPORE 311062,62A,GOLDEN LOTUS,1.335835775451,103.850826873624,103.850826873624,311062,LORONG 4 TOA PAYOH,GOLDEN LOTUS,29948.4883201551,35335.45642207
73A LORONG 4 TOA PAYOH SINGAPORE 311073,73A,NIL,1.33378907738442,103.85174527803,103.85174527803,311073,LORONG 4 TOA PAYOH,73A LORONG 4 TOA PAYOH SINGAPORE 311073,30050.6987307025,35109.1437671948
78A TOA PAYOH CENTRAL CENTRAL HORIZON SINGAPORE 311078,78A,CENTRAL HORIZON,1.33494630214094,103.847560296235,103.847560296235,311078,TOA PAYOH CENTRAL,CENTRAL HORIZON,29584.9533093907,35237.1006695163
79A TOA PAYOH CENTRAL CENTRAL HORIZON SINGAPORE 311079,79A,CENTRAL HORIZON,1.33453129537675,103.847565695822,103.847565695822,311079,TOA PAYOH CENTRAL,CENTRAL HORIZON,29585.5544920834,35191.2113491353
80A LORONG 4 TOA PAYOH SINGAPORE 311080,80A,NIL,1.33529157376827,103.849247117442,103.849247117442,311080,LORONG 4 TOA PAYOH,80A LORONG 4 TOA PAYOH SINGAPORE 311080,29772.678522544,35275.2801896222
81A LORONG 4 TOA PAYOH SINGAPORE 311081,81A,NIL,1.33565835661833,103.850077576299,103.850077576299,311081,LORONG 4 TOA PAYOH,81A LORONG 4 TOA PAYOH SINGAPORE 311081,29865.0995709943,35315.8377744034
82A LORONG 4 TOA PAYOH SINGAPORE 311082,82A,NIL,1.33597952666562,103.848953918024,103.848953918024,311082,LORONG 4 TOA PAYOH,82A LORONG 4 TOA PAYOH SINGAPORE 311082,29740.0480318936,35351.3502916601
84A LORONG 2 TOA PAYOH SINGAPORE 311084,84A,NIL,1.33535500400261,103.847029911151,103.847029911151,311084,LORONG 2 TOA PAYOH,84A LORONG 2 TOA PAYOH SINGAPORE 311084,29525.9267760366,35282.2924944814
85A LORONG 4 TOA PAYOH SINGAPORE 311085,85A,NIL,1.33628483555575,103.849405829084,103.849405829084,311085,LORONG 4 TOA PAYOH,85A LORONG 4 TOA PAYOH SINGAPORE 311085,29790.3407385461,35385.1101110503
93A LORONG 4 TOA PAYOH SINGAPORE 311093,93A,NIL,1.33853418484705,103.849879084307,103.849879084307,311093,LORONG 4 TOA PAYOH,93A LORONG 4 TOA PAYOH SINGAPORE 311093,29843.007363162,35633.8320006188
98A LORONG 3 TOA PAYOH SINGAPORE 311098,98A,NIL,1.33889995371097,103.848645450529,103.848645450529,311098,LORONG 3 TOA PAYOH,98A LORONG 3 TOA PAYOH SINGAPORE 311098,29705.7168437736,35674.2759593893
99B LORONG 2 TOA PAYOH TOA PAYOH PALM SPRING SINGAPORE 311099,99B,TOA PAYOH PALM SPRING,1.33874496491842,103.84725279468,103.84725279468,311099,LORONG 2 TOA PAYOH,TOA PAYOH PALM SPRING,29550.7292396659,35657.1371676289
101B LORONG 2 TOA PAYOH TOA PAYOH PALM SPRING SINGAPORE 311101,101B,TOA PAYOH PALM SPRING,1.33959884500115,103.847605414427,103.847605414427,311101,LORONG 2 TOA PAYOH,TOA PAYOH PALM SPRING,29589.9714989476,35751.5550857689
106A LORONG 1 TOA PAYOH TOA PAYOH BLOOM SINGAPORE 311106,106A,TOA PAYOH BLOOM,1.34057895380256,103.847934774435,103.847934774435,311106,LORONG 1 TOA PAYOH,TOA PAYOH BLOOM,29626.6250889217,35859.9307213835
110A LORONG 1 TOA PAYOH MULTI STOREY CAR PARK SINGAPORE 311110,110A,MULTI STOREY CAR PARK,1.3419490604548,103.846157441894,103.846157441894,311110,LORONG 1 TOA PAYOH,MULTI STOREY CAR PARK,29428.8263275716,36011.4290020615
118A LORONG 1 TOA PAYOH SINGAPORE 311118,118A,NIL,1.33965126704796,103.845485151552,103.845485151552,311118,LORONG 1 TOA PAYOH,118A LORONG 1 TOA PAYOH SINGAPORE 311118,29354.008956844,35757.3503755406
120A LORONG 2 TOA PAYOH MULTI STOREY CAR PARK SINGAPORE 311120,120A,MULTI STOREY CAR PARK,1.33983259868894,103.845859186048,103.845859186048,311120,LORONG 2 TOA PAYOH,MULTI STOREY CAR PARK,29395.6348803788,35777.40131055
123A LORONG 1 TOA PAYOH TOA PAYOH VIEW SINGAPORE 311123,123A,TOA PAYOH VIEW,1.33834735429458,103.846031875137,103.846031875137,311123,LORONG 1 TOA PAYOH,TOA PAYOH VIEW,29414.854172268,35613.1706814487
125A LORONG 2 TOA PAYOH BISHAN-TOA PAYOH TOWN COUNCIL (TOA PAYOH OFFICE) SINGAPORE 311125,125A,BISHAN-TOA PAYOH TOWN COUNCIL (TOA PAYOH OFFICE),1.33755125448542,103.845702667513,103.845702667513,311125,LORONG 2 TOA PAYOH,BISHAN-TOA PAYOH TOWN COUNCIL (TOA PAYOH OFFICE),29378.2173204888,35525.141850384
128A LORONG 1 TOA PAYOH MULTI STOREY CAR PARK SINGAPORE 311128,128A,MULTI STOREY CAR PARK,1.33821653776518,103.844064129352,103.844064129352,311128,LORONG 1 TOA PAYOH,MULTI STOREY CAR PARK,29195.8651284659,35598.7046131883
130A LORONG 1 TOA PAYOH TOA PAYOH CREST SINGAPORE 311130,130A,TOA PAYOH CREST,1.33739384161997,103.843183616479,103.843183616479,311130,LORONG 1 TOA PAYOH,TOA PAYOH CREST,29097.8738024365,35507.7346724123
131A LORONG 1 TOA PAYOH TOA PAYOH CREST SINGAPORE 311131,131A,TOA PAYOH CREST,1.33843987383953,103.843390114067,103.843390114067,311131,LORONG 1 TOA PAYOH,TOA PAYOH CREST,29120.8543150537,35623.3996557426
138A LORONG 1A TOA PAYOH THE PEAK @ TOA PAYOH SINGAPORE 311138,138A,THE PEAK @ TOA PAYOH,1.33671098513786,103.845472945511,103.845472945511,311138,LORONG 1A TOA PAYOH,THE PEAK @ TOA PAYOH,29352.6521642059,35432.2290380038
139A LORONG 1A TOA PAYOH THE PEAK @ TOA PAYOH SINGAPORE 311139,139A,THE PEAK @ TOA PAYOH,1.33627775831234,103.844044881122,103.844044881122,311139,LORONG 1A TOA PAYOH,THE PEAK @ TOA PAYOH,29193.723941029,35384.3242936581
141 LORONG 2 TOA PAYOH SINGAPORE 311141,141,NIL,1.33583761957175,103.84573120411,103.84573120411,311141,LORONG 2 TOA PAYOH,141 LORONG 2 TOA PAYOH SINGAPORE 311141,29381.39409672,35335.6568869259
142A LORONG 2 TOA PAYOH SINGAPORE 311142,142A,NIL,1.33564871942031,103.844678549616,103.844678549616,311142,LORONG 2 TOA PAYOH,142A LORONG 2 TOA PAYOH SINGAPORE 311142,29264.2448622724,35314.76870922
146A LORONG 2 TOA PAYOH PCF SPARKLETOTS PRESCHOOL @ TOA PAYOH CENTRAL 146A (CC) SINGAPORE 311146,146A,PCF SPARKLETOTS PRESCHOOL @ TOA PAYOH CENTRAL 146A (CC),1.33435697144389,103.845404214537,103.845404214537,311146,LORONG 2 TOA PAYOH,PCF SPARKLETOTS PRESCHOOL @ TOA PAYOH CENTRAL 146A (CC),29345.0044132955,35171.9342151284
147A LORONG 2 TOA PAYOH TOA PAYOH TOWERS SINGAPORE 311147,147A,TOA PAYOH TOWERS,1.33466111080801,103.845362935078,103.845362935078,311147,LORONG 2 TOA PAYOH,TOA PAYOH TOWERS,29340.4102781918,35205.5643664785
153A LORONG 1 TOA PAYOH TOA PAYOH SAPPHIRE SINGAPORE 311153,153A,TOA PAYOH SAPPHIRE,1.3337138280505,103.845233136341,103.845233136341,311153,LORONG 1 TOA PAYOH,TOA PAYOH SAPPHIRE,29325.965548858,35100.8186188098
156A LORONG 1 TOA PAYOH MULTI STOREY CAR PARK SINGAPORE 311156,156A,MULTI STOREY CAR PARK,1.33315256183326,103.845263790401,103.845263790401,311156,LORONG 1 TOA PAYOH,MULTI STOREY CAR PARK,29329.3773257146,35038.7566909771
161A LORONG 1 TOA PAYOH MULTI STOREY CAR PARK SINGAPORE 311161,161A,MULTI STOREY CAR PARK,1.33022073819476,103.844948797753,103.844948797753,311161,LORONG 1 TOA PAYOH,MULTI STOREY CAR PARK,29294.3234592155,34714.5704827961
171A LORONG 1 TOA PAYOH MULTI STOREY CAR PARK SINGAPORE 311171,171A,MULTI STOREY CAR PARK,1.33078109998528,103.842238410345,103.842238410345,311171,LORONG 1 TOA PAYOH,MULTI STOREY CAR PARK,28992.6850525588,34776.5311642252
172A LORONG 1 TOA PAYOH HDB PUBLIC SHELTERS SINGAPORE 311172,172A,HDB PUBLIC SHELTERS,1.33026993932136,103.842540247429,103.842540247429,311172,LORONG 1 TOA PAYOH,HDB PUBLIC SHELTERS,29026.2766122278,34720.0097605437
194A KIM KEAT AVENUE KIM KEAT VIEW SINGAPORE 311194,194A,KIM KEAT VIEW,1.33111982619355,103.858547875249,103.858547875249,311194,KIM KEAT AVENUE,KIM KEAT VIEW,30807.7596628247,34813.9983273335
195A KIM KEAT AVENUE KIM KEAT VIEW SINGAPORE 311195,195A,KIM KEAT VIEW,1.33040252328931,103.858582456351,103.858582456351,311195,KIM KEAT AVENUE,KIM KEAT VIEW,30811.6089936532,34734.6826802064
196A KIM KEAT AVENUE SINGAPORE 311196,196A,NIL,1.33107979498474,103.858966444055,103.858966444055,311196,KIM KEAT AVENUE,196A KIM KEAT AVENUE SINGAPORE 311196,30854.3420897648,34809.572361147
220A LORONG 8 TOA PAYOH SINGAPORE 311220,220A,NIL,1.34231265077471,103.856654034799,103.856654034799,311220,LORONG 8 TOA PAYOH,220A LORONG 8 TOA PAYOH SINGAPORE 311220,30596.9830494355,36051.6415923648
227A LORONG 8 TOA PAYOH TOA PAYOH EIGHT SINGAPORE 311227,227A,TOA PAYOH EIGHT,1.33904144822191,103.857955654132,103.857955654132,311227,LORONG 8 TOA PAYOH,TOA PAYOH EIGHT,30741.8428045847,35689.9301368166
228A LORONG 8 TOA PAYOH TOA PAYOH EIGHT SINGAPORE 311228,228A,TOA PAYOH EIGHT,1.33889027948477,103.858573643597,103.858573643597,311228,LORONG 8 TOA PAYOH,TOA PAYOH EIGHT,30810.6185949584,35673.2153692395
233A LORONG 8 TOA PAYOH TOA PAYOH EIGHT SINGAPORE 311233,233A,TOA PAYOH EIGHT,1.3382444607025,103.858886875897,103.858886875897,311233,LORONG 8 TOA PAYOH,TOA PAYOH EIGHT,30845.4787463611,35601.8043876681
261A TOA PAYOH EAST TOA PAYOH APEX SINGAPORE 311261,261A,TOA PAYOH APEX,1.33372621378708,103.855718395843,103.855718395843,311261,TOA PAYOH EAST,TOA PAYOH APEX,30492.8652413581,35102.1962963566
265A KIM KEAT AVENUE KIM KEAT BEACON SINGAPORE 311265,265A,KIM KEAT BEACON,1.33199867342236,103.859807290319,103.859807290319,311265,KIM KEAT AVENUE,KIM KEAT BEACON,30947.9184974218,34911.1782292556
266A KIM KEAT AVENUE KIM KEAT BEACON SINGAPORE 311266,266A,KIM KEAT BEACON,1.33202236327227,103.859044953635,103.859044953635,311266,KIM KEAT AVENUE,KIM KEAT BEACON,30863.0783076379,34913.796833599
267A KIM KEAT AVENUE KIM KEAT BEACON SINGAPORE 311267,267A,KIM KEAT BEACON,1.33173441140501,103.859245060239,103.859245060239,311267,KIM KEAT AVENUE,KIM KEAT BEACON,30885.3484306773,34881.9568216112
268A TOA PAYOH EAST KIM KEAT RIPPLES SINGAPORE 311268,268A,KIM KEAT RIPPLES,1.33275469684362,103.858642523657,103.858642523657,311268,TOA PAYOH EAST,KIM KEAT RIPPLES,30818.2911958825,34994.7740719616
269A TOA PAYOH EAST KIM KEAT RIPPLES SINGAPORE 311269,269A,KIM KEAT RIPPLES,1.33321813396483,103.859041655554,103.859041655554,311269,TOA PAYOH EAST,KIM KEAT RIPPLES,30862.7098857397,35046.0190396495
270A TOA PAYOH EAST KIM KEAT RIPPLES SINGAPORE 311270,270A,KIM KEAT RIPPLES,1.33366836386497,103.858482477827,103.858482477827,311270,TOA PAYOH EAST,KIM KEAT RIPPLES,30800.4787296094,35095.8025177438
401A LORONG 1 TOA PAYOH TOA PAYOH RIDGE SINGAPORE 311401,401A,TOA PAYOH RIDGE,1.33992471478482,103.843564620059,103.843564620059,311401,LORONG 1 TOA PAYOH,TOA PAYOH RIDGE,29140.2742836745,35787.5858514421
402A LORONG 1 TOA PAYOH TOA PAYOH RIDGE SINGAPORE 311402,402A,TOA PAYOH RIDGE,1.34052613339987,103.843351647779,103.843351647779,311402,LORONG 1 TOA PAYOH,TOA PAYOH RIDGE,29116.5724850055,35854.0875476636
403A LORONG 1 TOA PAYOH TOA PAYOH RIDGE SINGAPORE 311403,403A,TOA PAYOH RIDGE,1.33933396057684,103.843237122389,103.843237122389,311403,LORONG 1 TOA PAYOH,TOA PAYOH RIDGE,29103.8275753697,35722.2631234545
10B LORONG 7 TOA PAYOH TOA PAYOH COURT SINGAPORE 312010,10B,TOA PAYOH COURT,1.33716136352623,103.858353639387,103.858353639387,312010,LORONG 7 TOA PAYOH,TOA PAYOH COURT,30786.1364271324,35482.040423179
14B LORONG 7 TOA PAYOH TOA PAYOH COURT SINGAPORE 312014,14B,TOA PAYOH COURT,1.33573887362341,103.858408403539,103.858408403539,312014,LORONG 7 TOA PAYOH,TOA PAYOH COURT,30792.2327017328,35324.7488201503
62B LORONG 4 TOA PAYOH SINGAPORE 312062,62B,NIL,1.33583993428388,103.851278326324,103.851278326324,312062,LORONG 4 TOA PAYOH,62B LORONG 4 TOA PAYOH SINGAPORE 312062,29998.730237131,35335.9166467618
78B TOA PAYOH CENTRAL CENTRAL HORIZON SINGAPORE 312078,78B,CENTRAL HORIZON,1.33489515291472,103.848566459614,103.848566459614,312078,TOA PAYOH CENTRAL,CENTRAL HORIZON,29696.9287465774,35231.4455205109
79B TOA PAYOH CENTRAL CENTRAL HORIZON SINGAPORE 312079,79B,CENTRAL HORIZON,1.33464078301907,103.847990266882,103.847990266882,312079,TOA PAYOH CENTRAL,CENTRAL HORIZON,29632.8047215492,35203.3182096742
80B LORONG 4 TOA PAYOH SINGAPORE 312080,80B,NIL,1.33529401120542,103.849888208873,103.849888208873,312080,LORONG 4 TOA PAYOH,80B LORONG 4 TOA PAYOH SINGAPORE 312080,29844.0252451869,35275.5501800366
81B LORONG 4 TOA PAYOH SINGAPORE 312081,81B,NIL,1.33596976405301,103.849776847105,103.849776847105,312081,LORONG 4 TOA PAYOH,81B LORONG 4 TOA PAYOH SINGAPORE 312081,29831.6313533578,35350.2713893801
82B LORONG 4 TOA PAYOH SINGAPORE 312082,82B,NIL,1.33562239265484,103.848851474907,103.848851474907,312082,LORONG 4 TOA PAYOH,82B LORONG 4 TOA PAYOH SINGAPORE 312082,29728.6474444866,35311.8601678591
84B LORONG 2 TOA PAYOH SINGAPORE 312084,84B,NIL,1.33576502294173,103.846802632068,103.846802632068,312084,LORONG 2 TOA PAYOH,84B LORONG 2 TOA PAYOH SINGAPORE 312084,29500.6327603515,35327.630150592
85B LORONG 4 TOA PAYOH SINGAPORE 312085,85B,NIL,1.33628535194303,103.848443049823,103.848443049823,312085,LORONG 4 TOA PAYOH,85B LORONG 4 TOA PAYOH SINGAPORE 312085,29683.1935895868,35385.1665305719
99C LORONG 2 TOA PAYOH TOA PAYOH PALM SPRING SINGAPORE 312099,99C,TOA PAYOH PALM SPRING,1.33901612961753,103.84744935603,103.84744935603,312099,LORONG 2 TOA PAYOH,TOA PAYOH PALM SPRING,29572.6042444464,35687.1212981958
101C LORONG 2 TOA PAYOH SINGAPORE 312101,101C,NIL,1.33926018714492,103.847063773104,103.847063773104,312101,LORONG 2 TOA PAYOH,101C LORONG 2 TOA PAYOH SINGAPORE 312101,29529.6928396421,35714.107687654
130B LORONG 1 TOA PAYOH TOA PAYOH CREST SINGAPORE 312130,130B,TOA PAYOH CREST,1.33737735210716,103.842656049195,103.842656049195,312130,LORONG 1 TOA PAYOH,TOA PAYOH CREST,29039.1611783411,35505.9111171979
131B LORONG 1 TOA PAYOH TOA PAYOH CREST SINGAPORE 312131,131B,TOA PAYOH CREST,1.33830690836287,103.842842807207,103.842842807207,312131,LORONG 1 TOA PAYOH,TOA PAYOH CREST,29059.9449617723,35608.6967707761
138B LORONG 1A TOA PAYOH THE PEAK @ TOA PAYOH SINGAPORE 312138,138B,THE PEAK @ TOA PAYOH,1.33626408939965,103.845626191384,103.845626191384,312138,LORONG 1A TOA PAYOH,THE PEAK @ TOA PAYOH,29369.7070531147,35382.813679127
139B LORONG 1A TOA PAYOH THE PEAK @ TOA PAYOH SINGAPORE 312139,139B,THE PEAK @ TOA PAYOH,1.33671109109394,103.843878159336,103.843878159336,312139,LORONG 1A TOA PAYOH,THE PEAK @ TOA PAYOH,29175.1693643313,35432.239934478
147B LORONG 2 TOA PAYOH TOA PAYOH TOWERS SINGAPORE 312147,147B,TOA PAYOH TOWERS,1.33398484471495,103.845175630676,103.845175630676,312147,LORONG 2 TOA PAYOH,TOA PAYOH TOWERS,29319.5656258445,35130.7862230577
265B KIM KEAT AVENUE SINGAPORE 312265,265B,NIL,1.33219901626939,103.860290043039,103.860290043039,312265,KIM KEAT AVENUE,265B KIM KEAT AVENUE SINGAPORE 312265,31001.6436236957,34933.3316994868
402B LORONG 1 TOA PAYOH TOA PAYOH RIDGE SINGAPORE 312402,402B,TOA PAYOH RIDGE,1.33986047838752,103.843177278679,103.843177278679,312402,LORONG 1 TOA PAYOH,TOA PAYOH RIDGE,29097.1673779646,35780.4827426318
403B LORONG 1 TOA PAYOH TOA PAYOH RIDGE SINGAPORE 312403,403B,TOA PAYOH RIDGE,1.33945124292074,103.843735019055,103.843735019055,312403,LORONG 1 TOA PAYOH,TOA PAYOH RIDGE,29159.2380835135,35735.2318345625
10C LORONG 7 TOA PAYOH TOA PAYOH COURT SINGAPORE 313010,10C,TOA PAYOH COURT,1.33691012993385,103.858049346644,103.858049346644,313010,LORONG 7 TOA PAYOH,TOA PAYOH COURT,30752.2721529296,35454.2599531673
78C TOA PAYOH CENTRAL CENTRAL HORIZON SINGAPORE 313078,78C,CENTRAL HORIZON,1.3344922010528,103.849799119942,103.849799119942,313078,TOA PAYOH CENTRAL,CENTRAL HORIZON,29834.111178996,35186.8900496364
79C TOA PAYOH CENTRAL CENTRAL HORIZON SINGAPORE 313079,79C,CENTRAL HORIZON,1.33466057880014,103.848577764995,103.848577764995,313079,TOA PAYOH CENTRAL,CENTRAL HORIZON,29698.1870774645,35205.5075232051
81C LORONG 4 TOA PAYOH SINGAPORE 313081,81C,NIL,1.33578899193238,103.849324631706,103.849324631706,313081,LORONG 4 TOA PAYOH,81C LORONG 4 TOA PAYOH SINGAPORE 313081,29781.3046860276,35330.2822010573
84C LORONG 2 TOA PAYOH SINGAPORE 313084,84C,NIL,1.33577270532514,103.847325805217,103.847325805217,313084,LORONG 2 TOA PAYOH,84C LORONG 2 TOA PAYOH SINGAPORE 313084,29558.8564051697,35328.4799545035
85C LORONG 4 TOA PAYOH SINGAPORE 313085,85C,NIL,1.33628570919032,103.8474794394,103.8474794394,313085,LORONG 4 TOA PAYOH,85C LORONG 4 TOA PAYOH SINGAPORE 313085,29575.9539416684,35385.2053946629
130C LORONG 1 TOA PAYOH TOA PAYOH CREST SINGAPORE 313130,130C,TOA PAYOH CREST,1.33715614423412,103.843330303334,103.843330303334,313130,LORONG 1 TOA PAYOH,TOA PAYOH CREST,29114.1985973101,35481.4513779487
131C LORONG 1 TOA PAYOH TOA PAYOH CREST SINGAPORE 313131,131C,TOA PAYOH CREST,1.33797779325438,103.842705771588,103.842705771588,313131,LORONG 1 TOA PAYOH,TOA PAYOH CREST,29044.6944987122,35572.3048475217
138C LORONG 1A TOA PAYOH THE PEAK @ TOA PAYOH SINGAPORE 313138,138C,THE PEAK @ TOA PAYOH,1.33626413671063,103.844907413472,103.844907413472,313138,LORONG 1A TOA PAYOH,THE PEAK @ TOA PAYOH,29289.7146744067,35382.8185220044
79D TOA PAYOH CENTRAL CENTRAL HORIZON SINGAPORE 314079,79D,CENTRAL HORIZON,1.33464084384827,103.849165514713,103.849165514713,314079,TOA PAYOH CENTRAL,CENTRAL HORIZON,29763.5974615328,35203.3257464021
