ADDRESS,BLK_NO,BUILDING,LATITUDE,LONGITUDE,LONGTITUDE,POSTAL,ROAD_NAME,SEARCHVAL,X,Y
1 CASSIA LINK GEYLANG NEIGHBOURHOOD POLICE CENTRE SINGAPORE 397618,1,GEYLANG NEIGHBOURHOOD POLICE CENTRE,1.31096539761541,103.886144303455,103.886144303455,397618,CASSIA LINK,GEYLANG NEIGHBOURHOOD POLICE CENTRE,33879.0046314904,32585.4727149773
2 GUILLEMARD CLOSE KALLANG FIRE STATION SINGAPORE 397623,2,KALLANG FIRE STATION,1.30943995039478,103.879221916238,103.879221916238,397623,GUILLEMARD CLOSE,KALLANG FIRE STATION,33108.6111670975,32416.7813720442
1 STADIUM PLACE KALLANG WAVE MALL SINGAPORE 397628,1,KALLANG WAVE MALL,1.30384327182319,103.872750701661,103.872750701661,397628,STADIUM PLACE,KALLANG WAVE MALL,32388.4352236856,31797.9170616716
1 STADIUM DRIVE ENERGY CENTRE SINGAPORE 397629,1,ENERGY CENTRE,1.30621357376497,103.876180037186,103.876180037186,397629,STADIUM DRIVE,ENERGY CENTRE,32770.0845633242,32060.0191555861
3 STADIUM DRIVE SINGAPORE SPORTS HUB SINGAPORE 397630,3,SINGAPORE SPORTS HUB,1.30309320792601,103.87508768942,103.87508768942,397630,STADIUM DRIVE,SINGAPORE SPORTS HUB,32648.5220449753,31714.9830284305
5 STADIUM DRIVE OCBC ARENA SINGAPORE 397631,5,OCBC ARENA,1.30514729339656,103.876138530086,103.876138530086,397631,STADIUM DRIVE,OCBC ARENA,32765.4672126761,31942.1152494997
7 STADIUM DRIVE OCBC AQUATIC CENTRE SINGAPORE 397632,7,OCBC AQUATIC CENTRE,1.30537466617034,103.872703177178,103.872703177178,397632,STADIUM DRIVE,OCBC AQUATIC CENTRE,32383.1435326282,31967.2507214863
2 SIMS WAY FORTE SINGAPORE 397635,2,FORTE,1.30886501637178,103.876667203082,103.876667203082,397635,SIMS WAY,FORTE,32824.2965803845,32353.2030484937
31 STADIUM CRESCENT SINGAPORE CRICKET ASSOCIATION SINGAPORE 397639,31,SINGAPORE CRICKET ASSOCIATION,1.3045613952279,103.880735861834,103.880735861834,397639,STADIUM CRESCENT,SINGAPORE CRICKET ASSOCIATION,33277.1093397578,31877.3387980834
2 WESTERHOUT ROAD SINGAPORE 397643,2,NIL,1.31073928328467,103.880128121046,103.880128121046,397643,WESTERHOUT ROAD,2 WESTERHOUT ROAD SINGAPORE 397643,33209.4606080251,32560.4568317942
4 WESTERHOUT ROAD SINGAPORE 397644,4,NIL,1.31075193775339,103.880182511978,103.880182511978,397644,WESTERHOUT ROAD,4 WESTERHOUT ROAD SINGAPORE 397644,33215.5137810167,32561.8562114853
6 WESTERHOUT ROAD SINGAPORE 397645,6,NIL,1.31076644359708,103.880245018877,103.880245018877,397645,WESTERHOUT ROAD,6 WESTERHOUT ROAD SINGAPORE 397645,33222.470180911,32563.460323818
8 WESTERHOUT ROAD SINGAPORE 397646,8,NIL,1.31077600212252,103.880300568627,103.880300568627,397646,WESTERHOUT ROAD,8 WESTERHOUT ROAD SINGAPORE 397646,33228.6523257811,32564.5173726138
10 WESTERHOUT ROAD SINGAPORE 397647,10,NIL,1.31079012719854,103.880363194916,103.880363194916,397647,WESTERHOUT ROAD,10 WESTERHOUT ROAD SINGAPORE 397647,33235.6220133193,32566.0793821812
12 WESTERHOUT ROAD SINGAPORE 397648,12,NIL,1.31080415332763,103.880418105615,103.880418105615,397648,WESTERHOUT ROAD,12 WESTERHOUT ROAD SINGAPORE 397648,33241.7330284277,32567.6304347385
14 WESTERHOUT ROAD SINGAPORE 397649,14,NIL,1.31081713853389,103.880483004214,103.880483004214,397649,WESTERHOUT ROAD,14 WESTERHOUT ROAD SINGAPORE 397649,33248.9556049705,32569.0664084218
15 WESTERHOUT ROAD SINGAPORE 397650,15,NIL,1.31110544141856,103.880089741093,103.880089741093,397650,WESTERHOUT ROAD,15 WESTERHOUT ROAD SINGAPORE 397650,33205.1885242676,32600.9446488731
17 WESTERHOUT ROAD SINGAPORE 397651,17,NIL,1.31111407557405,103.880144080555,103.880144080555,397651,WESTERHOUT ROAD,17 WESTERHOUT ROAD SINGAPORE 397651,33211.2359766103,32601.8994826879
19 WESTERHOUT ROAD SINGAPORE 397652,19,NIL,1.3111239849426,103.880204110251,103.880204110251,397652,WESTERHOUT ROAD,19 WESTERHOUT ROAD SINGAPORE 397652,33217.9166957084,32602.9953350388
43 WESTERHOUT ROAD SINGAPORE 397653,43,NIL,1.31114565090931,103.880290695296,103.880290695296,397653,WESTERHOUT ROAD,43 WESTERHOUT ROAD SINGAPORE 397653,33227.5527504683,32605.3912275583
45 WESTERHOUT ROAD SINGAPORE 397655,45,NIL,1.31114818869457,103.880319280475,103.880319280475,397655,WESTERHOUT ROAD,45 WESTERHOUT ROAD SINGAPORE 397655,33230.7340063611,32605.6719025709
54 WESTERHOUT ROAD SINGAPORE 397656,54,NIL,1.31091225024074,103.880846198392,103.880846198392,397656,WESTERHOUT ROAD,54 WESTERHOUT ROAD SINGAPORE 397656,33289.3755006948,32579.58413928
55 WESTERHOUT ROAD SINGAPORE 397657,55,NIL,1.31119152041268,103.880848437367,103.880848437367,397657,WESTERHOUT ROAD,55 WESTERHOUT ROAD SINGAPORE 397657,33289.6240916448,32610.4644140396
55A WESTERHOUT ROAD SINGAPORE 397658,55A,NIL,1.31119152041268,103.880848437367,103.880848437367,397658,WESTERHOUT ROAD,55A WESTERHOUT ROAD SINGAPORE 397658,33289.6240916448,32610.4644140396
56 WESTERHOUT ROAD SINGAPORE 397659,56,NIL,1.31092793305694,103.880954871026,103.880954871026,397659,WESTERHOUT ROAD,56 WESTERHOUT ROAD SINGAPORE 397659,33301.4697092166,32581.3184947483
57 WESTERHOUT ROAD SINGAPORE 397660,57,NIL,1.31119152041268,103.880848437367,103.880848437367,397660,WESTERHOUT ROAD,57 WESTERHOUT ROAD SINGAPORE 397660,33289.6240916448,32610.4644140396
61 WESTERHOUT ROAD REDDOORZ @ GEYLANG SINGAPORE 397662,61,REDDOORZ @ GEYLANG,1.31123154365597,103.881080380138,103.881080380138,397662,WESTERHOUT ROAD,REDDOORZ @ GEYLANG,33315.4370519109,32614.8904710319
69 WESTERHOUT ROAD SINGAPORE 397664,69,NIL,1.31125326487661,103.881181675646,103.881181675646,397664,WESTERHOUT ROAD,69 WESTERHOUT ROAD SINGAPORE 397664,33326.7102413746,32617.2925079502
71 WESTERHOUT ROAD SINGAPORE 397665,71,NIL,1.31125846240444,103.881244379837,103.881244379837,397665,WESTERHOUT ROAD,71 WESTERHOUT ROAD SINGAPORE 397665,33333.6886158241,32617.867357498
1 STADIUM WALK KALLANG THEATRE SINGAPORE 397688,1,KALLANG THEATRE,1.30188697865454,103.875642967826,103.875642967826,397688,STADIUM WALK,KALLANG THEATRE,32710.3217309974,31581.6054026373
2 STADIUM WALK SINGAPORE INDOOR STADIUM SINGAPORE 397691,2,SINGAPORE INDOOR STADIUM,1.30058775534295,103.874332293737,103.874332293737,397691,STADIUM WALK,SINGAPORE INDOOR STADIUM,32564.4578657579,31437.941535525
3 STADIUM WALK STADIUM MRT STATION (CC6) SINGAPORE 397692,3,STADIUM MRT STATION (CC6),1.3028124684707,103.875337711089,103.875337711089,397692,STADIUM WALK,STADIUM MRT STATION (CC6),32676.3477050858,31683.9407594204
5 STADIUM WALK DBS KALLANG LEISURE PARK SINGAPORE 397693,5,DBS KALLANG LEISURE PARK,1.30222177381282,103.876152665088,103.876152665088,397693,STADIUM WALK,DBS KALLANG LEISURE PARK,32767.0458090985,31618.6262945924
4 STADIUM WALK SPORTS HUB LIBRARY SINGAPORE 397697,4,SPORTS HUB LIBRARY,1.30185690007234,103.874174035739,103.874174035739,397697,STADIUM WALK,SPORTS HUB LIBRARY,32546.8428980773,31578.276771931
6 STADIUM WALK SINGAPORE SPORTS MUSEUM SINGAPORE 397698,6,SINGAPORE SPORTS MUSEUM,1.3015901507739,103.873589856662,103.873589856662,397698,STADIUM WALK,SINGAPORE SPORTS MUSEUM,32481.8295088839,31548.7799559031
8 STADIUM WALK WATER SPORTS CENTRE SINGAPORE 397699,8,WATER SPORTS CENTRE,1.30121118638528,103.872905191992,103.872905191992,397699,STADIUM WALK,WATER SPORTS CENTRE,32405.6331590852,31506.8748102188
5 STADIUM ROAD NATIONAL CADET CORPS KALLANG SINGAPORE 397732,5,NATIONAL CADET CORPS KALLANG,1.30589094821969,103.869920837638,103.869920837638,397732,STADIUM ROAD,NATIONAL CADET CORPS KALLANG,32073.4938565763,32024.3338686787
9 STADIUM LINK SINGAPORE 397750,9,NIL,1.30740365622522,103.873603649108,103.873603649108,397750,STADIUM LINK,9 STADIUM LINK SINGAPORE 397750,32483.3541980274,32191.6076408606
3 STADIUM LINK SINGAPORE 397752,3,NIL,1.30847357727924,103.874150951941,103.874150951941,397752,STADIUM LINK,3 STADIUM LINK SINGAPORE 397752,32544.2620076416,32309.9150191695
7 STADIUM LINK SINGAPORE 397753,7,NIL,1.30883968572,103.875158625429,103.875158625429,397753,STADIUM LINK,7 STADIUM LINK SINGAPORE 397753,32656.4060072303,32350.3992646262
1 STADIUM LINK SINGAPORE 397754,1,NIL,1.3083442902394,103.87345824759,103.87345824759,397754,STADIUM LINK,1 STADIUM LINK SINGAPORE 397754,32467.1706941016,32295.6178765241
5 STADIUM LINK SINGAPORE 397755,5,NIL,1.30865674214606,103.874464088054,103.874464088054,397755,STADIUM LINK,5 STADIUM LINK SINGAPORE 397755,32579.1108085513,32330.1690220814
11 STADIUM LINK SINGAPORE 397756,11,NIL,1.30790365003248,103.872495770265,103.872495770265,397756,STADIUM LINK,11 STADIUM LINK SINGAPORE 397756,32360.0566885835,32246.892446069
13 STADIUM LINK SINGAPORE 397757,13,NIL,1.30796129454589,103.872813275369,103.872813275369,397757,STADIUM LINK,13 STADIUM LINK SINGAPORE 397757,32395.3919565268,32253.2670347784
5 STADIUM LANE SINGAPORE 397773,5,NIL,1.30502969964897,103.871257267559,103.871257267559,397773,STADIUM LANE,5 STADIUM LANE SINGAPORE 397773,32222.2276412286,31929.1036183909
10 STADIUM LANE KALLANG WATER SPORT CENTRE SINGAPORE 397774,10,KALLANG WATER SPORT CENTRE,1.30435821251939,103.869935831599,103.869935831599,397774,STADIUM LANE,KALLANG WATER SPORT CENTRE,32075.1650124937,31854.851835208
5A STADIUM LANE SINGAPORE 397775,5A,NIL,1.30495892511981,103.87104421212,103.87104421212,397775,STADIUM LANE,5A STADIUM LANE SINGAPORE 397775,32198.5166410925,31921.2773771808
5B STADIUM LANE SINGAPORE 397776,5B,NIL,1.3050478128507,103.870729030329,103.870729030329,397776,STADIUM LANE,5B STADIUM LANE SINGAPORE 397776,32163.4396498539,31931.1056033708
5C STADIUM LANE SINGAPORE 397777,5C,NIL,1.3047661698451,103.870657327303,103.870657327303,397777,STADIUM LANE,5C STADIUM LANE SINGAPORE 397777,32155.4602223784,31899.9628446549
5D STADIUM LANE SINGAPORE 397778,5D,NIL,1.30455873284089,103.870877108809,103.870877108809,397778,STADIUM LANE,5D STADIUM LANE SINGAPORE 397778,32179.9202340404,31877.0258876663
6 STADIUM BOULEVARD KALLANG NETBALL CENTRE SINGAPORE 397797,6,KALLANG NETBALL CENTRE,1.30596812520617,103.879716209095,103.879716209095,397797,STADIUM BOULEVARD,KALLANG NETBALL CENTRE,33163.6284335963,32032.8856939934
230 STADIUM BOULEVARD SINGAPORE 397799,230,NIL,1.30426016123523,103.882367769241,103.882367769241,397799,STADIUM BOULEVARD,230 STADIUM BOULEVARD SINGAPORE 397799,33458.7263829922,31844.033361664
190 STADIUM BOULEVARD SINGAPORE 397800,190,NIL,1.30505117555894,103.881356064311,103.881356064311,397800,STADIUM BOULEVARD,190 STADIUM BOULEVARD SINGAPORE 397800,33346.1311785709,31931.4975132234
200 STADIUM BOULEVARD SINGAPORE 397801,200,NIL,1.30523371304778,103.88191820246,103.88191820246,397801,STADIUM BOULEVARD,200 STADIUM BOULEVARD SINGAPORE 397801,33408.6916200966,31951.6827775445
210 STADIUM BOULEVARD SINGAPORE 397802,210,NIL,1.30529834065479,103.882264077472,103.882264077472,397802,STADIUM BOULEVARD,210 STADIUM BOULEVARD SINGAPORE 397802,33447.1842019577,31958.829714397
220 STADIUM BOULEVARD SINGAPORE 397803,220,NIL,1.30496570014334,103.882531202922,103.882531202922,397803,STADIUM BOULEVARD,220 STADIUM BOULEVARD SINGAPORE 397803,33476.9135366362,31922.0486054067
8 STADIUM BOULEVARD SINGAPORE 397804,8,NIL,1.30565166110124,103.878755645867,103.878755645867,397804,STADIUM BOULEVARD,8 STADIUM BOULEVARD SINGAPORE 397804,33056.7272120044,31997.8907592595
10 STADIUM BOULEVARD SINGAPORE 397805,10,NIL,1.30497170679881,103.878279550924,103.878279550924,397805,STADIUM BOULEVARD,10 STADIUM BOULEVARD SINGAPORE 397805,33003.7435605275,31922.7039375231
17 OLD AIRPORT ROAD KALLANG ESTATE FRESH MARKET AND FOOD CENTRE SINGAPORE 397972,17,KALLANG ESTATE FRESH MARKET AND FOOD CENTRE,1.30739617296811,103.884130182605,103.884130182605,397972,OLD AIRPORT ROAD,KALLANG ESTATE FRESH MARKET AND FOOD CENTRE,33654.8599209497,32190.8014228474
201 OLD AIRPORT ROAD DAKOTA MRT STATION SINGAPORE 397973,201,DAKOTA MRT STATION,1.30843144331463,103.889268208422,103.889268208422,397973,OLD AIRPORT ROAD,DAKOTA MRT STATION,34226.6721360786,32305.2884973213
225 MOUNTBATTEN ROAD SINGAPORE 397997,225,NIL,1.30790762716811,103.880204768786,103.880204768786,397997,MOUNTBATTEN ROAD,225 MOUNTBATTEN ROAD SINGAPORE 397997,33217.9966334533,32247.3469198439
227 MOUNTBATTEN ROAD SINGAPORE ASSOCIATION FOR THE DEAF SINGAPORE 397998,227,SINGAPORE ASSOCIATION FOR THE DEAF,1.3078773699112,103.879746687602,103.879746687602,397998,MOUNTBATTEN ROAD,SINGAPORE ASSOCIATION FOR THE DEAF,33167.0165106216,32244.0002796892
231 MOUNTBATTEN ROAD CHERIE HEARTS @ MOUNTBATTEN PTE. LTD. SINGAPORE 397999,231,CHERIE HEARTS @ MOUNTBATTEN PTE. LTD.,1.30809319628825,103.880834672978,103.880834672978,397999,MOUNTBATTEN ROAD,CHERIE HEARTS @ MOUNTBATTEN PTE. LTD.,33288.0987366056,32267.8675231561
233 MOUNTBATTEN ROAD MOUNTBATTEN CENTRE SINGAPORE 398000,233,MOUNTBATTEN CENTRE,1.3080998988574,103.880894956294,103.880894956294,398000,MOUNTBATTEN ROAD,MOUNTBATTEN CENTRE,33294.8076957325,32268.6087860782
5 SIMS WAY SINGAPORE 398004,5,NIL,1.30798406877863,103.875590473805,103.875590473805,398004,SIMS WAY,5 SIMS WAY SINGAPORE 398004,32704.468296431,32255.7903252412
301 MOUNTBATTEN ROAD MOUNTBATTEN MRT STATION SINGAPORE 398006,301,MOUNTBATTEN MRT STATION,1.30615406128913,103.883045148696,103.883045148696,398006,MOUNTBATTEN ROAD,MOUNTBATTEN MRT STATION,33534.1084029563,32053.4526375905
229 MOUNTBATTEN ROAD CHILDFIRST SINGAPORE 398007,229,CHILDFIRST,1.30746518723646,103.881270808518,103.881270808518,398007,MOUNTBATTEN ROAD,CHILDFIRST,33336.6378978901,32198.4264122322
223 MOUNTBATTEN ROAD 223 @ MOUNTBATTEN SINGAPORE 398008,223,223 @ MOUNTBATTEN,1.30864868528194,103.879280008735,103.879280008735,398008,MOUNTBATTEN ROAD,223 @ MOUNTBATTEN,33115.0779218189,32329.287436787
2 LORONG 42 GEYLANG SINGAPORE 398022,2,NIL,1.31425465746581,103.890099521558,103.890099521558,398022,LORONG 42 GEYLANG,2 LORONG 42 GEYLANG SINGAPORE 398022,34319.1749686208,32949.1919669565
4 LORONG 42 GEYLANG SINGAPORE 398023,4,NIL,1.31420423573155,103.890117955555,103.890117955555,398023,LORONG 42 GEYLANG,4 LORONG 42 GEYLANG SINGAPORE 398023,34321.226623361,32943.6166346241
6 LORONG 42 GEYLANG SINGAPORE 398024,6,NIL,1.31413330110313,103.890132174869,103.890132174869,398024,LORONG 42 GEYLANG,6 LORONG 42 GEYLANG SINGAPORE 398024,34322.8092756933,32935.7730801273
8 LORONG 42 GEYLANG SINGAPORE 398025,8,NIL,1.31407180064398,103.890147812462,103.890147812462,398025,LORONG 42 GEYLANG,8 LORONG 42 GEYLANG SINGAPORE 398025,34324.5497452933,32928.9727116898
3 LORONG 42 GEYLANG ASTON MANSIONS SINGAPORE 398026,3,ASTON MANSIONS,1.31431128029729,103.890714083323,103.890714083323,398026,LORONG 42 GEYLANG,ASTON MANSIONS,34387.5696850792,32955.4545943961
5 LORONG 42 GEYLANG ASTON MANSIONS SINGAPORE 398027,5,ASTON MANSIONS,1.3139851228247,103.890945612601,103.890945612601,398027,LORONG 42 GEYLANG,ASTON MANSIONS,34413.3375157816,32919.390352333
7 LORONG 42 GEYLANG ASTON MANSIONS SINGAPORE 398028,7,ASTON MANSIONS,1.31393251470132,103.890612644048,103.890612644048,398028,LORONG 42 GEYLANG,ASTON MANSIONS,34376.2814221596,32913.5723615754
1 LORONG 40 GEYLANG SINGAPORE 398047,1,NIL,1.31422127850453,103.889834744079,103.889834744079,398047,LORONG 40 GEYLANG,1 LORONG 40 GEYLANG SINGAPORE 398047,34289.7078454839,32945.5004231278
2 LORONG 40 GEYLANG SINGAPORE 398048,2,NIL,1.3140770541581,103.889605554221,103.889605554221,398048,LORONG 40 GEYLANG,2 LORONG 40 GEYLANG SINGAPORE 398048,34264.2015604293,32929.5522527751
3 LORONG 40 GEYLANG SINGAPORE 398049,3,NIL,1.31416976203929,103.889808372162,103.889808372162,398049,LORONG 40 GEYLANG,3 LORONG 40 GEYLANG SINGAPORE 398049,34286.7730315151,32939.8039280549
4 LORONG 40 GEYLANG SINGAPORE 398050,4,NIL,1.31406192463976,103.889546523538,103.889546523538,398050,LORONG 40 GEYLANG,4 LORONG 40 GEYLANG SINGAPORE 398050,34257.6320459032,32927.8791597057
5 LORONG 40 GEYLANG SINGAPORE 398051,5,NIL,1.31412591812975,103.889849844588,103.889849844588,398051,LORONG 40 GEYLANG,5 LORONG 40 GEYLANG SINGAPORE 398051,34291.3886266202,32934.955995908
6 LORONG 40 GEYLANG SINGAPORE 398052,6,NIL,1.31405306203902,103.889496072378,103.889496072378,398052,LORONG 40 GEYLANG,6 LORONG 40 GEYLANG SINGAPORE 398052,34252.0173349241,32926.8990521263
7 LORONG 40 GEYLANG SINGAPORE 398053,7,NIL,1.31408441458626,103.889857413748,103.889857413748,398053,LORONG 40 GEYLANG,7 LORONG 40 GEYLANG SINGAPORE 398053,34292.2311056787,32930.3667642158
8 LORONG 40 GEYLANG PARK 1 SUITES SINGAPORE 398054,8,PARK 1 SUITES,1.31404268792091,103.889347045446,103.889347045446,398054,LORONG 40 GEYLANG,PARK 1 SUITES,34235.43208405,32925.7515625954
9 LORONG 40 GEYLANG SINGAPORE 398055,9,NIL,1.31404140792019,103.889903472196,103.889903472196,398055,LORONG 40 GEYLANG,9 LORONG 40 GEYLANG SINGAPORE 398055,34297.3570795255,32925.611421831
11 LORONG 40 GEYLANG SINGAPORE 398057,11,NIL,1.31398924546469,103.889876285163,103.889876285163,398057,LORONG 40 GEYLANG,11 LORONG 40 GEYLANG SINGAPORE 398057,34294.3315524086,32919.8434943166
15 LORONG 40 GEYLANG SINGAPORE 398061,15,NIL,1.31393392686912,103.889885170359,103.889885170359,398061,LORONG 40 GEYLANG,15 LORONG 40 GEYLANG SINGAPORE 398061,34295.3205285091,32913.7266677562
16 LORONG 40 GEYLANG SINGAPORE 398062,16,NIL,1.31399722432065,103.889207313766,103.889207313766,398062,LORONG 40 GEYLANG,16 LORONG 40 GEYLANG SINGAPORE 398062,34219.8813928599,32920.7240807675
17 LORONG 40 GEYLANG SINGAPORE 398063,17,NIL,1.31389178026435,103.8898954935,103.8898954935,398063,LORONG 40 GEYLANG,17 LORONG 40 GEYLANG SINGAPORE 398063,34296.4695011713,32909.0663365703
18 LORONG 40 GEYLANG SINGAPORE 398064,18,NIL,1.31398723199455,103.889157882754,103.889157882754,398064,LORONG 40 GEYLANG,18 LORONG 40 GEYLANG SINGAPORE 398064,34214.3802170865,32919.6190572176
19 LORONG 40 GEYLANG SINGAPORE 398065,19,NIL,1.31383562262879,103.889894505247,103.889894505247,398065,LORONG 40 GEYLANG,19 LORONG 40 GEYLANG SINGAPORE 398065,34296.3596586576,32902.856708372
20 LORONG 40 GEYLANG SINGAPORE 398066,20,NIL,1.31397636063382,103.889099717314,103.889099717314,398066,LORONG 40 GEYLANG,20 LORONG 40 GEYLANG SINGAPORE 398066,34207.9069850175,32918.4168129042
21 LORONG 40 GEYLANG SINGAPORE 398067,21,NIL,1.31379421901779,103.889913202447,103.889913202447,398067,LORONG 40 GEYLANG,21 LORONG 40 GEYLANG SINGAPORE 398067,34298.440582539,32898.2785547618
22 LORONG 40 GEYLANG SINGAPORE 398068,22,NIL,1.31396630206121,103.889050330361,103.889050330361,398068,LORONG 40 GEYLANG,22 LORONG 40 GEYLANG SINGAPORE 398068,34202.4107126584,32917.3044645023
23 LORONG 40 GEYLANG SINGAPORE 398069,23,NIL,1.31373605105381,103.889925739084,103.889925739084,398069,LORONG 40 GEYLANG,23 LORONG 40 GEYLANG SINGAPORE 398069,34299.8359365882,32891.8466687575
24 LORONG 40 GEYLANG SINGAPORE 398071,24,NIL,1.31395804806123,103.888995288316,103.888995288316,398071,LORONG 40 GEYLANG,24 LORONG 40 GEYLANG SINGAPORE 398071,34196.285078113,32916.3916426506
50 LORONG 40 GEYLANG THE SUNNY SPRING SINGAPORE 398074,50,THE SUNNY SPRING,1.31219203070087,103.889464697147,103.889464697147,398074,LORONG 40 GEYLANG,THE SUNNY SPRING,34248.5301907882,32721.1155966707
51 LORONG 40 GEYLANG THE WATERINA SINGAPORE 398075,51,THE WATERINA,1.31283005660824,103.890193955593,103.890193955593,398075,LORONG 40 GEYLANG,THE WATERINA,34329.6881592805,32791.6670885775
52 LORONG 40 GEYLANG THE SUNNY SPRING SINGAPORE 398076,52,THE SUNNY SPRING,1.31238856413837,103.889350744168,103.889350744168,398076,LORONG 40 GEYLANG,THE SUNNY SPRING,34235.8478148067,32742.8469798695
53 LORONG 40 GEYLANG THE WATERINA SINGAPORE 398077,53,THE WATERINA,1.31312793914889,103.890126164144,103.890126164144,398077,LORONG 40 GEYLANG,THE WATERINA,34322.1428654958,32824.6052532829
55 LORONG 40 GEYLANG THE WATERINA SINGAPORE 398079,55,THE WATERINA,1.31318637684012,103.890372142778,103.890372142778,398079,LORONG 40 GEYLANG,THE WATERINA,34349.5178050613,32831.0676191468
57 LORONG 40 GEYLANG THE WATERINA SINGAPORE 398081,57,THE WATERINA,1.31323587385545,103.890617664577,103.890617664577,398081,LORONG 40 GEYLANG,THE WATERINA,34376.8419246823,32836.541372126
59 LORONG 40 GEYLANG THE WATERINA SINGAPORE 398082,59,THE WATERINA,1.3132821071538,103.89085032363,103.89085032363,398082,LORONG 40 GEYLANG,THE WATERINA,34402.7345502814,32841.6542096678
61 LORONG 40 GEYLANG THE WATERINA SINGAPORE 398083,61,THE WATERINA,1.31334568957429,103.891084785996,103.891084785996,398083,LORONG 40 GEYLANG,THE WATERINA,34428.8278223444,32848.6854320169
63 LORONG 40 GEYLANG THE WATERINA SINGAPORE 398084,63,THE WATERINA,1.31311337211223,103.891031993749,103.891031993749,398084,LORONG 40 GEYLANG,THE WATERINA,34422.9531396525,32822.9968126286
65 LORONG 40 GEYLANG THE WATERINA SINGAPORE 398085,65,THE WATERINA,1.31283827951714,103.891132274656,103.891132274656,398085,LORONG 40 GEYLANG,THE WATERINA,34434.1141559687,32792.5787299797
67 LORONG 40 GEYLANG THE WATERINA SINGAPORE 398086,67,THE WATERINA,1.31254566426458,103.891064420547,103.891064420547,398086,LORONG 40 GEYLANG,THE WATERINA,34426.5633836789,32760.2226488702
69 LORONG 40 GEYLANG THE WATERINA SINGAPORE 398087,69,THE WATERINA,1.31247106961861,103.890851381291,103.890851381291,398087,LORONG 40 GEYLANG,THE WATERINA,34402.8543206928,32751.9738060702
71 LORONG 40 GEYLANG THE WATERINA SINGAPORE 398088,71,THE WATERINA,1.31242155479032,103.890607596382,103.890607596382,398088,LORONG 40 GEYLANG,THE WATERINA,34375.7234924156,32746.498085672
73 LORONG 40 GEYLANG THE WATERINA SINGAPORE 398089,73,THE WATERINA,1.31234991988466,103.890291176603,103.890291176603,398089,LORONG 40 GEYLANG,THE WATERINA,34340.509145068,32738.5762581695
8 LORONG 38 GEYLANG THE WATER EDGE SINGAPORE 398106,8,THE WATER EDGE,1.31372105189031,103.888759579471,103.888759579471,398106,LORONG 38 GEYLANG,THE WATER EDGE,34170.0535116326,32890.1852288637
1 LORONG 36 GEYLANG SINGAPORE 398136,1,NIL,1.31394683621756,103.888456415516,103.888456415516,398136,LORONG 36 GEYLANG,1 LORONG 36 GEYLANG SINGAPORE 398136,34136.3136993786,32915.1505645141
2 LORONG 36 GEYLANG SINGAPORE 398137,2,NIL,1.31387392279026,103.888111645662,103.888111645662,398137,LORONG 36 GEYLANG,2 LORONG 36 GEYLANG SINGAPORE 398137,34097.944277944,32907.0873249918
3 LORONG 36 GEYLANG SINGAPORE 398138,3,NIL,1.31389748118285,103.888464686488,103.888464686488,398138,LORONG 36 GEYLANG,3 LORONG 36 GEYLANG SINGAPORE 398138,34137.234300104,32909.6931562461
4 LORONG 36 GEYLANG SINGAPORE 398139,4,NIL,1.31382926747653,103.888119867244,103.888119867244,398139,LORONG 36 GEYLANG,4 LORONG 36 GEYLANG SINGAPORE 398139,34098.8593698954,32902.1495877355
5 LORONG 36 GEYLANG SINGAPORE 398140,5,NIL,1.31384734097892,103.888477612801,103.888477612801,398140,LORONG 36 GEYLANG,5 LORONG 36 GEYLANG SINGAPORE 398140,34138.6729979059,32904.1489394009
6 LORONG 36 GEYLANG SINGAPORE 398141,6,NIL,1.31377571880031,103.88813064436,103.88813064436,398141,LORONG 36 GEYLANG,6 LORONG 36 GEYLANG SINGAPORE 398141,34100.0588900903,32896.2284739576
7 LORONG 36 GEYLANG SINGAPORE 398142,7,NIL,1.31380395304266,103.888486042191,103.888486042191,398142,LORONG 36 GEYLANG,7 LORONG 36 GEYLANG SINGAPORE 398142,34139.6112145968,32899.351342909
8 LORONG 36 GEYLANG SINGAPORE 398143,8,NIL,1.31373173494652,103.888139165126,103.888139165126,398143,LORONG 36 GEYLANG,8 LORONG 36 GEYLANG SINGAPORE 398143,34101.0072768237,32891.3649840653
9 LORONG 36 GEYLANG SINGAPORE 398144,9,NIL,1.3137501610338,103.888496047979,103.888496047979,398144,LORONG 36 GEYLANG,9 LORONG 36 GEYLANG SINGAPORE 398144,34140.72489479,32893.4033208936
10 LORONG 36 GEYLANG SINGAPORE 398145,10,NIL,1.31367818381624,103.888149505997,103.888149505997,398145,LORONG 36 GEYLANG,10 LORONG 36 GEYLANG SINGAPORE 398145,34102.1582471728,32885.4435978755
11 LORONG 36 GEYLANG SINGAPORE 398146,11,NIL,1.31370688610977,103.888506248458,103.888506248458,398146,LORONG 36 GEYLANG,11 LORONG 36 GEYLANG SINGAPORE 398146,34141.8602165915,32888.618225079
12 LORONG 36 GEYLANG SINGAPORE 398147,12,NIL,1.31363444220151,103.888158680862,103.888158680862,398147,LORONG 36 GEYLANG,12 LORONG 36 GEYLANG SINGAPORE 398147,34103.1794284079,32880.6068951488
14 LORONG 36 GEYLANG SINGAPORE 398149,14,NIL,1.31358088365882,103.888169996755,103.888169996755,398149,LORONG 36 GEYLANG,14 LORONG 36 GEYLANG SINGAPORE 398149,34104.4389094785,32874.6846917234
15 LORONG 36 GEYLANG EVERGREEN VIEW SINGAPORE 398150,15,EVERGREEN VIEW,1.31352657764499,103.888547680917,103.888547680917,398150,LORONG 36 GEYLANG,EVERGREEN VIEW,34146.4716952508,32868.6807344723
16 LORONG 36 GEYLANG SINGAPORE 398151,16,NIL,1.31353689515644,103.888178291238,103.888178291238,398151,LORONG 36 GEYLANG,16 LORONG 36 GEYLANG SINGAPORE 398151,34105.3621132495,32869.8206872754
18 LORONG 36 GEYLANG SINGAPORE 398153,18,NIL,1.31349445121909,103.888228698292,103.888228698292,398153,LORONG 36 GEYLANG,18 LORONG 36 GEYLANG SINGAPORE 398153,34110.9720418872,32865.1275758632
20 LORONG 36 GEYLANG SINGAPORE 398155,20,NIL,1.3134391417279,103.888197391387,103.888197391387,398155,LORONG 36 GEYLANG,20 LORONG 36 GEYLANG SINGAPORE 398155,34107.4880153537,32859.0116573423
22 LORONG 36 GEYLANG SINGAPORE 398157,22,NIL,1.31338569707426,103.888207964523,103.888207964523,398157,LORONG 36 GEYLANG,22 LORONG 36 GEYLANG SINGAPORE 398157,34108.6648345608,32853.1020453963
24 LORONG 36 GEYLANG SINGAPORE 398159,24,NIL,1.31333920774903,103.88822862392,103.88822862392,398159,LORONG 36 GEYLANG,24 LORONG 36 GEYLANG SINGAPORE 398159,34110.9641419435,32847.9615429174
26 LORONG 36 GEYLANG SINGAPORE 398160,26,NIL,1.31316605565479,103.888274770926,103.888274770926,398160,LORONG 36 GEYLANG,26 LORONG 36 GEYLANG SINGAPORE 398160,34116.1002858328,32828.8153784778
28 LORONG 36 GEYLANG SINGAPORE 398161,28,NIL,1.31311082712292,103.888295956669,103.888295956669,398161,LORONG 36 GEYLANG,28 LORONG 36 GEYLANG SINGAPORE 398161,34118.4581920328,32822.7085403521
30 LORONG 36 GEYLANG SUNFLOWER VIEW SINGAPORE 398162,30,SUNFLOWER VIEW,1.31288444198327,103.888327290325,103.888327290325,398162,LORONG 36 GEYLANG,SUNFLOWER VIEW,34121.9458809923,32797.6761005819
44 LORONG 36 GEYLANG SINGAPORE 398169,44,NIL,1.31267005264658,103.888382918199,103.888382918199,398169,LORONG 36 GEYLANG,44 LORONG 36 GEYLANG SINGAPORE 398169,34128.1372575974,32773.9701551981
46 LORONG 36 GEYLANG SINGAPORE 398170,46,NIL,1.31256957615709,103.888412793833,103.888412793833,398170,LORONG 36 GEYLANG,46 LORONG 36 GEYLANG SINGAPORE 398170,34131.4623772167,32762.8600496314
48 LORONG 36 GEYLANG SINGAPORE 398171,48,NIL,1.31252165028491,103.88842090029,103.88842090029,398171,LORONG 36 GEYLANG,48 LORONG 36 GEYLANG SINGAPORE 398171,34132.364665811,32757.5606705062
50 LORONG 36 GEYLANG SINGAPORE 398172,50,NIL,1.31246091310022,103.888432086829,103.888432086829,398172,LORONG 36 GEYLANG,50 LORONG 36 GEYLANG SINGAPORE 398172,34133.6097695893,32750.8446892072
52 LORONG 36 GEYLANG SINGAPORE 398173,52,NIL,1.31241248543693,103.888441941243,103.888441941243,398173,LORONG 36 GEYLANG,52 LORONG 36 GEYLANG SINGAPORE 398173,34134.7065905156,32745.4898288678
54 LORONG 36 GEYLANG SINGAPORE 398174,54,NIL,1.31234880954458,103.888424454727,103.888424454727,398174,LORONG 36 GEYLANG,54 LORONG 36 GEYLANG SINGAPORE 398174,34132.7606618423,32738.4488299582
56 LORONG 36 GEYLANG SINGAPORE 398175,56,NIL,1.31229498139463,103.88843482849,103.88843482849,398175,LORONG 36 GEYLANG,56 LORONG 36 GEYLANG SINGAPORE 398175,34133.9152946174,32732.496812569
58 LORONG 36 GEYLANG SINGAPORE 398176,58,NIL,1.31224329289457,103.888475284378,103.888475284378,398176,LORONG 36 GEYLANG,58 LORONG 36 GEYLANG SINGAPORE 398176,34138.4177782675,32726.7814605441
60 LORONG 36 GEYLANG SINGAPORE 398177,60,NIL,1.312193789381,103.888488745396,103.888488745396,398177,LORONG 36 GEYLANG,60 LORONG 36 GEYLANG SINGAPORE 398177,34139.9159829253,32721.3076470271
1 LORONG 34 GEYLANG SINGAPORE 398199,1,NIL,1.31382470792201,103.887870596439,103.887870596439,398199,LORONG 34 GEYLANG,1 LORONG 34 GEYLANG SINGAPORE 398199,34071.1179153156,32901.6448085718
2 LORONG 34 GEYLANG GEYLANG CONSERVATION AREA SINGAPORE 398200,2,GEYLANG CONSERVATION AREA,1.31375427601667,103.887515901293,103.887515901293,398200,LORONG 34 GEYLANG,GEYLANG CONSERVATION AREA,34031.6438940819,32893.8559483215
3 LORONG 34 GEYLANG SINGAPORE 398201,3,NIL,1.31377191501339,103.887894267808,103.887894267808,398201,LORONG 34 GEYLANG,3 LORONG 34 GEYLANG SINGAPORE 398201,34073.7524406184,32895.8072949629
4 LORONG 34 GEYLANG GEYLANG CONSERVATION AREA SINGAPORE 398202,4,GEYLANG CONSERVATION AREA,1.31370539139036,103.887505529101,103.887505529101,398202,LORONG 34 GEYLANG,GEYLANG CONSERVATION AREA,34030.4896850595,32888.4505101815
6 LORONG 34 GEYLANG GEYLANG CONSERVATION AREA SINGAPORE 398204,6,GEYLANG CONSERVATION AREA,1.31366553719055,103.887558772903,103.887558772903,398204,LORONG 34 GEYLANG,GEYLANG CONSERVATION AREA,34036.4153087679,32884.0437641647
8 LORONG 34 GEYLANG GEYLANG CONSERVATION AREA SINGAPORE 398206,8,GEYLANG CONSERVATION AREA,1.3136154451865,103.887545759828,103.887545759828,398206,LORONG 34 GEYLANG,GEYLANG CONSERVATION AREA,34034.9671976222,32878.5048139468
9 LORONG 34 GEYLANG SUNFLOWER LODGE SINGAPORE 398207,9,SUNFLOWER LODGE,1.31359813614381,103.887912449228,103.887912449228,398207,LORONG 34 GEYLANG,SUNFLOWER LODGE,34075.7762790816,32876.5917563047
10 LORONG 34 GEYLANG GEYLANG CONSERVATION AREA SINGAPORE 398208,10,GEYLANG CONSERVATION AREA,1.31356107975723,103.887541074741,103.887541074741,398208,LORONG 34 GEYLANG,GEYLANG CONSERVATION AREA,34034.4459224073,32872.4933502376
11 LORONG 34 GEYLANG THE ETAGE SINGAPORE 398209,11,THE ETAGE,1.31354884739434,103.887931324702,103.887931324702,398209,LORONG 34 GEYLANG,THE ETAGE,34077.8770587593,32871.1417031568
12 LORONG 34 GEYLANG GEYLANG CONSERVATION AREA SINGAPORE 398210,12,GEYLANG CONSERVATION AREA,1.31351776711772,103.887561226176,103.887561226176,398210,LORONG 34 GEYLANG,GEYLANG CONSERVATION AREA,34036.6886891965,32867.7041077092
14 LORONG 34 GEYLANG GEYLANG CONSERVATION AREA SINGAPORE 398211,14,GEYLANG CONSERVATION AREA,1.31346317113224,103.887572427286,103.887572427286,398211,LORONG 34 GEYLANG,GEYLANG CONSERVATION AREA,34037.9353971779,32861.6671886258
15 LORONG 34 GEYLANG SINGAPORE 398212,15,NIL,1.31349222697736,103.887938072749,103.887938072749,398212,LORONG 34 GEYLANG,15 LORONG 34 GEYLANG SINGAPORE 398212,34078.6281890431,32864.8809220642
16 LORONG 34 GEYLANG PENANG SERVICE APARTMENTS SINGAPORE 398213,16,PENANG SERVICE APARTMENTS,1.31334216639182,103.887624564305,103.887624564305,398213,LORONG 34 GEYLANG,PENANG SERVICE APARTMENTS,34043.7380420687,32848.2872264236
19 LORONG 34 GEYLANG SINGAPORE 398216,19,NIL,1.31343973574588,103.887948200692,103.887948200692,398216,LORONG 34 GEYLANG,19 LORONG 34 GEYLANG SINGAPORE 398216,34079.755459561,32859.0767335072
21 LORONG 34 GEYLANG SINGAPORE 398218,21,NIL,1.31339113755135,103.887957938166,103.887957938166,398218,LORONG 34 GEYLANG,21 LORONG 34 GEYLANG SINGAPORE 398218,34080.8392652534,32853.7030162141
22 LORONG 34 GEYLANG SINGAPORE 398219,22,NIL,1.31322770450296,103.887584916094,103.887584916094,398219,LORONG 34 GEYLANG,22 LORONG 34 GEYLANG SINGAPORE 398219,34039.3258478139,32835.6305176914
23 LORONG 34 GEYLANG SINGAPORE 398220,23,NIL,1.31334316414357,103.887949388205,103.887949388205,398220,LORONG 34 GEYLANG,23 LORONG 34 GEYLANG SINGAPORE 398220,34079.8878517216,32848.3983401917
24 LORONG 34 GEYLANG SINGAPORE 398221,24,NIL,1.31322770422924,103.88758491555,103.88758491555,398221,LORONG 34 GEYLANG,24 LORONG 34 GEYLANG SINGAPORE 398221,34039.3257872779,32835.6304874234
25 LORONG 34 GEYLANG SINGAPORE 398222,25,NIL,1.31328099932872,103.887965817546,103.887965817546,398222,LORONG 34 GEYLANG,25 LORONG 34 GEYLANG SINGAPORE 398222,34081.7164314212,32841.5245113578
26 LORONG 34 GEYLANG GEYLANG HERITAGE SINGAPORE 398223,26,GEYLANG HERITAGE,1.31302142355877,103.887521408189,103.887521408189,398223,LORONG 34 GEYLANG,GEYLANG HERITAGE,34032.2585157594,32812.8208678421
27 LORONG 34 GEYLANG SINGAPORE 398224,27,NIL,1.31309306963044,103.888030797545,103.888030797545,398224,LORONG 34 GEYLANG,27 LORONG 34 GEYLANG SINGAPORE 398224,34088.9485423788,32820.7443600837
28 LORONG 34 GEYLANG GEYLANG HERITAGE SINGAPORE 398225,28,GEYLANG HERITAGE,1.31298859976818,103.887681492808,103.887681492808,398225,LORONG 34 GEYLANG,GEYLANG HERITAGE,34050.0744931195,32809.1917668618
29A LORONG 34 GEYLANG SINGAPORE 398226,29A,NIL,1.31309306990419,103.888030797273,103.888030797273,398226,LORONG 34 GEYLANG,29A LORONG 34 GEYLANG SINGAPORE 398226,34088.9485121109,32820.7443903517
30 LORONG 34 GEYLANG GEYLANG HERITAGE SINGAPORE 398227,30,GEYLANG HERITAGE,1.31293641464809,103.887675571107,103.887675571107,398227,LORONG 34 GEYLANG,GEYLANG HERITAGE,34049.4155893819,32803.4213876426
31 LORONG 34 GEYLANG SINGAPORE 398228,31,NIL,1.31289068696546,103.888027802262,103.888027802262,398228,LORONG 34 GEYLANG,31 LORONG 34 GEYLANG SINGAPORE 398228,34088.6156853624,32798.3659079298
32 LORONG 34 GEYLANG GEYLANG HERITAGE SINGAPORE 398229,32,GEYLANG HERITAGE,1.31287269710383,103.887684888876,103.887684888876,398229,LORONG 34 GEYLANG,GEYLANG HERITAGE,34050.4527218444,32796.3758485373
33 LORONG 34 GEYLANG SINGAPORE 398230,33,NIL,1.31281658008951,103.88807779386,103.88807779386,398230,LORONG 34 GEYLANG,33 LORONG 34 GEYLANG SINGAPORE 398230,34094.179455325,32790.1716685742
34 LORONG 34 GEYLANG GEYLANG HERITAGE SINGAPORE 398231,34,GEYLANG HERITAGE,1.31277798791187,103.88765159438,103.88765159438,398231,LORONG 34 GEYLANG,GEYLANG HERITAGE,34046.7475876892,32785.9033077788
35 LORONG 34 GEYLANG SINGAPORE 398232,35,NIL,1.31276661668335,103.888067467329,103.888067467329,398232,LORONG 34 GEYLANG,35 LORONG 34 GEYLANG SINGAPORE 398232,34093.0303313229,32784.6469443105
39 LORONG 34 GEYLANG SINGAPORE 398233,39,NIL,1.31265932201205,103.888087079123,103.888087079123,398233,LORONG 34 GEYLANG,39 LORONG 34 GEYLANG SINGAPORE 398233,34095.2131977733,32772.7828935366
45 LORONG 34 GEYLANG PRIMEDGE SINGAPORE 398236,45,PRIMEDGE,1.31253129900962,103.888139939124,103.888139939124,398236,LORONG 34 GEYLANG,PRIMEDGE,34101.0963252326,32758.6268904991
50 LORONG 34 GEYLANG PERTAPIS HALFWAY HOUSE SINGAPORE 398239,50,PERTAPIS HALFWAY HOUSE,1.31207928888047,103.887704537545,103.887704537545,398239,LORONG 34 GEYLANG,PERTAPIS HALFWAY HOUSE,34052.6413392108,32708.644854432
51 LORONG 34 GEYLANG CENTRAL MEADOWS SINGAPORE 398240,51,CENTRAL MEADOWS,1.31225825932858,103.888161790535,103.888161790535,398240,LORONG 34 GEYLANG,CENTRAL MEADOWS,34103.5288420115,32728.4356058538
1 LORONG 32 GEYLANG MILL AT 32 SINGAPORE 398265,1,MILL AT 32,1.31357450953425,103.887244045108,103.887244045108,398265,LORONG 32 GEYLANG,MILL AT 32,34001.3893190818,32873.9776316229
4A LORONG 32 GEYLANG SINGAPORE 398267,4A,NIL,1.31356073371109,103.886747436628,103.886747436628,398267,LORONG 32 GEYLANG,4A LORONG 32 GEYLANG SINGAPORE 398267,33946.1215547491,32872.4531846233
6 LORONG 32 GEYLANG FOONG SHOON FUI KUAN BUILDING SINGAPORE 398269,6,FOONG SHOON FUI KUAN BUILDING,1.3134762471516,103.886735300224,103.886735300224,398269,LORONG 32 GEYLANG,FOONG SHOON FUI KUAN BUILDING,33944.7710881196,32863.1110622529
8 LORONG 32 GEYLANG GEYLANG CONSERVATION AREA SINGAPORE 398271,8,GEYLANG CONSERVATION AREA,1.31337881116083,103.886759099038,103.886759099038,398271,LORONG 32 GEYLANG,GEYLANG CONSERVATION AREA,33947.4198999107,32852.3371431809
10 LORONG 32 GEYLANG GEYLANG CONSERVATION AREA SINGAPORE 398273,10,GEYLANG CONSERVATION AREA,1.31333115036856,103.886749727476,103.886749727476,398273,LORONG 32 GEYLANG,GEYLANG CONSERVATION AREA,33946.3770467993,32847.0670331959
12 LORONG 32 GEYLANG GEYLANG CONSERVATION AREA SINGAPORE 398275,12,GEYLANG CONSERVATION AREA,1.31328154588304,103.88676191733,103.88676191733,398275,LORONG 32 GEYLANG,GEYLANG CONSERVATION AREA,33947.7337789023,32841.5820507947
14 LORONG 32 GEYLANG GEYLANG CONSERVATION AREA SINGAPORE 398277,14,GEYLANG CONSERVATION AREA,1.31323272380481,103.886757715674,103.886757715674,398277,LORONG 32 GEYLANG,GEYLANG CONSERVATION AREA,33947.2662898935,32836.183544023
20 LORONG 32 GEYLANG CENTRO MANSIONS SINGAPORE 398280,20,CENTRO MANSIONS,1.31309633401655,103.886754727605,103.886754727605,398280,LORONG 32 GEYLANG,CENTRO MANSIONS,33946.9340685038,32821.1022487227
23 LORONG 32 GEYLANG SINGAPORE 398282,23,NIL,1.3133467638883,103.887278325115,103.887278325115,398282,LORONG 32 GEYLANG,23 LORONG 32 GEYLANG SINGAPORE 398282,34005.2049011095,32848.7947599739
25 LORONG 32 GEYLANG BLUWEL APARTMENTS SINGAPORE 398283,25,BLUWEL APARTMENTS,1.31323260994836,103.8871121348,103.8871121348,398283,LORONG 32 GEYLANG,BLUWEL APARTMENTS,33986.7097707307,32836.1718000453
26 LORONG 32 GEYLANG SINGAPORE 398284,26,NIL,1.31295536718038,103.886813540348,103.886813540348,398284,LORONG 32 GEYLANG,26 LORONG 32 GEYLANG SINGAPORE 398284,33953.4797015907,32805.5149938092
27 LORONG 32 GEYLANG SINGAPORE 398285,27,NIL,1.31315261763521,103.887259614939,103.887259614939,398285,LORONG 32 GEYLANG,27 LORONG 32 GEYLANG SINGAPORE 398285,34003.1230994575,32827.3270109147
29 LORONG 32 GEYLANG SINGAPORE 398286,29,NIL,1.31303004119389,103.887207775124,103.887207775124,398286,LORONG 32 GEYLANG,29 LORONG 32 GEYLANG SINGAPORE 398286,33997.3541125646,32813.7730078064
29A LORONG 32 GEYLANG SINGAPORE 398287,29A,NIL,1.31303004119389,103.887207775124,103.887207775124,398287,LORONG 32 GEYLANG,29A LORONG 32 GEYLANG SINGAPORE 398287,33997.3541125646,32813.7730078064
29B LORONG 32 GEYLANG SINGAPORE 398288,29B,NIL,1.31295544817612,103.887207653044,103.887207653044,398288,LORONG 32 GEYLANG,29B LORONG 32 GEYLANG SINGAPORE 398288,33997.3407038478,32805.5248914398
29C LORONG 32 GEYLANG SINGAPORE 398289,29C,NIL,1.31295544817612,103.887207653044,103.887207653044,398289,LORONG 32 GEYLANG,29C LORONG 32 GEYLANG SINGAPORE 398289,33997.3407038478,32805.5248914398
31 LORONG 32 GEYLANG SINGAPORE 398291,31,NIL,1.31288627877583,103.887162781231,103.887162781231,398291,LORONG 32 GEYLANG,31 LORONG 32 GEYLANG SINGAPORE 398291,33992.3470616257,32797.8763838299
33 LORONG 32 GEYLANG LOFT 33 SINGAPORE 398293,33,LOFT 33,1.31278422240834,103.887200888953,103.887200888953,398293,LORONG 32 GEYLANG,LOFT 33,33996.5883325767,32786.5916017275
38 LORONG 32 GEYLANG NESS SINGAPORE 398298,38,NESS,1.31269794714045,103.886776844129,103.886776844129,398298,LORONG 32 GEYLANG,NESS,33949.3963689795,32777.0507095084
39 LORONG 32 GEYLANG SILVERSCAPE SINGAPORE 398299,39,SILVERSCAPE,1.31256998658763,103.887209225771,103.887209225771,398299,LORONG 32 GEYLANG,SILVERSCAPE,33997.5166516369,32762.9025156125
42 LORONG 32 GEYLANG SINGAPORE 398302,42,NIL,1.31251913196043,103.886828709603,103.886828709603,398302,LORONG 32 GEYLANG,42 LORONG 32 GEYLANG SINGAPORE 398302,33955.1689274944,32757.2783610206
44 LORONG 32 GEYLANG SINGAPORE 398304,44,NIL,1.31245515590263,103.886830508431,103.886830508431,398304,LORONG 32 GEYLANG,44 LORONG 32 GEYLANG SINGAPORE 398304,33955.3692712784,32750.2042186707
45 LORONG 32 GEYLANG SUNFLOWER RESIDENCE SINGAPORE 398305,45,SUNFLOWER RESIDENCE,1.31241326518363,103.887148121308,103.887148121308,398305,LORONG 32 GEYLANG,SUNFLOWER RESIDENCE,33990.7166766832,32745.572914483
46 LORONG 32 GEYLANG SINGAPORE 398306,46,NIL,1.31240914571315,103.886834138017,103.886834138017,398306,LORONG 32 GEYLANG,46 LORONG 32 GEYLANG SINGAPORE 398306,33955.7733185934,32745.1166548952
47 LORONG 32 GEYLANG SUNFLOWER RESIDENCE SINGAPORE 398307,47,SUNFLOWER RESIDENCE,1.31243825333825,103.887341813982,103.887341813982,398307,LORONG 32 GEYLANG,SUNFLOWER RESIDENCE,34012.2727779867,32748.3364419322
48 LORONG 32 GEYLANG REZI 3TWO SINGAPORE 398308,48,REZI 3TWO,1.31212753143258,103.886814275583,103.886814275583,398308,LORONG 32 GEYLANG,REZI 3TWO,33953.5634833695,32713.9771348555
49 LORONG 32 GEYLANG SINGAPORE 398309,49,NIL,1.31230913437041,103.887253899585,103.887253899585,398309,LORONG 32 GEYLANG,49 LORONG 32 GEYLANG SINGAPORE 398309,34002.4890457345,32734.0589129403
51 LORONG 32 GEYLANG CASA EMERALD SINGAPORE 398311,51,CASA EMERALD,1.31212684107149,103.887220230365,103.887220230365,398311,LORONG 32 GEYLANG,CASA EMERALD,33998.7424141737,32713.9017675761
1 LORONG 30 GEYLANG THE SANCTUARY @ GEYLANG SINGAPORE 398342,1,THE SANCTUARY @ GEYLANG,1.31345709214795,103.886467318231,103.886467318231,398342,LORONG 30 GEYLANG,THE SANCTUARY @ GEYLANG,33914.9472870631,32860.9923639279
7 LORONG 30 GEYLANG SINGAPORE 398345,7,NIL,1.31334725672328,103.88644738901,103.88644738901,398345,LORONG 30 GEYLANG,7 LORONG 30 GEYLANG SINGAPORE 398345,33912.7296124324,32848.8472749256
9 LORONG 30 GEYLANG SINGAPORE 398347,9,NIL,1.31329767440531,103.886459862538,103.886459862538,398347,LORONG 30 GEYLANG,9 LORONG 30 GEYLANG SINGAPORE 398347,33914.1179140415,32843.3647442311
11 LORONG 30 GEYLANG SINGAPORE 398348,11,NIL,1.31323384840415,103.886446487202,103.886446487202,398348,LORONG 30 GEYLANG,11 LORONG 30 GEYLANG SINGAPORE 398348,33912.6295162104,32836.3071584683
15 LORONG 30 GEYLANG SINGAPORE 398349,15,NIL,1.31318382679314,103.886469505104,103.886469505104,398349,LORONG 30 GEYLANG,15 LORONG 30 GEYLANG SINGAPORE 398349,33915.1913075484,32830.776077928
17 LORONG 30 GEYLANG SINGAPORE 398350,17,NIL,1.31312620871647,103.88647185754,103.88647185754,398350,LORONG 30 GEYLANG,17 LORONG 30 GEYLANG SINGAPORE 398350,33915.4532466792,32824.404970035
21 LORONG 30 GEYLANG IDYLLIC SUITES SINGAPORE 398353,21,IDYLLIC SUITES,1.31285080910896,103.886497625764,103.886497625764,398353,LORONG 30 GEYLANG,IDYLLIC SUITES,33918.3216526918,32793.9527451005
23 LORONG 30 GEYLANG COSY 23 SINGAPORE 398355,23,COSY 23,1.3125776569644,103.886492342637,103.886492342637,398355,LORONG 30 GEYLANG,COSY 23,33917.7343327366,32763.748959776
25 LORONG 30 GEYLANG SINGAPORE 398356,25,NIL,1.3124237650717,103.886510197657,103.886510197657,398356,LORONG 30 GEYLANG,25 LORONG 30 GEYLANG SINGAPORE 398356,33919.7217890825,32746.7324204035
25A LORONG 30 GEYLANG SINGAPORE 398357,25A,NIL,1.31236201935946,103.886513374626,103.886513374626,398357,LORONG 30 GEYLANG,25A LORONG 30 GEYLANG SINGAPORE 398357,33920.0755007407,32739.9049015827
26 LORONG 30 GEYLANG THE MIDAS SINGAPORE 398359,26,THE MIDAS,1.31287327322577,103.886114462631,103.886114462631,398359,LORONG 30 GEYLANG,THE MIDAS,33875.6791789234,32796.435809413
28 LORONG 30 GEYLANG SUITES 28 SINGAPORE 398361,28,SUITES 28,1.31268459175571,103.885941111431,103.885941111431,398361,LORONG 30 GEYLANG,SUITES 28,33856.3872741414,32775.5719671641
29 LORONG 30 GEYLANG VIENTO SINGAPORE 398362,29,VIENTO,1.31221104514144,103.886520466932,103.886520466932,398362,LORONG 30 GEYLANG,VIENTO,33920.8651621677,32723.2109583803
30 LORONG 30 GEYLANG SINGAPORE 398363,30,NIL,1.31251478068469,103.886073933903,103.886073933903,398363,LORONG 30 GEYLANG,30 LORONG 30 GEYLANG SINGAPORE 398363,33871.16955203,32756.7954353411
32 LORONG 30 GEYLANG SINGAPORE 398365,32,NIL,1.31244988184225,103.886077191865,103.886077191865,398365,LORONG 30 GEYLANG,32 LORONG 30 GEYLANG SINGAPORE 398365,33871.5322835464,32749.6192596182
33 LORONG 30 GEYLANG 33 RESIDENCES SINGAPORE 398366,33,33 RESIDENCES,1.31198083528283,103.886532676904,103.886532676904,398366,LORONG 30 GEYLANG,33 RESIDENCES,33922.2245578524,32697.7555538062
34 LORONG 30 GEYLANG FUJI VISTA SINGAPORE 398367,34,FUJI VISTA,1.31238529847128,103.886100057702,103.886100057702,398367,LORONG 30 GEYLANG,FUJI VISTA,33874.0771853495,32742.4780131467
36 LORONG 30 GEYLANG SINGAPORE 398369,36,NIL,1.31230388189952,103.886148656151,103.886148656151,398369,LORONG 30 GEYLANG,36 LORONG 30 GEYLANG SINGAPORE 398369,33879.4859226998,32733.475497555
38 LORONG 30 GEYLANG GUILLEMARD EDGE SINGAPORE 398371,38,GUILLEMARD EDGE,1.31200443744473,103.885949377155,103.885949377155,398371,LORONG 30 GEYLANG,GUILLEMARD EDGE,33857.3087526383,32700.3639881071
39 LORONG 30 GEYLANG FENG LAI MANSION SINGAPORE 398373,39,FENG LAI MANSION,1.31167442358025,103.886549263481,103.886549263481,398373,LORONG 30 GEYLANG,FENG LAI MANSION,33924.0712075392,32663.8741479237
41 LORONG 30 GEYLANG FENG LAI MANSION SINGAPORE 398376,41,FENG LAI MANSION,1.31169288173836,103.886609519944,103.886609519944,398376,LORONG 30 GEYLANG,FENG LAI MANSION,33930.7771398677,32665.9152996745
43 LORONG 30 GEYLANG FENG LAI MANSION SINGAPORE 398379,43,FENG LAI MANSION,1.31170352626372,103.886666379848,103.886666379848,398379,LORONG 30 GEYLANG,FENG LAI MANSION,33937.105085616,32667.0924518295
45 LORONG 30 GEYLANG FENG LAI MANSION SINGAPORE 398382,45,FENG LAI MANSION,1.31171446016659,103.886721227162,103.886721227162,398382,LORONG 30 GEYLANG,FENG LAI MANSION,33943.2090482842,32668.3015972432
47 LORONG 30 GEYLANG FENG LAI MANSION SINGAPORE 398383,47,FENG LAI MANSION,1.31172400567784,103.886776883837,103.886776883837,398383,LORONG 30 GEYLANG,FENG LAI MANSION,33949.4030884719,32669.3572234437
49 LORONG 30 GEYLANG FENG LAI MANSION SINGAPORE 398384,49,FENG LAI MANSION,1.31173675246554,103.886833837345,103.886833837345,398384,LORONG 30 GEYLANG,FENG LAI MANSION,33955.7414464066,32670.7668337133
1 LORONG 28 GEYLANG ATRIUM RESIDENCES SINGAPORE 398406,1,ATRIUM RESIDENCES,1.31304113579468,103.885713201642,103.885713201642,398406,LORONG 28 GEYLANG,ATRIUM RESIDENCES,33831.0222497666,32814.9962581005
3 LORONG 28 GEYLANG ATRIUM RESIDENCES SINGAPORE 398408,3,ATRIUM RESIDENCES,1.31325471407651,103.885667423008,103.885667423008,398408,LORONG 28 GEYLANG,ATRIUM RESIDENCES,33825.9270281922,32838.6125497147
5 LORONG 28 GEYLANG ATRIUM RESIDENCES SINGAPORE 398410,5,ATRIUM RESIDENCES,1.31344937163328,103.885662345517,103.885662345517,398410,LORONG 28 GEYLANG,ATRIUM RESIDENCES,33825.3615011843,32860.1367788333
7 LORONG 28 GEYLANG ATRIUM RESIDENCES SINGAPORE 398412,7,ATRIUM RESIDENCES,1.31349142064657,103.886149485839,103.886149485839,398412,LORONG 28 GEYLANG,ATRIUM RESIDENCES,33879.5754856635,32864.7874847986
9 LORONG 28 GEYLANG ATRIUM RESIDENCES SINGAPORE 398414,9,ATRIUM RESIDENCES,1.31333705649644,103.886157797078,103.886157797078,398414,LORONG 28 GEYLANG,ATRIUM RESIDENCES,33880.5008081943,32847.7187028844
10 LORONG 28 GEYLANG THE SUNFLOWER SINGAPORE 398415,10,THE SUNFLOWER,1.31328282918802,103.885380308735,103.885380308735,398415,LORONG 28 GEYLANG,THE SUNFLOWER,33793.9738744814,32841.720708428
11 LORONG 28 GEYLANG ATRIUM RESIDENCES SINGAPORE 398416,11,ATRIUM RESIDENCES,1.31311624924891,103.886136767861,103.886136767861,398416,LORONG 28 GEYLANG,ATRIUM RESIDENCES,33878.1609719805,32823.3029127475
12 LORONG 28 GEYLANG GEYLANG CONSERVATION AREA SINGAPORE 398417,12,GEYLANG CONSERVATION AREA,1.31313559646891,103.885394886693,103.885394886693,398417,LORONG 28 GEYLANG,GEYLANG CONSERVATION AREA,33795.596601624,32825.4404982943
14 LORONG 28 GEYLANG GEYLANG CONSERVATION AREA SINGAPORE 398418,14,GEYLANG CONSERVATION AREA,1.31307143455291,103.885396371425,103.885396371425,398418,LORONG 28 GEYLANG,GEYLANG CONSERVATION AREA,33795.7619858878,32818.3458039816
15 LORONG 28 GEYLANG ATRIUM RESIDENCES SINGAPORE 398419,15,ATRIUM RESIDENCES,1.3130610044075,103.885934017818,103.885934017818,398419,LORONG 28 GEYLANG,ATRIUM RESIDENCES,33855.5969468188,32817.1937439851
16 LORONG 28 GEYLANG GEYLANG CONSERVATION AREA SINGAPORE 398420,16,GEYLANG CONSERVATION AREA,1.31302293111134,103.885417569065,103.885417569065,398420,LORONG 28 GEYLANG,GEYLANG CONSERVATION AREA,33798.1211936101,32812.9825896788
18 LORONG 28 GEYLANG GEYLANG CONSERVATION AREA SINGAPORE 398422,18,GEYLANG CONSERVATION AREA,1.31296098080248,103.885400294794,103.885400294794,398422,LORONG 28 GEYLANG,GEYLANG CONSERVATION AREA,33796.1988739641,32806.1324001402
20 LORONG 28 GEYLANG GEYLANG CONSERVATION AREA SINGAPORE 398424,20,GEYLANG CONSERVATION AREA,1.31291204246415,103.885405342684,103.885405342684,398424,LORONG 28 GEYLANG,GEYLANG CONSERVATION AREA,33796.760768814,32800.7210597433
21 LORONG 28 GEYLANG EDENZ SUITES SINGAPORE 398425,21,EDENZ SUITES,1.31286931612854,103.885753141885,103.885753141885,398425,LORONG 28 GEYLANG,EDENZ SUITES,33835.4676177315,32795.9974079374
22 LORONG 28 GEYLANG GEYLANG CONSERVATION AREA SINGAPORE 398426,22,GEYLANG CONSERVATION AREA,1.31285240373303,103.885405712693,103.885405712693,398426,LORONG 28 GEYLANG,GEYLANG CONSERVATION AREA,33796.8020846117,32794.1265135948
24 LORONG 28 GEYLANG GEYLANG CONSERVATION AREA SINGAPORE 398428,24,GEYLANG CONSERVATION AREA,1.31280453073601,103.885412044587,103.885412044587,398428,LORONG 28 GEYLANG,GEYLANG CONSERVATION AREA,33797.5068746125,32788.8329761904
26 LORONG 28 GEYLANG GEYLANG CONSERVATION AREA SINGAPORE 398430,26,GEYLANG CONSERVATION AREA,1.31274465990485,103.885411199961,103.885411199961,398430,LORONG 28 GEYLANG,GEYLANG CONSERVATION AREA,33797.4130135952,32782.2127627917
28 LORONG 28 GEYLANG MELOSA SINGAPORE 398432,28,MELOSA,1.31253733235708,103.885402784916,103.885402784916,398432,LORONG 28 GEYLANG,MELOSA,33796.4769761991,32759.2875195127
29 LORONG 28 GEYLANG SINGAPORE 398433,29,NIL,1.31258423759901,103.885818093907,103.885818093907,398433,LORONG 28 GEYLANG,29 LORONG 28 GEYLANG SINGAPORE 398433,33842.6968229627,32764.4750281703
31 LORONG 28 GEYLANG SINGAPORE 398435,31,NIL,1.31242157348931,103.885818420691,103.885818420691,398435,LORONG 28 GEYLANG,31 LORONG 28 GEYLANG SINGAPORE 398435,33842.7335682949,32746.4884604532
34 LORONG 28 GEYLANG SINGAPORE 398438,34,NIL,1.31233012040759,103.885390385204,103.885390385204,398438,LORONG 28 GEYLANG,34 LORONG 28 GEYLANG SINGAPORE 398438,33795.0974825732,32736.3750493228
36 LORONG 28 GEYLANG SINGAPORE 398440,36,NIL,1.31227184333278,103.885398601926,103.885398601926,398440,LORONG 28 GEYLANG,36 LORONG 28 GEYLANG SINGAPORE 398440,33796.0120599689,32729.9310863931
38 LORONG 28 GEYLANG SINGAPORE 398442,38,NIL,1.31221461980558,103.885396141022,103.885396141022,398442,LORONG 28 GEYLANG,38 LORONG 28 GEYLANG SINGAPORE 398442,33795.7383163245,32723.6035946645
50 LORONG 28 GEYLANG LA BRISA SINGAPORE 398453,50,LA BRISA,1.31190419143627,103.885369365155,103.885369365155,398453,LORONG 28 GEYLANG,LA BRISA,33792.7591294907,32689.2779455855
54 LORONG 28 GEYLANG SINGAPORE 398455,54,NIL,1.31168580566626,103.885332895645,103.885332895645,398455,LORONG 28 GEYLANG,54 LORONG 28 GEYLANG SINGAPORE 398455,33788.7009193059,32665.1298757643
13 LORONG 28 GEYLANG ATRIUM RESIDENCES SINGAPORE 398457,13,ATRIUM RESIDENCES,1.31326037074787,103.885914538128,103.885914538128,398457,LORONG 28 GEYLANG,ATRIUM RESIDENCES,33853.4285787335,32839.2386126909
2 LORONG 26 GEYLANG GEYLANG MANSIONS SINGAPORE 398478,2,GEYLANG MANSIONS,1.3129301414015,103.884523044187,103.884523044187,398478,LORONG 26 GEYLANG,GEYLANG MANSIONS,33698.5692806086,32802.7203206047
4 LORONG 26 GEYLANG SINGAPORE 398479,4,NIL,1.31274243620736,103.884656088336,103.884656088336,398479,LORONG 26 GEYLANG,4 LORONG 26 GEYLANG SINGAPORE 398479,33713.3762571709,32781.9651404172
5 LORONG 26 GEYLANG REZI 26 SINGAPORE 398480,5,REZI 26,1.31277485329606,103.885104634024,103.885104634024,398480,LORONG 26 GEYLANG,REZI 26,33763.2950634211,32785.5506857689
6 LORONG 26 GEYLANG LE ARC SINGAPORE 398481,6,LE ARC,1.31259795328359,103.884583982435,103.884583982435,398481,LORONG 26 GEYLANG,LE ARC,33705.3518817397,32765.9887905717
8 LORONG 26 GEYLANG LA FLEUR SINGAPORE 398483,8,LA FLEUR,1.3124448127701,103.884576575133,103.884576575133,398483,LORONG 26 GEYLANG,LA FLEUR,33704.5278661512,32749.0552762765
9 LORONG 26 GEYLANG CASA AERATA SINGAPORE 398484,9,CASA AERATA,1.31232393794378,103.885033090499,103.885033090499,398484,LORONG 26 GEYLANG,CASA AERATA,33755.3339783438,32735.6905994061
10 LORONG 26 GEYLANG GUILIN COURT SINGAPORE 398485,10,GUILIN COURT,1.31225854701349,103.884662481524,103.884662481524,398485,LORONG 26 GEYLANG,GUILIN COURT,33714.0888563115,32728.4591543451
14 LORONG 26 GEYLANG SINGAPORE 398487,14,NIL,1.31191785837992,103.884750470236,103.884750470236,398487,LORONG 26 GEYLANG,14 LORONG 26 GEYLANG SINGAPORE 398487,33723.8819413716,32690.787742883
17 LORONG 26 GEYLANG SUNFLOWER MANSIONS SINGAPORE 398489,17,SUNFLOWER MANSIONS,1.31208149865107,103.885052375181,103.885052375181,398489,LORONG 26 GEYLANG,SUNFLOWER MANSIONS,33757.4807350887,32708.8829423916
19 LORONG 26 GEYLANG SINGAPORE 398490,19,NIL,1.31196084300439,103.885063300564,103.885063300564,398490,LORONG 26 GEYLANG,19 LORONG 26 GEYLANG SINGAPORE 398490,33758.6969026746,32695.5414810646
21 LORONG 26 GEYLANG SINGAPORE 398491,21,NIL,1.31191686185498,103.885060631065,103.885060631065,398491,LORONG 26 GEYLANG,21 LORONG 26 GEYLANG SINGAPORE 398491,33758.3999132179,32690.678263586
23 LORONG 26 GEYLANG SINGAPORE 398492,23,NIL,1.31185942694727,103.885060955437,103.885060955437,398492,LORONG 26 GEYLANG,23 LORONG 26 GEYLANG SINGAPORE 398492,33758.4361439953,32684.327404974
28 LORONG 26 GEYLANG 28 IMPERIAL RESIDENCES SINGAPORE 398495,28,28 IMPERIAL RESIDENCES,1.311780119269,103.884605770106,103.884605770106,398495,LORONG 26 GEYLANG,28 IMPERIAL RESIDENCES,33707.7784962626,32675.5569237433
30 LORONG 26 GEYLANG GUILLEMARD APARTMENTS SINGAPORE 398497,30,GUILLEMARD APARTMENTS,1.31159750646986,103.884691990677,103.884691990677,398497,LORONG 26 GEYLANG,GUILLEMARD APARTMENTS,33717.3744459441,32655.364728054
31 LORONG 26 GEYLANG BLOSSOM VIEW SINGAPORE 398498,31,BLOSSOM VIEW,1.31164773484524,103.885059930105,103.885059930105,398498,LORONG 26 GEYLANG,BLOSSOM VIEW,33758.3225179836,32660.9195689615
5A LORONG 26 GEYLANG REZI 26 SINGAPORE 398504,5A,REZI 26,1.31297801853119,103.885057246137,103.885057246137,398504,LORONG 26 GEYLANG,REZI 26,33758.0207764544,32808.0155530162
5B LORONG 26 GEYLANG REZI 26 SINGAPORE 398505,5B,REZI 26,1.31262218928599,103.88508737476,103.88508737476,398505,LORONG 26 GEYLANG,REZI 26,33761.3746203901,32768.6698377654
1 LORONG 24A GEYLANG GEYLANG CONSERVATION AREA SINGAPORE 398525,1,GEYLANG CONSERVATION AREA,1.31307091294865,103.884107223009,103.884107223009,398525,LORONG 24A GEYLANG,GEYLANG CONSERVATION AREA,33652.2920154789,32818.2851772103
2 LORONG 24A GEYLANG GEYLANG CONSERVATION AREA SINGAPORE 398526,2,GEYLANG CONSERVATION AREA,1.3129802226944,103.883789465899,103.883789465899,398526,LORONG 24A GEYLANG,GEYLANG CONSERVATION AREA,33616.9288707227,32808.2563953623
3 LORONG 24A GEYLANG GEYLANG CONSERVATION AREA SINGAPORE 398527,3,GEYLANG CONSERVATION AREA,1.31301057940562,103.88407116582,103.88407116582,398527,LORONG 24A GEYLANG,GEYLANG CONSERVATION AREA,33648.2793283416,32811.6137201153
4 LORONG 24A GEYLANG GEYLANG CONSERVATION AREA SINGAPORE 398528,4,GEYLANG CONSERVATION AREA,1.3129802226944,103.883789466171,103.883789466171,398528,LORONG 24A GEYLANG,GEYLANG CONSERVATION AREA,33616.9289009906,32808.2563953623
5 LORONG 24A GEYLANG GEYLANG CONSERVATION AREA SINGAPORE 398529,5,GEYLANG CONSERVATION AREA,1.3129604889614,103.884074548967,103.884074548967,398529,LORONG 24A GEYLANG,GEYLANG CONSERVATION AREA,33648.6559528634,32806.0749817751
6 LORONG 24A GEYLANG GEYLANG CONSERVATION AREA SINGAPORE 398530,6,GEYLANG CONSERVATION AREA,1.31290218164637,103.883807100407,103.883807100407,398530,LORONG 24A GEYLANG,GEYLANG CONSERVATION AREA,33618.8915981269,32799.6270537395
7 LORONG 24A GEYLANG GEYLANG CONSERVATION AREA SINGAPORE 398531,7,GEYLANG CONSERVATION AREA,1.31291818110001,103.88411401163,103.88411401163,398531,LORONG 24A GEYLANG,GEYLANG CONSERVATION AREA,33653.0478675682,32801.3968832847
8 LORONG 24A GEYLANG GEYLANG CONSERVATION AREA SINGAPORE 398532,8,GEYLANG CONSERVATION AREA,1.31285962647508,103.883812711439,103.883812711439,398532,LORONG 24A GEYLANG,GEYLANG CONSERVATION AREA,33619.5161477029,32794.9215324558
9 LORONG 24A GEYLANG GEYLANG CONSERVATION AREA SINGAPORE 398533,9,GEYLANG CONSERVATION AREA,1.31286393007927,103.8841094229,103.8841094229,398533,LORONG 24A GEYLANG,GEYLANG CONSERVATION AREA,33652.5373072196,32795.3980715908
10 LORONG 24A GEYLANG GEYLANG CONSERVATION AREA SINGAPORE 398534,10,GEYLANG CONSERVATION AREA,1.31280289964382,103.883816477395,103.883816477395,398534,LORONG 24A GEYLANG,GEYLANG CONSERVATION AREA,33619.9353895457,32788.6489771176
11 LORONG 24A GEYLANG GEYLANG CONSERVATION AREA SINGAPORE 398535,11,GEYLANG CONSERVATION AREA,1.31281922862383,103.884112310348,103.884112310348,398535,LORONG 24A GEYLANG,GEYLANG CONSERVATION AREA,33652.8587532062,32790.4552190453
12 LORONG 24A GEYLANG SINGAPORE 398536,12,NIL,1.31276105037253,103.883824894384,103.883824894384,398536,LORONG 24A GEYLANG,12 LORONG 24A GEYLANG SINGAPORE 398536,33620.8722139094,32784.0215169638
13 LORONG 24A GEYLANG GEYLANG CONSERVATION AREA SINGAPORE 398537,13,GEYLANG CONSERVATION AREA,1.31277038745959,103.88411748854,103.88411748854,398537,LORONG 24A GEYLANG,GEYLANG CONSERVATION AREA,33653.4351464203,32785.0546237826
14 LORONG 24A GEYLANG GEYLANG CONSERVATION AREA SINGAPORE 398538,14,GEYLANG CONSERVATION AREA,1.31270398252228,103.883826091279,103.883826091279,398538,LORONG 24A GEYLANG,GEYLANG CONSERVATION AREA,33621.0055443775,32777.711247718
15 LORONG 24A GEYLANG GEYLANG CONSERVATION AREA SINGAPORE 398539,15,GEYLANG CONSERVATION AREA,1.31271801156356,103.884123616388,103.884123616388,398539,LORONG 24A GEYLANG,GEYLANG CONSERVATION AREA,33654.1172354333,32779.2631780468
16 LORONG 24A GEYLANG GEYLANG CONSERVATION AREA SINGAPORE 398540,16,GEYLANG CONSERVATION AREA,1.31266146946335,103.883833788614,103.883833788614,398540,LORONG 24A GEYLANG,GEYLANG CONSERVATION AREA,33621.8622796573,32773.0103877019
17 LORONG 24A GEYLANG GEYLANG CONSERVATION AREA SINGAPORE 398541,17,GEYLANG CONSERVATION AREA,1.31267565269173,103.884127585519,103.884127585519,398541,LORONG 24A GEYLANG,GEYLANG CONSERVATION AREA,33654.5590571919,32774.5793589056
18 LORONG 24A GEYLANG SINGAPORE 398542,18,NIL,1.31260495288974,103.883836033702,103.883836033702,398542,LORONG 24A GEYLANG,18 LORONG 24A GEYLANG SINGAPORE 398542,33622.1122629344,32766.761078177
19 LORONG 24A GEYLANG GEYLANG CONSERVATION AREA SINGAPORE 398543,19,GEYLANG CONSERVATION AREA,1.31262339316502,103.884132104107,103.884132104107,398543,LORONG 24A GEYLANG,GEYLANG CONSERVATION AREA,33655.0620505447,32768.8007770628
20 LORONG 24A GEYLANG GEYLANG CONSERVATION AREA SINGAPORE 398544,20,GEYLANG CONSERVATION AREA,1.31256271984069,103.883844656838,103.883844656838,398544,LORONG 24A GEYLANG,GEYLANG CONSERVATION AREA,33623.0720304307,32762.0911823083
21 LORONG 24A GEYLANG GEYLANG CONSERVATION AREA SINGAPORE 398545,21,GEYLANG CONSERVATION AREA,1.31257583171035,103.884123470734,103.884123470734,398545,LORONG 24A GEYLANG,GEYLANG CONSERVATION AREA,33654.1013447419,32763.5416543558
22 LORONG 24A GEYLANG GEYLANG CONSERVATION AREA SINGAPORE 398546,22,GEYLANG CONSERVATION AREA,1.3125066100285,103.883847174179,103.883847174179,398546,LORONG 24A GEYLANG,GEYLANG CONSERVATION AREA,33623.3523119595,32755.8868510053
23 LORONG 24A GEYLANG SINGAPORE 398547,23,NIL,1.31253849237568,103.884176203039,103.884176203039,398547,LORONG 24A GEYLANG,23 LORONG 24A GEYLANG SINGAPORE 398547,33659.970034373,32759.412980305
24 LORONG 24A GEYLANG GEYLANG CONSERVATION AREA SINGAPORE 398548,24,GEYLANG CONSERVATION AREA,1.31246439915907,103.883855438038,103.883855438038,398548,LORONG 24A GEYLANG,GEYLANG CONSERVATION AREA,33624.2720954483,32751.219406845
25 LORONG 24A GEYLANG GEYLANG CONSERVATION AREA SINGAPORE 398549,25,GEYLANG CONSERVATION AREA,1.3124894209635,103.884156495451,103.884156495451,398549,LORONG 24A GEYLANG,GEYLANG CONSERVATION AREA,33657.7768768091,32753.9868691321
26 LORONG 24A GEYLANG GEYLANG CONSERVATION AREA SINGAPORE 398550,26,GEYLANG CONSERVATION AREA,1.31240844285891,103.883860517637,103.883860517637,398550,LORONG 24A GEYLANG,GEYLANG CONSERVATION AREA,33624.8375316523,32745.0320558809
27 LORONG 24A GEYLANG GEYLANG CONSERVATION AREA SINGAPORE 398551,27,GEYLANG CONSERVATION AREA,1.31241640256211,103.884137646813,103.884137646813,398551,LORONG 24A GEYLANG,GEYLANG CONSERVATION AREA,33655.6793660726,32745.9128239397
28 LORONG 24A GEYLANG GEYLANG CONSERVATION AREA SINGAPORE 398552,28,GEYLANG CONSERVATION AREA,1.31236567689955,103.883866796356,103.883866796356,398552,LORONG 24A GEYLANG,GEYLANG CONSERVATION AREA,33625.5363891283,32740.3032282498
29 LORONG 24A GEYLANG SINGAPORE 398553,29,NIL,1.31237518875374,103.884166483789,103.884166483789,398553,LORONG 24A GEYLANG,29 LORONG 24A GEYLANG SINGAPORE 398553,33658.8887409223,32741.355676312
30 LORONG 24A GEYLANG SINGAPORE 398554,30,NIL,1.31230951065246,103.883871569709,103.883871569709,398554,LORONG 24A GEYLANG,30 LORONG 24A GEYLANG SINGAPORE 398554,33626.0677435827,32734.0926617421
31 LORONG 24A GEYLANG GEYLANG CONSERVATION AREA SINGAPORE 398555,31,GEYLANG CONSERVATION AREA,1.3123196150801,103.884174086751,103.884174086751,398555,LORONG 24A GEYLANG,GEYLANG CONSERVATION AREA,33659.7350034798,32735.210639989
32 LORONG 24A GEYLANG GEYLANG CONSERVATION AREA SINGAPORE 398556,32,GEYLANG CONSERVATION AREA,1.31225824498482,103.88386582353,103.88386582353,398556,LORONG 24A GEYLANG,GEYLANG CONSERVATION AREA,33625.4283626946,32728.4239526801
33 LORONG 24A GEYLANG GEYLANG CONSERVATION AREA SINGAPORE 398557,33,GEYLANG CONSERVATION AREA,1.31227411022038,103.884176883615,103.884176883615,398557,LORONG 24A GEYLANG,GEYLANG CONSERVATION AREA,33660.0463702278,32730.1789509114
34 LORONG 24A GEYLANG GEYLANG CONSERVATION AREA SINGAPORE 398558,34,GEYLANG CONSERVATION AREA,1.31221292276043,103.8838793587,103.8838793587,398558,LORONG 24A GEYLANG,GEYLANG CONSERVATION AREA,33626.9348002439,32723.4124826156
35 LORONG 24A GEYLANG SINGAPORE 398559,35,NIL,1.31218273061884,103.884212605379,103.884212605379,398559,LORONG 24A GEYLANG,35 LORONG 24A GEYLANG SINGAPORE 398559,33664.0220698891,32720.074741248
36 LORONG 24A GEYLANG SINGAPORE 398560,36,NIL,1.31211135708671,103.883898130661,103.883898130661,398560,LORONG 24A GEYLANG,36 LORONG 24A GEYLANG SINGAPORE 398560,33629.0241688918,32712.1819104739
37 LORONG 24A GEYLANG SINGAPORE 398561,37,NIL,1.31212482465857,103.884224240831,103.884224240831,398561,LORONG 24A GEYLANG,37 LORONG 24A GEYLANG SINGAPORE 398561,33665.3171158405,32713.6718217041
38 LORONG 24A GEYLANG SINGAPORE 398562,38,NIL,1.31206366268134,103.883898792229,103.883898792229,398562,LORONG 24A GEYLANG,38 LORONG 24A GEYLANG SINGAPORE 398562,33629.097901701,32706.9081077948
39 LORONG 24A GEYLANG SINGAPORE 398563,39,NIL,1.31208180139894,103.884230060176,103.884230060176,398563,LORONG 24A GEYLANG,39 LORONG 24A GEYLANG SINGAPORE 398563,33665.9648506921,32708.9145421665
40 LORONG 24A GEYLANG SINGAPORE 398564,40,NIL,1.31200958794366,103.883907656092,103.883907656092,398564,LORONG 24A GEYLANG,40 LORONG 24A GEYLANG SINGAPORE 398564,33630.0844866298,32700.9288189504
41 LORONG 24A GEYLANG SINGAPORE 398565,41,NIL,1.31202675544645,103.884239401324,103.884239401324,398565,LORONG 24A GEYLANG,41 LORONG 24A GEYLANG SINGAPORE 398565,33667.0045559322,32702.8278625179
42 LORONG 24A GEYLANG SINGAPORE 398566,42,NIL,1.3119645530963,103.88390981193,103.88390981193,398566,LORONG 24A GEYLANG,42 LORONG 24A GEYLANG SINGAPORE 398566,33630.3245117404,32695.9491000008
43 LORONG 24A GEYLANG SINGAPORE 398567,43,NIL,1.31198333507049,103.884241798157,103.884241798157,398567,LORONG 24A GEYLANG,43 LORONG 24A GEYLANG SINGAPORE 398567,33667.2713984773,32698.026664136
44 LORONG 24A GEYLANG SINGAPORE 398568,44,NIL,1.31190865817752,103.883911674364,103.883911674364,398568,LORONG 24A GEYLANG,44 LORONG 24A GEYLANG SINGAPORE 398568,33630.5319079654,32689.7685290668
45 LORONG 24A GEYLANG SINGAPORE 398569,45,NIL,1.31192738556146,103.88424939567,103.88424939567,398569,LORONG 24A GEYLANG,45 LORONG 24A GEYLANG SINGAPORE 398569,33668.1170556741,32691.8400698714
46 LORONG 24A GEYLANG SINGAPORE 398570,46,NIL,1.31186372107016,103.883912974307,103.883912974307,398570,LORONG 24A GEYLANG,46 LORONG 24A GEYLANG SINGAPORE 398570,33630.6766797313,32684.7996157873
47 LORONG 24A GEYLANG SINGAPORE 398571,47,NIL,1.31188252552846,103.884243108388,103.884243108388,398571,LORONG 24A GEYLANG,47 LORONG 24A GEYLANG SINGAPORE 398571,33667.4174414985,32686.8796618972
48 LORONG 24A GEYLANG SINGAPORE 398572,48,NIL,1.31181281444841,103.88391172901,103.88391172901,398572,LORONG 24A GEYLANG,48 LORONG 24A GEYLANG SINGAPORE 398572,33630.538203706,32679.1706183199
49 LORONG 24A GEYLANG SINGAPORE 398573,49,NIL,1.31182579349894,103.88424671251,103.88424671251,398573,LORONG 24A GEYLANG,49 LORONG 24A GEYLANG SINGAPORE 398573,33667.818673891,32680.6065314673
50 LORONG 24A GEYLANG SINGAPORE 398574,50,NIL,1.31175601986991,103.883908661651,103.883908661651,398574,LORONG 24A GEYLANG,50 LORONG 24A GEYLANG SINGAPORE 398574,33630.1969624572,32672.8905565217
51 LORONG 24A GEYLANG SINGAPORE 398575,51,NIL,1.31178069560139,103.884239968038,103.884239968038,398575,LORONG 24A GEYLANG,51 LORONG 24A GEYLANG SINGAPORE 398575,33667.0681792349,32675.6198206134
52 LORONG 24A GEYLANG SINGAPORE 398576,52,NIL,1.31171358260946,103.883917594555,103.883917594555,398576,LORONG 24A GEYLANG,52 LORONG 24A GEYLANG SINGAPORE 398576,33631.1912051868,32668.198080739
53 LORONG 24A GEYLANG SINGAPORE 398577,53,NIL,1.31172355654682,103.884242802197,103.884242802197,398577,LORONG 24A GEYLANG,53 LORONG 24A GEYLANG SINGAPORE 398577,33667.3837229647,32669.3016816918
54 LORONG 24A GEYLANG SINGAPORE 398578,54,NIL,1.31165401558788,103.883904836484,103.883904836484,398578,LORONG 24A GEYLANG,54 LORONG 24A GEYLANG SINGAPORE 398578,33629.7714854106,32661.6114345342
55 LORONG 24A GEYLANG SINGAPORE 398579,55,NIL,1.3116788593705,103.884237212257,103.884237212257,398579,LORONG 24A GEYLANG,55 LORONG 24A GEYLANG SINGAPORE 398579,33666.7617158992,32664.3592831679
56 LORONG 24A GEYLANG SINGAPORE 398580,56,NIL,1.31160971978926,103.883908460989,103.883908460989,398580,LORONG 24A GEYLANG,56 LORONG 24A GEYLANG SINGAPORE 398580,33630.174957633,32656.7134391405
58 LORONG 24A GEYLANG SINGAPORE 398582,58,NIL,1.31155301661288,103.883906600646,103.883906600646,398582,LORONG 24A GEYLANG,58 LORONG 24A GEYLANG SINGAPORE 398582,33629.9680456966,32650.4434868488
59 LORONG 24A GEYLANG SINGAPORE BUDDHIST FEDERATION SINGAPORE 398583,59,SINGAPORE BUDDHIST FEDERATION,1.31155763367207,103.884255056649,103.884255056649,398583,LORONG 24A GEYLANG,SINGAPORE BUDDHIST FEDERATION,33668.7479009908,32650.9548038989
60 LORONG 24A GEYLANG SINGAPORE 398584,60,NIL,1.31150862252651,103.88391109247,103.88391109247,398584,LORONG 24A GEYLANG,60 LORONG 24A GEYLANG SINGAPORE 398584,33630.4680425199,32645.5346252508
62 LORONG 24A GEYLANG SINGAPORE 398586,62,NIL,1.31145053467504,103.883902371591,103.883902371591,398586,LORONG 24A GEYLANG,62 LORONG 24A GEYLANG SINGAPORE 398586,33629.4976206934,32639.1115472298
64 LORONG 24A GEYLANG SINGAPORE 398588,64,NIL,1.31140690459133,103.883906159566,103.883906159566,398588,LORONG 24A GEYLANG,64 LORONG 24A GEYLANG SINGAPORE 398588,33629.9192839749,32634.2871635724
65 LORONG 24A GEYLANG SINGAPORE 398589,65,NIL,1.31140208516817,103.884232285593,103.884232285593,398589,LORONG 24A GEYLANG,65 LORONG 24A GEYLANG SINGAPORE 398589,33666.2140470017,32633.7549918834
66 LORONG 24A GEYLANG SINGAPORE 398590,66,NIL,1.3113490090974,103.883901206055,103.883901206055,398590,LORONG 24A GEYLANG,66 LORONG 24A GEYLANG SINGAPORE 398590,33629.3681342592,32627.8853639439
68 LORONG 24A GEYLANG SINGAPORE 398592,68,NIL,1.3112928131344,103.883873069366,103.883873069366,398592,LORONG 24A GEYLANG,68 LORONG 24A GEYLANG SINGAPORE 398592,33626.2369113434,32621.6714376919
1 LORONG 24 GEYLANG # 1 LOFT SINGAPORE 398614,1,# 1 LOFT,1.31276346405244,103.883518875617,103.883518875617,398614,LORONG 24 GEYLANG,# 1 LOFT,33586.8152234545,32784.2877238803
4 LORONG 24 GEYLANG GEYLANG CONSERVATION AREA SINGAPORE 398616,4,GEYLANG CONSERVATION AREA,1.31283406369555,103.883173584521,103.883173584521,398616,LORONG 24 GEYLANG,GEYLANG CONSERVATION AREA,33548.3874453465,32792.0935039334
6 LORONG 24 GEYLANG GEYLANG CONSERVATION AREA SINGAPORE 398618,6,GEYLANG CONSERVATION AREA,1.31279019191707,103.883176858748,103.883176858748,398618,LORONG 24 GEYLANG,GEYLANG CONSERVATION AREA,33548.7519324068,32787.2423936464
7A LORONG 24 GEYLANG PERPETUAL APARTMENTS SINGAPORE 398619,7A,PERPETUAL APARTMENTS,1.31253410721342,103.883514397094,103.883514397094,398619,LORONG 24 GEYLANG,PERPETUAL APARTMENTS,33586.3173151221,32758.9266040754
8 LORONG 24 GEYLANG SINGAPORE 398620,8,NIL,1.31274121209227,103.883176016838,103.883176016838,398620,LORONG 24 GEYLANG,8 LORONG 24 GEYLANG SINGAPORE 398620,33548.6583438013,32781.826452516
9 LORONG 24 GEYLANG PERPETUAL APARTMENTS SINGAPORE 398621,9,PERPETUAL APARTMENTS,1.31247916077699,103.883516366713,103.883516366713,398621,LORONG 24 GEYLANG,PERPETUAL APARTMENTS,33586.5366369328,32752.850911703
10 LORONG 24 GEYLANG GEYLANG CONSERVATION AREA SINGAPORE 398622,10,GEYLANG CONSERVATION AREA,1.3126933113098,103.883148500138,103.883148500138,398622,LORONG 24 GEYLANG,GEYLANG CONSERVATION AREA,33545.5961016202,32776.5297672413
11 LORONG 24 GEYLANG EDENZ LOFT SINGAPORE 398623,11,EDENZ LOFT,1.3123178474915,103.883532317959,103.883532317959,398623,LORONG 24 GEYLANG,EDENZ LOFT,33588.312217393,32735.0137467552
12 LORONG 24 GEYLANG GEYLANG CONSERVATION AREA SINGAPORE 398624,12,GEYLANG CONSERVATION AREA,1.31264840316069,103.883179973564,103.883179973564,398624,LORONG 24 GEYLANG,GEYLANG CONSERVATION AREA,33549.0988943046,32771.5641229041
23 LORONG 24 GEYLANG THE OCTET SINGAPORE 398628,23,THE OCTET,1.31206999136037,103.883562422294,103.883562422294,398628,LORONG 24 GEYLANG,THE OCTET,33591.6630950663,32707.6071468778
27 LORONG 24 GEYLANG SINGAPORE 398630,27,NIL,1.31194613766829,103.883547638655,103.883547638655,398630,LORONG 24 GEYLANG,27 LORONG 24 GEYLANG SINGAPORE 398630,33590.0180906877,32693.9120041616
29 LORONG 24 GEYLANG SINGAPORE 398631,29,NIL,1.31189201236502,103.88357993487,103.88357993487,398631,LORONG 24 GEYLANG,29 LORONG 24 GEYLANG SINGAPORE 398631,33593.6124742897,32687.9271762762
39 LORONG 24 GEYLANG REZI 24 SINGAPORE 398636,39,REZI 24,1.31156422500946,103.883576001591,103.883576001591,398636,LORONG 24 GEYLANG,REZI 24,33593.1754651414,32651.6821132787
1 LORONG 22 GEYLANG GRANDVIEW SUITES SINGAPORE 398664,1,GRANDVIEW SUITES,1.31277604580511,103.882455638462,103.882455638462,398664,LORONG 22 GEYLANG,GRANDVIEW SUITES,33468.4869905058,32785.676600581
2 LORONG 22 GEYLANG SINGAPORE 398665,2,NIL,1.31265235744156,103.881841478132,103.881841478132,398665,LORONG 22 GEYLANG,2 LORONG 22 GEYLANG SINGAPORE 398665,33400.1370403944,32771.9984382037
4 LORONG 22 GEYLANG SINGAPORE 398666,4,NIL,1.31259995074014,103.88184132237,103.88184132237,398666,LORONG 22 GEYLANG,4 LORONG 22 GEYLANG SINGAPORE 398666,33400.1198179116,32766.2035721838
6 LORONG 22 GEYLANG SINGAPORE 398667,6,NIL,1.31253822473062,103.88184489055,103.88184489055,398667,LORONG 22 GEYLANG,6 LORONG 22 GEYLANG SINGAPORE 398667,33400.5170549303,32759.3782326598
8 LORONG 22 GEYLANG SINGAPORE 398668,8,NIL,1.31249037338621,103.881850127823,103.881850127823,398668,LORONG 22 GEYLANG,8 LORONG 22 GEYLANG SINGAPORE 398668,33401.1000162968,32754.0870864261
10 LORONG 22 GEYLANG SINGAPORE 398669,10,NIL,1.31238562522549,103.88178887565,103.88178887565,398669,LORONG 22 GEYLANG,10 LORONG 22 GEYLANG SINGAPORE 398669,33394.2834544871,32742.5044370964
11 LORONG 22 GEYLANG SINGAPORE 398670,11,NIL,1.31246871848435,103.882430223144,103.882430223144,398670,LORONG 22 GEYLANG,11 LORONG 22 GEYLANG SINGAPORE 398670,33465.6591738584,32751.6938574892
12 LORONG 22 GEYLANG SINGAPORE 398671,12,NIL,1.31238562495175,103.881788876194,103.881788876194,398671,LORONG 22 GEYLANG,12 LORONG 22 GEYLANG SINGAPORE 398671,33394.2835150231,32742.5044068284
14 LORONG 22 GEYLANG SINGAPORE 398672,14,NIL,1.31225219810415,103.881796152431,103.881796152431,398672,LORONG 22 GEYLANG,14 LORONG 22 GEYLANG SINGAPORE 398672,33395.093577072,32727.7507624533
15 LORONG 22 GEYLANG SENG WAH HOTEL SINGAPORE 398673,15,SENG WAH HOTEL,1.31231758354339,103.882411814718,103.882411814718,398673,LORONG 22 GEYLANG,SENG WAH HOTEL,33463.6108183283,32734.9820864443
16 LORONG 22 GEYLANG SINGAPORE 398674,16,NIL,1.31225219837788,103.881796152703,103.881796152703,398674,LORONG 22 GEYLANG,16 LORONG 22 GEYLANG SINGAPORE 398674,33395.09360734,32727.7507927213
18 LORONG 22 GEYLANG SINGAPORE 398675,18,NIL,1.31207356023445,103.881842103941,103.881842103941,398675,LORONG 22 GEYLANG,18 LORONG 22 GEYLANG SINGAPORE 398675,33400.2079280121,32707.9979973529
19 LORONG 22 GEYLANG MIN WAH HOTEL SINGAPORE 398676,19,MIN WAH HOTEL,1.31219834248658,103.882467771042,103.882467771042,398676,LORONG 22 GEYLANG,MIN WAH HOTEL,33469.8384862468,32721.7971408609
20 LORONG 22 GEYLANG SINGAPORE 398677,20,NIL,1.31191962415223,103.881853121036,103.881853121036,398677,LORONG 22 GEYLANG,20 LORONG 22 GEYLANG SINGAPORE 398677,33401.4343564445,32690.9765545651
21 LORONG 22 GEYLANG SINGAPORE 398678,21,NIL,1.31204516602326,103.882588868229,103.882588868229,398678,LORONG 22 GEYLANG,21 LORONG 22 GEYLANG SINGAPORE 398678,33483.3157902844,32704.8599338718
22 LORONG 22 GEYLANG SINGAPORE 398679,22,NIL,1.31187093105327,103.881859679534,103.881859679534,398679,LORONG 22 GEYLANG,22 LORONG 22 GEYLANG SINGAPORE 398679,33402.1643596757,32685.5923342817
24 LORONG 22 GEYLANG SINGAPORE 398681,24,NIL,1.31180697632649,103.881862423594,103.881862423594,398681,LORONG 22 GEYLANG,24 LORONG 22 GEYLANG SINGAPORE 398681,33402.4698847039,32678.5205528326
25 LORONG 22 GEYLANG SINGAPORE 398682,25,NIL,1.31194633975226,103.882447859904,103.882447859904,398682,LORONG 22 GEYLANG,25 LORONG 22 GEYLANG SINGAPORE 398682,33467.6231119819,32693.9319204949
26 LORONG 22 GEYLANG SINGAPORE 398683,26,NIL,1.31175915454163,103.88186783384,103.88186783384,398683,LORONG 22 GEYLANG,26 LORONG 22 GEYLANG SINGAPORE 398683,33403.072096508,32673.2326755412
27 LORONG 22 GEYLANG SINGAPORE 398684,27,NIL,1.31183840948279,103.88244101116,103.88244101116,398684,LORONG 22 GEYLANG,27 LORONG 22 GEYLANG SINGAPORE 398684,33466.8611457599,32681.9975269269
28 LORONG 22 GEYLANG SINGAPORE 398685,28,NIL,1.31165026790584,103.881886010119,103.881886010119,398685,LORONG 22 GEYLANG,28 LORONG 22 GEYLANG SINGAPORE 398685,33405.0951782716,32661.1925861742
29 LORONG 22 GEYLANG CHAR YONG BUILDING SINGAPORE 398686,29,CHAR YONG BUILDING,1.31172996547816,103.88247262124,103.88247262124,398686,LORONG 22 GEYLANG,CHAR YONG BUILDING,33470.3792843111,32670.0064111575
30 LORONG 22 GEYLANG SINGAPORE 398687,30,NIL,1.3114823085769,103.881878465082,103.881878465082,398687,LORONG 22 GEYLANG,30 LORONG 22 GEYLANG SINGAPORE 398687,33404.2558470825,32642.620484313
31 LORONG 22 GEYLANG SINGAPORE 398688,31,NIL,1.31161404297743,103.882482294132,103.882482294132,398688,LORONG 22 GEYLANG,31 LORONG 22 GEYLANG SINGAPORE 398688,33471.4560375642,32657.1883135363
32 LORONG 22 GEYLANG SINGAPORE 398689,32,NIL,1.31148230885065,103.881878464538,103.881878464538,398689,LORONG 22 GEYLANG,32 LORONG 22 GEYLANG SINGAPORE 398689,33404.2557865465,32642.620514581
33 LORONG 22 GEYLANG SINGAPORE 398690,33,NIL,1.31153546476693,103.882477583393,103.882477583393,398690,LORONG 22 GEYLANG,33 LORONG 22 GEYLANG SINGAPORE 398690,33470.9319474259,32648.4995255955
34 LORONG 22 GEYLANG LION PEAK HOTEL SINGAPORE 398691,34,LION PEAK HOTEL,1.3111230571443,103.88186634532,103.88186634532,398691,LORONG 22 GEYLANG,LION PEAK HOTEL,33402.9078018917,32602.8962679282
35 LORONG 22 GEYLANG SINGAPORE 398692,35,NIL,1.31147924735687,103.882481146498,103.882481146498,398692,LORONG 22 GEYLANG,35 LORONG 22 GEYLANG SINGAPORE 398692,33471.3286093529,32642.2832989749
36 LORONG 22 GEYLANG HOTEL COMPASS SINGAPORE 398693,36,HOTEL COMPASS,1.31098804351478,103.881857085046,103.881857085046,398693,LORONG 22 GEYLANG,HOTEL COMPASS,33401.8775099944,32587.9671297818
37 LORONG 22 GEYLANG SINGAPORE 398694,37,NIL,1.31141056834802,103.882480160073,103.882480160073,398694,LORONG 22 GEYLANG,37 LORONG 22 GEYLANG SINGAPORE 398694,33471.2189787161,32634.6891223975
38 LORONG 22 GEYLANG KARMA KAGYUD BUDDHIST CENTRE SINGAPORE 398695,38,KARMA KAGYUD BUDDHIST CENTRE,1.31084931040208,103.881875937415,103.881875937415,398695,LORONG 22 GEYLANG,KARMA KAGYUD BUDDHIST CENTRE,33403.9758985015,32572.6267708112
39 LORONG 22 GEYLANG SINGAPORE 398696,39,NIL,1.31135246497548,103.882480837784,103.882480837784,398696,LORONG 22 GEYLANG,39 LORONG 22 GEYLANG SINGAPORE 398696,33471.2945276033,32628.2643493693
41 LORONG 22 GEYLANG PRIME RESIDENCE SINGAPORE 398697,41,PRIME RESIDENCE,1.31118981428433,103.882466535926,103.882466535926,398697,LORONG 22 GEYLANG,PRIME RESIDENCE,33469.7032186268,32610.2792345155
43 LORONG 22 GEYLANG EVERGREEN RESIDENCES SINGAPORE 398698,43,EVERGREEN RESIDENCES,1.31105117552222,103.882461925192,103.882461925192,398698,LORONG 22 GEYLANG,EVERGREEN RESIDENCES,33469.1903881794,32594.9492574632
1 LORONG 20 GEYLANG # 1 SUITES SINGAPORE 398721,1,# 1 SUITES,1.31239029325188,103.881504147527,103.881504147527,398721,LORONG 20 GEYLANG,# 1 SUITES,33362.595902334,32743.0199916642
2 LORONG 20 GEYLANG SINGAPORE 398722,2,NIL,1.31248922962769,103.881092258453,103.881092258453,398722,LORONG 20 GEYLANG,2 LORONG 20 GEYLANG SINGAPORE 398722,33316.7563425172,32753.9589923192
4 LORONG 20 GEYLANG SINGAPORE 398724,4,NIL,1.31243909265917,103.881095191543,103.881095191543,398724,LORONG 20 GEYLANG,4 LORONG 20 GEYLANG SINGAPORE 398724,33317.082873526,32748.4151084218
10 LORONG 20 GEYLANG IBIS BUDGET SINGAPORE RUBY SINGAPORE 398730,10,IBIS BUDGET SINGAPORE RUBY,1.31223869278146,103.881097511204,103.881097511204,398730,LORONG 20 GEYLANG,IBIS BUDGET SINGAPORE RUBY,33317.3414529106,32726.2559175417
17 LORONG 20 GEYLANG SINGAPORE 398735,17,NIL,1.31212531788003,103.881562700621,103.881562700621,398735,LORONG 20 GEYLANG,17 LORONG 20 GEYLANG SINGAPORE 398735,33369.1128716404,32713.7204926219
19 LORONG 20 GEYLANG SINGAPORE 398737,19,NIL,1.31206812314621,103.881557215197,103.881557215197,398737,LORONG 20 GEYLANG,19 LORONG 20 GEYLANG SINGAPORE 398737,33368.5025177486,32707.3961790316
20 LORONG 20 GEYLANG HOTEL 81 - GOLD SINGAPORE 398738,20,HOTEL 81 - GOLD,1.31196016822803,103.881125502786,103.881125502786,398738,LORONG 20 GEYLANG,HOTEL 81 - GOLD,33320.4572391547,32695.4581533056
21 LORONG 20 GEYLANG SINGAPORE 398739,21,NIL,1.31201126739829,103.881560447591,103.881560447591,398739,LORONG 20 GEYLANG,21 LORONG 20 GEYLANG SINGAPORE 398739,33368.8623738065,32701.1093674731
23 LORONG 20 GEYLANG HOTEL 81 - LUCKY SINGAPORE 398741,23,HOTEL 81 - LUCKY,1.31187964635131,103.881497889732,103.881497889732,398741,LORONG 20 GEYLANG,HOTEL 81 - LUCKY,33361.9005559441,32686.5552496463
28 LORONG 20 GEYLANG SINGAPORE 398745,28,NIL,1.31182314831671,103.881135188124,103.881135188124,398745,LORONG 20 GEYLANG,28 LORONG 20 GEYLANG SINGAPORE 398745,33321.5354150021,32680.3072113767
30 LORONG 20 GEYLANG SINGAPORE 398746,30,NIL,1.31177398390121,103.881139140857,103.881139140857,398746,LORONG 20 GEYLANG,30 LORONG 20 GEYLANG SINGAPORE 398746,33321.9754206818,32674.8708696254
31 LORONG 20 GEYLANG CHENG TECK SIAN SEE BUDDHIST ASSOCIATION SINGAPORE 398747,31,CHENG TECK SIAN SEE BUDDHIST ASSOCIATION,1.31174392361032,103.881524229589,103.881524229589,398747,LORONG 20 GEYLANG,CHENG TECK SIAN SEE BUDDHIST ASSOCIATION,33364.8322220426,32671.5477779601
32 LORONG 20 GEYLANG SINGAPORE 398748,32,NIL,1.31171357372484,103.881142747699,103.881142747699,398748,LORONG 20 GEYLANG,32 LORONG 20 GEYLANG SINGAPORE 398748,33322.3769557532,32668.1910282988
33 LORONG 20 GEYLANG SINGAPORE 398749,33,NIL,1.31159797561274,103.881534641444,103.881534641444,398749,LORONG 20 GEYLANG,33 LORONG 20 GEYLANG SINGAPORE 398749,33365.9912739433,32655.4096154738
34 LORONG 20 GEYLANG SINGAPORE 398750,34,NIL,1.31166187663861,103.881151598067,103.881151598067,398750,LORONG 20 GEYLANG,34 LORONG 20 GEYLANG SINGAPORE 398750,33323.3620272838,32662.4746471606
35 LORONG 20 GEYLANG TREASURES@G20 SINGAPORE 398751,35,TREASURES@G20,1.31144699404485,103.881539708397,103.881539708397,398751,LORONG 20 GEYLANG,TREASURES@G20,33366.555499428,32638.7148550358
36 LORONG 20 GEYLANG SINGAPORE 398752,36,NIL,1.3115505266329,103.881143999215,103.881143999215,398752,LORONG 20 GEYLANG,36 LORONG 20 GEYLANG SINGAPORE 398752,33322.5165819628,32650.1621156726
37 LORONG 20 GEYLANG SUNFLOWER REGENCY SINGAPORE 398753,37,SUNFLOWER REGENCY,1.3112844032004,103.881516089364,103.881516089364,398753,LORONG 20 GEYLANG,SUNFLOWER REGENCY,33363.9272698658,32620.7363386024
38 LORONG 20 GEYLANG SINGAPORE 398754,38,NIL,1.31143535831994,103.88113678078,103.88113678078,398754,LORONG 20 GEYLANG,38 LORONG 20 GEYLANG SINGAPORE 398754,33321.7134815501,32637.4273760803
39 LORONG 20 GEYLANG SINGAPORE 398755,39,NIL,1.31114454579444,103.881552910143,103.881552910143,398755,LORONG 20 GEYLANG,39 LORONG 20 GEYLANG SINGAPORE 398755,33368.025373253,32605.2716992889
40 LORONG 20 GEYLANG SINGAPORE 398756,40,NIL,1.31138843608001,103.8811391844,103.8811391844,398756,LORONG 20 GEYLANG,40 LORONG 20 GEYLANG SINGAPORE 398756,33321.9810807947,32632.2389593832
41 LORONG 20 GEYLANG SINGAPORE 398757,41,NIL,1.31100377186491,103.881578987712,103.881578987712,398757,LORONG 20 GEYLANG,41 LORONG 20 GEYLANG SINGAPORE 398757,33370.9278610153,32589.7056924999
43 LORONG 20 GEYLANG SINGAPORE 398758,43,NIL,1.31094332743029,103.881570594027,103.881570594027,398758,LORONG 20 GEYLANG,43 LORONG 20 GEYLANG SINGAPORE 398758,33369.9938515741,32583.0220374074
45 LORONG 20 GEYLANG SINGAPORE 398759,45,NIL,1.31088471670617,103.88157765848,103.88157765848,398759,LORONG 20 GEYLANG,45 LORONG 20 GEYLANG SINGAPORE 398759,33370.780183523,32576.5411778055
47 LORONG 20 GEYLANG SINGAPORE 398760,47,NIL,1.31082722911618,103.881584301124,103.881584301124,398760,LORONG 20 GEYLANG,47 LORONG 20 GEYLANG SINGAPORE 398760,33371.5195698291,32570.1845077407
54 LORONG 20 GEYLANG SINGAPORE 398761,54,NIL,1.31101811230696,103.881204070024,103.881204070024,398761,LORONG 20 GEYLANG,54 LORONG 20 GEYLANG SINGAPORE 398761,33329.2030217098,32591.2905846629
56 LORONG 20 GEYLANG SINGAPORE 398762,56,NIL,1.31095427228117,103.881206440412,103.881206440412,398762,LORONG 20 GEYLANG,56 LORONG 20 GEYLANG SINGAPORE 398762,33329.4669585275,32584.2314855009
58 LORONG 20 GEYLANG SINGAPORE 398763,58,NIL,1.31087839120056,103.881213654131,103.881213654131,398763,LORONG 20 GEYLANG,58 LORONG 20 GEYLANG SINGAPORE 398763,33330.2699378673,32575.8409582693
60 LORONG 20 GEYLANG SINGAPORE 398764,60,NIL,1.31076878070516,103.88123770693,103.88123770693,398764,LORONG 20 GEYLANG,60 LORONG 20 GEYLANG SINGAPORE 398764,33332.9470199551,32563.7208403535
62 LORONG 20 GEYLANG SINGAPORE 398765,62,NIL,1.31068919834488,103.881237837869,103.881237837869,398765,LORONG 20 GEYLANG,62 LORONG 20 GEYLANG SINGAPORE 398765,33332.9617604632,32554.9210294485
1 LORONG 18 GEYLANG SINGAPORE 398787,1,NIL,1.31243585763309,103.880783450117,103.880783450117,398787,LORONG 18 GEYLANG,1 LORONG 18 GEYLANG SINGAPORE 398787,33282.3890144248,32748.0567354951
3 LORONG 18 GEYLANG SINGAPORE 398788,3,NIL,1.31238632615755,103.880786603523,103.880786603523,398788,LORONG 18 GEYLANG,3 LORONG 18 GEYLANG SINGAPORE 398788,33282.7400625004,32742.5798043758
5 LORONG 18 GEYLANG SINGAPORE 398789,5,NIL,1.31233689675804,103.88079113692,103.88079113692,398789,LORONG 18 GEYLANG,5 LORONG 18 GEYLANG SINGAPORE 398789,33283.2446903251,32737.1141632162
7 LORONG 18 GEYLANG SINGAPORE 398791,7,NIL,1.31228716272017,103.880794289777,103.880794289777,398791,LORONG 18 GEYLANG,7 LORONG 18 GEYLANG SINGAPORE 398791,33283.5956778638,32731.6148337908
9 LORONG 18 GEYLANG SINGAPORE 398792,9,NIL,1.31223788140909,103.880798876756,103.880798876756,398792,LORONG 18 GEYLANG,9 LORONG 18 GEYLANG SINGAPORE 398792,33284.1062684814,32726.1655676104
10 LORONG 18 GEYLANG BUDGETONE HOTEL SINGAPORE 398793,10,BUDGETONE HOTEL,1.31221721322928,103.880423583987,103.880423583987,398793,LORONG 18 GEYLANG,BUDGETONE HOTEL,33242.3397804294,32723.8793965317
11 LORONG 18 GEYLANG SINGAPORE 398794,11,NIL,1.3121882765737,103.880801998067,103.880801998067,398794,LORONG 18 GEYLANG,11 LORONG 18 GEYLANG SINGAPORE 398794,33284.4537449349,32720.6805246733
13 LORONG 18 GEYLANG SINGAPORE 398796,13,NIL,1.3121388184315,103.880806565732,103.880806565732,398796,LORONG 18 GEYLANG,13 LORONG 18 GEYLANG SINGAPORE 398796,33284.9621865246,32715.2117053755
14 LORONG 18 GEYLANG SINGAPORE 398797,14,NIL,1.31214363787255,103.880441559188,103.880441559188,398797,LORONG 18 GEYLANG,14 LORONG 18 GEYLANG SINGAPORE 398797,33244.3404033491,32715.7438467965
15 LORONG 18 GEYLANG SINGAPORE 398798,15,NIL,1.31208916925044,103.880809734909,103.880809734909,398798,LORONG 18 GEYLANG,15 LORONG 18 GEYLANG SINGAPORE 398798,33285.3149901433,32709.721759025
16 LORONG 18 GEYLANG SINGAPORE 398799,16,NIL,1.31208514371696,103.880450964813,103.880450964813,398799,LORONG 18 GEYLANG,16 LORONG 18 GEYLANG SINGAPORE 398799,33245.3872821024,32709.2758813556
17 LORONG 18 GEYLANG SINGAPORE 398800,17,NIL,1.31203974641964,103.880814307198,103.880814307198,398800,LORONG 18 GEYLANG,17 LORONG 18 GEYLANG SINGAPORE 398800,33285.8239462897,32704.2568442971
18 LORONG 18 GEYLANG SINGAPORE 398801,18,NIL,1.3120038699692,103.88043622999,103.88043622999,398801,LORONG 18 GEYLANG,18 LORONG 18 GEYLANG SINGAPORE 398801,33243.7476048889,32700.2890143115
19 LORONG 18 GEYLANG SINGAPORE 398802,19,NIL,1.31198938115431,103.880817426862,103.880817426862,398802,LORONG 18 GEYLANG,19 LORONG 18 GEYLANG SINGAPORE 398802,33286.1712411344,32698.6877169013
20 LORONG 18 GEYLANG SINGAPORE 398803,20,NIL,1.31193986805355,103.880444626492,103.880444626492,398803,LORONG 18 GEYLANG,20 LORONG 18 GEYLANG SINGAPORE 398803,33244.6821894217,32693.2120267693
22 LORONG 18 GEYLANG SINGAPORE 398804,22,NIL,1.31185268791009,103.880476463339,103.880476463339,398804,LORONG 18 GEYLANG,22 LORONG 18 GEYLANG SINGAPORE 398804,33248.2255109353,32683.5721582435
25 LORONG 18 GEYLANG DIAMOND HOTEL SINGAPORE 398806,25,DIAMOND HOTEL,1.31183640458362,103.880838811363,103.880838811363,398806,LORONG 18 GEYLANG,DIAMOND HOTEL,33288.5514548384,32681.7723936643
26 LORONG 18 GEYLANG SINGAPORE 398807,26,NIL,1.31176981591665,103.880500788651,103.880500788651,398807,LORONG 18 GEYLANG,26 LORONG 18 GEYLANG SINGAPORE 398807,33250.9328610068,32674.4086472448
28 LORONG 18 GEYLANG SINGAPORE 398809,28,NIL,1.31171826638006,103.880494903015,103.880494903015,398809,LORONG 18 GEYLANG,28 LORONG 18 GEYLANG SINGAPORE 398809,33250.2779526431,32668.7085502837
30 LORONG 18 GEYLANG SINGAPORE 398811,30,NIL,1.31165628627037,103.880516928101,103.880516928101,398811,LORONG 18 GEYLANG,30 LORONG 18 GEYLANG SINGAPORE 398811,33252.7292658407,32661.8551523387
32 LORONG 18 GEYLANG SINGAPORE 398812,32,NIL,1.31159239360513,103.880509246669,103.880509246669,398812,LORONG 18 GEYLANG,32 LORONG 18 GEYLANG SINGAPORE 398812,33251.8745282488,32654.7902114559
34 LORONG 18 GEYLANG SINGAPORE 398813,34,NIL,1.31152524849214,103.880513554546,103.880513554546,398813,LORONG 18 GEYLANG,34 LORONG 18 GEYLANG SINGAPORE 398813,33252.3540941821,32647.3656566571
36 LORONG 18 GEYLANG SINGAPORE 398815,36,NIL,1.31146343655706,103.880515734065,103.880515734065,398815,LORONG 18 GEYLANG,36 LORONG 18 GEYLANG SINGAPORE 398815,33252.5967828762,32640.5308129862
38 LORONG 18 GEYLANG SINGAPORE 398817,38,NIL,1.31138794077961,103.880500107282,103.880500107282,398817,LORONG 18 GEYLANG,38 LORONG 18 GEYLANG SINGAPORE 398817,33250.8578266753,32632.1828425415
40 LORONG 18 GEYLANG SINGAPORE 398819,40,NIL,1.3113265204649,103.880507101539,103.880507101539,398819,LORONG 18 GEYLANG,40 LORONG 18 GEYLANG SINGAPORE 398819,33251.6363494843,32625.3913123552
42 LORONG 18 GEYLANG SINGAPORE 398821,42,NIL,1.31125363898985,103.880512245352,103.880512245352,398821,LORONG 18 GEYLANG,42 LORONG 18 GEYLANG SINGAPORE 398821,33252.2089592004,32617.3324616905
44 LORONG 18 GEYLANG SINGAPORE 398823,44,NIL,1.31119167912486,103.880520436822,103.880520436822,398823,LORONG 18 GEYLANG,44 LORONG 18 GEYLANG SINGAPORE 398823,33253.1207216745,32610.4812733065
50 LORONG 18 GEYLANG IBIS BUDGET SINGAPORE CRYSTAL SINGAPORE 398824,50,IBIS BUDGET SINGAPORE CRYSTAL,1.31057498283292,103.880589484535,103.880589484535,398824,LORONG 18 GEYLANG,IBIS BUDGET SINGAPORE CRYSTAL,33260.8063680995,32542.2902906463
54 LORONG 18 GEYLANG SINGAPORE 398826,54,NIL,1.31041042720431,103.880604747538,103.880604747538,398826,LORONG 18 GEYLANG,54 LORONG 18 GEYLANG SINGAPORE 398826,33262.505340294,32524.0946014319
57 LORONG 18 GEYLANG GEYLANG SOKA CENTRE SINGAPORE 398827,57,GEYLANG SOKA CENTRE,1.31068321408479,103.881005165816,103.881005165816,398827,LORONG 18 GEYLANG,GEYLANG SOKA CENTRE,33307.0675609298,32554.2588264998
31 LORONG 18 GEYLANG HOTEL 81 - STAR SINGAPORE 398828,31,HOTEL 81 - STAR,1.31160601087581,103.880860521039,103.880860521039,398828,LORONG 18 GEYLANG,HOTEL 81 - STAR,33290.9680203898,32656.2966792732
21 LORONG 18 GEYLANG SINGAPORE 398829,21,NIL,1.31194063233443,103.880832107299,103.880832107299,398829,LORONG 18 GEYLANG,21 LORONG 18 GEYLANG SINGAPORE 398829,33287.805137164,32693.2973522153
1 LORONG 16 GEYLANG SINGAPORE 398849,1,NIL,1.31228167094409,103.880196097174,103.880196097174,398849,LORONG 16 GEYLANG,1 LORONG 16 GEYLANG SINGAPORE 398849,33217.0225189328,32731.006326247
3 LORONG 16 GEYLANG SINGAPORE 398850,3,NIL,1.31226698807216,103.88011497588,103.88011497588,398850,LORONG 16 GEYLANG,3 LORONG 16 GEYLANG SINGAPORE 398850,33207.994517698,32729.3826002609
5 LORONG 16 GEYLANG SINGAPORE 398851,5,NIL,1.31225474907276,103.880034487512,103.880034487512,398851,LORONG 16 GEYLANG,5 LORONG 16 GEYLANG SINGAPORE 398851,33199.0369500602,32728.029106833
6 LORONG 16 GEYLANG SINGAPORE 398852,6,NIL,1.31201272754602,103.879524819314,103.879524819314,398852,LORONG 16 GEYLANG,6 LORONG 16 GEYLANG SINGAPORE 398852,33142.3162014373,32701.2665491123
7 LORONG 16 GEYLANG SINGAPORE 398853,7,NIL,1.31224430552834,103.879951669188,103.879951669188,398853,LORONG 16 GEYLANG,7 LORONG 16 GEYLANG SINGAPORE 398853,33189.8200766072,32726.8741411101
8 LORONG 16 GEYLANG SINGAPORE 398854,8,NIL,1.31201272699855,103.879524819314,103.879524819314,398854,LORONG 16 GEYLANG,8 LORONG 16 GEYLANG SINGAPORE 398854,33142.3162014373,32701.2664885763
9 LORONG 16 GEYLANG SINGAPORE 398855,9,NIL,1.31215182700847,103.88004228034,103.88004228034,398855,LORONG 16 GEYLANG,9 LORONG 16 GEYLANG SINGAPORE 398855,33199.9044304742,32716.6485265624
10 LORONG 16 GEYLANG SINGAPORE 398856,10,NIL,1.31201272699855,103.879524819314,103.879524819314,398856,LORONG 16 GEYLANG,10 LORONG 16 GEYLANG SINGAPORE 398856,33142.3162014373,32701.2664885763
11 LORONG 16 GEYLANG SINGAPORE 398857,11,NIL,1.31210550839819,103.880056689953,103.880056689953,398857,LORONG 16 GEYLANG,11 LORONG 16 GEYLANG SINGAPORE 398857,33201.508179591,32711.5268810373
12 LORONG 16 GEYLANG SINGAPORE 398858,12,NIL,1.31201272699855,103.879524819314,103.879524819314,398858,LORONG 16 GEYLANG,12 LORONG 16 GEYLANG SINGAPORE 398858,33142.3162014373,32701.2664885763
15 LORONG 16 GEYLANG SINGAPORE 398860,15,NIL,1.312068510226,103.880065379609,103.880065379609,398860,LORONG 16 GEYLANG,15 LORONG 16 GEYLANG SINGAPORE 398860,33202.4753324753,32707.4358300902
17 LORONG 16 GEYLANG SINGAPORE 398861,17,NIL,1.31202005645026,103.880067831359,103.880067831359,398861,LORONG 16 GEYLANG,17 LORONG 16 GEYLANG SINGAPORE 398861,33202.748289152,32702.0780640244
19 LORONG 16 GEYLANG SINGAPORE 398862,19,NIL,1.31198360160667,103.880078173803,103.880078173803,398862,LORONG 16 GEYLANG,19 LORONG 16 GEYLANG SINGAPORE 398862,33203.8993805731,32698.047095025
20 LORONG 16 GEYLANG HOTEL 81 - GEYLANG SINGAPORE 398863,20,HOTEL 81 - GEYLANG,1.31178980260829,103.87957806774,103.87957806774,398863,LORONG 16 GEYLANG,HOTEL 81 - GEYLANG,33148.2427029172,32676.6167571936
21 LORONG 16 GEYLANG SINGAPORE 398864,21,NIL,1.31193570059933,103.880089772819,103.880089772819,398864,LORONG 16 GEYLANG,21 LORONG 16 GEYLANG SINGAPORE 398864,33205.1903403467,32692.7504702862
24 LORONG 16 GEYLANG THEN SHEN TEMPLE SINGAPORE 398866,24,THEN SHEN TEMPLE,1.31161889865602,103.879603527223,103.879603527223,398866,LORONG 16 GEYLANG,THEN SHEN TEMPLE,33151.0764520895,32657.7191231679
25 LORONG 16 GEYLANG HOTEL 81 - PALACE SINGAPORE 398867,25,HOTEL 81 - PALACE,1.31179141189201,103.880119072472,103.880119072472,398867,LORONG 16 GEYLANG,HOTEL 81 - PALACE,33208.4514129125,32676.795822585
30 LORONG 16 GEYLANG CRYSTAL LODGE SINGAPORE 398870,30,CRYSTAL LODGE,1.31139887994503,103.879671115715,103.879671115715,398870,LORONG 16 GEYLANG,CRYSTAL LODGE,33158.5988632785,32633.3907166999
35 LORONG 16 GEYLANG SINGAPORE 398874,35,NIL,1.31164233008176,103.880121402957,103.880121402957,398874,LORONG 16 GEYLANG,35 LORONG 16 GEYLANG SINGAPORE 398874,33208.7110819444,32660.3111219537
37 LORONG 16 GEYLANG SINGAPORE 398875,37,NIL,1.31159439907163,103.880127257093,103.880127257093,398875,LORONG 16 GEYLANG,37 LORONG 16 GEYLANG SINGAPORE 398875,33209.3626910979,32655.0111677367
39 LORONG 16 GEYLANG SINGAPORE 398876,39,NIL,1.31155558055274,103.88012260836,103.88012260836,398876,LORONG 16 GEYLANG,39 LORONG 16 GEYLANG SINGAPORE 398876,33208.845411256,32650.7188044302
41 LORONG 16 GEYLANG LODGE 41 SINGAPORE 398877,41,LODGE 41,1.31152955744761,103.880231882662,103.880231882662,398877,LORONG 16 GEYLANG,LODGE 41,33221.0066633616,32647.8415298965
43 LORONG 16 GEYLANG SINGAPORE 398878,43,NIL,1.31147267536578,103.880136362651,103.880136362651,398878,LORONG 16 GEYLANG,43 LORONG 16 GEYLANG SINGAPORE 398878,33210.3763053361,32641.5516007375
45 LORONG 16 GEYLANG SINGAPORE 398879,45,NIL,1.31142654929571,103.88014510952,103.88014510952,398879,LORONG 16 GEYLANG,45 LORONG 16 GEYLANG SINGAPORE 398879,33211.3498447649,32636.4512336049
47 LORONG 16 GEYLANG SINGAPORE 398880,47,NIL,1.31138924422755,103.880155979028,103.880155979028,398880,LORONG 16 GEYLANG,47 LORONG 16 GEYLANG SINGAPORE 398880,33212.5595955383,32632.3262522481
49 LORONG 16 GEYLANG SINGAPORE 398881,49,NIL,1.31134443798831,103.880155975748,103.880155975748,398881,LORONG 16 GEYLANG,49 LORONG 16 GEYLANG SINGAPORE 398881,33212.5593231265,32627.3718070649
50 LORONG 16 GEYLANG SINGAPORE 398882,50,NIL,1.31112263258727,103.879654855923,103.879654855923,398882,LORONG 16 GEYLANG,50 LORONG 16 GEYLANG SINGAPORE 398882,33156.7898669634,32602.844661016
51 LORONG 16 GEYLANG SINGAPORE 398883,51,NIL,1.31130993086334,103.880160494747,103.880160494747,398883,LORONG 16 GEYLANG,51 LORONG 16 GEYLANG SINGAPORE 398883,33213.0623164792,32623.5561947692
54 LORONG 16 GEYLANG SINGAPORE 398884,54,NIL,1.31091987592345,103.87974216055,103.87974216055,398884,LORONG 16 GEYLANG,54 LORONG 16 GEYLANG SINGAPORE 398884,33166.5064648287,32580.4250444043
56 LORONG 16 GEYLANG SINGAPORE 398885,56,NIL,1.31091987564971,103.879742160822,103.879742160822,398885,LORONG 16 GEYLANG,56 LORONG 16 GEYLANG SINGAPORE 398885,33166.5064950967,32580.4250141364
58 LORONG 16 GEYLANG SINGAPORE 398886,58,NIL,1.31091987564971,103.879742160822,103.879742160822,398886,LORONG 16 GEYLANG,58 LORONG 16 GEYLANG SINGAPORE 398886,33166.5064950967,32580.4250141364
60 LORONG 16 GEYLANG CANBERLIN APARTMENTS SINGAPORE 398887,60,CANBERLIN APARTMENTS,1.31068444913989,103.879834705472,103.879834705472,398887,LORONG 16 GEYLANG,CANBERLIN APARTMENTS,33176.8063267395,32554.3929439355
67 LORONG 16 GEYLANG SINGAPORE 398888,67,NIL,1.31057512799387,103.880223283082,103.880223283082,398888,LORONG 16 GEYLANG,67 LORONG 16 GEYLANG SINGAPORE 398888,33220.0515874038,32542.305575978
68 LORONG 16 GEYLANG ASSOCIATION BUILDING SINGAPORE 398889,68,ASSOCIATION BUILDING,1.31039473380788,103.879864696518,103.879864696518,398889,LORONG 16 GEYLANG,ASSOCIATION BUILDING,33180.1446431996,32522.3577639889
69 LORONG 16 GEYLANG SINGAPORE 398890,69,NIL,1.3105178185596,103.880232405606,103.880232405606,398890,LORONG 16 GEYLANG,69 LORONG 16 GEYLANG SINGAPORE 398890,33221.066957185,32535.9686103705
71 LORONG 16 GEYLANG CHONG DE CULTURAL BUILDING SINGAPORE 398891,71,CHONG DE CULTURAL BUILDING,1.31033827826447,103.880348318296,103.880348318296,398891,LORONG 16 GEYLANG,CHONG DE CULTURAL BUILDING,33233.9673231859,32516.1162030678
1 LORONG 14 GEYLANG THE AMAZING INN SINGAPORE 398913,1,THE AMAZING INN,1.31219356359095,103.879175565377,103.879175565377,398913,LORONG 14 GEYLANG,THE AMAZING INN,33103.4471766632,32721.2617607638
3 LORONG 14 GEYLANG CENTRAL IMPERIAL SINGAPORE 398915,3,CENTRAL IMPERIAL,1.31194266781347,103.879213970964,103.879213970964,398915,LORONG 14 GEYLANG,CENTRAL IMPERIAL,33107.7218634672,32693.5190651976
10 LORONG 14 GEYLANG WING FONG COURT SINGAPORE 398922,10,WING FONG COURT,1.31173462254903,103.87881521885,103.87881521885,398922,LORONG 14 GEYLANG,WING FONG COURT,33063.3449434284,32670.513672296
12 LORONG 14 GEYLANG WING FONG MANSIONS SINGAPORE 398924,12,WING FONG MANSIONS,1.31057552183979,103.879078932937,103.879078932937,398924,LORONG 14 GEYLANG,WING FONG MANSIONS,33092.6961704548,32542.3467707038
25 LORONG 14 GEYLANG SINGAPORE 398934,25,NIL,1.31137732064492,103.87933724938,103.87933724938,398934,LORONG 14 GEYLANG,25 LORONG 14 GEYLANG SINGAPORE 398934,33121.4427339705,32631.0061141383
27 LORONG 14 GEYLANG SINGAPORE 398936,27,NIL,1.31131962920849,103.879354350507,103.879354350507,398936,LORONG 14 GEYLANG,27 LORONG 14 GEYLANG SINGAPORE 398936,33123.3460453227,32624.6269246936
29 LORONG 14 GEYLANG SINGAPORE 398938,29,NIL,1.31126173848713,103.879371844629,103.879371844629,398938,LORONG 14 GEYLANG,29 LORONG 14 GEYLANG SINGAPORE 398938,33125.2930939114,32618.2257001568
31 LORONG 14 GEYLANG SINGAPORE 398940,31,NIL,1.3112077108774,103.879408462302,103.879408462302,398940,LORONG 14 GEYLANG,31 LORONG 14 GEYLANG SINGAPORE 398940,33129.3684055069,32612.2516779434
33 LORONG 14 GEYLANG SINGAPORE 398942,33,NIL,1.31115054048121,103.879418705375,103.879418705375,398942,LORONG 14 GEYLANG,33 LORONG 14 GEYLANG SINGAPORE 398942,33130.5084793819,32605.9300884716
35 LORONG 14 GEYLANG SINGAPORE 398944,35,NIL,1.31108923581281,103.879433509353,103.879433509353,398944,LORONG 14 GEYLANG,35 LORONG 14 GEYLANG SINGAPORE 398944,33132.1561473431,32599.1513616424
37 LORONG 14 GEYLANG SINGAPORE 398946,37,NIL,1.31102460327252,103.879453774205,103.879453774205,398946,LORONG 14 GEYLANG,37 LORONG 14 GEYLANG SINGAPORE 398946,33134.4115661504,32592.0046669357
43 LORONG 14 GEYLANG SINGAPORE 398950,43,NIL,1.31090150843015,103.879492906354,103.879492906354,398950,LORONG 14 GEYLANG,43 LORONG 14 GEYLANG SINGAPORE 398950,33138.7668565949,32578.3935481403
49 LORONG 14 GEYLANG SINGAPORE 398951,49,NIL,1.31078737475807,103.879518496607,103.879518496607,398951,LORONG 14 GEYLANG,49 LORONG 14 GEYLANG SINGAPORE 398951,33141.6150435945,32565.7732820623
51 LORONG 14 GEYLANG SINGAPORE 398952,51,NIL,1.31072719955326,103.879531018751,103.879531018751,398952,LORONG 14 GEYLANG,51 LORONG 14 GEYLANG SINGAPORE 398952,33143.0087631727,32559.1194409337
61 LORONG 14 GEYLANG SINGAPORE 398953,61,NIL,1.31057813737059,103.879522868811,103.879522868811,398953,LORONG 14 GEYLANG,61 LORONG 14 GEYLANG SINGAPORE 398953,33142.1020554528,32542.6368893273
63 LORONG 14 GEYLANG SINGAPORE 398954,63,NIL,1.31050999893078,103.879539257986,103.879539257986,398954,LORONG 14 GEYLANG,63 LORONG 14 GEYLANG SINGAPORE 398954,33143.9261554917,32535.1025222857
65 LORONG 14 GEYLANG SINGAPORE 398955,65,NIL,1.31045870606712,103.879552690039,103.879552690039,398955,LORONG 14 GEYLANG,65 LORONG 14 GEYLANG SINGAPORE 398955,33145.4211214753,32529.4308469612
67 LORONG 14 GEYLANG SINGAPORE 398956,67,NIL,1.31039127814114,103.879544792354,103.879544792354,398956,LORONG 14 GEYLANG,67 LORONG 14 GEYLANG SINGAPORE 398956,33144.5423208363,32521.9749950673
69 LORONG 14 GEYLANG SINGAPORE 398957,69,NIL,1.31034967491771,103.879555863591,103.879555863591,398957,LORONG 14 GEYLANG,69 LORONG 14 GEYLANG SINGAPORE 398957,33145.7745304536,32517.3747458309
71 LORONG 14 GEYLANG SINGAPORE 398958,71,NIL,1.31029924299326,103.879566633049,103.879566633049,398958,LORONG 14 GEYLANG,71 LORONG 14 GEYLANG SINGAPORE 398958,33146.9731728761,32511.7982633132
73 LORONG 14 GEYLANG SINGAPORE 398959,73,NIL,1.31024267460311,103.879573203411,103.879573203411,398959,LORONG 14 GEYLANG,73 LORONG 14 GEYLANG SINGAPORE 398959,33147.7045078985,32505.5432331394
75 LORONG 14 GEYLANG SINGAPORE 398960,75,NIL,1.31024267432938,103.879573203411,103.879573203411,398960,LORONG 14 GEYLANG,75 LORONG 14 GEYLANG SINGAPORE 398960,33147.7045078985,32505.5432028715
21 LORONG 14 GEYLANG IBIS BUDGET SINGAPORE PEARL SINGAPORE 398961,21,IBIS BUDGET SINGAPORE PEARL,1.31156140223387,103.879289523723,103.879289523723,398961,LORONG 14 GEYLANG,IBIS BUDGET SINGAPORE PEARL,33116.1309449719,32651.3608186319
1 LORONG 12 GEYLANG PADDY GREEN SINGAPORE 398982,1,PADDY GREEN,1.3120786072378,103.878399313302,103.878399313302,398982,LORONG 12 GEYLANG,PADDY GREEN,33017.0579017401,32708.5489049237
2 LORONG 12 GEYLANG SINGAPORE 398983,2,NIL,1.3119655418392,103.877991510304,103.877991510304,398983,LORONG 12 GEYLANG,2 LORONG 12 GEYLANG SINGAPORE 398983,32971.6735118628,32696.0458970144
3C LORONG 12 GEYLANG SINGAPORE 398984,3C,NIL,1.31191257190365,103.878425016642,103.878425016642,398984,LORONG 12 GEYLANG,3C LORONG 12 GEYLANG SINGAPORE 398984,33019.9187710257,32690.1896172557
4 LORONG 12 GEYLANG SINGAPORE 398985,4,NIL,1.31188440268055,103.877995914006,103.877995914006,398985,LORONG 12 GEYLANG,4 LORONG 12 GEYLANG SINGAPORE 398985,32972.1637623953,32687.0739520844
5 LORONG 12 GEYLANG SUMMER VIEW SINGAPORE 398986,5,SUMMER VIEW,1.31170915264394,103.878463160426,103.878463160426,398986,LORONG 12 GEYLANG,SUMMER VIEW,33024.1642189575,32667.6966310516
6 LORONG 12 GEYLANG SINGAPORE 398987,6,NIL,1.31183467072697,103.878005023664,103.878005023664,398987,LORONG 12 GEYLANG,6 LORONG 12 GEYLANG SINGAPORE 398987,32973.1776793143,32681.5748648029
8 LORONG 12 GEYLANG SINGAPORE 398989,8,NIL,1.31174889504568,103.877996137885,103.877996137885,398989,LORONG 12 GEYLANG,8 LORONG 12 GEYLANG SINGAPORE 398989,32972.1889453577,32672.0902104974
9 LORONG 12 GEYLANG SINGAPORE 398990,9,NIL,1.31150853090085,103.878503106889,103.878503106889,398990,LORONG 12 GEYLANG,9 LORONG 12 GEYLANG SINGAPORE 398990,33028.6102830861,32645.5129836425
10 LORONG 12 GEYLANG SINGAPORE 398991,10,NIL,1.31166856877663,103.878066849888,103.878066849888,398991,LORONG 12 GEYLANG,10 LORONG 12 GEYLANG SINGAPORE 398991,32980.0586816603,32663.2082825508
12 LORONG 12 GEYLANG HOME SUITE VIEW HOTEL SINGAPORE 398993,12,HOME SUITE VIEW HOTEL,1.31137990321733,103.878127745139,103.878127745139,398993,LORONG 12 GEYLANG,HOME SUITE VIEW HOTEL,32986.8363188421,32631.2892408576
15 LORONG 12 GEYLANG SINGAPORE 398995,15,NIL,1.31140487875816,103.878527885542,103.878527885542,398995,LORONG 12 GEYLANG,15 LORONG 12 GEYLANG SINGAPORE 398995,33031.3681201544,32634.0517089274
17 LORONG 12 GEYLANG SINGAPORE 398997,17,NIL,1.31134798356317,103.878502668855,103.878502668855,398997,LORONG 12 GEYLANG,17 LORONG 12 GEYLANG SINGAPORE 398997,33028.5618543122,32627.7604782432
19 LORONG 12 GEYLANG SINGAPORE 398999,19,NIL,1.31129073712385,103.878540210924,103.878540210924,398999,LORONG 12 GEYLANG,19 LORONG 12 GEYLANG SINGAPORE 398999,33032.7400467843,32621.4305348098
21 LORONG 12 GEYLANG HOTEL 81 - PRINCESS SINGAPORE 399001,21,HOTEL 81 - PRINCESS,1.31099819248981,103.878661019965,103.878661019965,399001,LORONG 12 GEYLANG,HOTEL 81 - PRINCESS,33046.1855391711,32589.08268659
25A LORONG 12 GEYLANG SINGAPORE 399003,25A,NIL,1.31086959142196,103.878645528,103.878645528,399003,LORONG 12 GEYLANG,25A LORONG 12 GEYLANG SINGAPORE 399003,33044.461686695,32574.862606233
27 LORONG 12 GEYLANG SINGAPORE 399004,27,NIL,1.31061653028246,103.878706595424,103.878706595424,399004,LORONG 12 GEYLANG,27 LORONG 12 GEYLANG SINGAPORE 399004,33051.2584229745,32546.880521182
30 LORONG 12 GEYLANG SINGAPORE 399005,30,NIL,1.30982895919289,103.877886719821,103.877886719821,399005,LORONG 12 GEYLANG,30 LORONG 12 GEYLANG SINGAPORE 399005,32960.0155255226,32459.7932968214
31 LORONG 12 GEYLANG JAMIYAH ISLAMIC CENTRE SINGAPORE 399006,31,JAMIYAH ISLAMIC CENTRE,1.31038185105339,103.878786610402,103.878786610402,399006,LORONG 12 GEYLANG,JAMIYAH ISLAMIC CENTRE,33060.1638086075,32520.9310523085
33 LORONG 12 GEYLANG JIN DONG HOTEL SINGAPORE 399007,33,JIN DONG HOTEL,1.3102243872879,103.87884763737,103.87884763737,399007,LORONG 12 GEYLANG,JIN DONG HOTEL,33066.9558533495,32503.5196368191
37 LORONG 12 GEYLANG SINGAPORE 399011,37,NIL,1.31010420682452,103.878905178862,103.878905178862,399011,LORONG 12 GEYLANG,37 LORONG 12 GEYLANG SINGAPORE 399011,33073.3599230768,32490.2308115158
39 LORONG 12 GEYLANG PU JI SI BUDDHIST RESEARCH CENTRE SINGAPORE 399012,39,PU JI SI BUDDHIST RESEARCH CENTRE,1.30996807169836,103.878835766315,103.878835766315,399012,LORONG 12 GEYLANG,PU JI SI BUDDHIST RESEARCH CENTRE,33065.6352309519,32475.1775443703
3 LORONG 12 GEYLANG HOTEL 81 - CHERRY SINGAPORE 399014,3,HOTEL 81 - CHERRY,1.3119916668572,103.878418860869,103.878418860869,399014,LORONG 12 GEYLANG,HOTEL 81 - CHERRY,33019.2335341424,32698.9355208837
1 LORONG 10 GEYLANG HOTEL ASCENDERE SINGAPORE 399035,1,HOTEL ASCENDERE,1.31192437553826,103.877740644714,103.877740644714,399035,LORONG 10 GEYLANG,HOTEL ASCENDERE,32943.7546263626,32691.4934409224
2 LORONG 10 GEYLANG SINGAPORE 399036,2,NIL,1.31188994583443,103.877424897997,103.877424897997,399036,LORONG 10 GEYLANG,2 LORONG 10 GEYLANG SINGAPORE 399036,32908.6150712017,32687.6857588384
3 LORONG 10 GEYLANG IBIS BUDGET SINGAPORE SAPPHIRE SINGAPORE 399037,3,IBIS BUDGET SINGAPORE SAPPHIRE,1.31175831792311,103.877772717152,103.877772717152,399037,LORONG 10 GEYLANG,IBIS BUDGET SINGAPORE SAPPHIRE,32947.3243112899,32673.1317015477
4 LORONG 10 GEYLANG SINGAPORE 399038,4,NIL,1.31185120207618,103.877433544146,103.877433544146,399038,LORONG 10 GEYLANG,4 LORONG 10 GEYLANG SINGAPORE 399038,32909.5773812076,32683.4016889595
6 LORONG 10 GEYLANG SINGAPORE 399039,6,NIL,1.31173702597551,103.877429311884,103.877429311884,399039,LORONG 10 GEYLANG,6 LORONG 10 GEYLANG SINGAPORE 399039,32909.1065929895,32670.776670808
8 LORONG 10 GEYLANG JH HOTEL SINGAPORE 399041,8,JH HOTEL,1.31158587396195,103.877460159637,103.877460159637,399041,LORONG 10 GEYLANG,JH HOTEL,32912.5399509184,32654.0631139502
9 LORONG 10 GEYLANG SINGAPORE 399042,9,NIL,1.31159166331682,103.877803627436,103.877803627436,399042,LORONG 10 GEYLANG,9 LORONG 10 GEYLANG SINGAPORE 399042,32950.764661123,32654.7039477024
10 LORONG 10 GEYLANG IBIS BUDGET SINGAPORE AMETRINE SINGAPORE 399043,10,IBIS BUDGET SINGAPORE AMETRINE,1.31145567538712,103.877505970871,103.877505970871,399043,LORONG 10 GEYLANG,IBIS BUDGET SINGAPORE AMETRINE,32917.638562507,32639.6665107105
11 LORONG 10 GEYLANG SINGAPORE 399044,11,NIL,1.31147181418438,103.877794846861,103.877794846861,399044,LORONG 10 GEYLANG,11 LORONG 10 GEYLANG SINGAPORE 399044,32949.787701413,32641.4516255874
12 LORONG 10 GEYLANG K HOTEL 12 SINGAPORE 399045,12,K HOTEL 12,1.31128856298072,103.87751288366,103.87751288366,399045,LORONG 10 GEYLANG,K HOTEL 12,32918.4082167977,32621.1880882587
13 LORONG 10 GEYLANG SINGAPORE 399046,13,NIL,1.31138558090582,103.877842414163,103.877842414163,399046,LORONG 10 GEYLANG,13 LORONG 10 GEYLANG SINGAPORE 399046,32955.0816625692,32631.9164842833
14 LORONG 10 GEYLANG K HOTEL 14 SINGAPORE 399047,14,K HOTEL 14,1.31123084425497,103.877541287737,103.877541287737,399047,LORONG 10 GEYLANG,K HOTEL 14,32921.5694352845,32614.8059022855
15 LORONG 10 GEYLANG SINGAPORE 399048,15,NIL,1.31133633101287,103.877850589605,103.877850589605,399048,LORONG 10 GEYLANG,15 LORONG 10 GEYLANG SINGAPORE 399048,32955.9916089633,32626.470698921
16 LORONG 10 GEYLANG BAS BUILDING SINGAPORE 399049,16,BAS BUILDING,1.31111497901882,103.8775638956,103.8775638956,399049,LORONG 10 GEYLANG,BAS BUILDING,32924.0857035751,32601.9941609409
17 LORONG 10 GEYLANG SINGAPORE 399050,17,NIL,1.31126461248179,103.877802895769,103.877802895769,399050,LORONG 10 GEYLANG,17 LORONG 10 GEYLANG SINGAPORE 399050,32950.6838758746,32618.5403358471
19 LORONG 10 GEYLANG SINGAPORE 399051,19,NIL,1.31115122065204,103.877904314789,103.877904314789,399051,LORONG 10 GEYLANG,19 LORONG 10 GEYLANG SINGAPORE 399051,32961.9710794147,32606.0022473447
1 LORONG 8 GEYLANG LEX HOTEL (LORONG 8) SINGAPORE 399073,1,LEX HOTEL (LORONG 8),1.31181054326776,103.877164387335,103.877164387335,399073,LORONG 8 GEYLANG,LEX HOTEL (LORONG 8),32879.6228527296,32678.905319443
6 LORONG 8 GEYLANG GOODVIEW APARTMENTS SINGAPORE 399077,6,GOODVIEW APARTMENTS,1.31163886619549,103.876838075122,103.876838075122,399077,LORONG 8 GEYLANG,GOODVIEW APARTMENTS,32843.3077193499,32659.9215124659
7 LORONG 8 GEYLANG SINGAPORE 399078,7,NIL,1.31173073139547,103.877155804394,103.877155804394,399078,LORONG 8 GEYLANG,7 LORONG 8 GEYLANG SINGAPORE 399078,32878.6678070398,32670.0801136978
9 LORONG 8 GEYLANG SINGAPORE 399080,9,NIL,1.31165740385911,103.877185223214,103.877185223214,399080,LORONG 8 GEYLANG,9 LORONG 8 GEYLANG SINGAPORE 399080,32881.9419856425,32661.9719867557
11A LORONG 8 GEYLANG SINGAPORE 399082,11A,NIL,1.31158793587108,103.877188421218,103.877188421218,399082,LORONG 8 GEYLANG,11A LORONG 8 GEYLANG SINGAPORE 399082,32882.2980279345,32654.2905778475
12 LORONG 8 GEYLANG SINGAPORE 399083,12,NIL,1.31148758607814,103.876853446034,103.876853446034,399083,LORONG 8 GEYLANG,12 LORONG 8 GEYLANG SINGAPORE 399083,32845.0186473969,32643.1937599257
14 LORONG 8 GEYLANG SINGAPORE 399084,14,NIL,1.31143892449769,103.876873953016,103.876873953016,399084,LORONG 8 GEYLANG,14 LORONG 8 GEYLANG SINGAPORE 399084,32847.3009744417,32637.8130507283
16 LORONG 8 GEYLANG SINGAPORE 399085,16,NIL,1.31138965874285,103.876881440659,103.876881440659,399085,LORONG 8 GEYLANG,16 LORONG 8 GEYLANG SINGAPORE 399085,32848.1343731051,32632.365509823
17 LORONG 8 GEYLANG SINGAPORE 399086,17,NIL,1.31151637092217,103.877185564804,103.877185564804,399086,LORONG 8 GEYLANG,17 LORONG 8 GEYLANG SINGAPORE 399086,32881.9802746419,32646.3772859164
18 LORONG 8 GEYLANG SINGAPORE 399087,18,NIL,1.31135147615436,103.876889183874,103.876889183874,399087,LORONG 8 GEYLANG,18 LORONG 8 GEYLANG SINGAPORE 399087,32848.9961934052,32628.1434893105
19 LORONG 8 GEYLANG SINGAPORE 399088,19,NIL,1.31140628066541,103.877221772233,103.877221772233,399088,LORONG 8 GEYLANG,19 LORONG 8 GEYLANG SINGAPORE 399088,32886.010032922,32634.2041384932
20 LORONG 8 GEYLANG SINGAPORE 399089,20,NIL,1.31130270555885,103.876898007726,103.876898007726,399089,LORONG 8 GEYLANG,20 LORONG 8 GEYLANG SINGAPORE 399089,32849.9782986734,32622.7507031877
21 LORONG 8 GEYLANG HOTEL 81 - ORCHID SINGAPORE 399090,21,HOTEL 81 - ORCHID,1.31119116340439,103.87727773582,103.87727773582,399090,LORONG 8 GEYLANG,HOTEL 81 - ORCHID,32892.238669415,32610.4176802728
22 LORONG 8 GEYLANG SINGAPORE 399091,22,NIL,1.31126433353817,103.876906261159,103.876906261159,399091,LORONG 8 GEYLANG,22 LORONG 8 GEYLANG SINGAPORE 399091,32850.8969017109,32618.5077372286
26 LORONG 8 GEYLANG SINGAPORE 399094,26,NIL,1.31111630405953,103.876902503746,103.876902503746,399094,LORONG 8 GEYLANG,26 LORONG 8 GEYLANG SINGAPORE 399094,32850.4790219283,32602.1393867265
31 LORONG 8 GEYLANG SINGAPORE 399095,31,NIL,1.31083761848136,103.877402299063,103.877402299063,399095,LORONG 8 GEYLANG,31 LORONG 8 GEYLANG SINGAPORE 399095,32906.1020718534,32571.3247329555
32 LORONG 8 GEYLANG DARLENE HOTEL (GEYLANG) SINGAPORE 399096,32,DARLENE HOTEL (GEYLANG),1.31089971524413,103.876972502473,103.876972502473,399096,LORONG 8 GEYLANG,DARLENE HOTEL (GEYLANG),32858.2696377207,32578.190238094
37 LORONG 8 GEYLANG K HOTEL 8 SINGAPORE 399099,37,K HOTEL 8,1.31067429365372,103.877397280219,103.877397280219,399099,LORONG 8 GEYLANG,K HOTEL 8,32905.5438394295,32553.2650983259
38 LORONG 8 GEYLANG SINGAPORE 399100,38,NIL,1.31073087412621,103.876984427993,103.876984427993,399100,LORONG 8 GEYLANG,38 LORONG 8 GEYLANG SINGAPORE 399100,32859.5971612185,32559.5206733253
41 LORONG 8 GEYLANG SINGAPORE 399102,41,NIL,1.31057638849028,103.877332170192,103.877332170192,399102,LORONG 8 GEYLANG,41 LORONG 8 GEYLANG SINGAPORE 399102,32898.2978960034,32542.439118322
43 LORONG 8 GEYLANG SINGAPORE 399104,43,NIL,1.31051774214445,103.877341770342,103.877341770342,399104,LORONG 8 GEYLANG,43 LORONG 8 GEYLANG SINGAPORE 399104,32899.3664163649,32535.9543238822
45 LORONG 8 GEYLANG SINGAPORE 399105,45,NIL,1.31046349139727,103.877351596849,103.877351596849,399105,LORONG 8 GEYLANG,45 LORONG 8 GEYLANG SINGAPORE 399105,32900.4601196889,32529.9555727262
47 LORONG 8 GEYLANG SINGAPORE 399107,47,NIL,1.31040844519317,103.877360806237,103.877360806237,399107,LORONG 8 GEYLANG,47 LORONG 8 GEYLANG SINGAPORE 399107,32901.485144957,32523.8688628078
48 LORONG 8 GEYLANG SINGAPORE 399108,48,NIL,1.31056625831388,103.876998351224,103.876998351224,399108,LORONG 8 GEYLANG,48 LORONG 8 GEYLANG SINGAPORE 399108,32861.1470030574,32541.3183251545
49 LORONG 8 GEYLANG SINGAPORE 399109,49,NIL,1.31035075846165,103.877406599958,103.877406599958,399109,LORONG 8 GEYLANG,49 LORONG 8 GEYLANG SINGAPORE 399109,32906.5816680556,32517.4902484566
50 LORONG 8 GEYLANG SINGAPORE 399110,50,NIL,1.31045894431587,103.877031270005,103.877031270005,399110,LORONG 8 GEYLANG,50 LORONG 8 GEYLANG SINGAPORE 399110,32864.810760878,32529.4521556217
51 LORONG 8 GEYLANG SINGAPORE 399111,51,NIL,1.3102801693866,103.877418276134,103.877418276134,399111,LORONG 8 GEYLANG,51 LORONG 8 GEYLANG SINGAPORE 399111,32907.8812542045,32509.6848921552
52 LORONG 8 GEYLANG SINGAPORE 399112,52,NIL,1.31026556036389,103.877055515176,103.877055515176,399112,LORONG 8 GEYLANG,52 LORONG 8 GEYLANG SINGAPORE 399112,32867.5093937702,32508.068793701
53 LORONG 8 GEYLANG SINGAPORE 399113,53,NIL,1.31020833402144,103.877429061035,103.877429061035,399113,LORONG 8 GEYLANG,53 LORONG 8 GEYLANG SINGAPORE 399113,32909.081652171,32501.7417257242
54 LORONG 8 GEYLANG SINGAPORE 399114,54,NIL,1.31026556036389,103.877055515176,103.877055515176,399114,LORONG 8 GEYLANG,54 LORONG 8 GEYLANG SINGAPORE 399114,32867.5093937702,32508.068793701
56 LORONG 8 GEYLANG ASTON LODGE SINGAPORE 399116,56,ASTON LODGE,1.31013061106888,103.877075411974,103.877075411974,399116,LORONG 8 GEYLANG,ASTON LODGE,32869.7239810666,32493.1468290668
60 LORONG 8 GEYLANG TAIPEI HOTEL (2000) SINGAPORE 399120,60,TAIPEI HOTEL (2000),1.30992260900139,103.877081649047,103.877081649047,399120,LORONG 8 GEYLANG,TAIPEI HOTEL (2000),32870.4185102219,32470.147035744
61 LORONG 8 GEYLANG HOTEL 81 - HOLLYWOOD SINGAPORE 399121,61,HOTEL 81 - HOLLYWOOD,1.31005584175207,103.877447756475,103.877447756475,399121,LORONG 8 GEYLANG,HOTEL 81 - HOLLYWOOD,32911.1625760514,32484.8799465504
62 LORONG 8 GEYLANG TAIPEI HOTEL (2000) SINGAPORE 399122,62,TAIPEI HOTEL (2000),1.3099260415622,103.877084473268,103.877084473268,399122,LORONG 8 GEYLANG,TAIPEI HOTEL (2000),32870.7328129644,32470.5265962593
64 LORONG 8 GEYLANG TAIPEI HOTEL (2000) SINGAPORE 399124,64,TAIPEI HOTEL (2000),1.3099260415622,103.877084473268,103.877084473268,399124,LORONG 8 GEYLANG,TAIPEI HOTEL (2000),32870.7328129644,32470.5265962593
65 LORONG 8 GEYLANG FAMILIE MANSIONS SINGAPORE 399125,65,FAMILIE MANSIONS,1.30983669240885,103.877503215165,103.877503215165,399125,LORONG 8 GEYLANG,FAMILIE MANSIONS,32917.3350351667,32460.6476409305
66 LORONG 8 GEYLANG SINGAPORE 399126,66,NIL,1.30981283172856,103.877174039442,103.877174039442,399126,LORONG 8 GEYLANG,66 LORONG 8 GEYLANG SINGAPORE 399126,32880.700907506,32458.0086056981
68 LORONG 8 GEYLANG SWANN COURT SINGAPORE 399130,68,SWANN COURT,1.3095100806663,103.877190886951,103.877190886951,399130,LORONG 8 GEYLANG,SWANN COURT,32882.5764631173,32424.5319735631
69 LORONG 8 GEYLANG SINGAPORE 399131,69,NIL,1.30965518195058,103.877539499363,103.877539499363,399131,LORONG 8 GEYLANG,69 LORONG 8 GEYLANG SINGAPORE 399131,32921.3734803582,32440.5772133395
70 LORONG 8 GEYLANG SINGAPORE 399132,70,NIL,1.30937235430892,103.877213096542,103.877213096542,399132,LORONG 8 GEYLANG,70 LORONG 8 GEYLANG SINGAPORE 399132,32885.0484493468,32409.3029402345
70A LORONG 8 GEYLANG SINGAPORE 399133,70A,NIL,1.30932134344653,103.877223931851,103.877223931851,399133,LORONG 8 GEYLANG,70A LORONG 8 GEYLANG SINGAPORE 399133,32886.2544166222,32403.6624409333
70B LORONG 8 GEYLANG SINGAPORE 399134,70B,NIL,1.30926350763087,103.877233123511,103.877233123511,399134,LORONG 8 GEYLANG,70B LORONG 8 GEYLANG SINGAPORE 399134,32887.2774744723,32397.2672699932
70C LORONG 8 GEYLANG SINGAPORE 399135,70C,NIL,1.30921220525777,103.877243112708,103.877243112708,399135,LORONG 8 GEYLANG,70C LORONG 8 GEYLANG SINGAPORE 399135,32888.3892780496,32391.5945352893
72 LORONG 8 GEYLANG SINGAPORE 399136,72,NIL,1.30915231838548,103.877235409681,103.877235409681,399136,LORONG 8 GEYLANG,72 LORONG 8 GEYLANG SINGAPORE 399136,32887.532119019,32384.9725360796
72A LORONG 8 GEYLANG SINGAPORE 399137,72A,NIL,1.30909724507026,103.877245272344,103.877245272344,399137,LORONG 8 GEYLANG,72A LORONG 8 GEYLANG SINGAPORE 399137,32888.6298479848,32378.8828296326
74 LORONG 8 GEYLANG WING FONG BUILDING SINGAPORE 399138,74,WING FONG BUILDING,1.30901790619968,103.877268151182,103.877268151182,399138,LORONG 8 GEYLANG,WING FONG BUILDING,32891.1762026511,32370.1099874992
79 LORONG 8 GEYLANG SINGAPORE 399142,79,NIL,1.3094269187365,103.877529465838,103.877529465838,399142,LORONG 8 GEYLANG,79 LORONG 8 GEYLANG SINGAPORE 399142,32920.2572879223,32415.3370141294
81 LORONG 8 GEYLANG SINGAPORE 399143,81,NIL,1.3094269187365,103.877529465838,103.877529465838,399143,LORONG 8 GEYLANG,81 LORONG 8 GEYLANG SINGAPORE 399143,32920.2572879223,32415.3370141294
3 LORONG 6 GEYLANG CRYSTAL MANSIONS SINGAPORE 399165,3,CRYSTAL MANSIONS,1.31115202963177,103.876674762958,103.876674762958,399165,LORONG 6 GEYLANG,CRYSTAL MANSIONS,32825.1335506709,32606.0892980658
4 LORONG 6 GEYLANG KIM TIAN (STAR) HOTEL SINGAPORE 399166,4,KIM TIAN (STAR) HOTEL,1.31143553903078,103.876240335106,103.876240335106,399166,LORONG 6 GEYLANG,KIM TIAN (STAR) HOTEL,32776.7852895595,32637.4374855869
5 LORONG 6 GEYLANG FIVE/6 HOTEL SPLENDOUR SINGAPORE 399167,5,FIVE/6 HOTEL SPLENDOUR,1.31091000650466,103.876690704547,103.876690704547,399167,LORONG 6 GEYLANG,FIVE/6 HOTEL SPLENDOUR,32826.9081625557,32579.3276483864
20 LORONG 6 GEYLANG IBIS BUDGET SINGAPORE EMERALD SINGAPORE 399174,20,IBIS BUDGET SINGAPORE EMERALD,1.31100988236294,103.876341747515,103.876341747515,399174,LORONG 6 GEYLANG,IBIS BUDGET SINGAPORE EMERALD,32788.0723417597,32590.3707406372
30 LORONG 6 GEYLANG SUNFLOWER COURT SINGAPORE 399182,30,SUNFLOWER COURT,1.31064927245204,103.876402171482,103.876402171482,399182,LORONG 6 GEYLANG,SUNFLOWER COURT,32794.7976455977,32550.4964555874
35 LORONG 6 GEYLANG TREASURES@G6 SINGAPORE 399187,35,TREASURES@G6,1.31061812912929,103.876727965474,103.876727965474,399187,LORONG 6 GEYLANG,TREASURES@G6,32831.0555119524,32547.0534119047
38 LORONG 6 GEYLANG SINGAPORE 399190,38,NIL,1.31037544561154,103.876437245817,103.876437245817,399190,LORONG 6 GEYLANG,38 LORONG 6 GEYLANG SINGAPORE 399190,32798.7016101377,32520.218150489
38A LORONG 6 GEYLANG SINGAPORE 399191,38A,NIL,1.31032499078363,103.876443468773,103.876443468773,399191,LORONG 6 GEYLANG,38A LORONG 6 GEYLANG SINGAPORE 399191,32799.3942626771,32514.6391254608
39 LORONG 6 GEYLANG SINGAPORE 399192,39,NIL,1.31044198498132,103.876714829978,103.876714829978,399192,LORONG 6 GEYLANG,39 LORONG 6 GEYLANG SINGAPORE 399192,32829.5939920908,32527.5762670618
40 LORONG 6 GEYLANG SINGAPORE 399193,40,NIL,1.31026591085549,103.876452610391,103.876452610391,399193,LORONG 6 GEYLANG,40 LORONG 6 GEYLANG SINGAPORE 399193,32800.4117512181,32508.1063865367
40A LORONG 6 GEYLANG SINGAPORE 399194,40A,NIL,1.31021547595388,103.87646207417,103.87646207417,399194,LORONG 6 GEYLANG,40A LORONG 6 GEYLANG SINGAPORE 399194,32801.465077051,32502.5295710713
41 LORONG 6 GEYLANG SINGAPORE 399195,41,NIL,1.31038124105312,103.876722657117,103.876722657117,399195,LORONG 6 GEYLANG,41 LORONG 6 GEYLANG SINGAPORE 399195,32830.4651954668,32520.8595290631
41A LORONG 6 GEYLANG SINGAPORE 399196,41A,NIL,1.31038124077938,103.876722657117,103.876722657117,399196,LORONG 6 GEYLANG,41A LORONG 6 GEYLANG SINGAPORE 399196,32830.4651954668,32520.8594987951
43 LORONG 6 GEYLANG SINGAPORE 399198,43,NIL,1.31027900178235,103.876740450518,103.876740450518,399198,LORONG 6 GEYLANG,43 LORONG 6 GEYLANG SINGAPORE 399198,32832.4456296414,32509.5544674136
44 LORONG 6 GEYLANG K HOTEL SINGAPORE 399199,44,K HOTEL,1.30999412936697,103.876502265195,103.876502265195,399199,LORONG 6 GEYLANG,K HOTEL,32805.9383823648,32478.0542740785
45 LORONG 6 GEYLANG SINGAPORE 399200,45,NIL,1.31000300856978,103.876825191297,103.876825191297,399200,LORONG 6 GEYLANG,45 LORONG 6 GEYLANG SINGAPORE 399200,32841.8770122956,32479.0367122944
46 LORONG 6 GEYLANG SINGAPORE 399201,46,NIL,1.30989594543466,103.876520945029,103.876520945029,399201,LORONG 6 GEYLANG,46 LORONG 6 GEYLANG SINGAPORE 399201,32808.0174598983,32467.1976326071
47 LORONG 6 GEYLANG TORIE VILLE SINGAPORE 399202,47,TORIE VILLE,1.30976631711074,103.876878105707,103.876878105707,399202,LORONG 6 GEYLANG,TORIE VILLE,32847.7663446916,32452.864682937
48 LORONG 6 GEYLANG SINGAPORE 399203,48,NIL,1.3098424693903,103.876528679282,103.876528679282,399203,LORONG 6 GEYLANG,48 LORONG 6 GEYLANG SINGAPORE 399203,32808.8783116229,32461.284539843
50 LORONG 6 GEYLANG SINGAPORE 399205,50,NIL,1.30979040008333,103.876535025411,103.876535025411,399205,LORONG 6 GEYLANG,50 LORONG 6 GEYLANG SINGAPORE 399205,32809.5846755588,32455.5269942489
50A LORONG 6 GEYLANG SINGAPORE 399206,50A,NIL,1.30979040008333,103.876535025683,103.876535025683,399206,LORONG 6 GEYLANG,50A LORONG 6 GEYLANG SINGAPORE 399206,32809.5847058268,32455.5269942489
52 LORONG 6 GEYLANG SINGAPORE 399208,52,NIL,1.30973880456856,103.876543641974,103.876543641974,399208,LORONG 6 GEYLANG,52 LORONG 6 GEYLANG SINGAPORE 399208,32810.5437166234,32449.8218425345
56 LORONG 6 GEYLANG SINGAPORE 399211,56,NIL,1.30957766305334,103.876584560999,103.876584560999,399211,LORONG 6 GEYLANG,56 LORONG 6 GEYLANG SINGAPORE 399211,32815.0979282577,32432.0037161484
58 LORONG 6 GEYLANG SINGAPORE 399213,58,NIL,1.30966214596354,103.876558405772,103.876558405772,399213,LORONG 6 GEYLANG,58 LORONG 6 GEYLANG SINGAPORE 399213,32812.186935191,32441.3453542311
64 LORONG 6 GEYLANG SINGAPORE 399216,64,NIL,1.30951038979614,103.876559600666,103.876559600666,399216,LORONG 6 GEYLANG,64 LORONG 6 GEYLANG SINGAPORE 399216,32812.3202051232,32424.5649353974
66 LORONG 6 GEYLANG SINGAPORE 399218,66,NIL,1.30944439452376,103.876570444707,103.876570444707,399218,LORONG 6 GEYLANG,66 LORONG 6 GEYLANG SINGAPORE 399218,32813.5271712421,32417.267536398
68 LORONG 6 GEYLANG SINGAPORE 399220,68,NIL,1.30937868749322,103.876581222119,103.876581222119,399220,LORONG 6 GEYLANG,68 LORONG 6 GEYLANG SINGAPORE 399220,32814.7267217049,32410.0020095874
69 LORONG 6 GEYLANG CANBERLIN LODGE SINGAPORE 399221,69,CANBERLIN LODGE,1.30944640897271,103.876928896198,103.876928896198,399221,LORONG 6 GEYLANG,CANBERLIN LODGE,32853.4194657421,32417.4909746554
70 LORONG 6 GEYLANG SINGAPORE 399222,70,NIL,1.30931291804868,103.876592162985,103.876592162985,399222,LORONG 6 GEYLANG,70 LORONG 6 GEYLANG SINGAPORE 399222,32815.944463226,32402.7295816764
71 LORONG 6 GEYLANG SINGAPORE 399223,71,NIL,1.30930449746288,103.876922802925,103.876922802925,399223,LORONG 6 GEYLANG,71 LORONG 6 GEYLANG SINGAPORE 399223,32852.7416142467,32401.7991135884
72 LORONG 6 GEYLANG SINGAPORE 399224,72,NIL,1.30924666655074,103.876603662473,103.876603662473,399224,LORONG 6 GEYLANG,72 LORONG 6 GEYLANG SINGAPORE 399224,32817.2243751856,32395.4038518444
74 LORONG 6 GEYLANG SINGAPORE 399226,74,NIL,1.30919481730319,103.876611246621,103.876611246621,399226,LORONG 6 GEYLANG,74 LORONG 6 GEYLANG SINGAPORE 399226,32818.0685189832,32389.6706417091
76 LORONG 6 GEYLANG SINGAPORE 399228,76,NIL,1.30914800665681,103.876634591654,103.876634591654,399228,LORONG 6 GEYLANG,76 LORONG 6 GEYLANG SINGAPORE 399228,32820.6666924376,32384.4946046174
78 LORONG 6 GEYLANG SINGAPORE 399230,78,NIL,1.30910077722993,103.876640405069,103.876640405069,399230,LORONG 6 GEYLANG,78 LORONG 6 GEYLANG SINGAPORE 399230,32821.3137613935,32379.2722272426
81 LORONG 6 GEYLANG HUA GIAM BUILDING SINGAPORE 399232,81,HUA GIAM BUILDING,1.30915055769606,103.876972756422,103.876972756422,399232,LORONG 6 GEYLANG,HUA GIAM BUILDING,32858.3012677636,32384.7773378529
83 LORONG 6 GEYLANG SINGAPORE 399234,83,NIL,1.30898904422325,103.876995089086,103.876995089086,399234,LORONG 6 GEYLANG,83 LORONG 6 GEYLANG SINGAPORE 399234,32860.7869956587,32366.918047009
85 LORONG 6 GEYLANG SINGAPORE 399236,85,NIL,1.30894779612556,103.877001333946,103.877001333946,399236,LORONG 6 GEYLANG,85 LORONG 6 GEYLANG SINGAPORE 399236,32861.4820696367,32362.3570553456
8 LORONG 6 GEYLANG ROYCE RESIDENCES SINGAPORE 399242,8,ROYCE RESIDENCES,1.31128760423171,103.876285896427,103.876285896427,399242,LORONG 6 GEYLANG,ROYCE RESIDENCES,32781.85611514,32621.0796986092
5 LORONG 4 GEYLANG WANG LODGE SINGAPORE 399264,5,WANG LODGE,1.31132969345473,103.87602835242,103.87602835242,399264,LORONG 4 GEYLANG,WANG LODGE,32753.1938176909,32625.7332194988
7 LORONG 4 GEYLANG FERN LODGE SINGAPORE 399266,7,FERN LODGE,1.31111580692247,103.876068248261,103.876068248261,399266,LORONG 4 GEYLANG,FERN LODGE,32757.6342519736,32602.0828158651
9 LORONG 4 GEYLANG SINGAPORE 399267,9,NIL,1.31094799796398,103.87608540634,103.87608540634,399267,LORONG 4 GEYLANG,9 LORONG 4 GEYLANG SINGAPORE 399267,32759.5441012103,32583.5273916628
11 LORONG 4 GEYLANG SINGAPORE 399268,11,NIL,1.31083934283512,103.876109635619,103.876109635619,399268,LORONG 4 GEYLANG,11 LORONG 4 GEYLANG SINGAPORE 399268,32762.2407969516,32571.5129090101
13 LORONG 4 GEYLANG SINGAPORE 399270,13,NIL,1.31074797716424,103.876089501846,103.876089501846,399270,LORONG 4 GEYLANG,13 LORONG 4 GEYLANG SINGAPORE 399270,32760.0002699932,32561.4101219419
15 LORONG 4 GEYLANG SINGAPORE 399272,15,NIL,1.31063947901264,103.876106257049,103.876106257049,399272,LORONG 4 GEYLANG,15 LORONG 4 GEYLANG SINGAPORE 399272,32761.8651712742,32549.4129828438
17 LORONG 4 GEYLANG SINGAPORE 399273,17,NIL,1.31047108819588,103.876165430242,103.876165430242,399273,LORONG 4 GEYLANG,17 LORONG 4 GEYLANG SINGAPORE 399273,32768.4509094395,32530.7932997122
19 LORONG 4 GEYLANG SINGAPORE 399275,19,NIL,1.31047108819588,103.876165430242,103.876165430242,399275,LORONG 4 GEYLANG,19 LORONG 4 GEYLANG SINGAPORE 399275,32768.4509094395,32530.7932997122
23 LORONG 4 GEYLANG SINGAPORE 399276,23,NIL,1.31031794897606,103.876191491853,103.876191491853,399276,LORONG 4 GEYLANG,23 LORONG 4 GEYLANG SINGAPORE 399276,32771.3516113907,32513.859997293
25 LORONG 4 GEYLANG SINGAPORE 399277,25,NIL,1.31025795040909,103.876200166483,103.876200166483,399277,LORONG 4 GEYLANG,25 LORONG 4 GEYLANG SINGAPORE 399277,32772.3171298029,32507.2256790139
29 LORONG 4 GEYLANG KIM TIAN HOTEL (HAN) SINGAPORE 399281,29,KIM TIAN HOTEL (HAN),1.31017659296702,103.876227343854,103.876227343854,399281,LORONG 4 GEYLANG,KIM TIAN HOTEL (HAN),32775.3418699522,32498.2296407688
31 LORONG 4 GEYLANG G31 STUDIO SINGAPORE 399283,31,G31 STUDIO,1.31005776960178,103.876196876566,103.876196876566,399283,LORONG 4 GEYLANG,G31 STUDIO,32771.9513714882,32485.0907025207
33 LORONG 4 GEYLANG SINGAPORE 399284,33,NIL,1.30995233951899,103.87624126095,103.87624126095,399284,LORONG 4 GEYLANG,33 LORONG 4 GEYLANG SINGAPORE 399284,32776.8911366984,32473.4328675214
35 LORONG 4 GEYLANG SINGAPORE 399285,35,NIL,1.30991936333681,103.876248694212,103.876248694212,399285,LORONG 4 GEYLANG,35 LORONG 4 GEYLANG SINGAPORE 399285,32777.7184514971,32469.7865440585
37 LORONG 4 GEYLANG SINGAPORE 399286,37,NIL,1.3098307634892,103.876258840812,103.876258840812,399286,LORONG 4 GEYLANG,37 LORONG 4 GEYLANG SINGAPORE 399286,32778.8478407739,32459.9896452334
39 LORONG 4 GEYLANG SINGAPORE 399287,39,NIL,1.30979785081868,103.876265944172,103.876265944172,399287,LORONG 4 GEYLANG,39 LORONG 4 GEYLANG SINGAPORE 399287,32779.6384405084,32456.3503439426
41 LORONG 4 GEYLANG SINGAPORE 399288,41,NIL,1.30971224068302,103.876276006511,103.876276006511,399288,LORONG 4 GEYLANG,41 LORONG 4 GEYLANG SINGAPORE 399288,32780.7584467102,32446.8840320352
43 LORONG 4 GEYLANG SINGAPORE 399289,43,NIL,1.30964830104318,103.876229267507,103.876229267507,399289,LORONG 4 GEYLANG,43 LORONG 4 GEYLANG SINGAPORE 399289,32775.5569542442,32439.8138245214
45 LORONG 4 GEYLANG SINGAPORE 399290,45,NIL,1.30958685472025,103.876268688319,103.876268688319,399290,LORONG 4 GEYLANG,45 LORONG 4 GEYLANG SINGAPORE 399290,32779.9442379484,32433.0194794126
47 LORONG 4 GEYLANG SINGAPORE 399291,47,NIL,1.30952911256651,103.876275421917,103.876275421917,399291,LORONG 4 GEYLANG,47 LORONG 4 GEYLANG SINGAPORE 399291,32780.6937337611,32426.6346601229
49 LORONG 4 GEYLANG SINGAPORE 399292,49,NIL,1.30946570134407,103.876285662231,103.876285662231,399292,LORONG 4 GEYLANG,49 LORONG 4 GEYLANG SINGAPORE 399292,32781.8335049562,32419.6229908913
51 LORONG 4 GEYLANG SINGAPORE 399293,51,NIL,1.30941662887941,103.876291180803,103.876291180803,399293,LORONG 4 GEYLANG,51 LORONG 4 GEYLANG SINGAPORE 399293,32782.4477634178,32414.1968191825
53 LORONG 4 GEYLANG SINGAPORE 399294,53,NIL,1.30937243161135,103.876359343131,103.876359343131,399294,LORONG 4 GEYLANG,53 LORONG 4 GEYLANG SINGAPORE 399294,32790.0336768366,32409.3098413348
55 LORONG 4 GEYLANG SINGAPORE 399295,55,NIL,1.30931777603743,103.876367931631,103.876367931631,399295,LORONG 4 GEYLANG,55 LORONG 4 GEYLANG SINGAPORE 399295,32790.989600298,32403.2663238309
57 LORONG 4 GEYLANG SINGAPORE 399296,57,NIL,1.30926239964996,103.876380849374,103.876380849374,399296,LORONG 4 GEYLANG,57 LORONG 4 GEYLANG SINGAPORE 399296,32792.4273295254,32397.1431107242
59 LORONG 4 GEYLANG SINGAPORE 399297,59,NIL,1.30920455643701,103.876390559433,103.876390559433,399297,LORONG 4 GEYLANG,59 LORONG 4 GEYLANG SINGAPORE 399297,32793.5080781514,32390.7471225504
61 LORONG 4 GEYLANG SINGAPORE 399298,61,NIL,1.30915532605236,103.876394678974,103.876394678974,399298,LORONG 4 GEYLANG,61 LORONG 4 GEYLANG SINGAPORE 399298,32793.966638105,32385.3034862131
63 LORONG 4 GEYLANG BUDI CENTRE SINGAPORE 399300,63,BUDI CENTRE,1.3089605299174,103.876402970536,103.876402970536,399300,LORONG 4 GEYLANG,BUDI CENTRE,32794.88978134,32363.7639414966
1 JALAN SUKA SINGAPORE 399408,1,NIL,1.31200990704258,103.883233947766,103.883233947766,399408,JALAN SUKA,1 JALAN SUKA SINGAPORE 399408,33555.1071193405,32700.9625980202
1A JALAN SUKA SINGAPORE 399409,1A,NIL,1.31200990704258,103.883233947494,103.883233947494,399409,JALAN SUKA,1A JALAN SUKA SINGAPORE 399409,33555.1070890725,32700.9625980202
2 JALAN SUKA SINGAPORE 399410,2,NIL,1.31240478551978,103.883196075507,103.883196075507,399410,JALAN SUKA,2 JALAN SUKA SINGAPORE 399410,33550.8914248357,32744.6261622198
2A JALAN SUKA SINGAPORE 399411,2A,NIL,1.31240478579352,103.883196075235,103.883196075235,399411,JALAN SUKA,2A JALAN SUKA SINGAPORE 399411,33550.8913945677,32744.6261924878
2B JALAN SUKA SINGAPORE 399412,2B,NIL,1.31240478579352,103.883196075235,103.883196075235,399412,JALAN SUKA,2B JALAN SUKA SINGAPORE 399412,33550.8913945677,32744.6261924878
3 JALAN SUKA SINGAPORE 399413,3,NIL,1.31200820503223,103.883176342022,103.883176342022,399413,JALAN SUKA,3 JALAN SUKA SINGAPORE 399413,33548.6961485129,32700.7742706258
3A JALAN SUKA SINGAPORE 399414,3A,NIL,1.312008205306,103.883176341478,103.883176341478,399414,JALAN SUKA,3A JALAN SUKA SINGAPORE 399414,33548.6960879769,32700.7743008938
4 JALAN SUKA SINGAPORE 399415,4,NIL,1.31240519324605,103.883120914774,103.883120914774,399415,JALAN SUKA,4 JALAN SUKA SINGAPORE 399415,33542.526746464,32744.6710799076
4A JALAN SUKA SINGAPORE 399416,4A,NIL,1.31240519351979,103.88312091423,103.88312091423,399416,JALAN SUKA,4A JALAN SUKA SINGAPORE 399416,33542.526685928,32744.6711101756
4B JALAN SUKA SINGAPORE 399417,4B,NIL,1.31240519351979,103.88312091423,103.88312091423,399417,JALAN SUKA,4B JALAN SUKA SINGAPORE 399417,33542.526685928,32744.6711101756
5 JALAN SUKA SINGAPORE 399418,5,NIL,1.3120066929345,103.883121566701,103.883121566701,399418,JALAN SUKA,5 JALAN SUKA SINGAPORE 399418,33542.6001765924,32700.606949212
5A JALAN SUKA SINGAPORE 399419,5A,NIL,1.31200669238701,103.883121566973,103.883121566973,399419,JALAN SUKA,5A JALAN SUKA SINGAPORE 399419,33542.6002068603,32700.6068886761
6 JALAN SUKA SINGAPORE 399420,6,NIL,1.31240298147812,103.883066544126,103.883066544126,399420,JALAN SUKA,6 JALAN SUKA SINGAPORE 399420,33536.4758133031,32744.4263935275
6A JALAN SUKA SINGAPORE 399421,6A,NIL,1.31240298147812,103.883066544126,103.883066544126,399421,JALAN SUKA,6A JALAN SUKA SINGAPORE 399421,33536.4758133031,32744.4263935275
6B JALAN SUKA SINGAPORE 399422,6B,NIL,1.31240298147812,103.883066544126,103.883066544126,399422,JALAN SUKA,6B JALAN SUKA SINGAPORE 399422,33536.4758133031,32744.4263935275
7 JALAN SUKA SINGAPORE 399423,7,NIL,1.31200518001426,103.88306679546,103.88306679546,399423,JALAN SUKA,7 JALAN SUKA SINGAPORE 399423,33536.5046586916,32700.4395369943
7A JALAN SUKA SINGAPORE 399424,7A,NIL,1.31200517974052,103.883066795732,103.883066795732,399424,JALAN SUKA,7A JALAN SUKA SINGAPORE 399424,33536.5046889596,32700.4395067263
8 JALAN SUKA SINGAPORE 399425,8,NIL,1.31240078887609,103.883011884372,103.883011884372,399425,JALAN SUKA,8 JALAN SUKA SINGAPORE 399425,33530.3927052747,32744.1838259064
8A JALAN SUKA SINGAPORE 399426,8A,NIL,1.31240078860236,103.883011884372,103.883011884372,399426,JALAN SUKA,8A JALAN SUKA SINGAPORE 399426,33530.3927052747,32744.1837956384
8B JALAN SUKA SINGAPORE 399427,8B,NIL,1.31240078860236,103.883011884372,103.883011884372,399427,JALAN SUKA,8B JALAN SUKA SINGAPORE 399427,33530.3927052747,32744.1837956384
9 JALAN SUKA SINGAPORE 399428,9,NIL,1.31200366353434,103.883012019867,103.883012019867,399428,JALAN SUKA,9 JALAN SUKA SINGAPORE 399428,33530.4086565031,32700.2717312928
9A JALAN SUKA SINGAPORE 399429,9A,NIL,1.31200366326062,103.883012020139,103.883012020139,399429,JALAN SUKA,9A JALAN SUKA SINGAPORE 399429,33530.4086867711,32700.2717010248
10 JALAN SUKA SINGAPORE 399430,10,NIL,1.31239863514653,103.882957042125,103.882957042125,399430,JALAN SUKA,10 JALAN SUKA SINGAPORE 399430,33524.2892874302,32743.945556337
10A JALAN SUKA SINGAPORE 399431,10A,NIL,1.31239863542027,103.882957042125,103.882957042125,399431,JALAN SUKA,10A JALAN SUKA SINGAPORE 399431,33524.2892874302,32743.945586605
10B JALAN SUKA SINGAPORE 399432,10B,NIL,1.31239863542027,103.882957042125,103.882957042125,399432,JALAN SUKA,10B JALAN SUKA SINGAPORE 399432,33524.2892874302,32743.945586605
11 JALAN SUKA SINGAPORE 399433,11,NIL,1.31200215307534,103.88295724645,103.88295724645,399433,JALAN SUKA,11 JALAN SUKA SINGAPORE 399433,33524.3128964575,32700.104591487
11A JALAN SUKA SINGAPORE 399434,11A,NIL,1.31200215307534,103.88295724645,103.88295724645,399434,JALAN SUKA,11A JALAN SUKA SINGAPORE 399434,33524.3128964575,32700.104591487
12 JALAN SUKA SINGAPORE 399435,12,NIL,1.31239647621325,103.882902280653,103.882902280653,399435,JALAN SUKA,12 JALAN SUKA SINGAPORE 399435,33518.1948591769,32743.7067116778
12A JALAN SUKA SINGAPORE 399436,12A,NIL,1.31239647621325,103.882902280925,103.882902280925,399436,JALAN SUKA,12A JALAN SUKA SINGAPORE 399436,33518.1948894449,32743.7067116778
12B JALAN SUKA SINGAPORE 399437,12B,NIL,1.31239647621325,103.882902280925,103.882902280925,399437,JALAN SUKA,12B JALAN SUKA SINGAPORE 399437,33518.1948894449,32743.7067116778
13 JALAN SUKA SINGAPORE 399438,13,NIL,1.31200064097271,103.882902472761,103.882902472761,399438,JALAN SUKA,13 JALAN SUKA SINGAPORE 399438,33518.2171061449,32699.9372700714
13A JALAN SUKA SINGAPORE 399439,13A,NIL,1.31200064124643,103.882902472761,103.882902472761,399439,JALAN SUKA,13A JALAN SUKA SINGAPORE 399439,33518.2171061449,32699.9373003393
14 JALAN SUKA SINGAPORE 399440,14,NIL,1.31239422776898,103.882847474848,103.882847474848,399440,JALAN SUKA,14 JALAN SUKA SINGAPORE 399440,33512.0954972422,32743.457969388
14A JALAN SUKA SINGAPORE 399441,14A,NIL,1.31239422804273,103.882847474848,103.882847474848,399441,JALAN SUKA,14A JALAN SUKA SINGAPORE 399441,33512.0954972422,32743.457999656
14B JALAN SUKA SINGAPORE 399442,14B,NIL,1.31239422804273,103.882847474848,103.882847474848,399442,JALAN SUKA,14B JALAN SUKA SINGAPORE 399442,33512.0954972422,32743.457999656
15 JALAN SUKA SINGAPORE 399443,15,NIL,1.31199912613161,103.882847695265,103.882847695265,399443,JALAN SUKA,15 JALAN SUKA SINGAPORE 399443,33512.1208920805,32699.7696459778
15A JALAN SUKA SINGAPORE 399444,15A,NIL,1.31199912558415,103.882847695265,103.882847695265,399444,JALAN SUKA,15A JALAN SUKA SINGAPORE 399444,33512.1208920805,32699.7695854418
16 JALAN SUKA SINGAPORE 399445,16,NIL,1.31239193634223,103.882792932313,103.882792932313,399445,JALAN SUKA,16 JALAN SUKA SINGAPORE 399445,33506.0254347157,32743.2044750247
16A JALAN SUKA SINGAPORE 399446,16A,NIL,1.31239193661597,103.882792932041,103.882792932041,399446,JALAN SUKA,16A JALAN SUKA SINGAPORE 399446,33506.0254044477,32743.2045052927
16B JALAN SUKA SINGAPORE 399447,16B,NIL,1.31239193661597,103.882792932041,103.882792932041,399447,JALAN SUKA,16B JALAN SUKA SINGAPORE 399447,33506.0254044477,32743.2045052927
17 JALAN SUKA SINGAPORE 399448,17,NIL,1.31197659735066,103.88277987382,103.88277987382,399448,JALAN SUKA,17 JALAN SUKA SINGAPORE 399448,33504.5730557851,32697.2783790417
17A JALAN SUKA SINGAPORE 399449,17A,NIL,1.31197659762436,103.882779874092,103.882779874092,399449,JALAN SUKA,17A JALAN SUKA SINGAPORE 399449,33504.5730860531,32697.2784093097
18 JALAN SUKA SINGAPORE 399450,18,NIL,1.31238991372075,103.882738347898,103.882738347898,399450,JALAN SUKA,18 JALAN SUKA SINGAPORE 399450,33499.9507109197,32742.9807038214
18A JALAN SUKA SINGAPORE 399451,18A,NIL,1.31238991372075,103.882738347898,103.882738347898,399451,JALAN SUKA,18A JALAN SUKA SINGAPORE 399451,33499.9507109197,32742.9807038214
18B JALAN SUKA SINGAPORE 399452,18B,NIL,1.31238991372075,103.882738347898,103.882738347898,399452,JALAN SUKA,18B JALAN SUKA SINGAPORE 399452,33499.9507109197,32742.9807038214
19 JALAN SUKA SINGAPORE 399453,19,NIL,1.31197430426153,103.88269867743,103.88269867743,399453,JALAN SUKA,19 JALAN SUKA SINGAPORE 399453,33495.5366703179,32697.0246425346
19A JALAN SUKA SINGAPORE 399454,19A,NIL,1.3119743039878,103.882698677702,103.882698677702,399454,JALAN SUKA,19A JALAN SUKA SINGAPORE 399454,33495.5367005859,32697.0246122666
20 JALAN SUKA SINGAPORE 399455,20,NIL,1.31238761025673,103.882683331858,103.882683331858,399455,JALAN SUKA,20 JALAN SUKA SINGAPORE 399455,33493.8279518336,32742.7258776668
20A JALAN SUKA SINGAPORE 399456,20A,NIL,1.31238761053047,103.882683332402,103.882683332402,399456,JALAN SUKA,20A JALAN SUKA SINGAPORE 399456,33493.8280123696,32742.7259079348
20B JALAN SUKA SINGAPORE 399457,20B,NIL,1.31238761053047,103.882683332402,103.882683332402,399457,JALAN SUKA,20B JALAN SUKA SINGAPORE 399457,33493.8280123696,32742.7259079348
2 JALAN MOLEK SINGAPORE 399503,2,NIL,1.31172327162692,103.883241739542,103.883241739542,399503,JALAN MOLEK,2 JALAN MOLEK SINGAPORE 399503,33555.9749024333,32669.26793289
2A JALAN MOLEK SINGAPORE 399504,2A,NIL,1.31172327135318,103.883241739542,103.883241739542,399504,JALAN MOLEK,2A JALAN MOLEK SINGAPORE 399504,33555.9749024333,32669.267902622
4 JALAN MOLEK SINGAPORE 399507,4,NIL,1.31170257499031,103.883185590658,103.883185590658,399507,JALAN MOLEK,4 JALAN MOLEK SINGAPORE 399507,33549.7261074623,32666.9792798385
4A JALAN MOLEK SINGAPORE 399508,4A,NIL,1.31170257526404,103.883185590658,103.883185590658,399508,JALAN MOLEK,4A JALAN MOLEK SINGAPORE 399508,33549.7261074623,32666.9793101065
6 JALAN MOLEK SINGAPORE 399511,6,NIL,1.31170105851241,103.88313083411,103.88313083411,399511,JALAN MOLEK,6 JALAN MOLEK SINGAPORE 399511,33543.6322240327,32666.811474137
6A JALAN MOLEK SINGAPORE 399512,6A,NIL,1.31170105878614,103.883130833838,103.883130833838,399512,JALAN MOLEK,6A JALAN MOLEK SINGAPORE 399512,33543.6321937647,32666.811504405
8 JALAN MOLEK SINGAPORE 399515,8,NIL,1.3116995423072,103.883076067771,103.883076067771,399515,JALAN MOLEK,8 JALAN MOLEK SINGAPORE 399515,33537.5372509556,32666.6436987016
8A JALAN MOLEK SINGAPORE 399516,8A,NIL,1.31169954230719,103.883076068315,103.883076068315,399516,JALAN MOLEK,8A JALAN MOLEK SINGAPORE 399516,33537.5373114916,32666.6436987016
10 JALAN MOLEK SINGAPORE 399519,10,NIL,1.31169794918156,103.883021316933,103.883021316933,399519,JALAN MOLEK,10 JALAN MOLEK SINGAPORE 399519,33531.4440031536,32666.4674179647
10A JALAN MOLEK SINGAPORE 399520,10A,NIL,1.31169794890783,103.883021316933,103.883021316933,399520,JALAN MOLEK,10A JALAN MOLEK SINGAPORE 399520,33531.4440031536,32666.4673876967
12 JALAN MOLEK SINGAPORE 399523,12,NIL,1.31169625833268,103.88296653672,103.88296653672,399523,JALAN MOLEK,12 JALAN MOLEK SINGAPORE 399523,33525.3474864094,32666.2803315576
12A JALAN MOLEK SINGAPORE 399524,12A,NIL,1.31169625805893,103.88296653672,103.88296653672,399524,JALAN MOLEK,12A JALAN MOLEK SINGAPORE 399524,33525.3474864094,32666.2803012896
14 JALAN MOLEK SINGAPORE 399527,14,NIL,1.31169482260097,103.882911787788,103.882911787788,399527,JALAN MOLEK,14 JALAN MOLEK SINGAPORE 399527,33519.2544504832,32666.1214549113
14A JALAN MOLEK SINGAPORE 399528,14A,NIL,1.31169482287469,103.882911788332,103.882911788332,399528,JALAN MOLEK,14A JALAN MOLEK SINGAPORE 399528,33519.2545110192,32666.1214851793
16 JALAN MOLEK SINGAPORE 399531,16,NIL,1.31169386672213,103.88285702146,103.88285702146,399531,JALAN MOLEK,16 JALAN MOLEK SINGAPORE 399531,33513.1594774062,32666.0156380404
16A JALAN MOLEK SINGAPORE 399532,16A,NIL,1.31169386644837,103.882857021732,103.882857021732,399532,JALAN MOLEK,16A JALAN MOLEK SINGAPORE 399532,33513.1595076742,32666.0156077724
18 JALAN MOLEK JADE HOTEL SINGAPORE 399535,18,JADE HOTEL,1.31171183506689,103.8827758796,103.8827758796,399535,JALAN MOLEK,JADE HOTEL,33504.1291152677,32668.0023074206
22 JALAN MOLEK HOTEL FUJI SINGAPORE 399541,22,HOTEL FUJI,1.31171111324378,103.882678882184,103.882678882184,399541,JALAN MOLEK,HOTEL FUJI,33493.334220483,32667.9222788699
26 JALAN BENAAN KAPAL KALLANG PARK SINGAPORE 399629,26,KALLANG PARK,1.30261946240548,103.880299417095,103.880299417095,399629,JALAN BENAAN KAPAL,KALLANG PARK,33228.5410304051,31662.6088833399
28 JALAN BENAAN KAPAL KALLANG PARK SINGAPORE 399630,28,KALLANG PARK,1.3025149106606,103.880212497376,103.880212497376,399630,JALAN BENAAN KAPAL,KALLANG PARK,33218.8678670963,31651.0479058884
30 JALAN BENAAN KAPAL KALLANG PARK SINGAPORE 399631,30,KALLANG PARK,1.3023228201944,103.8800540399,103.8800540399,399631,JALAN BENAAN KAPAL,KALLANG PARK,33201.2333765673,31629.8071969748
32 JALAN BENAAN KAPAL KALLANG PARK SINGAPORE 399632,32,KALLANG PARK,1.30221699447121,103.879967972537,103.879967972537,399632,JALAN BENAAN KAPAL,KALLANG PARK,33191.6550731193,31618.1053523254
34 JALAN BENAAN KAPAL KALLANG PARK SINGAPORE 399633,34,KALLANG PARK,1.30202584781671,103.879809626623,103.879809626623,399633,JALAN BENAAN KAPAL,KALLANG PARK,33174.0329924636,31596.9690074194
36 JALAN BENAAN KAPAL KALLANG PARK SINGAPORE 399634,36,KALLANG PARK,1.30192099333488,103.879721052536,103.879721052536,399634,JALAN BENAAN KAPAL,KALLANG PARK,33164.1757090101,31585.374553578
38 JALAN BENAAN KAPAL KALLANG PARK SINGAPORE 399635,38,KALLANG PARK,1.30173290397809,103.879563119841,103.879563119841,399635,JALAN BENAAN KAPAL,KALLANG PARK,33146.5996054215,31564.5762717817
40 JALAN BENAAN KAPAL KALLANG PARK SINGAPORE 399636,40,KALLANG PARK,1.30162863524634,103.879476099559,103.879476099559,399636,JALAN BENAAN KAPAL,KALLANG PARK,33136.9152429588,31553.0465914235
42 JALAN BENAAN KAPAL KALLANG PARK SINGAPORE 399637,42,KALLANG PARK,1.30135026717786,103.879105613542,103.879105613542,399637,JALAN BENAAN KAPAL,KALLANG PARK,33095.6840441991,31522.2653232384
44 JALAN BENAAN KAPAL KALLANG PARK SINGAPORE 399638,44,KALLANG PARK,1.30135036736294,103.879105676913,103.879105676913,399638,JALAN BENAAN KAPAL,KALLANG PARK,33095.6910966393,31522.2764013205
46 JALAN BENAAN KAPAL KALLANG PARK SINGAPORE 399639,46,KALLANG PARK,1.30135036736294,103.879105676913,103.879105676913,399639,JALAN BENAAN KAPAL,KALLANG PARK,33095.6910966393,31522.2764013205
48 JALAN BENAAN KAPAL KALLANG PARK SINGAPORE 399640,48,KALLANG PARK,1.30135036736294,103.879105676913,103.879105676913,399640,JALAN BENAAN KAPAL,KALLANG PARK,33095.6910966393,31522.2764013205
50 JALAN BENAAN KAPAL KALLANG PARK SINGAPORE 399641,50,KALLANG PARK,1.30135036736294,103.879105676913,103.879105676913,399641,JALAN BENAAN KAPAL,KALLANG PARK,33095.6910966393,31522.2764013205
52 JALAN BENAAN KAPAL KALLANG PARK SINGAPORE 399642,52,KALLANG PARK,1.30135036736294,103.879105676913,103.879105676913,399642,JALAN BENAAN KAPAL,KALLANG PARK,33095.6910966393,31522.2764013205
54 JALAN BENAAN KAPAL KALLANG PARK SINGAPORE 399643,54,KALLANG PARK,1.30135036736294,103.879105676913,103.879105676913,399643,JALAN BENAAN KAPAL,KALLANG PARK,33095.6910966393,31522.2764013205
56 JALAN BENAAN KAPAL KALLANG PARK SINGAPORE 399644,56,KALLANG PARK,1.30135036736294,103.879105676913,103.879105676913,399644,JALAN BENAAN KAPAL,KALLANG PARK,33095.6910966393,31522.2764013205
58 JALAN BENAAN KAPAL KALLANG PARK SINGAPORE 399645,58,KALLANG PARK,1.30135036736294,103.879105676913,103.879105676913,399645,JALAN BENAAN KAPAL,KALLANG PARK,33095.6910966393,31522.2764013205
60 JALAN BENAAN KAPAL KALLANG PARK SINGAPORE 399646,60,KALLANG PARK,1.30087958060397,103.878765658404,103.878765658404,399646,JALAN BENAAN KAPAL,KALLANG PARK,33057.8510319721,31470.2185263932
1 GUILLEMARD ROAD SINGAPORE 399683,1,NIL,1.30878970700605,103.876948079302,103.876948079302,399683,GUILLEMARD ROAD,1 GUILLEMARD ROAD SINGAPORE 399683,32855.5556286927,32344.8762656376
3 GUILLEMARD ROAD SINGAPORE 399684,3,NIL,1.30879530658807,103.877004784813,103.877004784813,399684,GUILLEMARD ROAD,3 GUILLEMARD ROAD SINGAPORE 399684,32861.8664124943,32345.4955485854
5 GUILLEMARD ROAD WING FONG BUILDING SINGAPORE 399685,5,WING FONG BUILDING,1.30888012310503,103.877263490985,103.877263490985,399685,GUILLEMARD ROAD,WING FONG BUILDING,32890.6578331618,32354.8746281639
9 GUILLEMARD ROAD SINGAPORE 399688,9,NIL,1.30909635134579,103.877538655978,103.877538655978,399688,GUILLEMARD ROAD,9 GUILLEMARD ROAD SINGAPORE 399688,32921.2807089882,32378.7845797576
11 GUILLEMARD ROAD SINGAPORE 399689,11,NIL,1.30916282278913,103.877581280651,103.877581280651,399689,GUILLEMARD ROAD,11 GUILLEMARD ROAD SINGAPORE 399689,32926.0243073963,32386.1347358506
13 GUILLEMARD ROAD SINGAPORE 399690,13,NIL,1.3091912977417,103.877618356151,103.877618356151,399690,GUILLEMARD ROAD,13 GUILLEMARD ROAD SINGAPORE 399690,32930.1504086684,32389.2834233921
15 GUILLEMARD ROAD SINGAPORE 399691,15,NIL,1.30923450756268,103.877665121198,103.877665121198,399691,GUILLEMARD ROAD,15 GUILLEMARD ROAD SINGAPORE 399691,32935.3548371289,32394.0614364985
17 GUILLEMARD ROAD SINGAPORE 399692,17,NIL,1.30926494986596,103.877700300543,103.877700300543,399692,GUILLEMARD ROAD,17 GUILLEMARD ROAD SINGAPORE 399692,32939.2699100189,32397.4276600406
19 GUILLEMARD ROAD SINGAPORE 399693,19,NIL,1.30930740609429,103.877747308723,103.877747308723,399693,GUILLEMARD ROAD,19 GUILLEMARD ROAD SINGAPORE 399693,32944.5013980567,32402.1223453861
21 GUILLEMARD ROAD SINGAPORE 399694,21,NIL,1.30933645480292,103.877783568319,103.877783568319,399694,GUILLEMARD ROAD,21 GUILLEMARD ROAD SINGAPORE 399694,32948.5366953779,32405.3344746232
23 GUILLEMARD ROAD SINGAPORE 399695,23,NIL,1.30937519722832,103.877834336999,103.877834336999,399695,GUILLEMARD ROAD,23 GUILLEMARD ROAD SINGAPORE 399695,32954.186698826,32409.6185142342
25 GUILLEMARD ROAD SINGAPORE 399696,25,NIL,1.3094086470762,103.877867058858,103.877867058858,399696,GUILLEMARD ROAD,25 GUILLEMARD ROAD SINGAPORE 399696,32957.8282702155,32413.3172921129
27 GUILLEMARD ROAD SINGAPORE 399697,27,NIL,1.30944396752874,103.87791985041,103.87791985041,399697,GUILLEMARD ROAD,27 GUILLEMARD ROAD SINGAPORE 399697,32963.7034069262,32417.2229516581
29 GUILLEMARD ROAD SINGAPORE 399698,29,NIL,1.30947644969968,103.877954244885,103.877954244885,399698,GUILLEMARD ROAD,29 GUILLEMARD ROAD SINGAPORE 399698,32967.5311264154,32420.8147322144
31 GUILLEMARD ROAD SINGAPORE 399699,31,NIL,1.30950368506793,103.878013047431,103.878013047431,399699,GUILLEMARD ROAD,31 GUILLEMARD ROAD SINGAPORE 399699,32974.0752461031,32423.8263965938
33 GUILLEMARD ROAD SINGAPORE 399700,33,NIL,1.30954346355981,103.878048990919,103.878048990919,399700,GUILLEMARD ROAD,33 GUILLEMARD ROAD SINGAPORE 399700,32978.0753417593,32428.2249702569
35 GUILLEMARD ROAD SINGAPORE 399701,35,NIL,1.30957361315108,103.87810417275,103.87810417275,399701,GUILLEMARD ROAD,35 GUILLEMARD ROAD SINGAPORE 399701,32984.2165037794,32431.5588675905
45 GUILLEMARD ROAD SINGAPORE 399702,45,NIL,1.30969783743557,103.878321230701,103.878321230701,399702,GUILLEMARD ROAD,45 GUILLEMARD ROAD SINGAPORE 399702,33008.3727762243,32445.2953866404
47 GUILLEMARD ROAD SINGAPORE 399703,47,NIL,1.30971519056618,103.87836069448,103.87836069448,399703,GUILLEMARD ROAD,47 GUILLEMARD ROAD SINGAPORE 399703,33012.76469093,32447.2142860051
49 GUILLEMARD ROAD SINGAPORE 399704,49,NIL,1.30975398914596,103.878423733212,103.878423733212,399704,GUILLEMARD ROAD,49 GUILLEMARD ROAD SINGAPORE 399704,33019.7802344644,32451.5045608208
51 GUILLEMARD ROAD SINGAPORE 399705,51,NIL,1.30979663271781,103.878478961239,103.878478961239,399705,GUILLEMARD ROAD,51 GUILLEMARD ROAD SINGAPORE 399705,33025.9265117738,32456.219979737
68 GUILLEMARD ROAD NICOLE GREEN SINGAPORE 399710,68,NICOLE GREEN,1.30930458520869,103.879851001095,103.879851001095,399710,GUILLEMARD ROAD,NICOLE GREEN,33178.6227084426,32401.814671332
76 GUILLEMARD ROAD SINGAPORE 399711,76,NIL,1.30956660960969,103.880381138869,103.880381138869,399711,GUILLEMARD ROAD,76 GUILLEMARD ROAD SINGAPORE 399711,33237.6215465916,32430.7890922297
84 GUILLEMARD ROAD SINGAPORE 399712,84,NIL,1.31002289111896,103.880942333954,103.880942333954,399712,GUILLEMARD ROAD,84 GUILLEMARD ROAD SINGAPORE 399712,33300.0763528543,32481.2435509861
86 GUILLEMARD ROAD SINGAPORE 399713,86,NIL,1.31003960384759,103.881015533749,103.881015533749,399713,GUILLEMARD ROAD,86 GUILLEMARD ROAD SINGAPORE 399713,33308.2227687957,32483.091714073
88 GUILLEMARD ROAD SINGAPORE 399714,88,NIL,1.31005359980162,103.881073085014,103.881073085014,399714,GUILLEMARD ROAD,88 GUILLEMARD ROAD SINGAPORE 399714,33314.6276557585,32484.6394371521
90 GUILLEMARD ROAD SINGAPORE 399715,90,NIL,1.31008149278333,103.881193632977,103.881193632977,399715,GUILLEMARD ROAD,90 GUILLEMARD ROAD SINGAPORE 399715,33328.0434552534,32487.7239565682
92 GUILLEMARD ROAD SINGAPORE 399716,92,NIL,1.31009301356689,103.881255010578,103.881255010578,399716,GUILLEMARD ROAD,92 GUILLEMARD ROAD SINGAPORE 399716,33334.8741824785,32488.9979965389
94 GUILLEMARD ROAD SINGAPORE 399717,94,NIL,1.31010582288864,103.881326485996,103.881326485996,399717,GUILLEMARD ROAD,94 GUILLEMARD ROAD SINGAPORE 399717,33342.8286994034,32490.4145381767
100 GUILLEMARD ROAD SINGAPORE 399718,100,NIL,1.30990841481982,103.881841932813,103.881841932813,399718,GUILLEMARD ROAD,100 GUILLEMARD ROAD SINGAPORE 399718,33400.1935204519,32468.5872660074
102 GUILLEMARD ROAD SINGAPORE 399719,102,NIL,1.31004197072193,103.882428926694,103.882428926694,399719,GUILLEMARD ROAD,102 GUILLEMARD ROAD SINGAPORE 399719,33465.5201530093,32483.3564681262
132 GUILLEMARD ROAD SHELL GUILLEMARD SINGAPORE 399720,132,SHELL GUILLEMARD,1.31057833861073,103.883967611443,103.883967611443,399720,GUILLEMARD ROAD,SHELL GUILLEMARD,33636.7601509746,32542.66870098
175 GUILLEMARD ROAD SINGAPORE 399721,175,NIL,1.31040779979919,103.880898288477,103.880898288477,399721,GUILLEMARD ROAD,175 GUILLEMARD ROAD SINGAPORE 399721,33295.173696192,32523.8046946824
177 GUILLEMARD ROAD SINGAPORE 399722,177,NIL,1.31041927914221,103.880951310818,103.880951310818,399722,GUILLEMARD ROAD,177 GUILLEMARD ROAD SINGAPORE 399722,33301.0745606897,32525.0741339196
179 GUILLEMARD ROAD SINGAPORE 399723,179,NIL,1.31043203225617,103.881013766004,103.881013766004,399723,GUILLEMARD ROAD,179 GUILLEMARD ROAD SINGAPORE 399723,33308.0252096662,32526.4844403528
181 GUILLEMARD ROAD SINGAPORE 399724,181,NIL,1.31044416307005,103.881067354876,103.881067354876,399724,GUILLEMARD ROAD,181 GUILLEMARD ROAD SINGAPORE 399724,33313.989122374,32527.8259173911
193 GUILLEMARD ROAD SINGAPORE 399725,193,NIL,1.31064362188582,103.881503978418,103.881503978418,399725,GUILLEMARD ROAD,193 GUILLEMARD ROAD SINGAPORE 399725,33362.5807986101,32549.8819852509
195 GUILLEMARD ROAD SINGAPORE 399726,195,NIL,1.31064968259088,103.881561261927,103.881561261927,399726,GUILLEMARD ROAD,195 GUILLEMARD ROAD SINGAPORE 399726,33368.9559018761,32550.5522697493
197 GUILLEMARD ROAD SINGAPORE 399727,197,NIL,1.3106529983048,103.881632477447,103.881632477447,399727,GUILLEMARD ROAD,197 GUILLEMARD ROAD SINGAPORE 399727,33376.8815128766,32550.9190571774
199 GUILLEMARD ROAD SINGAPORE 399728,199,NIL,1.31066413869782,103.881688212714,103.881688212714,399728,GUILLEMARD ROAD,199 GUILLEMARD ROAD SINGAPORE 399728,33383.0843005124,32552.1510246508
213 GUILLEMARD ROAD GUILLEMARD SUITES SINGAPORE 399733,213,GUILLEMARD SUITES,1.31094521852726,103.882721097721,103.882721097721,399733,GUILLEMARD ROAD,GUILLEMARD SUITES,33498.0340816546,32583.2336408813
223 GUILLEMARD ROAD MORI SINGAPORE 399738,223,MORI,1.31131219787605,103.882972095616,103.882972095616,399738,GUILLEMARD ROAD,MORI,33525.9669812322,32623.8128975388
225 GUILLEMARD ROAD DBS EXXONMOBIL GUILLEMARD ROAD SINGAPORE 399739,225,DBS EXXONMOBIL GUILLEMARD ROAD,1.31108594711138,103.883633824841,103.883633824841,399739,GUILLEMARD ROAD,DBS EXXONMOBIL GUILLEMARD ROAD,33599.6117097344,32598.7967116777
301 GUILLEMARD ROAD SINGAPORE 399740,301,NIL,1.3111185255514,103.883857382029,103.883857382029,399740,GUILLEMARD ROAD,301 GUILLEMARD ROAD SINGAPORE 399740,33624.491447527,32602.3995703142
303 GUILLEMARD ROAD TI-SARANA BUDDHIST ASSOCIATION BUILDING SINGAPORE 399741,303,TI-SARANA BUDDHIST ASSOCIATION BUILDING,1.31114924883118,103.883908758532,103.883908758532,399741,GUILLEMARD ROAD,TI-SARANA BUDDHIST ASSOCIATION BUILDING,33630.2090999186,32605.7969093435
305 GUILLEMARD ROAD SINGAPORE 399742,305,NIL,1.31114120077883,103.883964190456,103.883964190456,399742,GUILLEMARD ROAD,305 GUILLEMARD ROAD SINGAPORE 399742,33636.3781690197,32604.9071214255
320 GUILLEMARD ROAD CASSIA VIEW SINGAPORE 399746,320,CASSIA VIEW,1.31103276112231,103.886630140814,103.886630140814,399746,GUILLEMARD ROAD,CASSIA VIEW,33933.0736020608,32592.9225738086
323 GUILLEMARD ROAD SINGAPORE 399748,323,NIL,1.31117824882126,103.884128162908,103.884128162908,399748,GUILLEMARD ROAD,323 GUILLEMARD ROAD SINGAPORE 399748,33654.6266758675,32609.0040746294
325 GUILLEMARD ROAD SINGAPORE 399750,325,NIL,1.31117868255083,103.884175072198,103.884175072198,399750,GUILLEMARD ROAD,325 GUILLEMARD ROAD SINGAPORE 399750,33659.8472371632,32609.0521401875
327 GUILLEMARD ROAD SINGAPORE 399752,327,NIL,1.31120784278429,103.884227667111,103.884227667111,399752,GUILLEMARD ROAD,327 GUILLEMARD ROAD SINGAPORE 399752,33665.7004901217,32612.2766490299
329 GUILLEMARD ROAD SINGAPORE 399754,329,NIL,1.31120449601623,103.884299900234,103.884299900234,399754,GUILLEMARD ROAD,329 GUILLEMARD ROAD SINGAPORE 399754,33673.7393639181,32611.9067439996
331 GUILLEMARD ROAD NOMA SINGAPORE 399756,331,NOMA,1.31143734238685,103.885310295307,103.885310295307,399756,GUILLEMARD ROAD,NOMA,33786.1862854864,32637.656020429
333 GUILLEMARD ROAD NOMA SINGAPORE 399758,333,NOMA,1.31161656190118,103.885373542152,103.885373542152,399758,GUILLEMARD ROAD,NOMA,33793.2246510806,32657.4733471405
335 GUILLEMARD ROAD NOMA SINGAPORE 399759,335,NOMA,1.31146595745048,103.88548734515,103.88548734515,399759,GUILLEMARD ROAD,NOMA,33805.8901980631,32640.8205381259
337 GUILLEMARD ROAD SINGAPORE 399760,337,NIL,1.31146659398674,103.885416903994,103.885416903994,399760,GUILLEMARD ROAD,337 GUILLEMARD ROAD SINGAPORE 399760,33798.0507600121,32640.8907598481
343 GUILLEMARD ROAD CASSIA EDGE SINGAPORE 399764,343,CASSIA EDGE,1.3115742491255,103.885828118166,103.885828118166,399764,GUILLEMARD ROAD,CASSIA EDGE,33843.8147709416,32652.7956723999
345 GUILLEMARD ROAD SINGAPORE 399766,345,NIL,1.31161095216222,103.885965145793,103.885965145793,399766,GUILLEMARD ROAD,345 GUILLEMARD ROAD SINGAPORE 399766,33859.0645681052,32656.8544274084
345A GUILLEMARD ROAD SINGAPORE 399767,345A,NIL,1.31161241491027,103.886020648902,103.886020648902,399767,GUILLEMARD ROAD,345A GUILLEMARD ROAD SINGAPORE 399767,33865.2415371509,32657.0163005851
347 GUILLEMARD ROAD SINGAPORE 399768,347,NIL,1.31164425956289,103.886075062037,103.886075062037,399768,GUILLEMARD ROAD,347 GUILLEMARD ROAD SINGAPORE 399768,33871.2971315812,32660.5376475435
347A GUILLEMARD ROAD SINGAPORE 399769,347A,NIL,1.31164598892497,103.8861305317,103.8861305317,399769,GUILLEMARD ROAD,347A GUILLEMARD ROAD SINGAPORE 399769,33877.4703776641,32660.7290017363
349 GUILLEMARD ROAD SINGAPORE 399770,349,NIL,1.3116727196916,103.886185244988,103.886185244988,399770,GUILLEMARD ROAD,349 GUILLEMARD ROAD SINGAPORE 399770,33883.5593879484,32663.6848822217
349A GUILLEMARD ROAD SINGAPORE 399771,349A,NIL,1.31167641200317,103.886240070389,103.886240070389,399771,GUILLEMARD ROAD,349A GUILLEMARD ROAD SINGAPORE 399771,33889.6609291779,32664.0932881273
350 GUILLEMARD ROAD KONG HWA SCHOOL SINGAPORE 399772,350,KONG HWA SCHOOL,1.31102090083438,103.888166616683,103.888166616683,399772,GUILLEMARD ROAD,KONG HWA SCHOOL,34104.0689439131,32591.6148153041
359 GUILLEMARD ROAD SINGAPORE 399773,359,NIL,1.31181362359553,103.887108215552,103.887108215552,399773,GUILLEMARD ROAD,359 GUILLEMARD ROAD SINGAPORE 399773,33986.2769688312,32679.2675061356
361 GUILLEMARD ROAD SINGAPORE 399774,361,NIL,1.31182179323186,103.887167789967,103.887167789967,399774,GUILLEMARD ROAD,361 GUILLEMARD ROAD SINGAPORE 399774,33992.9070193246,32680.1710054502
363 GUILLEMARD ROAD SINGAPORE 399775,363,NIL,1.31183871080641,103.887228035797,103.887228035797,399775,GUILLEMARD ROAD,363 GUILLEMARD ROAD SINGAPORE 399775,33999.6117712017,32682.041808987
365 GUILLEMARD ROAD SINGAPORE 399776,365,NIL,1.31183460660895,103.887284104766,103.887284104766,399776,GUILLEMARD ROAD,365 GUILLEMARD ROAD SINGAPORE 399776,34005.8517279215,32681.5881221797
367 GUILLEMARD ROAD SINGAPORE 399777,367,NIL,1.31185830909731,103.887348922059,103.887348922059,399777,GUILLEMARD ROAD,367 GUILLEMARD ROAD SINGAPORE 399777,34013.0652240682,32684.2091782298
369 GUILLEMARD ROAD SINGAPORE 399778,369,NIL,1.31186121189145,103.887405862851,103.887405862851,399778,GUILLEMARD ROAD,369 GUILLEMARD ROAD SINGAPORE 399778,34019.4021896757,32684.5302912686
371 GUILLEMARD ROAD SINGAPORE 399779,371,NIL,1.31177997661898,103.887537297851,103.887537297851,399779,GUILLEMARD ROAD,371 GUILLEMARD ROAD SINGAPORE 399779,34034.0298587028,32675.5480249561
373 GUILLEMARD ROAD SINGAPORE 399780,373,NIL,1.31179348406073,103.887595712689,103.887595712689,399780,GUILLEMARD ROAD,373 GUILLEMARD ROAD SINGAPORE 399780,34040.5308465138,32677.0417499524
375 GUILLEMARD ROAD SINGAPORE 399781,375,NIL,1.31181128877699,103.887644158465,103.887644158465,399781,GUILLEMARD ROAD,375 GUILLEMARD ROAD SINGAPORE 399781,34045.9223613814,32679.0106217582
377 GUILLEMARD ROAD SINGAPORE 399782,377,NIL,1.31182425908246,103.887705770059,103.887705770059,399782,GUILLEMARD ROAD,377 GUILLEMARD ROAD SINGAPORE 399782,34052.7791190725,32680.4449609704
379 GUILLEMARD ROAD SINGAPORE 399783,379,NIL,1.31183407435952,103.887754058191,103.887754058191,399783,GUILLEMARD ROAD,379 GUILLEMARD ROAD SINGAPORE 399783,34058.1531087775,32681.5304011349
381 GUILLEMARD ROAD SINGAPORE 399784,381,NIL,1.31184384854183,103.887816387453,103.887816387453,399784,GUILLEMARD ROAD,381 GUILLEMARD ROAD SINGAPORE 399784,34065.0897436785,32682.6113313679
383 GUILLEMARD ROAD SINGAPORE 399785,383,NIL,1.31185678246209,103.887864352006,103.887864352006,399785,GUILLEMARD ROAD,383 GUILLEMARD ROAD SINGAPORE 399785,34070.4277144829,32684.0416146722
385 GUILLEMARD ROAD SINGAPORE 399786,385,NIL,1.31186437499088,103.887926679046,103.887926679046,399786,GUILLEMARD ROAD,385 GUILLEMARD ROAD SINGAPORE 399786,34077.3641072391,32684.8813090753
387 GUILLEMARD ROAD SINGAPORE 399787,387,NIL,1.31189802202063,103.887973670115,103.887973670115,399787,GUILLEMARD ROAD,387 GUILLEMARD ROAD SINGAPORE 399787,34082.5936883939,32688.6019404382
389 GUILLEMARD ROAD SINGAPORE 399788,389,NIL,1.31190888624195,103.888170857567,103.888170857567,399788,GUILLEMARD ROAD,389 GUILLEMARD ROAD SINGAPORE 399788,34104.5387635566,32689.8037307318
391 GUILLEMARD ROAD SINGAPORE 399789,391,NIL,1.31191267473635,103.888243831165,103.888243831165,399789,GUILLEMARD ROAD,391 GUILLEMARD ROAD SINGAPORE 399789,34112.6600268036,32690.2228212338
393 GUILLEMARD ROAD SINGAPORE 399790,393,NIL,1.31192239551323,103.888294460439,103.888294460439,399790,GUILLEMARD ROAD,393 GUILLEMARD ROAD SINGAPORE 399790,34118.2945633121,32691.2978189439
395 GUILLEMARD ROAD SINGAPORE 399791,395,NIL,1.31193464949074,103.88835393595,103.88835393595,399791,GUILLEMARD ROAD,395 GUILLEMARD ROAD SINGAPORE 399791,34124.9135962594,32692.6529468428
397 GUILLEMARD ROAD SINGAPORE 399792,397,NIL,1.31194481234256,103.888404625068,103.888404625068,399792,GUILLEMARD ROAD,397 GUILLEMARD ROAD SINGAPORE 399792,34130.5547917252,32693.7768273465
399 GUILLEMARD ROAD SINGAPORE 399793,399,NIL,1.31195658318313,103.888463911005,103.888463911005,399793,GUILLEMARD ROAD,399 GUILLEMARD ROAD SINGAPORE 399793,34137.152727888,32695.0785322543
401 GUILLEMARD ROAD SINGAPORE 399794,401,NIL,1.31196694968869,103.888514654523,103.888514654523,399794,GUILLEMARD ROAD,401 GUILLEMARD ROAD SINGAPORE 399794,34142.7999769496,32696.2249321379
403 GUILLEMARD ROAD SINGAPORE 399795,403,NIL,1.31199022119468,103.888583708881,103.888583708881,399795,GUILLEMARD ROAD,403 GUILLEMARD ROAD SINGAPORE 399795,34150.4850180158,32698.7983463816
500 GUILLEMARD ROAD ESTA RUBY SINGAPORE 399839,500,ESTA RUBY,1.31390006507675,103.893617178884,103.893617178884,399839,GUILLEMARD ROAD,ESTA RUBY,34710.6576194698,32909.9921131209
501 GUILLEMARD ROAD SINGAPORE 399840,501,NIL,1.31360388865096,103.891575118053,103.891575118053,399840,GUILLEMARD ROAD,501 GUILLEMARD ROAD SINGAPORE 399840,34483.3964567892,32877.2370394487
511 GUILLEMARD ROAD GRANDLINK SQUARE SINGAPORE 399849,511,GRANDLINK SQUARE,1.31419129803566,103.891500511283,103.891500511283,399849,GUILLEMARD ROAD,GRANDLINK SQUARE,34475.0919209011,32942.1895899959
329A GUILLEMARD ROAD GUILLEMARD VIEW SINGAPORE 399850,329A,GUILLEMARD VIEW,1.31131608082757,103.884615884842,103.884615884842,399850,GUILLEMARD ROAD,GUILLEMARD VIEW,33708.9052219559,32624.2459415831
480 GUILLEMARD ROAD SINGAPORE 399851,480,NIL,1.31350210068587,103.892161835477,103.892161835477,399851,GUILLEMARD ROAD,480 GUILLEMARD ROAD SINGAPORE 399851,34548.692791095,32865.9833728354
1 GUILLEMARD LANE SINGAPORE 399870,1,NIL,1.30988944027224,103.881016392519,103.881016392519,399870,GUILLEMARD LANE,1 GUILLEMARD LANE SINGAPORE 399870,33308.318657768,32466.4873943683
3 GUILLEMARD LANE SINGAPORE 399872,3,NIL,1.30984025452208,103.881019454542,103.881019454542,399872,GUILLEMARD LANE,3 GUILLEMARD LANE SINGAPORE 399872,33308.659535801,32461.0486917142
5 GUILLEMARD LANE SINGAPORE 399873,5,NIL,1.30977093978022,103.880996256977,103.880996256977,399873,GUILLEMARD LANE,5 GUILLEMARD LANE SINGAPORE 399873,33306.0780097377,32453.3841723427
7 GUILLEMARD LANE SINGAPORE 399875,7,NIL,1.3097212349515,103.881032144157,103.881032144157,399875,GUILLEMARD LANE,7 GUILLEMARD LANE SINGAPORE 399875,33310.0720215291,32447.8881421257
2 GUILLEMARD CRESCENT SINGAPORE 399903,2,NIL,1.30994656302158,103.881278239952,103.881278239952,399903,GUILLEMARD CRESCENT,2 GUILLEMARD CRESCENT SINGAPORE 399903,33337.4597039158,32472.8042923026
4 GUILLEMARD CRESCENT SINGAPORE 399904,4,NIL,1.30988690908346,103.881257813418,103.881257813418,399904,GUILLEMARD CRESCENT,4 GUILLEMARD CRESCENT SINGAPORE 399904,33335.186548071,32466.208020879
6 GUILLEMARD CRESCENT SINGAPORE 399905,6,NIL,1.30982857925309,103.881262612623,103.881262612623,399905,GUILLEMARD CRESCENT,6 GUILLEMARD CRESCENT SINGAPORE 399905,33335.7207779828,32459.7582162283
8 GUILLEMARD CRESCENT SINGAPORE 399906,8,NIL,1.30977029731977,103.88126773466,103.88126773466,399906,GUILLEMARD CRESCENT,8 GUILLEMARD CRESCENT SINGAPORE 399906,33336.2909359923,32453.3137084767
10 GUILLEMARD CRESCENT SINGAPORE 399907,10,NIL,1.30971188620109,103.881271993454,103.881271993454,399907,GUILLEMARD CRESCENT,10 GUILLEMARD CRESCENT SINGAPORE 399907,33336.7650234215,32446.854914235
12 GUILLEMARD CRESCENT SINGAPORE 399908,12,NIL,1.3096533831552,103.881273807214,103.881273807214,399908,GUILLEMARD CRESCENT,12 GUILLEMARD CRESCENT SINGAPORE 399908,33336.9670016766,32440.3859499507
14 GUILLEMARD CRESCENT SINGAPORE 399909,14,NIL,1.30959635133351,103.881308727929,103.881308727929,399909,GUILLEMARD CRESCENT,14 GUILLEMARD CRESCENT SINGAPORE 399909,33340.853471322,32434.0797366146
15 GUILLEMARD CRESCENT SINGAPORE 399910,15,NIL,1.30857499781903,103.881438790684,103.881438790684,399910,GUILLEMARD CRESCENT,15 GUILLEMARD CRESCENT SINGAPORE 399910,33355.3304057904,32321.14395684
16 GUILLEMARD CRESCENT SINGAPORE 399911,16,NIL,1.30954175416313,103.88131151896,103.88131151896,399911,GUILLEMARD CRESCENT,16 GUILLEMARD CRESCENT SINGAPORE 399911,33341.1642024433,32428.0426661912
1 GUILLEMARD CRESCENT SINGAPORE 399913,1,NIL,1.30943433053408,103.880038714473,103.880038714473,399913,GUILLEMARD CRESCENT,1 GUILLEMARD CRESCENT SINGAPORE 399913,33199.5131865162,32416.1616350785
18 GUILLEMARD CRESCENT COSMO SINGAPORE 399914,18,COSMO,1.30957643997194,103.881039620932,103.881039620932,399914,GUILLEMARD CRESCENT,COSMO,33310.9044213491,32431.8774683867
20 GUILLEMARD CRESCENT ARENA RESIDENCES SINGAPORE 399915,20,ARENA RESIDENCES,1.30967685823486,103.880642764235,103.880642764235,399915,GUILLEMARD CRESCENT,ARENA RESIDENCES,33266.7377729928,32442.9803701751
61 DAKOTA CRESCENT BROADRICK SECONDARY SCHOOL SINGAPORE 399935,61,BROADRICK SECONDARY SCHOOL,1.30750538031989,103.886675419311,103.886675419311,399935,DAKOTA CRESCENT,BROADRICK SECONDARY SCHOOL,33938.120969953,32202.8828885481
34 DAKOTA CRESCENT DAKOTA RESIDENCES SINGAPORE 399936,34,DAKOTA RESIDENCES,1.30637270876178,103.88708549006,103.88708549006,399936,DAKOTA CRESCENT,DAKOTA RESIDENCES,33983.7607308095,32077.6388148032
36 DAKOTA CRESCENT DAKOTA RESIDENCES SINGAPORE 399937,36,DAKOTA RESIDENCES,1.30635916368282,103.88705800836,103.88705800836,399937,DAKOTA CRESCENT,DAKOTA RESIDENCES,33980.7023023944,32076.1410036292
38 DAKOTA CRESCENT DAKOTA RESIDENCES SINGAPORE 399938,38,DAKOTA RESIDENCES,1.30635916368282,103.88705800836,103.88705800836,399938,DAKOTA CRESCENT,DAKOTA RESIDENCES,33980.7023023944,32076.1410036292
40 DAKOTA CRESCENT DAKOTA RESIDENCES SINGAPORE 399939,40,DAKOTA RESIDENCES,1.30635916368282,103.88705800836,103.88705800836,399939,DAKOTA CRESCENT,DAKOTA RESIDENCES,33980.7023023944,32076.1410036292
42 DAKOTA CRESCENT DAKOTA RESIDENCES SINGAPORE 399940,42,DAKOTA RESIDENCES,1.30635916368282,103.88705800836,103.88705800836,399940,DAKOTA CRESCENT,DAKOTA RESIDENCES,33980.7023023944,32076.1410036292
70 DAKOTA CRESCENT WATERBANK AT DAKOTA SINGAPORE 399941,70,WATERBANK AT DAKOTA,1.30665815996221,103.888087858364,103.888087858364,399941,DAKOTA CRESCENT,WATERBANK AT DAKOTA,34095.3144139107,32109.2049620729
72 DAKOTA CRESCENT WATERBANK AT DAKOTA SINGAPORE 399942,72,WATERBANK AT DAKOTA,1.30640703862529,103.888108903018,103.888108903018,399942,DAKOTA CRESCENT,WATERBANK AT DAKOTA,34097.657095314,32081.4372954201
74 DAKOTA CRESCENT WATERBANK AT DAKOTA SINGAPORE 399943,74,WATERBANK AT DAKOTA,1.30662240183437,103.889058748552,103.889058748552,399943,DAKOTA CRESCENT,WATERBANK AT DAKOTA,34203.3656372763,32105.2533859946
76 DAKOTA CRESCENT WATERBANK AT DAKOTA SINGAPORE 399944,76,WATERBANK AT DAKOTA,1.30647833742136,103.888537197136,103.888537197136,399944,DAKOTA CRESCENT,WATERBANK AT DAKOTA,34145.322117229,32089.3221959826
78 DAKOTA CRESCENT WATERBANK AT DAKOTA SINGAPORE 399945,78,WATERBANK AT DAKOTA,1.30655421094128,103.888846948829,103.888846948829,399945,DAKOTA CRESCENT,WATERBANK AT DAKOTA,34179.7944449568,32097.7126626763
80 DAKOTA CRESCENT WATERBANK AT DAKOTA SINGAPORE 399946,80,WATERBANK AT DAKOTA,1.30662688563498,103.889264308926,103.889264308926,399946,DAKOTA CRESCENT,WATERBANK AT DAKOTA,34226.2426031213,32105.7496901248
82 DAKOTA CRESCENT WATERBANK AT DAKOTA SINGAPORE 399947,82,WATERBANK AT DAKOTA,1.30670275906287,103.889574061199,103.889574061199,399947,DAKOTA CRESCENT,WATERBANK AT DAKOTA,34260.7149913851,32114.1401568186
84 DAKOTA CRESCENT WATERBANK AT DAKOTA SINGAPORE 399948,84,WATERBANK AT DAKOTA,1.30697673506819,103.889630915712,103.889630915712,399948,DAKOTA CRESCENT,WATERBANK AT DAKOTA,34267.0416961452,32144.4351698458
86 DAKOTA CRESCENT WATERBANK AT DAKOTA SINGAPORE 399949,86,WATERBANK AT DAKOTA,1.3068284323365,103.888972825423,103.888972825423,399949,DAKOTA CRESCENT,WATERBANK AT DAKOTA,34193.8026796971,32128.0349774249
