ADDRESS,BLK_NO,BUILDING,LATITUDE,LONGITUDE,LONGTITUDE,POSTAL,ROAD_NAME,SEARCHVAL,X,Y
21 MERCHANT ROAD ROYAL MERUKH S.E.A SINGAPORE 058267,21,ROYAL MERUKH S.E.A,1.28781012376234,103.844936096328,103.844936096328,058267,MERCHANT ROAD,ROYAL MERUKH S.E.A,29292.9316162523,30025.0228238665
23 MERCHANT ROAD PARK REGIS SINGAPORE SINGAPORE 058268,23,PARK REGIS SINGAPORE,1.28808356061491,103.844443319412,103.844443319412,058268,MERCHANT ROAD,PARK REGIS SINGAPORE,29238.0895711109,30055.2578154821
"20 MERCHANT ROAD SWISSOTEL MERCHANT COURT, SINGAPORE SINGAPORE 058281",20,"SWISSOTEL MERCHANT COURT, SINGAPORE",1.2882180283587,103.845692303148,103.845692303148,058281,MERCHANT ROAD,"SWISSOTEL MERCHANT COURT, SINGAPORE",29377.0908369394,30070.1272046268
30 MERCHANT ROAD RIVERSIDE POINT SINGAPORE 058282,30,RIVERSIDE POINT,1.28917680456832,103.84424958393,103.84424958393,058282,MERCHANT ROAD,RIVERSIDE POINT,29216.5279307663,30176.1429968923
51 MERCHANT ROAD RAFFLES COLLEGE OF HIGHER EDUCATION SINGAPORE 058283,51,RAFFLES COLLEGE OF HIGHER EDUCATION,1.28880580674255,103.843480960123,103.843480960123,058283,MERCHANT ROAD,RAFFLES COLLEGE OF HIGHER EDUCATION,29130.9867950147,30135.1196181085
20 UPPER PICKERING STREET IMPACT@HONG LIM GREEN SINGAPORE 058284,20,IMPACT@HONG LIM GREEN,1.28632941360996,103.8464793124,103.8464793124,058284,UPPER PICKERING STREET,IMPACT@HONG LIM GREEN,29464.6793899126,29861.2943708841
10 UPPER PICKERING STREET SINGAPORE 058285,10,NIL,1.28588681172799,103.847091295011,103.847091295011,058285,UPPER PICKERING STREET,10 UPPER PICKERING STREET SINGAPORE 058285,29532.7881949972,29812.3540982809
1 UPPER PICKERING STREET ATTORNEY-GENERAL'S CHAMBERS SINGAPORE 058288,1,ATTORNEY-GENERAL'S CHAMBERS,1.28603266950345,103.845548612526,103.845548612526,058288,UPPER PICKERING STREET,ATTORNEY-GENERAL'S CHAMBERS,29361.1004427494,29828.481424829
"3 UPPER PICKERING STREET PARKROYAL COLLECTION PICKERING, SINGAPORE SINGAPORE 058289",3,"PARKROYAL COLLECTION PICKERING, SINGAPORE",1.28558344344093,103.846387853259,103.846387853259,058289,UPPER PICKERING STREET,"PARKROYAL COLLECTION PICKERING, SINGAPORE",29454.5011750283,29778.8087880909
6 UPPER CROSS STREET KRETA AYER CONSERVATION AREA SINGAPORE 058326,6,KRETA AYER CONSERVATION AREA,1.28368436974574,103.845670202297,103.845670202297,058326,UPPER CROSS STREET,KRETA AYER CONSERVATION AREA,29374.633621485,29568.8186277226
8 UPPER CROSS STREET KRETA AYER CONSERVATION AREA SINGAPORE 058327,8,KRETA AYER CONSERVATION AREA,1.28371002315409,103.845619712329,103.845619712329,058327,UPPER CROSS STREET,KRETA AYER CONSERVATION AREA,29369.0144913793,29571.6552220844
10 UPPER CROSS STREET KRETA AYER CONSERVATION AREA SINGAPORE 058328,10,KRETA AYER CONSERVATION AREA,1.28373976173526,103.845572912737,103.845572912737,058328,UPPER CROSS STREET,KRETA AYER CONSERVATION AREA,29363.8060675459,29574.9435358364
12 UPPER CROSS STREET KRETA AYER CONSERVATION AREA SINGAPORE 058329,12,KRETA AYER CONSERVATION AREA,1.28376728910037,103.845526087296,103.845526087296,058329,UPPER CROSS STREET,KRETA AYER CONSERVATION AREA,29358.5947682532,29577.9873448145
14 UPPER CROSS STREET SINGAPORE 058330,14,NIL,1.28379359781213,103.845477806267,103.845477806267,058330,UPPER CROSS STREET,14 UPPER CROSS STREET SINGAPORE 058330,29353.2214747118,29580.8964007292
16 UPPER CROSS STREET BEARY BEST! HOSTEL SINGAPORE 058331,16,BEARY BEST! HOSTEL,1.28382310641934,103.845438491005,103.845438491005,058331,UPPER CROSS STREET,BEARY BEST! HOSTEL,29348.8459955212,29584.1592893749
18 UPPER CROSS STREET BEARY BEST! HOSTEL SINGAPORE 058332,18,BEARY BEST! HOSTEL,1.28384960677894,103.845382541516,103.845382541516,058332,UPPER CROSS STREET,BEARY BEST! HOSTEL,29342.6192659112,29587.0895328783
20 UPPER CROSS STREET KRETA AYER CONSERVATION AREA SINGAPORE 058333,20,KRETA AYER CONSERVATION AREA,1.2838738561959,103.845333968106,103.845333968106,058333,UPPER CROSS STREET,KRETA AYER CONSERVATION AREA,29337.2134342873,29589.7708827518
22 UPPER CROSS STREET KRETA AYER CONSERVATION AREA SINGAPORE 058334,22,KRETA AYER CONSERVATION AREA,1.28390093546282,103.845285616636,103.845285616636,058334,UPPER CROSS STREET,KRETA AYER CONSERVATION AREA,29331.8323013382,29592.7651430406
24 UPPER CROSS STREET KRETA AYER CONSERVATION AREA SINGAPORE 058335,24,KRETA AYER CONSERVATION AREA,1.28392928867602,103.845238605982,103.845238605982,058335,UPPER CROSS STREET,KRETA AYER CONSERVATION AREA,29326.6003895486,29595.9002705254
26 UPPER CROSS STREET KRETA AYER CONSERVATION AREA SINGAPORE 058336,26,KRETA AYER CONSERVATION AREA,1.28395553003893,103.845191425879,103.845191425879,058336,UPPER CROSS STREET,KRETA AYER CONSERVATION AREA,29321.3496208051,29598.801880518
28 UPPER CROSS STREET KRETA AYER CONSERVATION AREA SINGAPORE 058337,28,KRETA AYER CONSERVATION AREA,1.28398281569423,103.845143852785,103.845143852785,058337,UPPER CROSS STREET,KRETA AYER CONSERVATION AREA,29316.0551148253,29601.8189628664
30 UPPER CROSS STREET KRETA AYER CONSERVATION AREA SINGAPORE 058338,30,KRETA AYER CONSERVATION AREA,1.2840108968208,103.845095419452,103.845095419452,058338,UPPER CROSS STREET,KRETA AYER CONSERVATION AREA,29310.664871213,29604.9240039755
32 UPPER CROSS STREET KRETA AYER CONSERVATION AREA SINGAPORE 058339,32,KRETA AYER CONSERVATION AREA,1.28403842144375,103.84504773784,103.84504773784,058339,UPPER CROSS STREET,KRETA AYER CONSERVATION AREA,29305.3582883077,29607.9675102737
34 UPPER CROSS STREET SINGAPORE 058340,34,NIL,1.28406617134012,103.845001790852,103.845001790852,058340,UPPER CROSS STREET,34 UPPER CROSS STREET SINGAPORE 058340,29300.2447546022,29611.0359271243
38 UPPER CROSS STREET SINGAPORE 058341,38,NIL,1.2841545275185,103.84486289602,103.84486289602,058341,UPPER CROSS STREET,38 UPPER CROSS STREET SINGAPORE 058341,29284.78686505,29620.805826908
46 UPPER CROSS STREET THE PLATINUM SINGAPORE 058345,46,THE PLATINUM,1.28425186556354,103.844691319698,103.844691319698,058345,UPPER CROSS STREET,THE PLATINUM,29265.6917929659,29631.5688797738
52 UPPER CROSS STREET SINGAPORE 058348,52,NIL,1.28435127055659,103.844519395251,103.844519395251,058348,UPPER CROSS STREET,52 UPPER CROSS STREET SINGAPORE 058348,29246.5579778636,29642.5604861844
62 UPPER CROSS STREET BLISS HOTEL SINGAPORE SINGAPORE 058353,62,BLISS HOTEL SINGAPORE,1.28445775172396,103.844304188187,103.844304188187,058353,UPPER CROSS STREET,BLISS HOTEL SINGAPORE,29222.6071644919,29654.3345199749
101 UPPER CROSS STREET CHINATOWN POST OFFICE SINGAPORE 058357,101,CHINATOWN POST OFFICE,1.28549527021288,103.843851997218,103.843851997218,058357,UPPER CROSS STREET,CHINATOWN POST OFFICE,29172.2815868082,29769.0577452593
101A UPPER CROSS STREET PEOPLE'S PARK CENTRE SINGAPORE 058358,101A,PEOPLE'S PARK CENTRE,1.28570964898095,103.843827426156,103.843827426156,058358,UPPER CROSS STREET,PEOPLE'S PARK CENTRE,29169.5469350154,29792.7626312636
101B UPPER CROSS STREET PEOPLE'S PARK CENTRE SINGAPORE 058359,101B,PEOPLE'S PARK CENTRE,1.28575774235159,103.843929820315,103.843929820315,058359,UPPER CROSS STREET,PEOPLE'S PARK CENTRE,29180.942528205,29798.0805949308
100 UPPER CROSS STREET OG BUILDING SINGAPORE 058360,100,OG BUILDING,1.28525188159823,103.843168447239,103.843168447239,058360,UPPER CROSS STREET,OG BUILDING,29096.208276364,29742.1447859295
91 UPPER CROSS STREET SINGAPORE 058362,91,NIL,1.28424930326813,103.84543599252,103.84543599252,058362,UPPER CROSS STREET,91 UPPER CROSS STREET SINGAPORE 058362,29348.5677116793,29631.2859346624
1 UPPER CIRCULAR ROAD SINGAPORE 058400,1,NIL,1.288268616452,103.848549751236,103.848549751236,058400,UPPER CIRCULAR ROAD,1 UPPER CIRCULAR ROAD SINGAPORE 058400,29695.1006208975,30075.7226954363
11 UPPER CIRCULAR ROAD SINGAPORE 058409,11,NIL,1.28856344345197,103.848159157227,103.848159157227,058409,UPPER CIRCULAR ROAD,11 UPPER CIRCULAR ROAD SINGAPORE 058409,29651.6306204535,30108.322887836
12 UPPER CIRCULAR ROAD SINGAPORE 058410,12,NIL,1.28855876954829,103.84809736366,103.84809736366,058410,UPPER CIRCULAR ROAD,12 UPPER CIRCULAR ROAD SINGAPORE 058410,29644.7535226773,30107.8060317449
13 UPPER CIRCULAR ROAD SINGAPORE 058411,13,NIL,1.28858984887274,103.848058509083,103.848058509083,058411,UPPER CIRCULAR ROAD,13 UPPER CIRCULAR ROAD SINGAPORE 058411,29640.429317452,30111.242598081
14 UPPER CIRCULAR ROAD SINGAPORE 058412,14,NIL,1.28861971200354,103.848019186982,103.848019186982,058412,UPPER CIRCULAR ROAD,14 UPPER CIRCULAR ROAD SINGAPORE 058412,29636.0530815618,30114.5446837638
15 UPPER CIRCULAR ROAD SINGAPORE 058413,15,NIL,1.28862298781294,103.847963887836,103.847963887836,058413,UPPER CIRCULAR ROAD,15 UPPER CIRCULAR ROAD SINGAPORE 058413,29629.8987529688,30114.9068704583
16 UPPER CIRCULAR ROAD JGP@UCR SINGAPORE 058414,16,JGP@UCR,1.28865462141118,103.847930844992,103.847930844992,058414,UPPER CIRCULAR ROAD,JGP@UCR,29626.2213442866,30118.4047294594
17 UPPER CIRCULAR ROAD JUTA BUILDING SINGAPORE 058415,17,JUTA BUILDING,1.28869026657145,103.847896891342,103.847896891342,058415,UPPER CIRCULAR ROAD,JUTA BUILDING,29622.442568128,30122.3461657632
20 UPPER CIRCULAR ROAD THE RIVERWALK SINGAPORE 058416,20,THE RIVERWALK,1.28898501675476,103.848418328571,103.848418328571,058416,UPPER CIRCULAR ROAD,THE RIVERWALK,29680.4739204459,30154.9384582192
1 TRENGGANU STREET KRETA AYER CONSERVATION AREA SINGAPORE 058455,1,KRETA AYER CONSERVATION AREA,1.28312958295401,103.844430457223,103.844430457223,058455,TRENGGANU STREET,KRETA AYER CONSERVATION AREA,29236.6604985278,29507.4725377038
2 TRENGGANU STREET KRETA AYER CONSERVATION AREA SINGAPORE 058456,2,KRETA AYER CONSERVATION AREA,1.28332382452873,103.844223341182,103.844223341182,058456,TRENGGANU STREET,KRETA AYER CONSERVATION AREA,29213.6100971354,29528.9506686814
3 TRENGGANU STREET KRETA AYER CONSERVATION AREA SINGAPORE 058457,3,KRETA AYER CONSERVATION AREA,1.28308834325996,103.844407080981,103.844407080981,058457,TRENGGANU STREET,KRETA AYER CONSERVATION AREA,29234.0589350592,29502.9124540817
5 TRENGGANU STREET KRETA AYER CONSERVATION AREA SINGAPORE 058459,5,KRETA AYER CONSERVATION AREA,1.28304859623835,103.844382204562,103.844382204562,058459,TRENGGANU STREET,KRETA AYER CONSERVATION AREA,29231.2904133927,29498.5174217727
6 TRENGGANU STREET KRETA AYER CONSERVATION AREA SINGAPORE 058460,6,KRETA AYER CONSERVATION AREA,1.2832542546339,103.844182648513,103.844182648513,058460,TRENGGANU STREET,KRETA AYER CONSERVATION AREA,29209.0813711444,29521.2579698153
7 TRENGGANU STREET KRETA AYER CONSERVATION AREA SINGAPORE 058461,7,KRETA AYER CONSERVATION AREA,1.28300832035844,103.844358675752,103.844358675752,058461,TRENGGANU STREET,KRETA AYER CONSERVATION AREA,29228.6718695853,29494.0639117211
8 TRENGGANU STREET KRETA AYER CONSERVATION AREA SINGAPORE 058462,8,KRETA AYER CONSERVATION AREA,1.28320814934853,103.844155652066,103.844155652066,058462,TRENGGANU STREET,KRETA AYER CONSERVATION AREA,29206.0769105442,29516.1598727833
9 TRENGGANU STREET KRETA AYER CONSERVATION AREA SINGAPORE 058463,9,KRETA AYER CONSERVATION AREA,1.2829682894658,103.84433597237,103.84433597237,058463,TRENGGANU STREET,KRETA AYER CONSERVATION AREA,29226.1451891083,29489.6374915149
10 TRENGGANU STREET KRETA AYER CONSERVATION AREA SINGAPORE 058464,10,KRETA AYER CONSERVATION AREA,1.28316249134516,103.844128053208,103.844128053208,058464,TRENGGANU STREET,KRETA AYER CONSERVATION AREA,29203.0054063601,29511.1112336349
11 TRENGGANU STREET KRETA AYER CONSERVATION AREA SINGAPORE 058465,11,KRETA AYER CONSERVATION AREA,1.28292890951201,103.844312813987,103.844312813987,058465,TRENGGANU STREET,KRETA AYER CONSERVATION AREA,29223.5678702947,29485.283048572
12 TRENGGANU STREET SINGAPORE 058466,12,NIL,1.28311614435243,103.844101166093,103.844101166093,058466,TRENGGANU STREET,12 TRENGGANU STREET SINGAPORE 058466,29200.0131134903,29505.9864099715
13 TRENGGANU STREET KRETA AYER CONSERVATION AREA SINGAPORE 058467,13,KRETA AYER CONSERVATION AREA,1.28288634303839,103.844288143712,103.844288143712,058467,TRENGGANU STREET,KRETA AYER CONSERVATION AREA,29220.8222917598,29480.576256033
14 TRENGGANU STREET SINGAPORE 058468,14,NIL,1.28306968375983,103.844074359754,103.844074359754,058468,TRENGGANU STREET,14 TRENGGANU STREET SINGAPORE 058468,29197.0298102107,29500.8490250949
15 TRENGGANU STREET KRETA AYER CONSERVATION AREA SINGAPORE 058469,15,KRETA AYER CONSERVATION AREA,1.28276872069667,103.844179744008,103.844179744008,058469,TRENGGANU STREET,KRETA AYER CONSERVATION AREA,29208.7583512217,29467.5701336972
16 TRENGGANU STREET KRETA AYER CONSERVATION AREA SINGAPORE 058470,16,KRETA AYER CONSERVATION AREA,1.28302332609159,103.84404730674,103.84404730674,058470,TRENGGANU STREET,KRETA AYER CONSERVATION AREA,29194.0190538708,29495.7230209801
17 TRENGGANU STREET KRETA AYER CONSERVATION AREA SINGAPORE 058471,17,KRETA AYER CONSERVATION AREA,1.282723696097,103.844155569799,103.844155569799,058471,TRENGGANU STREET,KRETA AYER CONSERVATION AREA,29206.067981489,29462.591534663
25 TRENGGANU STREET HOTEL CALMO CHINATOWN SINGAPORE 058476,25,HOTEL CALMO CHINATOWN,1.28255318587462,103.844221037333,103.844221037333,058476,TRENGGANU STREET,HOTEL CALMO CHINATOWN,29213.3540602615,29443.7374259979
20 TRENGGANU STREET SINGAPORE 058479,20,NIL,1.28289140330993,103.843955467485,103.843955467485,058479,TRENGGANU STREET,20 TRENGGANU STREET SINGAPORE 058479,29183.7981611295,29481.1356386393
3 TEMPLE STREET KRETA AYER CONSERVATION AREA SINGAPORE 058556,3,KRETA AYER CONSERVATION AREA,1.28231053096358,103.844879396317,103.844879396317,058556,TEMPLE STREET,KRETA AYER CONSERVATION AREA,29286.6241316618,29416.906220492
5 TEMPLE STREET KRETA AYER CONSERVATION AREA SINGAPORE 058557,5,KRETA AYER CONSERVATION AREA,1.28233042551285,103.844839547968,103.844839547968,058557,TEMPLE STREET,KRETA AYER CONSERVATION AREA,29282.1893272232,29419.1060370132
7 TEMPLE STREET KRETA AYER CONSERVATION AREA SINGAPORE 058558,7,KRETA AYER CONSERVATION AREA,1.28235266705096,103.844799138827,103.844799138827,058558,TEMPLE STREET,KRETA AYER CONSERVATION AREA,29277.6921102023,29421.5653712265
9 TEMPLE STREET KRETA AYER CONSERVATION AREA SINGAPORE 058559,9,KRETA AYER CONSERVATION AREA,1.28237561454794,103.84475827686,103.84475827686,058559,TEMPLE STREET,KRETA AYER CONSERVATION AREA,29273.1444969894,29424.1027665697
11 TEMPLE STREET KRETA AYER CONSERVATION AREA SINGAPORE 058560,11,KRETA AYER CONSERVATION AREA,1.2823982790044,103.844717395853,103.844717395853,058560,TEMPLE STREET,KRETA AYER CONSERVATION AREA,29268.5947650168,29426.6088648159
13 TEMPLE STREET SINGAPORE 058561,13,NIL,1.28242234498139,103.84467470027,103.84467470027,058561,TEMPLE STREET,13 TEMPLE STREET SINGAPORE 058561,29263.8430850571,29429.2699351404
15 TEMPLE STREET KRETA AYER CONSERVATION AREA SINGAPORE 058562,15,KRETA AYER CONSERVATION AREA,1.28244661954587,103.844631182795,103.844631182795,058562,TEMPLE STREET,KRETA AYER CONSERVATION AREA,29258.9999352498,29431.9540696684
17 TEMPLE STREET KRETA AYER CONSERVATION AREA SINGAPORE 058563,17,KRETA AYER CONSERVATION AREA,1.28246994507002,103.844589294413,103.844589294413,058563,TEMPLE STREET,KRETA AYER CONSERVATION AREA,29254.3380906656,29434.5332650971
19 TEMPLE STREET KRETA AYER CONSERVATION AREA SINGAPORE 058564,19,KRETA AYER CONSERVATION AREA,1.28249250195647,103.844546199298,103.844546199298,058564,TEMPLE STREET,KRETA AYER CONSERVATION AREA,29249.5419470379,29437.0274680275
20 TEMPLE STREET GOLDEN COMPASS SCHOOL SINGAPORE 058565,20,GOLDEN COMPASS SCHOOL,1.2827032756036,103.844660670322,103.844660670322,058565,TEMPLE STREET,GOLDEN COMPASS SCHOOL,29262.2815295085,29460.3337852228
21 TEMPLE STREET KRETA AYER CONSERVATION AREA SINGAPORE 058566,21,KRETA AYER CONSERVATION AREA,1.28251942981699,103.844501769918,103.844501769918,058566,TEMPLE STREET,KRETA AYER CONSERVATION AREA,29244.5973086823,29440.0049901232
22 TEMPLE STREET KRETA AYER CONSERVATION AREA SINGAPORE 058567,22,KRETA AYER CONSERVATION AREA,1.2827649384526,103.844636893105,103.844636893105,058567,TEMPLE STREET,KRETA AYER CONSERVATION AREA,29259.6352904961,29467.1521328427
23 TEMPLE STREET KRETA AYER CONSERVATION AREA SINGAPORE 058568,23,KRETA AYER CONSERVATION AREA,1.28254711729689,103.84445481775,103.84445481775,058568,TEMPLE STREET,KRETA AYER CONSERVATION AREA,29239.3719045091,29443.0665058717
24 TEMPLE STREET KRETA AYER CONSERVATION AREA SINGAPORE 058569,24,KRETA AYER CONSERVATION AREA,1.28279032382562,103.844593249163,103.844593249163,058569,TEMPLE STREET,KRETA AYER CONSERVATION AREA,29254.7780660773,29469.9590948485
25 TEMPLE STREET KRETA AYER CONSERVATION AREA SINGAPORE 058570,25,KRETA AYER CONSERVATION AREA,1.28257675949679,103.84440939134,103.84440939134,058570,TEMPLE STREET,KRETA AYER CONSERVATION AREA,29234.3163037244,29446.3441652916
26 TEMPLE STREET KRETA AYER CONSERVATION AREA SINGAPORE 058571,26,KRETA AYER CONSERVATION AREA,1.28281824341323,103.844550727378,103.844550727378,058571,TEMPLE STREET,KRETA AYER CONSERVATION AREA,29250.0457273591,29473.0462778471
28 TEMPLE STREET KRETA AYER CONSERVATION AREA SINGAPORE 058573,28,KRETA AYER CONSERVATION AREA,1.28284153090414,103.844504972125,103.844504972125,058573,TEMPLE STREET,KRETA AYER CONSERVATION AREA,29244.9535325821,29475.6212660261
30 TEMPLE STREET KRETA AYER CONSERVATION AREA SINGAPORE 058575,30,KRETA AYER CONSERVATION AREA,1.28286849354226,103.844457285358,103.844457285358,058575,TEMPLE STREET,KRETA AYER CONSERVATION AREA,29239.6463745851,29478.6026321538
32 TEMPLE STREET KRETA AYER CONSERVATION AREA SINGAPORE 058577,32,KRETA AYER CONSERVATION AREA,1.28288634331213,103.844288143712,103.844288143712,058577,TEMPLE STREET,KRETA AYER CONSERVATION AREA,29220.8222917598,29480.576286301
36 TEMPLE STREET THE INN AT TEMPLE STREET SINGAPORE 058581,36,THE INN AT TEMPLE STREET,1.28320661409147,103.84386847711,103.84386847711,058581,TEMPLE STREET,THE INN AT TEMPLE STREET,29174.1167043932,29515.989978591
39 TEMPLE STREET KRETA AYER CONSERVATION AREA SINGAPORE 058584,39,KRETA AYER CONSERVATION AREA,1.28293441545171,103.843775491753,103.843775491753,058584,TEMPLE STREET,KRETA AYER CONSERVATION AREA,29163.7683229046,29485.8916166537
41 TEMPLE STREET KRETA AYER CONSERVATION AREA SINGAPORE 058586,41,KRETA AYER CONSERVATION AREA,1.28295663481064,103.843732632147,103.843732632147,058586,TEMPLE STREET,KRETA AYER CONSERVATION AREA,29158.9983913498,29488.3484991603
43 TEMPLE STREET KRETA AYER CONSERVATION AREA SINGAPORE 058588,43,KRETA AYER CONSERVATION AREA,1.28297956696337,103.843691305908,103.843691305908,058588,TEMPLE STREET,KRETA AYER CONSERVATION AREA,29154.3991106879,29490.8841994964
45 TEMPLE STREET KRETA AYER CONSERVATION AREA SINGAPORE 058590,45,KRETA AYER CONSERVATION AREA,1.28300393648968,103.843649458309,103.843649458309,058590,TEMPLE STREET,KRETA AYER CONSERVATION AREA,29149.7418063022,29493.5788370147
46 TEMPLE STREET KRETA AYER CONSERVATION AREA SINGAPORE 058591,46,KRETA AYER CONSERVATION AREA,1.28327802168392,103.843746846036,103.843746846036,058591,TEMPLE STREET,KRETA AYER CONSERVATION AREA,29160.5801356435,29523.8858058937
47 TEMPLE STREET KRETA AYER CONSERVATION AREA SINGAPORE 058592,47,KRETA AYER CONSERVATION AREA,1.28302711117589,103.843606308513,103.843606308513,058592,TEMPLE STREET,KRETA AYER CONSERVATION AREA,29144.9395788088,29496.1413547844
48 TEMPLE STREET KRETA AYER CONSERVATION AREA SINGAPORE 058593,48,KRETA AYER CONSERVATION AREA,1.28330219193578,103.843704431647,103.843704431647,058593,TEMPLE STREET,KRETA AYER CONSERVATION AREA,29155.8597527789,29526.55840832
49 TEMPLE STREET KRETA AYER CONSERVATION AREA SINGAPORE 058594,49,KRETA AYER CONSERVATION AREA,1.28305169750203,103.843563301778,103.843563301778,058594,TEMPLE STREET,KRETA AYER CONSERVATION AREA,29140.1532722758,29498.8599645458
50 TEMPLE STREET KRETA AYER CONSERVATION AREA SINGAPORE 058595,50,KRETA AYER CONSERVATION AREA,1.28332779189617,103.843661615835,103.843661615835,058595,TEMPLE STREET,KRETA AYER CONSERVATION AREA,29151.0946943704,29529.3891004268
51 TEMPLE STREET KRETA AYER CONSERVATION AREA SINGAPORE 058596,51,KRETA AYER CONSERVATION AREA,1.28307587350155,103.84352031435,103.84352031435,058596,TEMPLE STREET,KRETA AYER CONSERVATION AREA,29135.3691147696,29501.5332025997
52 TEMPLE STREET SINGAPORE 058597,52,NIL,1.28335255313662,103.843619101089,103.843619101089,058597,TEMPLE STREET,52 TEMPLE STREET SINGAPORE 058597,29146.3631426189,29532.1270514298
53 TEMPLE STREET KRETA AYER CONSERVATION AREA SINGAPORE 058598,53,KRETA AYER CONSERVATION AREA,1.28310035169912,103.843477947286,103.843477947286,058598,TEMPLE STREET,KRETA AYER CONSERVATION AREA,29130.6539985342,29504.2398565076
54 TEMPLE STREET SINGAPORE 058599,54,NIL,1.28337724867551,103.843577803679,103.843577803679,058599,TEMPLE STREET,54 TEMPLE STREET SINGAPORE 058599,29141.7670703642,29534.8577381168
55 TEMPLE STREET KRETA AYER CONSERVATION AREA SINGAPORE 058600,55,KRETA AYER CONSERVATION AREA,1.28312498893804,103.843434779814,103.843434779814,058600,TEMPLE STREET,KRETA AYER CONSERVATION AREA,29125.8498036228,29506.964096114
56 TEMPLE STREET KRETA AYER CONSERVATION AREA SINGAPORE 058601,56,KRETA AYER CONSERVATION AREA,1.28340100558421,103.843536258227,103.843536258227,058601,TEMPLE STREET,KRETA AYER CONSERVATION AREA,29137.1433937075,29537.4846358877
57 TEMPLE STREET KRETA AYER CONSERVATION AREA SINGAPORE 058602,57,KRETA AYER CONSERVATION AREA,1.28314980273019,103.843392584362,103.843392584362,058602,TEMPLE STREET,KRETA AYER CONSERVATION AREA,29121.1537864851,29509.7078585699
58 TEMPLE STREET KRETA AYER CONSERVATION AREA SINGAPORE 058603,58,KRETA AYER CONSERVATION AREA,1.28342595158862,103.843494679056,103.843494679056,058603,TEMPLE STREET,KRETA AYER CONSERVATION AREA,29132.5159638207,29540.2430177797
59 TEMPLE STREET KRETA AYER CONSERVATION AREA SINGAPORE 058604,59,KRETA AYER CONSERVATION AREA,1.28317436496211,103.843350110956,103.843350110956,058604,TEMPLE STREET,KRETA AYER CONSERVATION AREA,29116.426835468,29512.4238047488
61 TEMPLE STREET KRETA AYER CONSERVATION AREA SINGAPORE 058606,61,KRETA AYER CONSERVATION AREA,1.28319793135341,103.84330742568,103.84330742568,058606,TEMPLE STREET,KRETA AYER CONSERVATION AREA,29111.6763056908,29515.0296360031
62 TEMPLE STREET KRETA AYER CONSERVATION AREA SINGAPORE 058607,62,KRETA AYER CONSERVATION AREA,1.2834697190496,103.843422390499,103.843422390499,058607,TEMPLE STREET,KRETA AYER CONSERVATION AREA,29124.4708245527,29545.082565695
63 TEMPLE STREET KRETA AYER CONSERVATION AREA SINGAPORE 058608,63,KRETA AYER CONSERVATION AREA,1.2832226192178,103.8432673932,103.8432673932,058608,TEMPLE STREET,KRETA AYER CONSERVATION AREA,29107.2210098282,29517.7594751865
65 TEMPLE STREET KRETA AYER CONSERVATION AREA SINGAPORE 058610,65,KRETA AYER CONSERVATION AREA,1.28324756083695,103.843226114283,103.843226114283,058610,TEMPLE STREET,KRETA AYER CONSERVATION AREA,29102.6269957954,29520.5173727907
67 TEMPLE STREET KRETA AYER CONSERVATION AREA SINGAPORE 058611,67,KRETA AYER CONSERVATION AREA,1.28327426665583,103.843187142219,103.843187142219,058611,TEMPLE STREET,KRETA AYER CONSERVATION AREA,29098.2897148002,29523.4703475498
69 TEMPLE STREET KRETA AYER CONSERVATION AREA SINGAPORE 058613,69,KRETA AYER CONSERVATION AREA,1.28327426610835,103.843187142219,103.843187142219,058613,TEMPLE STREET,KRETA AYER CONSERVATION AREA,29098.2897148002,29523.4702870138
71 TEMPLE STREET KRETA AYER CONSERVATION AREA SINGAPORE 058615,71,KRETA AYER CONSERVATION AREA,1.28331815072626,103.843112808993,103.843112808993,058615,TEMPLE STREET,KRETA AYER CONSERVATION AREA,29090.0170208309,29528.3227896281
73 TEMPLE STREET KRETA AYER CONSERVATION AREA SINGAPORE 058617,73,KRETA AYER CONSERVATION AREA,1.2833387952662,103.843075624561,103.843075624561,058617,TEMPLE STREET,KRETA AYER CONSERVATION AREA,29085.8786912933,29530.6055404227
11 SOUTH BRIDGE ROAD SINGAPORE 058656,11,NIL,1.28832223673462,103.848983641124,103.848983641124,058656,SOUTH BRIDGE ROAD,11 SOUTH BRIDGE ROAD SINGAPORE 058656,29743.3888605963,30081.6520421077
13 SOUTH BRIDGE ROAD BOAT QUAY CONSERVATION AREA SINGAPORE 058657,13,BOAT QUAY CONSERVATION AREA,1.28827143301483,103.848978584888,103.848978584888,058657,SOUTH BRIDGE ROAD,BOAT QUAY CONSERVATION AREA,29742.8261787789,30076.0344254021
15 SOUTH BRIDGE ROAD BOAT QUAY CONSERVATION AREA SINGAPORE 058658,15,BOAT QUAY CONSERVATION AREA,1.28823060468648,103.848971381236,103.848971381236,058658,SOUTH BRIDGE ROAD,BOAT QUAY CONSERVATION AREA,29742.0245009623,30071.5198345575
17 SOUTH BRIDGE ROAD BOAT QUAY CONSERVATION AREA SINGAPORE 058659,17,BOAT QUAY CONSERVATION AREA,1.28820423891285,103.848940655787,103.848940655787,058659,SOUTH BRIDGE ROAD,BOAT QUAY CONSERVATION AREA,29738.605036038,30068.6044223662
19 SOUTH BRIDGE ROAD BOAT QUAY CONSERVATION AREA SINGAPORE 058660,19,BOAT QUAY CONSERVATION AREA,1.28817457007019,103.848898948978,103.848898948978,058660,SOUTH BRIDGE ROAD,BOAT QUAY CONSERVATION AREA,29733.9634407349,30065.3237664159
21 SOUTH BRIDGE ROAD BOAT QUAY CONSERVATION AREA SINGAPORE 058661,21,BOAT QUAY CONSERVATION AREA,1.28784365906664,103.848735951721,103.848735951721,058661,SOUTH BRIDGE ROAD,BOAT QUAY CONSERVATION AREA,29715.8234446095,30028.7332246508
23 SOUTH BRIDGE ROAD BOAT QUAY CONSERVATION AREA SINGAPORE 058662,23,BOAT QUAY CONSERVATION AREA,1.28784365879293,103.848735951449,103.848735951449,058662,SOUTH BRIDGE ROAD,BOAT QUAY CONSERVATION AREA,29715.8234143415,30028.7331943829
25 SOUTH BRIDGE ROAD BOAT QUAY CONSERVATION AREA SINGAPORE 058663,25,BOAT QUAY CONSERVATION AREA,1.28784365879293,103.848735951449,103.848735951449,058663,SOUTH BRIDGE ROAD,BOAT QUAY CONSERVATION AREA,29715.8234143415,30028.7331943829
27 SOUTH BRIDGE ROAD BOAT QUAY CONSERVATION AREA SINGAPORE 058664,27,BOAT QUAY CONSERVATION AREA,1.28784365879293,103.848735951449,103.848735951449,058664,SOUTH BRIDGE ROAD,BOAT QUAY CONSERVATION AREA,29715.8234143415,30028.7331943829
29 SOUTH BRIDGE ROAD BOAT QUAY CONSERVATION AREA SINGAPORE 058665,29,BOAT QUAY CONSERVATION AREA,1.28775148017348,103.848666153294,103.848666153294,058665,SOUTH BRIDGE ROAD,BOAT QUAY CONSERVATION AREA,29708.055529804,30018.5405114014
31 SOUTH BRIDGE ROAD BOAT QUAY CONSERVATION AREA SINGAPORE 058666,31,BOAT QUAY CONSERVATION AREA,1.28764686865442,103.848632507516,103.848632507516,058666,SOUTH BRIDGE ROAD,BOAT QUAY CONSERVATION AREA,29704.3111078059,30006.9730868693
32 SOUTH BRIDGE ROAD TELOK AYER CONSERVATION AREA SINGAPORE 058667,32,TELOK AYER CONSERVATION AREA,1.28818596400048,103.848527266426,103.848527266426,058667,SOUTH BRIDGE ROAD,TELOK AYER CONSERVATION AREA,29692.5983061474,30066.5833988246
34 SOUTH BRIDGE ROAD LEAGOO BUILDING SINGAPORE 058668,34,LEAGOO BUILDING,1.28813023940262,103.848518660687,103.848518660687,058668,SOUTH BRIDGE ROAD,LEAGOO BUILDING,29691.6405968741,30060.4216545764
35 SOUTH BRIDGE ROAD BOAT QUAY CONSERVATION AREA SINGAPORE 058669,35,BOAT QUAY CONSERVATION AREA,1.2876032202185,103.848597965145,103.848597965145,058669,SOUTH BRIDGE ROAD,BOAT QUAY CONSERVATION AREA,29700.4668619987,30002.146644989
36 SOUTH BRIDGE ROAD HERITAGE COLLECTION ON CLARKE QUAY SINGAPORE 058670,36,HERITAGE COLLECTION ON CLARKE QUAY,1.28808150244639,103.848500170778,103.848500170778,058670,SOUTH BRIDGE ROAD,HERITAGE COLLECTION ON CLARKE QUAY,29689.5828582691,30055.0325611476
37 SOUTH BRIDGE ROAD BOAT QUAY CONSERVATION AREA SINGAPORE 058671,37,BOAT QUAY CONSERVATION AREA,1.28755882795142,103.848579726837,103.848579726837,058671,SOUTH BRIDGE ROAD,BOAT QUAY CONSERVATION AREA,29698.4371212786,29997.2379649971
38 SOUTH BRIDGE ROAD SINGAPORE 058672,38,NIL,1.28805716705676,103.848450677501,103.848450677501,058672,SOUTH BRIDGE ROAD,38 SOUTH BRIDGE ROAD SINGAPORE 058672,29684.0746905925,30052.3416465912
39 SOUTH BRIDGE ROAD KINN SINGAPORE 058673,39,KINN,1.28749044195375,103.848551051805,103.848551051805,058673,SOUTH BRIDGE ROAD,KINN,29695.2458769511,29989.6761751622
40 SOUTH BRIDGE ROAD SINGAPORE 058674,40,NIL,1.28801310796337,103.848425474038,103.848425474038,058674,SOUTH BRIDGE ROAD,40 SOUTH BRIDGE ROAD SINGAPORE 058674,29681.2697868096,30047.4698027354
41 SOUTH BRIDGE ROAD KINN SINGAPORE 058675,41,KINN,1.28748836404966,103.84855052825,103.84855052825,058675,SOUTH BRIDGE ROAD,KINN,29695.1876110826,29989.4464108981
42 SOUTH BRIDGE ROAD SINGAPORE 058676,42,NIL,1.28795450011185,103.848420803149,103.848420803149,058676,SOUTH BRIDGE ROAD,42 SOUTH BRIDGE ROAD SINGAPORE 058676,29680.749994725,30040.9892458133
43 SOUTH BRIDGE ROAD BOAT QUAY CONSERVATION AREA SINGAPORE 058677,43,BOAT QUAY CONSERVATION AREA,1.28741943578187,103.84852262942,103.84852262942,058677,SOUTH BRIDGE ROAD,BOAT QUAY CONSERVATION AREA,29692.0827515805,29981.8246601857
45 SOUTH BRIDGE ROAD BOAT QUAY CONSERVATION AREA SINGAPORE 058678,45,BOAT QUAY CONSERVATION AREA,1.28737397376809,103.848503966834,103.848503966834,058678,SOUTH BRIDGE ROAD,BOAT QUAY CONSERVATION AREA,29690.0057928059,29976.7976929136
46 SOUTH BRIDGE ROAD KINGLY BUILDING SINGAPORE 058679,46,KINGLY BUILDING,1.28790679539503,103.848357406896,103.848357406896,058679,SOUTH BRIDGE ROAD,KINGLY BUILDING,29673.6945579881,30035.7142626829
47 SOUTH BRIDGE ROAD BOAT QUAY CONSERVATION AREA SINGAPORE 058680,47,BOAT QUAY CONSERVATION AREA,1.28732633942073,103.848483343332,103.848483343332,058680,SOUTH BRIDGE ROAD,BOAT QUAY CONSERVATION AREA,29687.7106018681,29971.530518923
49 SOUTH BRIDGE ROAD BOAT QUAY CONSERVATION AREA SINGAPORE 058681,49,BOAT QUAY CONSERVATION AREA,1.2872790286575,103.848457371269,103.848457371269,058681,SOUTH BRIDGE ROAD,BOAT QUAY CONSERVATION AREA,29684.8201607633,29966.2991216891
50 SOUTH BRIDGE ROAD CMO BUILDING SINGAPORE 058682,50,CMO BUILDING,1.28769980694262,103.848224653252,103.848224653252,058682,SOUTH BRIDGE ROAD,CMO BUILDING,29658.9203313841,30012.8264608998
51 SOUTH BRIDGE ROAD BOAT QUAY CONSERVATION AREA SINGAPORE 058683,51,BOAT QUAY CONSERVATION AREA,1.28723578256733,103.848429404602,103.848429404602,058683,SOUTH BRIDGE ROAD,BOAT QUAY CONSERVATION AREA,29681.7077342654,29961.5171737466
53 SOUTH BRIDGE ROAD BOAT QUAY CONSERVATION AREA SINGAPORE 058684,53,BOAT QUAY CONSERVATION AREA,1.28718977995276,103.848406930083,103.848406930083,058684,SOUTH BRIDGE ROAD,BOAT QUAY CONSERVATION AREA,29679.2065394316,29956.4304272067
54 SOUTH BRIDGE ROAD TELOK AYER CONSERVATION AREA SINGAPORE 058685,54,TELOK AYER CONSERVATION AREA,1.28763241185547,103.848195801997,103.848195801997,058685,SOUTH BRIDGE ROAD,TELOK AYER CONSERVATION AREA,29655.7094734032,30005.3742411658
55 SOUTH BRIDGE ROAD BOAT QUAY CONSERVATION AREA SINGAPORE 058686,55,BOAT QUAY CONSERVATION AREA,1.28714672381066,103.848382670099,103.848382670099,058686,SOUTH BRIDGE ROAD,BOAT QUAY CONSERVATION AREA,29676.5066352841,29951.669485243
57 SOUTH BRIDGE ROAD THE QUAY HOTEL SINGAPORE 058688,57,THE QUAY HOTEL,1.28705508498174,103.84831293426,103.84831293426,058688,SOUTH BRIDGE ROAD,THE QUAY HOTEL,29668.7456821147,29941.5364907272
58 SOUTH BRIDGE ROAD HOTEL CLOVER THE ARTS SINGAPORE 058689,58,HOTEL CLOVER THE ARTS,1.28750809414451,103.848187076748,103.848187076748,058689,SOUTH BRIDGE ROAD,HOTEL CLOVER THE ARTS,29654.7385067539,29991.6278244834
60 SOUTH BRIDGE ROAD SINGAPORE 058690,60,NIL,1.28749570595752,103.848115003507,103.848115003507,058690,SOUTH BRIDGE ROAD,60 SOUTH BRIDGE ROAD SINGAPORE 058690,29646.7173699969,29990.2579560764
62 SOUTH BRIDGE ROAD TELOK AYER CONSERVATION AREA SINGAPORE 058692,62,TELOK AYER CONSERVATION AREA,1.2874503244597,103.848089216943,103.848089216943,058692,SOUTH BRIDGE ROAD,TELOK AYER CONSERVATION AREA,29643.847571657,29985.2398875915
63 SOUTH BRIDGE ROAD BOAT QUAY CONSERVATION AREA SINGAPORE 058693,63,BOAT QUAY CONSERVATION AREA,1.2869751980861,103.848284620895,103.848284620895,058693,SOUTH BRIDGE ROAD,BOAT QUAY CONSERVATION AREA,29665.5946942056,29932.7029915545
64 SOUTH BRIDGE ROAD TELOK AYER CONSERVATION AREA SINGAPORE 058694,64,TELOK AYER CONSERVATION AREA,1.28740628535198,103.848062792618,103.848062792618,058694,SOUTH BRIDGE ROAD,TELOK AYER CONSERVATION AREA,29640.9067948945,29980.3702533003
65 SOUTH BRIDGE ROAD SINGAPORE 058695,65,NIL,1.28693249313871,103.848260947828,103.848260947828,058695,SOUTH BRIDGE ROAD,65 SOUTH BRIDGE ROAD SINGAPORE 058695,29662.9601083668,29927.9808834139
67 SOUTH BRIDGE ROAD SINGAPORE 058697,67,NIL,1.2869015479142,103.848211233426,103.848211233426,058697,SOUTH BRIDGE ROAD,67 SOUTH BRIDGE ROAD SINGAPORE 058697,29657.4273328194,29924.5590878557
68 SOUTH BRIDGE ROAD CHAN BROTHERS@68 SINGAPORE 058698,68,CHAN BROTHERS@68,1.28729944632078,103.848052920579,103.848052920579,058698,SOUTH BRIDGE ROAD,CHAN BROTHERS@68,29639.8081881581,29968.5565381832
69 SOUTH BRIDGE ROAD BOAT QUAY CONSERVATION AREA SINGAPORE 058699,69,BOAT QUAY CONSERVATION AREA,1.28682895450408,103.848204968447,103.848204968447,058699,SOUTH BRIDGE ROAD,BOAT QUAY CONSERVATION AREA,29656.7301400825,29916.5320791099
70 SOUTH BRIDGE ROAD MMI BUILDING II SINGAPORE 058700,70,MMI BUILDING II,1.28710240897243,103.847901825113,103.847901825113,058700,SOUTH BRIDGE ROAD,MMI BUILDING II,29622.9926584633,29946.7690684125
71 SOUTH BRIDGE ROAD BOAT QUAY CONSERVATION AREA SINGAPORE 058701,71,BOAT QUAY CONSERVATION AREA,1.28682895477781,103.848204968175,103.848204968175,058701,SOUTH BRIDGE ROAD,BOAT QUAY CONSERVATION AREA,29656.7301098146,29916.5321093779
72 SOUTH BRIDGE ROAD MMI ACADEMY SINGAPORE 058702,72,MMI ACADEMY,1.28703572211884,103.847904883854,103.847904883854,058702,SOUTH BRIDGE ROAD,MMI ACADEMY,29623.3331127446,29939.3951822184
73 SOUTH BRIDGE ROAD BOAT QUAY CONSERVATION AREA SINGAPORE 058703,73,BOAT QUAY CONSERVATION AREA,1.28676777321219,103.848166422323,103.848166422323,058703,SOUTH BRIDGE ROAD,BOAT QUAY CONSERVATION AREA,29652.4403192867,29909.7669426054
74 SOUTH BRIDGE ROAD WONG SHEE FUN BUILDING SINGAPORE 058704,74,WONG SHEE FUN BUILDING,1.28700833128912,103.847858900359,103.847858900359,058704,SOUTH BRIDGE ROAD,WONG SHEE FUN BUILDING,29618.2155533973,29936.3664164282
75 SOUTH BRIDGE ROAD BOAT QUAY CONSERVATION AREA SINGAPORE 058705,75,BOAT QUAY CONSERVATION AREA,1.28672640955276,103.848143189588,103.848143189588,058705,SOUTH BRIDGE ROAD,BOAT QUAY CONSERVATION AREA,29649.8547373135,29905.1931475848
76 SOUTH BRIDGE ROAD MERCHANTS BUILDING SINGAPORE 058706,76,MERCHANTS BUILDING,1.28696580974852,103.847833528848,103.847833528848,058706,SOUTH BRIDGE ROAD,MERCHANTS BUILDING,29615.3919440005,29931.6645878367
77 SOUTH BRIDGE ROAD BOAT QUAY CONSERVATION AREA SINGAPORE 058707,77,BOAT QUAY CONSERVATION AREA,1.28668333945355,103.84811789667,103.84811789667,058707,SOUTH BRIDGE ROAD,BOAT QUAY CONSERVATION AREA,29647.039875363,29900.4306619558
78 SOUTH BRIDGE ROAD TKH BUILDING SINGAPORE 058708,78,TKH BUILDING,1.28692278782572,103.847807806493,103.847807806493,058708,SOUTH BRIDGE ROAD,TKH BUILDING,29612.5292889047,29926.9074293729
79 SOUTH BRIDGE ROAD BOAT QUAY CONSERVATION AREA SINGAPORE 058709,79,BOAT QUAY CONSERVATION AREA,1.28663664351334,103.848088004176,103.848088004176,058709,SOUTH BRIDGE ROAD,BOAT QUAY CONSERVATION AREA,29643.7131212726,29895.2672466133
80 SOUTH BRIDGE ROAD GOLDEN CASTLE BUILDING SINGAPORE 058710,80,GOLDEN CASTLE BUILDING,1.28687567024728,103.847792964277,103.847792964277,058710,SOUTH BRIDGE ROAD,GOLDEN CASTLE BUILDING,29610.8775044968,29921.6974013355
81 SOUTH BRIDGE ROAD BOAT QUAY CONSERVATION AREA SINGAPORE 058711,81,BOAT QUAY CONSERVATION AREA,1.28658891666308,103.848063480909,103.848063480909,058711,SOUTH BRIDGE ROAD,BOAT QUAY CONSERVATION AREA,29640.9839177169,29889.9898420442
82 SOUTH BRIDGE ROAD SINGAPORE 058712,82,NIL,1.28683498956368,103.847767023001,103.847767023001,058712,SOUTH BRIDGE ROAD,82 SOUTH BRIDGE ROAD SINGAPORE 058712,29607.9904836742,29917.1991249342
84 SOUTH BRIDGE ROAD LEUNG KAI FOOK BUILDING SINGAPORE 058714,84,LEUNG KAI FOOK BUILDING,1.28679743111637,103.847734424461,103.847734424461,058714,SOUTH BRIDGE ROAD,LEUNG KAI FOOK BUILDING,29604.3625631453,29913.0460851565
88 SOUTH BRIDGE ROAD SINGAPORE 058716,88,NIL,1.28669960797449,103.847685602299,103.847685602299,058716,SOUTH BRIDGE ROAD,88 SOUTH BRIDGE ROAD SINGAPORE 058716,29598.9291271204,29902.2292763516
150 SOUTH BRIDGE ROAD FOOK HAI BUILDING SINGAPORE 058727,150,FOOK HAI BUILDING,1.2849769373472,103.846432501374,103.846432501374,058727,SOUTH BRIDGE ROAD,FOOK HAI BUILDING,29459.4704817906,29711.744500855
"181 SOUTH BRIDGE ROAD CAPRI BY FRASER CHINA SQUARE, SINGAPORE SINGAPORE 058743",181,"CAPRI BY FRASER CHINA SQUARE, SINGAPORE",1.28404168076002,103.847073835288,103.847073835288,058743,SOUTH BRIDGE ROAD,"CAPRI BY FRASER CHINA SQUARE, SINGAPORE",29530.8461708939,29608.3290310726
198 SOUTH BRIDGE ROAD KRETA AYER CONSERVATION AREA SINGAPORE 058747,198,KRETA AYER CONSERVATION AREA,1.28364062936487,103.845845140893,103.845845140893,058747,SOUTH BRIDGE ROAD,KRETA AYER CONSERVATION AREA,29394.1028663833,29563.9821368735
199 SOUTH BRIDGE ROAD SINGAPORE 058748,199,NIL,1.28336906014505,103.846131873947,103.846131873947,058748,SOUTH BRIDGE ROAD,199 SOUTH BRIDGE ROAD SINGAPORE 058748,29426.0140384007,29533.9535729066
200 SOUTH BRIDGE ROAD KRETA AYER CONSERVATION AREA SINGAPORE 058749,200,KRETA AYER CONSERVATION AREA,1.28359407517635,103.845817958655,103.845817958655,058749,SOUTH BRIDGE ROAD,KRETA AYER CONSERVATION AREA,29391.0777327511,29558.8344003465
201 SOUTH BRIDGE ROAD SINGAPORE 058750,201,NIL,1.28333283306352,103.846109001661,103.846109001661,058750,SOUTH BRIDGE ROAD,201 SOUTH BRIDGE ROAD SINGAPORE 058750,29423.4685615059,29529.9477566015
202 SOUTH BRIDGE ROAD KRETA AYER CONSERVATION AREA SINGAPORE 058751,202,KRETA AYER CONSERVATION AREA,1.28355981868501,103.845797339649,103.845797339649,058751,SOUTH BRIDGE ROAD,KRETA AYER CONSERVATION AREA,29388.7830261011,29555.0464832559
203 SOUTH BRIDGE ROAD TELOK AYER CONSERVATION AREA SINGAPORE 058752,203,TELOK AYER CONSERVATION AREA,1.28330085240468,103.846085621357,103.846085621357,058752,SOUTH BRIDGE ROAD,TELOK AYER CONSERVATION AREA,29420.8665440176,29526.4114875272
204 SOUTH BRIDGE ROAD KRETA AYER CONSERVATION AREA SINGAPORE 058753,204,KRETA AYER CONSERVATION AREA,1.28352554083978,103.84577724201,103.84577724201,058753,SOUTH BRIDGE ROAD,KRETA AYER CONSERVATION AREA,29386.5463431766,29551.2562052626
205 SOUTH BRIDGE ROAD TELOK AYER CONSERVATION AREA SINGAPORE 058754,205,TELOK AYER CONSERVATION AREA,1.28327607425189,103.846053642496,103.846053642496,058754,SOUTH BRIDGE ROAD,TELOK AYER CONSERVATION AREA,29417.3075739564,29523.6716296412
207 SOUTH BRIDGE ROAD TELOK AYER CONSERVATION AREA SINGAPORE 058756,207,TELOK AYER CONSERVATION AREA,1.28323860386474,103.84603267345,103.84603267345,058756,SOUTH BRIDGE ROAD,TELOK AYER CONSERVATION AREA,29414.9739124114,29519.5283361543
208 SOUTH BRIDGE ROAD KRETA AYER CONSERVATION AREA SINGAPORE 058757,208,KRETA AYER CONSERVATION AREA,1.28346180172917,103.845742336024,103.845742336024,058757,SOUTH BRIDGE ROAD,KRETA AYER CONSERVATION AREA,29382.6616290743,29544.2082447186
209 SOUTH BRIDGE ROAD TELOK AYER CONSERVATION AREA SINGAPORE 058758,209,TELOK AYER CONSERVATION AREA,1.28308862711645,103.845991532948,103.845991532948,058758,SOUTH BRIDGE ROAD,TELOK AYER CONSERVATION AREA,29410.3953955863,29502.9446592163
210 SOUTH BRIDGE ROAD THE SOUTHBRIDGE HOTEL SINGAPORE 058759,210,THE SOUTHBRIDGE HOTEL,1.28341894814598,103.845656807605,103.845656807605,058759,SOUTH BRIDGE ROAD,THE SOUTHBRIDGE HOTEL,29373.1430443591,29539.4696707949
211 SOUTH BRIDGE ROAD SINGAPORE 058760,211,NIL,1.28304084254576,103.845955001478,103.845955001478,058760,SOUTH BRIDGE ROAD,211 SOUTH BRIDGE ROAD SINGAPORE 058760,29406.3297697455,29497.6608681027
213 SOUTH BRIDGE ROAD SINGAPORE 058762,213,NIL,1.28300995375614,103.845941759669,103.845941759669,058762,SOUTH BRIDGE ROAD,213 SOUTH BRIDGE ROAD SINGAPORE 058762,29404.8560821544,29494.2453380153
214 SOUTH BRIDGE ROAD KRETA AYER CONSERVATION AREA SINGAPORE 058763,214,KRETA AYER CONSERVATION AREA,1.28319787931347,103.845683318966,103.845683318966,058763,SOUTH BRIDGE ROAD,KRETA AYER CONSERVATION AREA,29376.0936582154,29515.0250352696
215 SOUTH BRIDGE ROAD SINGAPORE 058764,215,NIL,1.28298235553298,103.845924100273,103.845924100273,058764,SOUTH BRIDGE ROAD,215 SOUTH BRIDGE ROAD SINGAPORE 058764,29402.8907517036,29491.1936593615
217 SOUTH BRIDGE ROAD SINGAPORE 058766,217,NIL,1.28295417044251,103.845903119309,103.845903119309,058766,SOUTH BRIDGE ROAD,217 SOUTH BRIDGE ROAD SINGAPORE 058766,29400.5557583682,29488.0770861506
218 SOUTH BRIDGE ROAD JAMAE MOSQUE (MASJID CHULIA) SINGAPORE 058767,218,JAMAE MOSQUE (MASJID CHULIA),1.28315450666817,103.845439436764,103.845439436764,058767,SOUTH BRIDGE ROAD,JAMAE MOSQUE (MASJID CHULIA),29348.9516005162,29510.2289824449
219 SOUTH BRIDGE ROAD TELOK AYER CONSERVATION AREA SINGAPORE 058768,219,TELOK AYER CONSERVATION AREA,1.2829238824957,103.845890055644,103.845890055644,058768,SOUTH BRIDGE ROAD,TELOK AYER CONSERVATION AREA,29399.1018963065,29484.7279942874
221 SOUTH BRIDGE ROAD TELOK AYER CONSERVATION AREA SINGAPORE 058770,221,TELOK AYER CONSERVATION AREA,1.28289734717413,103.845873075906,103.845873075906,058770,SOUTH BRIDGE ROAD,TELOK AYER CONSERVATION AREA,29397.2122055469,29481.7938462142
223 SOUTH BRIDGE ROAD SINGAPORE 058772,223,NIL,1.28286333178748,103.845863483916,103.845863483916,058772,SOUTH BRIDGE ROAD,223 SOUTH BRIDGE ROAD SINGAPORE 058772,29396.1447142968,29478.0325952172
225 SOUTH BRIDGE ROAD TELOK AYER CONSERVATION AREA SINGAPORE 058774,225,TELOK AYER CONSERVATION AREA,1.2828294571932,103.845834856772,103.845834856772,058774,SOUTH BRIDGE ROAD,TELOK AYER CONSERVATION AREA,29392.9587668665,29474.2869019639
226 SOUTH BRIDGE ROAD KRETA AYER CONSERVATION AREA SINGAPORE 058775,226,KRETA AYER CONSERVATION AREA,1.28299334006521,103.845494817729,103.845494817729,058775,SOUTH BRIDGE ROAD,KRETA AYER CONSERVATION AREA,29355.1151305772,29492.4080411363
227 SOUTH BRIDGE ROAD HERITAGE COLLECTION ON CHINATOWN SINGAPORE 058776,227,HERITAGE COLLECTION ON CHINATOWN,1.28277324858287,103.845722568674,103.845722568674,058776,SOUTH BRIDGE ROAD,HERITAGE COLLECTION ON CHINATOWN,29380.4620546978,29468.0715833846
228 SOUTH BRIDGE ROAD KRETA AYER CONSERVATION AREA SINGAPORE 058777,228,KRETA AYER CONSERVATION AREA,1.2829583986853,103.845475385333,103.845475385333,058777,SOUTH BRIDGE ROAD,KRETA AYER CONSERVATION AREA,29352.9524831399,29488.5443935506
230 SOUTH BRIDGE ROAD KRETA AYER CONSERVATION AREA SINGAPORE 058779,230,KRETA AYER CONSERVATION AREA,1.28292543859519,103.845453782629,103.845453782629,058779,SOUTH BRIDGE ROAD,KRETA AYER CONSERVATION AREA,29350.5482971938,29484.8998256307
232 SOUTH BRIDGE ROAD KRETA AYER CONSERVATION AREA SINGAPORE 058781,232,KRETA AYER CONSERVATION AREA,1.28289198908578,103.845428918192,103.845428918192,058781,SOUTH BRIDGE ROAD,KRETA AYER CONSERVATION AREA,29347.7811073186,29481.201138556
233 SOUTH BRIDGE ROAD TELOK AYER CONSERVATION AREA SINGAPORE 058782,233,TELOK AYER CONSERVATION AREA,1.28263229222432,103.845723048022,103.845723048022,058782,SOUTH BRIDGE ROAD,TELOK AYER CONSERVATION AREA,29380.515477689,29452.4853575807
235 SOUTH BRIDGE ROAD TELOK AYER CONSERVATION AREA SINGAPORE 058784,235,TELOK AYER CONSERVATION AREA,1.28259251537979,103.845697949932,103.845697949932,058784,SOUTH BRIDGE ROAD,TELOK AYER CONSERVATION AREA,29377.7222876148,29448.0870260634
237 SOUTH BRIDGE ROAD TELOK AYER CONSERVATION AREA SINGAPORE 058786,237,TELOK AYER CONSERVATION AREA,1.28255834354594,103.845661804464,103.845661804464,058786,SOUTH BRIDGE ROAD,TELOK AYER CONSERVATION AREA,29373.6996120429,29444.3084617797
239 SOUTH BRIDGE ROAD TELOK AYER CONSERVATION AREA SINGAPORE 058788,239,TELOK AYER CONSERVATION AREA,1.28251949791242,103.845642507492,103.845642507492,058788,SOUTH BRIDGE ROAD,TELOK AYER CONSERVATION AREA,29371.5520380624,29440.0131019428
241 SOUTH BRIDGE ROAD TELOK AYER CONSERVATION AREA SINGAPORE 058790,241,TELOK AYER CONSERVATION AREA,1.28248136866473,103.845617688725,103.845617688725,058790,SOUTH BRIDGE ROAD,TELOK AYER CONSERVATION AREA,29368.7899332084,29435.7969534174
242 SOUTH BRIDGE ROAD SRI MARIAMMAN TEMPLE SINGAPORE 058791,242,SRI MARIAMMAN TEMPLE,1.28274875305412,103.845318967546,103.845318967546,058791,SOUTH BRIDGE ROAD,SRI MARIAMMAN TEMPLE,29335.5445787366,29465.3627804499
243 SOUTH BRIDGE ROAD TELOK AYER CONSERVATION AREA SINGAPORE 058792,243,TELOK AYER CONSERVATION AREA,1.2824412433488,103.845594279295,103.845594279295,058792,SOUTH BRIDGE ROAD,TELOK AYER CONSERVATION AREA,29366.1846770458,29431.3600907568
244 SOUTH BRIDGE ROAD SRI MARIAMMAN TEMPLE SINGAPORE 058793,244,SRI MARIAMMAN TEMPLE,1.28266201963148,103.845088564008,103.845088564008,058793,SOUTH BRIDGE ROAD,SRI MARIAMMAN TEMPLE,29309.9026023112,29455.7721276637
245 SOUTH BRIDGE ROAD TELOK AYER CONSERVATION AREA SINGAPORE 058794,245,TELOK AYER CONSERVATION AREA,1.28239280411904,103.845590439126,103.845590439126,058794,SOUTH BRIDGE ROAD,TELOK AYER CONSERVATION AREA,29365.7573233843,29426.0039288942
247 SOUTH BRIDGE ROAD TELOK AYER CONSERVATION AREA SINGAPORE 058796,247,TELOK AYER CONSERVATION AREA,1.28235700899759,103.845564521071,103.845564521071,058796,SOUTH BRIDGE ROAD,TELOK AYER CONSERVATION AREA,29362.8728753394,29422.0458754674
249 SOUTH BRIDGE ROAD TELOK AYER CONSERVATION AREA SINGAPORE 058798,249,TELOK AYER CONSERVATION AREA,1.28232314810658,103.845531674873,103.845531674873,058798,SOUTH BRIDGE ROAD,TELOK AYER CONSERVATION AREA,29359.2173806783,29418.3016956132
251 SOUTH BRIDGE ROAD TELOK AYER CONSERVATION AREA SINGAPORE 058800,251,TELOK AYER CONSERVATION AREA,1.28223992574713,103.845501576967,103.845501576967,058800,SOUTH BRIDGE ROAD,TELOK AYER CONSERVATION AREA,29355.8677742602,29409.0993810594
252 SOUTH BRIDGE ROAD KRETA AYER CONSERVATION AREA SINGAPORE 058801,252,KRETA AYER CONSERVATION AREA,1.28228429614031,103.845053831226,103.845053831226,058801,SOUTH BRIDGE ROAD,KRETA AYER CONSERVATION AREA,29306.0373202544,29414.0053974688
254 SOUTH BRIDGE ROAD KRETA AYER CONSERVATION AREA SINGAPORE 058803,254,KRETA AYER CONSERVATION AREA,1.28224235187079,103.845028745651,103.845028745651,058803,SOUTH BRIDGE ROAD,KRETA AYER CONSERVATION AREA,29303.2455225084,29409.3674040567
255 SOUTH BRIDGE ROAD TELOK AYER CONSERVATION AREA SINGAPORE 058804,255,TELOK AYER CONSERVATION AREA,1.28220023592967,103.845480174951,103.845480174951,058804,SOUTH BRIDGE ROAD,TELOK AYER CONSERVATION AREA,29353.4859260852,29404.7106747609
256 SOUTH BRIDGE ROAD SINGAPORE 058805,256,NIL,1.28220029345166,103.845004241274,103.845004241274,058805,SOUTH BRIDGE ROAD,256 SOUTH BRIDGE ROAD SINGAPORE 058805,29300.5184074435,29404.7167888936
257 SOUTH BRIDGE ROAD TELOK AYER CONSERVATION AREA SINGAPORE 058806,257,TELOK AYER CONSERVATION AREA,1.28216214965115,103.845456445972,103.845456445972,058806,SOUTH BRIDGE ROAD,TELOK AYER CONSERVATION AREA,29350.8451050418,29400.4992783107
258 SOUTH BRIDGE ROAD KRETA AYER CONSERVATION AREA SINGAPORE 058807,258,KRETA AYER CONSERVATION AREA,1.28215830373798,103.844980018388,103.844980018388,058807,SOUTH BRIDGE ROAD,KRETA AYER CONSERVATION AREA,29297.8226197418,29400.0737709962
259 SOUTH BRIDGE ROAD TELOK AYER CONSERVATION AREA SINGAPORE 058808,259,TELOK AYER CONSERVATION AREA,1.28212199366971,103.845434254971,103.845434254971,058808,SOUTH BRIDGE ROAD,TELOK AYER CONSERVATION AREA,29348.375449446,29396.0590256359
260 SOUTH BRIDGE ROAD KRETA AYER CONSERVATION AREA SINGAPORE 058809,260,KRETA AYER CONSERVATION AREA,1.28211553854128,103.844955160177,103.844955160177,058809,SOUTH BRIDGE ROAD,KRETA AYER CONSERVATION AREA,29295.0561260292,29395.3450038992
261 SOUTH BRIDGE ROAD TELOK AYER CONSERVATION AREA SINGAPORE 058810,261,TELOK AYER CONSERVATION AREA,1.28208413075221,103.845411502637,103.845411502637,058810,SOUTH BRIDGE ROAD,TELOK AYER CONSERVATION AREA,29345.8433207329,29391.8723278586
262 SOUTH BRIDGE ROAD KRETA AYER CONSERVATION AREA SINGAPORE 058811,262,KRETA AYER CONSERVATION AREA,1.2820742750401,103.844931092046,103.844931092046,058811,SOUTH BRIDGE ROAD,KRETA AYER CONSERVATION AREA,29292.3775608102,29390.7822869625
263 SOUTH BRIDGE ROAD TELOK AYER CONSERVATION AREA SINGAPORE 058812,263,TELOK AYER CONSERVATION AREA,1.28204431939194,103.845391059044,103.845391059044,058812,SOUTH BRIDGE ROAD,TELOK AYER CONSERVATION AREA,29343.5681369323,29387.4701825753
264 SOUTH BRIDGE ROAD KRETA AYER CONSERVATION AREA SINGAPORE 058813,264,KRETA AYER CONSERVATION AREA,1.28200145590172,103.844959960741,103.844959960741,058813,SOUTH BRIDGE ROAD,KRETA AYER CONSERVATION AREA,29295.590446746,29382.7303373981
265 SOUTH BRIDGE ROAD TELOK AYER CONSERVATION AREA SINGAPORE 058814,265,TELOK AYER CONSERVATION AREA,1.28200508698682,103.845368494907,103.845368494907,058814,SOUTH BRIDGE ROAD,TELOK AYER CONSERVATION AREA,29341.056953663,29383.1320540775
266 SOUTH BRIDGE ROAD KRETA AYER CONSERVATION AREA SINGAPORE 058815,266,KRETA AYER CONSERVATION AREA,1.28195830364133,103.844936184426,103.844936184426,058815,SOUTH BRIDGE ROAD,KRETA AYER CONSERVATION AREA,29292.9443590734,29377.9587713722
267 SOUTH BRIDGE ROAD TELOK AYER CONSERVATION AREA SINGAPORE 058816,267,TELOK AYER CONSERVATION AREA,1.28196680333591,103.845346831539,103.845346831539,058816,SOUTH BRIDGE ROAD,TELOK AYER CONSERVATION AREA,29338.6460179565,29378.8988344111
268 SOUTH BRIDGE ROAD KRETA AYER CONSERVATION AREA SINGAPORE 058817,268,KRETA AYER CONSERVATION AREA,1.2818436889531,103.844800727585,103.844800727585,058817,SOUTH BRIDGE ROAD,KRETA AYER CONSERVATION AREA,29277.8691779077,29365.2852033731
269 SOUTH BRIDGE ROAD TELOK AYER CONSERVATION AREA SINGAPORE 058818,269,TELOK AYER CONSERVATION AREA,1.28192549193357,103.845323099013,103.845323099013,058818,SOUTH BRIDGE ROAD,TELOK AYER CONSERVATION AREA,29336.0048034294,29374.3308205754
270 SOUTH BRIDGE ROAD KRETA AYER CONSERVATION AREA SINGAPORE 058819,270,KRETA AYER CONSERVATION AREA,1.2818104677059,103.844781265026,103.844781265026,058819,SOUTH BRIDGE ROAD,KRETA AYER CONSERVATION AREA,29275.7031707242,29361.6117597986
271 SOUTH BRIDGE ROAD TELOK AYER CONSERVATION AREA SINGAPORE 058820,271,TELOK AYER CONSERVATION AREA,1.2818816829894,103.845299681417,103.845299681417,058820,SOUTH BRIDGE ROAD,TELOK AYER CONSERVATION AREA,29333.3986392273,29369.4866416585
272 SOUTH BRIDGE ROAD KRETA AYER CONSERVATION AREA SINGAPORE 058821,272,KRETA AYER CONSERVATION AREA,1.28177474701398,103.844759191278,103.844759191278,058821,SOUTH BRIDGE ROAD,KRETA AYER CONSERVATION AREA,29273.2465606304,29357.6619392633
273 SOUTH BRIDGE ROAD TELOK AYER CONSERVATION AREA SINGAPORE 058822,273,TELOK AYER CONSERVATION AREA,1.28184250615775,103.845275720176,103.845275720176,058822,SOUTH BRIDGE ROAD,TELOK AYER CONSERVATION AREA,29330.7319693258,29365.1546575595
274 SOUTH BRIDGE ROAD KRETA AYER CONSERVATION AREA SINGAPORE 058823,274,KRETA AYER CONSERVATION AREA,1.28173626299078,103.844736268157,103.844736268157,058823,SOUTH BRIDGE ROAD,KRETA AYER CONSERVATION AREA,29270.6954236226,29353.4065634329
275 SOUTH BRIDGE ROAD TELOK AYER CONSERVATION AREA SINGAPORE 058824,275,TELOK AYER CONSERVATION AREA,1.28180068668175,103.845257209193,103.845257209193,058824,SOUTH BRIDGE ROAD,TELOK AYER CONSERVATION AREA,29328.6718698181,29360.5304663479
276 SOUTH BRIDGE ROAD KRETA AYER CONSERVATION AREA SINGAPORE 058825,276,KRETA AYER CONSERVATION AREA,1.28169781948263,103.84471272549,103.84471272549,058825,SOUTH BRIDGE ROAD,KRETA AYER CONSERVATION AREA,29268.075336148,29349.1556672622
277 SOUTH BRIDGE ROAD TELOK AYER CONSERVATION AREA SINGAPORE 058826,277,TELOK AYER CONSERVATION AREA,1.2817586931137,103.845238190715,103.845238190715,058826,SOUTH BRIDGE ROAD,TELOK AYER CONSERVATION AREA,29326.5552902529,29355.8870246969
278 SOUTH BRIDGE ROAD KRETA AYER CONSERVATION AREA SINGAPORE 058827,278,KRETA AYER CONSERVATION AREA,1.28165898453432,103.844689556237,103.844689556237,058827,SOUTH BRIDGE ROAD,KRETA AYER CONSERVATION AREA,29265.496806615,29344.8614878766
279 SOUTH BRIDGE ROAD TELOK AYER CONSERVATION AREA SINGAPORE 058828,279,TELOK AYER CONSERVATION AREA,1.28172689044971,103.845198309231,103.845198309231,058828,SOUTH BRIDGE ROAD,TELOK AYER CONSERVATION AREA,29322.1168233883,29352.3704298139
280 SOUTH BRIDGE ROAD KRETA AYER CONSERVATION AREA SINGAPORE 058829,280,KRETA AYER CONSERVATION AREA,1.28162344368341,103.844667645401,103.844667645401,058829,SOUTH BRIDGE ROAD,KRETA AYER CONSERVATION AREA,29263.0583270425,29340.9315534066
281 SOUTH BRIDGE ROAD SINGAPORE 058830,281,NIL,1.28167443867968,103.845170169121,103.845170169121,058830,SOUTH BRIDGE ROAD,281 SOUTH BRIDGE ROAD SINGAPORE 058830,29318.9850859167,29346.5705695767
282 SOUTH BRIDGE ROAD KRETA AYER CONSERVATION AREA SINGAPORE 058831,282,KRETA AYER CONSERVATION AREA,1.28158729897675,103.844645851239,103.844645851239,058831,SOUTH BRIDGE ROAD,KRETA AYER CONSERVATION AREA,29260.6328324359,29336.9348477647
283 SOUTH BRIDGE ROAD TELOK AYER CONSERVATION AREA SINGAPORE 058832,283,TELOK AYER CONSERVATION AREA,1.28156523549639,103.845139278596,103.845139278596,058832,SOUTH BRIDGE ROAD,TELOK AYER CONSERVATION AREA,29315.5472785942,29334.4954298846
285 SOUTH BRIDGE ROAD TELOK AYER CONSERVATION AREA SINGAPORE 058833,285,TELOK AYER CONSERVATION AREA,1.28152721984632,103.845113652097,103.845113652097,058833,SOUTH BRIDGE ROAD,TELOK AYER CONSERVATION AREA,29312.6952778287,29330.2918425743
287 SOUTH BRIDGE ROAD TELOK AYER CONSERVATION AREA SINGAPORE 058834,287,TELOK AYER CONSERVATION AREA,1.28148891456432,103.845092808724,103.845092808724,058834,SOUTH BRIDGE ROAD,TELOK AYER CONSERVATION AREA,29310.3756000921,29326.0562317371
289 SOUTH BRIDGE ROAD TELOK AYER CONSERVATION AREA SINGAPORE 058835,289,TELOK AYER CONSERVATION AREA,1.28145374463934,103.845067815928,103.845067815928,058835,SOUTH BRIDGE ROAD,TELOK AYER CONSERVATION AREA,29307.5941237286,29322.167310385
291 SOUTH BRIDGE ROAD SINGAPORE 058836,291,NIL,1.2814161951463,103.845044259393,103.845044259393,058836,SOUTH BRIDGE ROAD,291 SOUTH BRIDGE ROAD SINGAPORE 058836,29304.9724925868,29318.0152694508
293 SOUTH BRIDGE ROAD SINGAPORE 058837,293,NIL,1.28137937296727,103.845019483351,103.845019483351,058837,SOUTH BRIDGE ROAD,293 SOUTH BRIDGE ROAD SINGAPORE 058837,29302.2151398063,29313.9436505493
295 SOUTH BRIDGE ROAD TELOK AYER CONSERVATION AREA SINGAPORE 058838,295,TELOK AYER CONSERVATION AREA,1.28133942528406,103.844999127071,103.844999127071,058838,SOUTH BRIDGE ROAD,TELOK AYER CONSERVATION AREA,29299.9496720294,29309.5264318101
297 SOUTH BRIDGE ROAD TELOK AYER CONSERVATION AREA SINGAPORE 058839,297,TELOK AYER CONSERVATION AREA,1.28130032043661,103.844976154721,103.844976154721,058839,SOUTH BRIDGE ROAD,TELOK AYER CONSERVATION AREA,29297.3930565165,29305.2024081908
288 SOUTH BRIDGE ROAD BUDDHA TOOTH RELIC TEMPLE & MUSEUM SINGAPORE 058840,288,BUDDHA TOOTH RELIC TEMPLE & MUSEUM,1.28149438480275,103.844241653043,103.844241653043,058840,SOUTH BRIDGE ROAD,BUDDHA TOOTH RELIC TEMPLE & MUSEUM,29215.6489182506,29326.660683373
321 SOUTH BRIDGE ROAD SINGAPORE 058841,321,NIL,1.28093976700894,103.844783994998,103.844783994998,058841,SOUTH BRIDGE ROAD,321 SOUTH BRIDGE ROAD SINGAPORE 058841,29276.007424497,29265.3341767397
2 SMITH STREET KRETA AYER CONSERVATION AREA SINGAPORE 058917,2,KRETA AYER CONSERVATION AREA,1.28202349097139,103.84487597175,103.84487597175,058917,SMITH STREET,KRETA AYER CONSERVATION AREA,29286.2431485504,29385.1668192819
4 SMITH STREET KRETA AYER CONSERVATION AREA SINGAPORE 058918,4,KRETA AYER CONSERVATION AREA,1.28204887005144,103.844832594625,103.844832594625,058918,SMITH STREET,KRETA AYER CONSERVATION AREA,29281.4156170236,29387.973085124
5 SMITH STREET SINGAPORE 058919,5,NIL,1.28189076985728,103.844635323814,103.844635323814,058919,SMITH STREET,5 SMITH STREET SINGAPORE 058919,29259.461067982,29370.4910846967
7 SMITH STREET SINGAPORE 058921,7,NIL,1.28191267088174,103.844591879225,103.844591879225,058921,SMITH STREET,7 SMITH STREET SINGAPORE 058921,29254.6260299953,29372.9127655383
8 SMITH STREET KRETA AYER CONSERVATION AREA SINGAPORE 058922,8,KRETA AYER CONSERVATION AREA,1.28213430608366,103.844744476599,103.844744476599,058922,SMITH STREET,KRETA AYER CONSERVATION AREA,29271.6087600309,29397.4201163277
9 SMITH STREET SINGAPORE 058923,9,NIL,1.28193729445959,103.844547191746,103.844547191746,058923,SMITH STREET,9 SMITH STREET SINGAPORE 058923,29249.6526673222,29375.6354917455
11 SMITH STREET SINGAPORE 058925,11,NIL,1.28196129856974,103.844504579664,103.844504579664,058925,SMITH STREET,11 SMITH STREET SINGAPORE 058925,29244.9102796335,29378.2897215057
12 SMITH STREET KRETA AYER CONSERVATION AREA SINGAPORE 058926,12,KRETA AYER CONSERVATION AREA,1.28217231691456,103.844685655463,103.844685655463,058926,SMITH STREET,KRETA AYER CONSERVATION AREA,29265.0624307804,29401.6231285464
13 SMITH STREET SINGAPORE 058927,13,NIL,1.28198632699111,103.844461286029,103.844461286029,058927,SMITH STREET,13 SMITH STREET SINGAPORE 058927,29240.0920403777,29381.0572140608
14 SMITH STREET KRETA AYER CONSERVATION AREA SINGAPORE 058928,14,KRETA AYER CONSERVATION AREA,1.28219639602551,103.844644021925,103.844644021925,058928,SMITH STREET,KRETA AYER CONSERVATION AREA,29260.4289472979,29404.2856517341
15 SMITH STREET SINGAPORE 058929,15,NIL,1.28201047289351,103.844418674762,103.844418674762,058929,SMITH STREET,15 SMITH STREET SINGAPORE 058929,29235.3497434929,29383.7271226365
16 SMITH STREET KRETA AYER CONSERVATION AREA SINGAPORE 058930,16,KRETA AYER CONSERVATION AREA,1.28221996955182,103.844602170536,103.844602170536,058930,SMITH STREET,KRETA AYER CONSERVATION AREA,29255.7712191595,29406.8922699559
17 SMITH STREET SINGAPORE 058931,17,NIL,1.2820335671045,103.844378007255,103.844378007255,058931,SMITH STREET,17 SMITH STREET SINGAPORE 058931,29230.8237718875,29386.2807416189
18 SMITH STREET KRETA AYER CONSERVATION AREA SINGAPORE 058932,18,KRETA AYER CONSERVATION AREA,1.28224409957882,103.844559837762,103.844559837762,058932,SMITH STREET,KRETA AYER CONSERVATION AREA,29251.0599166891,29409.5604229886
19 SMITH STREET SINGAPORE 058933,19,NIL,1.28205644588881,103.844336905683,103.844336905683,058933,SMITH STREET,19 SMITH STREET SINGAPORE 058933,29226.2494925801,29388.8105396982
20 SMITH STREET KRETA AYER CONSERVATION AREA SINGAPORE 058934,20,KRETA AYER CONSERVATION AREA,1.28226848992873,103.844516705127,103.844516705127,058934,SMITH STREET,KRETA AYER CONSERVATION AREA,29246.2595960796,29412.2573608737
21 SMITH STREET SINGAPORE 058935,21,NIL,1.28207914510169,103.844296246061,103.844296246061,058935,SMITH STREET,21 SMITH STREET SINGAPORE 058935,29221.7243987462,29391.3204819802
22 SMITH STREET KRETA AYER CONSERVATION AREA SINGAPORE 058936,22,KRETA AYER CONSERVATION AREA,1.28229391416952,103.844473123745,103.844473123745,058936,SMITH STREET,KRETA AYER CONSERVATION AREA,29241.4093332971,29415.0686209332
23 SMITH STREET SINGAPORE 058937,23,NIL,1.2821017783429,103.844255907089,103.844255907089,058937,SMITH STREET,23 SMITH STREET SINGAPORE 058937,29217.2349908659,29393.8231296781
24 SMITH STREET KRETA AYER CONSERVATION AREA SINGAPORE 058938,24,KRETA AYER CONSERVATION AREA,1.28231823005137,103.844432566116,103.844432566116,058938,SMITH STREET,KRETA AYER CONSERVATION AREA,29236.895589957,29417.7573259268
25 SMITH STREET SINGAPORE 058939,25,NIL,1.28212419068046,103.844215671736,103.844215671736,058939,SMITH STREET,25 SMITH STREET SINGAPORE 058939,29212.7571150865,29396.3013511132
26 SMITH STREET KRETA AYER CONSERVATION AREA SINGAPORE 058940,26,KRETA AYER CONSERVATION AREA,1.28233974838384,103.844391365809,103.844391365809,058940,SMITH STREET,KRETA AYER CONSERVATION AREA,29232.3103233716,29420.1366921272
27 SMITH STREET SINGAPORE 058941,27,NIL,1.28214671168889,103.844175557138,103.844175557138,058941,SMITH STREET,27 SMITH STREET SINGAPORE 058941,29208.2926782919,29398.7915889379
28 SMITH STREET KRETA AYER CONSERVATION AREA SINGAPORE 058942,28,KRETA AYER CONSERVATION AREA,1.28236607676016,103.84434836182,103.84434836182,058942,SMITH STREET,KRETA AYER CONSERVATION AREA,29227.5243195184,29423.0479273368
29 SMITH STREET SINGAPORE 058943,29,NIL,1.28216956637917,103.844134991343,103.844134991343,058943,SMITH STREET,29 SMITH STREET SINGAPORE 058943,29203.7780269133,29401.3187234346
30 SMITH STREET KRETA AYER CONSERVATION AREA SINGAPORE 058944,30,KRETA AYER CONSERVATION AREA,1.28238983286749,103.844305136436,103.844305136436,058944,SMITH STREET,KRETA AYER CONSERVATION AREA,29222.7136775265,29425.6747343037
31 SMITH STREET HOMETEAMNS CHINATOWN SINGAPORE 058945,31,HOMETEAMNS CHINATOWN,1.28220135184642,103.844102942311,103.844102942311,058945,SMITH STREET,HOMETEAMNS CHINATOWN,29200.2112174435,29404.8333811667
33 SMITH STREET HOMETEAMNS CHINATOWN SINGAPORE 058946,33,HOMETEAMNS CHINATOWN,1.28222240863834,103.844066806074,103.844066806074,058946,SMITH STREET,HOMETEAMNS CHINATOWN,29196.189540715,29407.1617155466
35 SMITH STREET HOMETEAMNS CHINATOWN SINGAPORE 058948,35,HOMETEAMNS CHINATOWN,1.28223389438651,103.844023062265,103.844023062265,058948,SMITH STREET,HOMETEAMNS CHINATOWN,29191.3212079462,29408.4317298755
37 SMITH STREET KRETA AYER CONSERVATION AREA SINGAPORE 058950,37,KRETA AYER CONSERVATION AREA,1.28230090692306,103.843902877557,103.843902877557,058950,SMITH STREET,KRETA AYER CONSERVATION AREA,29177.9456043337,29415.8415744323
42 SMITH STREET KRETA AYER CONSERVATION AREA SINGAPORE 058954,42,KRETA AYER CONSERVATION AREA,1.28273877798526,103.843690681042,103.843690681042,058954,SMITH STREET,KRETA AYER CONSERVATION AREA,29154.3296759333,29464.2589978874
44 SMITH STREET KRETA AYER CONSERVATION AREA SINGAPORE 058955,44,KRETA AYER CONSERVATION AREA,1.28275916685998,103.843655221452,103.843655221452,058955,SMITH STREET,KRETA AYER CONSERVATION AREA,29150.3833059482,29466.5134783853
46 SMITH STREET KRETA AYER CONSERVATION AREA SINGAPORE 058956,46,KRETA AYER CONSERVATION AREA,1.28277814163277,103.843618938605,103.843618938605,058956,SMITH STREET,KRETA AYER CONSERVATION AREA,29146.3453147765,29468.6115944814
48 SMITH STREET KRETA AYER CONSERVATION AREA SINGAPORE 058957,48,KRETA AYER CONSERVATION AREA,1.28280050029929,103.843581015522,103.843581015522,058957,SMITH STREET,KRETA AYER CONSERVATION AREA,29142.1247773953,29471.0838833917
50 SMITH STREET KRETA AYER CONSERVATION AREA SINGAPORE 058958,50,KRETA AYER CONSERVATION AREA,1.28282388739817,103.843538623437,103.843538623437,058958,SMITH STREET,KRETA AYER CONSERVATION AREA,29137.4068765054,29473.6698891167
52 SMITH STREET KRETA AYER CONSERVATION AREA SINGAPORE 058959,52,KRETA AYER CONSERVATION AREA,1.28284767195445,103.843496790794,103.843496790794,058959,SMITH STREET,KRETA AYER CONSERVATION AREA,29132.7512368578,29476.2998439539
54 SMITH STREET KRETA AYER CONSERVATION AREA SINGAPORE 058960,54,KRETA AYER CONSERVATION AREA,1.2828713385328,103.843454529526,103.843454529526,058960,SMITH STREET,KRETA AYER CONSERVATION AREA,29128.0478948681,29478.9167532902
56 SMITH STREET KRETA AYER CONSERVATION AREA SINGAPORE 058961,56,KRETA AYER CONSERVATION AREA,1.28289550275657,103.843412399893,103.843412399893,058961,SMITH STREET,KRETA AYER CONSERVATION AREA,29123.3592025824,29481.5886898208
58 SMITH STREET KRETA AYER CONSERVATION AREA SINGAPORE 058962,58,KRETA AYER CONSERVATION AREA,1.28291957993244,103.843370297183,103.843370297183,058962,SMITH STREET,KRETA AYER CONSERVATION AREA,29118.6735068271,29484.2510011327
60 SMITH STREET KRETA AYER CONSERVATION AREA SINGAPORE 058963,60,KRETA AYER CONSERVATION AREA,1.28294362945788,103.8433288831,103.8433288831,058963,SMITH STREET,KRETA AYER CONSERVATION AREA,29114.0644496065,29486.9102553781
62 SMITH STREET KRETA AYER CONSERVATION AREA SINGAPORE 058964,62,KRETA AYER CONSERVATION AREA,1.28296799131068,103.843287812786,103.843287812786,058964,SMITH STREET,KRETA AYER CONSERVATION AREA,29109.4936511172,29489.6040453929
64 SMITH STREET YES CHINATOWN POINT HOTEL SINGAPORE 058965,64,YES CHINATOWN POINT HOTEL,1.28299220753906,103.843246174055,103.843246174055,058965,SMITH STREET,YES CHINATOWN POINT HOTEL,29104.8595925421,29492.2817328405
66 SMITH STREET YES CHINATOWN POINT HOTEL SINGAPORE 058966,66,YES CHINATOWN POINT HOTEL,1.28302084208591,103.84320596862,103.84320596862,058966,SMITH STREET,YES CHINATOWN POINT HOTEL,29100.3850462409,29495.4479758125
68 SMITH STREET YES CHINATOWN POINT HOTEL SINGAPORE 058967,68,YES CHINATOWN POINT HOTEL,1.28303983412918,103.843161491048,103.843161491048,058967,SMITH STREET,YES CHINATOWN POINT HOTEL,29095.4350504521,29497.5479987916
70 SMITH STREET KRETA AYER CONSERVATION AREA SINGAPORE 058968,70,KRETA AYER CONSERVATION AREA,1.28306606365267,103.843122248103,103.843122248103,058968,SMITH STREET,KRETA AYER CONSERVATION AREA,29091.0676225452,29500.448307259
72 SMITH STREET KRETA AYER CONSERVATION AREA SINGAPORE 058969,72,KRETA AYER CONSERVATION AREA,1.28309039595152,103.84307790463,103.84307790463,058969,SMITH STREET,KRETA AYER CONSERVATION AREA,29086.1325488724,29503.1388283316
76 SMITH STREET SINGAPORE 058971,76,NIL,1.28316218845863,103.843006355667,103.843006355667,058971,SMITH STREET,76 SMITH STREET SINGAPORE 058971,29078.169708252,29511.0772426892
78 SMITH STREET SINGAPORE 058972,78,NIL,1.28318669019071,103.842963462607,103.842963462607,058972,SMITH STREET,78 SMITH STREET SINGAPORE 058972,29073.3960537361,29513.7864996437
6 SAGO STREET KRETA AYER CONSERVATION AREA SINGAPORE 059011,6,KRETA AYER CONSERVATION AREA,1.2817085583132,103.844525221054,103.844525221054,059011,SAGO STREET,KRETA AYER CONSERVATION AREA,29247.2076195981,29350.3430197276
8 SAGO STREET KRETA AYER CONSERVATION AREA SINGAPORE 059012,8,KRETA AYER CONSERVATION AREA,1.28173526142467,103.844483962579,103.844483962579,059012,SAGO STREET,KRETA AYER CONSERVATION AREA,29242.6158756642,29353.2956918068
10 SAGO STREET KRETA AYER CONSERVATION AREA SINGAPORE 059013,10,KRETA AYER CONSERVATION AREA,1.28175761301905,103.844438703413,103.844438703413,059013,SAGO STREET,KRETA AYER CONSERVATION AREA,29237.5788896894,29355.7671937495
12 SAGO STREET KRETA AYER CONSERVATION AREA SINGAPORE 059014,12,KRETA AYER CONSERVATION AREA,1.28178174796728,103.844397124273,103.844397124273,059014,SAGO STREET,KRETA AYER CONSERVATION AREA,29232.9514598027,29358.4358916059
14 SAGO STREET KRETA AYER CONSERVATION AREA SINGAPORE 059015,14,KRETA AYER CONSERVATION AREA,1.28180600144133,103.844355525008,103.844355525008,059015,SAGO STREET,KRETA AYER CONSERVATION AREA,29228.3217900852,29361.1176954992
16 SAGO STREET KRETA AYER CONSERVATION AREA SINGAPORE 059016,16,KRETA AYER CONSERVATION AREA,1.28182856078376,103.844313287965,103.844313287965,059016,SAGO STREET,KRETA AYER CONSERVATION AREA,29223.6211419459,29363.6121708415
18 SAGO STREET KRETA AYER CONSERVATION AREA SINGAPORE 059017,18,KRETA AYER CONSERVATION AREA,1.28185272118758,103.844271599491,103.844271599491,059017,SAGO STREET,KRETA AYER CONSERVATION AREA,29218.9815443298,29366.2836836204
20 SAGO STREET KRETA AYER CONSERVATION AREA SINGAPORE 059018,20,KRETA AYER CONSERVATION AREA,1.28187569194575,103.844230204739,103.844230204739,059018,SAGO STREET,KRETA AYER CONSERVATION AREA,29214.374636136,29368.8236517422
22 SAGO STREET KRETA AYER CONSERVATION AREA SINGAPORE 059019,22,KRETA AYER CONSERVATION AREA,1.28189850776522,103.844190008011,103.844190008011,059019,SAGO STREET,KRETA AYER CONSERVATION AREA,29209.9010584112,29371.3464881852
24 SAGO STREET KRETA AYER CONSERVATION AREA SINGAPORE 059020,24,KRETA AYER CONSERVATION AREA,1.28192062967265,103.844149393806,103.844149393806,059020,SAGO STREET,KRETA AYER CONSERVATION AREA,29205.3810193306,29373.7925952896
26 SAGO STREET KRETA AYER CONSERVATION AREA SINGAPORE 059021,26,KRETA AYER CONSERVATION AREA,1.28194311427545,103.844108829644,103.844108829644,059021,SAGO STREET,KRETA AYER CONSERVATION AREA,29200.8665495589,29376.2788074724
28 SAGO STREET KRETA AYER CONSERVATION AREA SINGAPORE 059022,28,KRETA AYER CONSERVATION AREA,1.28196519484637,103.844068573077,103.844068573077,059022,SAGO STREET,KRETA AYER CONSERVATION AREA,29196.3863128768,29378.7203441113
30 SAGO STREET KRETA AYER CONSERVATION AREA SINGAPORE 059024,30,KRETA AYER CONSERVATION AREA,1.28198816586911,103.844028569989,103.844028569989,059024,SAGO STREET,KRETA AYER CONSERVATION AREA,29191.9342859564,29381.2603424992
32 SAGO STREET KRETA AYER CONSERVATION AREA SINGAPORE 059025,32,KRETA AYER CONSERVATION AREA,1.28200503238572,103.843985064995,103.843985064995,059025,SAGO STREET,KRETA AYER CONSERVATION AREA,29187.0925284773,29383.1253345851
34 SAGO STREET KRETA AYER CONSERVATION AREA SINGAPORE 059026,34,KRETA AYER CONSERVATION AREA,1.28202066713125,103.843934766469,103.843934766469,059026,SAGO STREET,KRETA AYER CONSERVATION AREA,29181.4947070321,29384.8541207425
36 SAGO STREET KRETA AYER CONSERVATION AREA SINGAPORE 059027,36,KRETA AYER CONSERVATION AREA,1.28204521432919,103.843889335961,103.843889335961,059027,SAGO STREET,KRETA AYER CONSERVATION AREA,29176.4386522286,29387.5684021823
38 SAGO STREET KRETA AYER CONSERVATION AREA SINGAPORE 059028,38,KRETA AYER CONSERVATION AREA,1.28206933832827,103.843845551954,103.843845551954,059028,SAGO STREET,KRETA AYER CONSERVATION AREA,29171.5658397973,29390.2358893193
40 SAGO STREET KRETA AYER CONSERVATION AREA SINGAPORE 059029,40,KRETA AYER CONSERVATION AREA,1.28210017510686,103.84379562119,103.84379562119,059029,SAGO STREET,KRETA AYER CONSERVATION AREA,29166.0089406669,29393.6456382219
1 PARK ROAD OCBC PEOPLE'S PARK COMPLEX SINGAPORE 059108,1,OCBC PEOPLE'S PARK COMPLEX,1.28404487854559,103.842590753293,103.842590753293,059108,PARK ROAD,OCBC PEOPLE'S PARK COMPLEX,29031.9162337584,29608.6803818271
24 PAGODA STREET KRETA AYER CONSERVATION AREA SINGAPORE 059186,24,KRETA AYER CONSERVATION AREA,1.28322753014343,103.844912598405,103.844912598405,059186,PAGODA STREET,KRETA AYER CONSERVATION AREA,29290.3187930938,29518.3032697812
26 PAGODA STREET KRETA AYER CONSERVATION AREA SINGAPORE 059187,26,KRETA AYER CONSERVATION AREA,1.2832630967971,103.844857938644,103.844857938644,059187,PAGODA STREET,KRETA AYER CONSERVATION AREA,29284.2355942624,29522.2360191736
28 PAGODA STREET KRETA AYER CONSERVATION AREA SINGAPORE 059188,28,KRETA AYER CONSERVATION AREA,1.28328904306585,103.844811405292,103.844811405292,059188,PAGODA STREET,KRETA AYER CONSERVATION AREA,29279.0568027841,29525.105000278
30 PAGODA STREET KRETA AYER CONSERVATION AREA SINGAPORE 059189,30,KRETA AYER CONSERVATION AREA,1.28332721157789,103.844750479902,103.844750479902,059189,PAGODA STREET,KRETA AYER CONSERVATION AREA,29272.2762901438,29529.3254468571
31 PAGODA STREET KRETA AYER CONSERVATION AREA SINGAPORE 059190,31,KRETA AYER CONSERVATION AREA,1.28294764961059,103.844794959942,103.844794959942,059190,PAGODA STREET,KRETA AYER CONSERVATION AREA,29277.2267399533,29487.35546715
32 PAGODA STREET PAGODA VIEW SINGAPORE 059191,32,PAGODA VIEW,1.28335259412987,103.844664714919,103.844664714919,059191,PAGODA STREET,PAGODA VIEW,29262.7313420149,29532.1320759151
33 PAGODA STREET KRETA AYER CONSERVATION AREA SINGAPORE 059192,33,KRETA AYER CONSERVATION AREA,1.28297245904772,103.844752268978,103.844752268978,059192,PAGODA STREET,KRETA AYER CONSERVATION AREA,29272.4755745493,29490.0987453181
34 PAGODA STREET PAGODA VIEW SINGAPORE 059193,34,PAGODA VIEW,1.28342672550032,103.844644866354,103.844644866354,059193,PAGODA STREET,PAGODA VIEW,29260.5223240275,29540.3291301932
35 PAGODA STREET KRETA AYER CONSERVATION AREA SINGAPORE 059194,35,KRETA AYER CONSERVATION AREA,1.28299794049795,103.844709747181,103.844709747181,059194,PAGODA STREET,KRETA AYER CONSERVATION AREA,29267.7432358311,29492.9163313862
36 PAGODA STREET KRETA AYER CONSERVATION AREA SINGAPORE 059195,36,KRETA AYER CONSERVATION AREA,1.28344466367907,103.84460432391,103.84460432391,059195,PAGODA STREET,KRETA AYER CONSERVATION AREA,29256.0102756945,29542.3126214333
37 PAGODA STREET KRETA AYER CONSERVATION AREA SINGAPORE 059196,37,KRETA AYER CONSERVATION AREA,1.28302423604714,103.844663258709,103.844663258709,059196,PAGODA STREET,KRETA AYER CONSERVATION AREA,29262.5694385702,29495.8239344377
38 PAGODA STREET KRETA AYER CONSERVATION AREA SINGAPORE 059197,38,KRETA AYER CONSERVATION AREA,1.2834664127391,103.844570390347,103.844570390347,059197,PAGODA STREET,KRETA AYER CONSERVATION AREA,29252.2337393658,29544.7175035439
39 PAGODA STREET KRETA AYER CONSERVATION AREA SINGAPORE 059198,39,KRETA AYER CONSERVATION AREA,1.28305045850364,103.84461793617,103.84461793617,059198,PAGODA STREET,KRETA AYER CONSERVATION AREA,29257.5254001552,29498.7234559394
40 PAGODA STREET KRETA AYER CONSERVATION AREA SINGAPORE 059199,40,KRETA AYER CONSERVATION AREA,1.28348605433721,103.844534403402,103.844534403402,059199,PAGODA STREET,KRETA AYER CONSERVATION AREA,29248.2286797604,29546.8893524483
41 PAGODA STREET KRETA AYER CONSERVATION AREA SINGAPORE 059200,41,KRETA AYER CONSERVATION AREA,1.28307609021826,103.84457830704,103.84457830704,059200,PAGODA STREET,KRETA AYER CONSERVATION AREA,29253.1149917124,29501.5576591305
42 PAGODA STREET KRETA AYER CONSERVATION AREA SINGAPORE 059201,42,KRETA AYER CONSERVATION AREA,1.28350950548173,103.844497401754,103.844497401754,059201,PAGODA STREET,KRETA AYER CONSERVATION AREA,29244.1106903078,29549.4824408814
44 PAGODA STREET KRETA AYER CONSERVATION AREA SINGAPORE 059203,44,KRETA AYER CONSERVATION AREA,1.28353312060002,103.844458519164,103.844458519164,059203,PAGODA STREET,KRETA AYER CONSERVATION AREA,29239.7833674802,29552.0936598368
45 PAGODA STREET PAGODA HOUSE SINGAPORE 059204,45,PAGODA HOUSE,1.28315702756681,103.844523416028,103.844523416028,059204,PAGODA STREET,PAGODA HOUSE,29247.0060348259,29510.5072662868
46 PAGODA STREET CHINATOWN HERITAGE CENTRE SINGAPORE 059205,46,CHINATOWN HERITAGE CENTRE,1.283530619147,103.844414325437,103.844414325437,059205,PAGODA STREET,CHINATOWN HERITAGE CENTRE,29234.8649714654,29551.8170407321
47 PAGODA STREET PAGODA HOUSE SINGAPORE 059206,47,PAGODA HOUSE,1.28317921871845,103.844486330069,103.844486330069,059206,PAGODA STREET,PAGODA HOUSE,29242.8786622984,29512.9610311911
48 PAGODA STREET CHINATOWN HERITAGE CENTRE SINGAPORE 059207,48,CHINATOWN HERITAGE CENTRE,1.28357839420406,103.844377785424,103.844377785424,059207,PAGODA STREET,CHINATOWN HERITAGE CENTRE,29230.7983467812,29557.0997421984
49 PAGODA STREET PAGODA HOUSE SINGAPORE 059208,49,PAGODA HOUSE,1.2832059702608,103.844449450826,103.844449450826,059208,PAGODA STREET,PAGODA HOUSE,29238.7742934385,29515.9190607034
50 PAGODA STREET CHINATOWN HERITAGE CENTRE SINGAPORE 059209,50,CHINATOWN HERITAGE CENTRE,1.28360064203251,103.844336957699,103.844336957699,059209,PAGODA STREET,CHINATOWN HERITAGE CENTRE,29226.2545473333,29559.5597725753
51 PAGODA STREET PAGODA HOUSE SINGAPORE 059210,51,PAGODA HOUSE,1.28322710152637,103.844410241866,103.844410241866,059210,PAGODA STREET,PAGODA HOUSE,29234.4106490305,29518.2556279749
52 PAGODA STREET SINGAPORE 059211,52,NIL,1.28362577556055,103.844294568063,103.844294568063,059211,PAGODA STREET,52 PAGODA STREET SINGAPORE 059211,29221.5369188553,29562.3388880361
54 PAGODA STREET KRETA AYER CONSERVATION AREA SINGAPORE 059213,54,KRETA AYER CONSERVATION AREA,1.28366414049653,103.844257864009,103.844257864009,059213,PAGODA STREET,KRETA AYER CONSERVATION AREA,29217.4520425769,29566.5810670257
55 PAGODA STREET KRETA AYER CONSERVATION AREA SINGAPORE 059214,55,KRETA AYER CONSERVATION AREA,1.28335582485951,103.844066597029,103.844066597029,059214,PAGODA STREET,KRETA AYER CONSERVATION AREA,29196.1657500798,29532.4890262466
56 PAGODA STREET KRETA AYER CONSERVATION AREA SINGAPORE 059215,56,KRETA AYER CONSERVATION AREA,1.28368891215274,103.844214415048,103.844214415048,059215,PAGODA STREET,KRETA AYER CONSERVATION AREA,29212.6165203024,29569.3201682139
57 PAGODA STREET KRETA AYER CONSERVATION AREA SINGAPORE 059216,57,KRETA AYER CONSERVATION AREA,1.28337830043632,103.844023997967,103.844023997967,059216,PAGODA STREET,KRETA AYER CONSERVATION AREA,29191.4248152543,29534.9742395859
58 PAGODA STREET KRETA AYER CONSERVATION AREA SINGAPORE 059217,58,KRETA AYER CONSERVATION AREA,1.28371308926515,103.844169778392,103.844169778392,059217,PAGODA STREET,KRETA AYER CONSERVATION AREA,29207.6488177422,29571.9935273398
59 PAGODA STREET KRETA AYER CONSERVATION AREA SINGAPORE 059218,59,KRETA AYER CONSERVATION AREA,1.28340251037459,103.843983847182,103.843983847182,059218,PAGODA STREET,KRETA AYER CONSERVATION AREA,29186.9563528178,29537.6512308698
60 PAGODA STREET KRETA AYER CONSERVATION AREA SINGAPORE 059219,60,KRETA AYER CONSERVATION AREA,1.28373841084237,103.844128006124,103.844128006124,059219,PAGODA STREET,KRETA AYER CONSERVATION AREA,29202.9998975871,29574.7934369054
61 PAGODA STREET SINGAPORE 059220,61,NIL,1.28342584491563,103.843943307205,103.843943307205,059220,PAGODA STREET,61 PAGODA STREET SINGAPORE 059220,29182.4445768977,29540.2314251419
62 PAGODA STREET KRETA AYER CONSERVATION AREA SINGAPORE 059221,62,KRETA AYER CONSERVATION AREA,1.28376227780132,103.844086310818,103.844086310818,059221,PAGODA STREET,KRETA AYER CONSERVATION AREA,29198.3595432714,29577.4325024057
63 PAGODA STREET SINGAPORE 059222,63,NIL,1.28344954570777,103.843903501546,103.843903501546,059222,PAGODA STREET,63 PAGODA STREET SINGAPORE 059222,29178.0145245325,29542.8521179762
64 PAGODA STREET KRETA AYER CONSERVATION AREA SINGAPORE 059223,64,KRETA AYER CONSERVATION AREA,1.28377140535299,103.844039463254,103.844039463254,059223,PAGODA STREET,KRETA AYER CONSERVATION AREA,29193.1457922729,29578.4417580534
65 PAGODA STREET KRETA AYER CONSERVATION AREA SINGAPORE 059224,65,KRETA AYER CONSERVATION AREA,1.28347309650026,103.843862087457,103.843862087457,059224,PAGODA STREET,KRETA AYER CONSERVATION AREA,29173.4054673119,29545.4562239554
66 PAGODA STREET KRETA AYER CONSERVATION AREA SINGAPORE 059225,66,KRETA AYER CONSERVATION AREA,1.28379581100328,103.844001055246,103.844001055246,059225,PAGODA STREET,KRETA AYER CONSERVATION AREA,29188.8712870758,29581.1403909456
67 PAGODA STREET KRETA AYER CONSERVATION AREA SINGAPORE 059226,67,KRETA AYER CONSERVATION AREA,1.28349810328378,103.843819278713,103.843819278713,059226,PAGODA STREET,KRETA AYER CONSERVATION AREA,29168.6411958709,29548.2213253397
68 PAGODA STREET KRETA AYER CONSERVATION AREA SINGAPORE 059227,68,KRETA AYER CONSERVATION AREA,1.28381917812692,103.843958576119,103.843958576119,059227,PAGODA STREET,KRETA AYER CONSERVATION AREA,29184.1437004311,29583.7241871078
69 PAGODA STREET KRETA AYER CONSERVATION AREA SINGAPORE 059228,69,KRETA AYER CONSERVATION AREA,1.28352167788392,103.843779256835,103.843779256835,059228,PAGODA STREET,KRETA AYER CONSERVATION AREA,29164.1870804587,29550.8280646335
70 PAGODA STREET KRETA AYER CONSERVATION AREA SINGAPORE 059229,70,KRETA AYER CONSERVATION AREA,1.28384308805208,103.843918579804,103.843918579804,059229,PAGODA STREET,KRETA AYER CONSERVATION AREA,29179.6924302094,29586.3680046815
71 PAGODA STREET KRETA AYER CONSERVATION AREA SINGAPORE 059230,71,KRETA AYER CONSERVATION AREA,1.28354277299468,103.843742913609,103.843742913609,059230,PAGODA STREET,KRETA AYER CONSERVATION AREA,29160.1423697947,29553.1606365293
72 PAGODA STREET KRETA AYER CONSERVATION AREA SINGAPORE 059231,72,KRETA AYER CONSERVATION AREA,1.28386521296091,103.843879235121,103.843879235121,059231,PAGODA STREET,KRETA AYER CONSERVATION AREA,29175.3136820775,29588.8144447338
73 PAGODA STREET SINGAPORE 059232,73,NIL,1.28356354564039,103.843708291134,103.843708291134,059232,PAGODA STREET,73 PAGODA STREET SINGAPORE 059232,29156.2891646633,29555.4575527422
74 PAGODA STREET KRETA AYER CONSERVATION AREA SINGAPORE 059233,74,KRETA AYER CONSERVATION AREA,1.28388651968319,103.843839386202,103.843839386202,059233,PAGODA STREET,KRETA AYER CONSERVATION AREA,29170.8788171029,29591.1704137828
75 PAGODA STREET KRETA AYER CONSERVATION AREA SINGAPORE 059234,75,KRETA AYER CONSERVATION AREA,1.28358426709302,103.843674788085,103.843674788085,059234,PAGODA STREET,KRETA AYER CONSERVATION AREA,29152.5605425537,29557.7488088422
76 PAGODA STREET KRETA AYER CONSERVATION AREA SINGAPORE 059235,76,KRETA AYER CONSERVATION AREA,1.28391012247602,103.843799879429,103.843799879429,059235,PAGODA STREET,KRETA AYER CONSERVATION AREA,29166.4820292527,29593.7802706789
77 PAGODA STREET SINGAPORE 059236,77,NIL,1.28360296620898,103.843640451984,103.843640451984,059236,PAGODA STREET,77 PAGODA STREET SINGAPORE 059236,29148.7392096091,29559.8164450768
78 PAGODA STREET KRETA AYER CONSERVATION AREA SINGAPORE 059237,78,KRETA AYER CONSERVATION AREA,1.283924177755,103.843755304733,103.843755304733,059237,PAGODA STREET,KRETA AYER CONSERVATION AREA,29161.5212277928,29595.3344105706
79 PAGODA STREET KRETA AYER CONSERVATION AREA SINGAPORE 059238,79,KRETA AYER CONSERVATION AREA,1.2836405701335,103.843609755185,103.843609755185,059238,PAGODA STREET,KRETA AYER CONSERVATION AREA,29145.322892555,29563.9744790718
80 PAGODA STREET KRETA AYER CONSERVATION AREA SINGAPORE 059239,80,KRETA AYER CONSERVATION AREA,1.28395728918253,103.843722638037,103.843722638037,059239,PAGODA STREET,KRETA AYER CONSERVATION AREA,29157.885679733,29598.9956864174
81 PAGODA STREET KRETA AYER CONSERVATION AREA SINGAPORE 059240,81,KRETA AYER CONSERVATION AREA,1.28366544659687,103.843571659126,103.843571659126,059240,PAGODA STREET,KRETA AYER CONSERVATION AREA,29141.0831047362,29566.7251728978
82 PAGODA STREET KRETA AYER CONSERVATION AREA SINGAPORE 059241,82,KRETA AYER CONSERVATION AREA,1.28393981295835,103.843658719093,103.843658719093,059241,PAGODA STREET,KRETA AYER CONSERVATION AREA,29150.7720376635,29597.063226996
83 PAGODA STREET SINGAPORE 059242,83,NIL,1.28367829747889,103.843519019982,103.843519019982,059242,PAGODA STREET,83 PAGODA STREET SINGAPORE 059242,29135.2247970235,29568.1461336613
84 PAGODA STREET KRETA AYER CONSERVATION AREA SINGAPORE 059243,84,KRETA AYER CONSERVATION AREA,1.28396249489094,103.843624044129,103.843624044129,059243,PAGODA STREET,KRETA AYER CONSERVATION AREA,29146.9129908113,29599.571262395
55 NORTH CANAL ROAD KRETA AYER NEIGHBOURHOOD POLICE POST SINGAPORE 059282,55,KRETA AYER NEIGHBOURHOOD POLICE POST,1.28652745610352,103.84710874695,103.84710874695,059282,NORTH CANAL ROAD,KRETA AYER NEIGHBOURHOOD POLICE POST,29534.7300677607,29883.1932571046
28 NORTH CANAL ROAD POH HENG BUILDING SINGAPORE 059284,28,POH HENG BUILDING,1.28688875982406,103.847513227104,103.847513227104,059284,NORTH CANAL ROAD,POH HENG BUILDING,29579.7450974332,29923.1446044408
30 NORTH CANAL ROAD SINGAPORE 059286,30,NIL,1.28692267172304,103.847426285535,103.847426285535,059286,NORTH CANAL ROAD,30 NORTH CANAL ROAD SINGAPORE 059286,29570.0692100059,29926.8943536039
31 NORTH CANAL ROAD SINGAPORE 059287,31,NIL,1.28694542547598,103.847382361679,103.847382361679,059287,NORTH CANAL ROAD,31 NORTH CANAL ROAD SINGAPORE 059287,29565.1808398319,29929.4103192147
32 NORTH CANAL ROAD SINGAPORE 059288,32,NIL,1.28696780968855,103.847338442716,103.847338442716,059288,NORTH CANAL ROAD,32 NORTH CANAL ROAD SINGAPORE 059288,29560.2930144807,29931.8854230456
33 NORTH CANAL ROAD SINGAPORE 059289,33,NIL,1.28701580756302,103.847309527121,103.847309527121,059289,NORTH CANAL ROAD,33 NORTH CANAL ROAD SINGAPORE 059289,29557.0749224527,29937.1927626505
34 NORTH CANAL ROAD SINGAPORE 059290,34,NIL,1.28701263477405,103.847250632529,103.847250632529,059290,NORTH CANAL ROAD,34 NORTH CANAL ROAD SINGAPORE 059290,29550.5204511145,29936.8418961838
35 NORTH CANAL ROAD SINGAPORE 059291,35,NIL,1.28695958306736,103.847161430141,103.847161430141,059291,NORTH CANAL ROAD,35 NORTH CANAL ROAD SINGAPORE 059291,29540.5930064749,29930.9756582603
36 NORTH CANAL ROAD SINGAPORE 059292,36,NIL,1.28698499557803,103.847118688006,103.847118688006,059292,NORTH CANAL ROAD,36 NORTH CANAL ROAD SINGAPORE 059292,29535.83615069,29933.7856167965
37 NORTH CANAL ROAD CHAMPION HOTEL CITY SINGAPORE 059293,37,CHAMPION HOTEL CITY,1.28708190886066,103.847113892062,103.847113892062,059293,NORTH CANAL ROAD,CHAMPION HOTEL CITY,29535.302344529,29944.5017845556
38 NORTH CANAL ROAD SINGAPORE 059294,38,NIL,1.2870944154591,103.847061449227,103.847061449227,059294,NORTH CANAL ROAD,38 NORTH CANAL ROAD SINGAPORE 059294,29529.4658903005,29945.8846681956
39 NORTH CANAL ROAD SINGAPORE 059295,39,NIL,1.28712785679334,103.847025689692,103.847025689692,059295,NORTH CANAL ROAD,39 NORTH CANAL ROAD SINGAPORE 059295,29525.4861347293,29949.5824169628
40 NORTH CANAL ROAD SINGAPORE 059296,40,NIL,1.28712065984591,103.846967330042,103.846967330042,059296,NORTH CANAL ROAD,40 NORTH CANAL ROAD SINGAPORE 059296,29518.9912005151,29948.7865808662
41 NORTH CANAL ROAD SINGAPORE 059297,41,NIL,1.28716997955337,103.846942047149,103.846942047149,059297,NORTH CANAL ROAD,41 NORTH CANAL ROAD SINGAPORE 059297,29516.177397945,29954.2400845643
42 NORTH CANAL ROAD SINGAPORE 059298,42,NIL,1.28719149191713,103.84689843142,103.84689843142,059298,NORTH CANAL ROAD,42 NORTH CANAL ROAD SINGAPORE 059298,29511.3233213965,29956.6187848691
43 NORTH CANAL ROAD SINGAPORE 059299,43,NIL,1.2872147129238,103.846854395778,103.846854395778,059299,NORTH CANAL ROAD,43 NORTH CANAL ROAD SINGAPORE 059299,29506.4225110812,29959.186417928
44 NORTH CANAL ROAD SINGAPORE 059300,44,NIL,1.28723866070005,103.846808632041,103.846808632041,059300,NORTH CANAL ROAD,44 NORTH CANAL ROAD SINGAPORE 059300,29501.3293779967,29961.8344124835
45 NORTH CANAL ROAD LEW BUILDING SINGAPORE 059301,45,LEW BUILDING,1.2872893953421,103.846781422787,103.846781422787,059301,NORTH CANAL ROAD,LEW BUILDING,29498.3011872973,29967.4443713892
50 NORTH CANAL ROAD SINGAPORE 059304,50,NIL,1.28753644502264,103.846594618138,103.846594618138,059304,NORTH CANAL ROAD,50 NORTH CANAL ROAD SINGAPORE 059304,29477.5112594655,29994.7617412508
48 NORTH CANAL ROAD SINGAPORE 059305,48,NIL,1.28730158867939,103.846696785756,103.846696785756,059305,NORTH CANAL ROAD,48 NORTH CANAL ROAD SINGAPORE 059305,29488.8817907646,29968.7925981879
11 NEW BRIDGE ROAD SINGAPORE 059383,11,NIL,1.28897126605968,103.847759581402,103.847759581402,059383,NEW BRIDGE ROAD,11 NEW BRIDGE ROAD SINGAPORE 059383,29607.1609593127,30153.4175525736
13 NEW BRIDGE ROAD SINGAPORE 059384,13,NIL,1.28892523886538,103.84772629307,103.84772629307,059384,NEW BRIDGE ROAD,13 NEW BRIDGE ROAD SINGAPORE 059384,29603.4562791772,30148.3280819152
15 NEW BRIDGE ROAD SINGAPORE 059385,15,NIL,1.28888525649388,103.847697004639,103.847697004639,059385,NEW BRIDGE ROAD,15 NEW BRIDGE ROAD SINGAPORE 059385,29600.1967502786,30143.9070191402
17 NEW BRIDGE ROAD SINGAPORE 059386,17,NIL,1.28884521609048,103.847667747486,103.847667747486,059386,NEW BRIDGE ROAD,17 NEW BRIDGE ROAD SINGAPORE 059386,29596.9407021981,30139.4795395546
19 NEW BRIDGE ROAD SINGAPORE 059387,19,NIL,1.2888488328701,103.847580459467,103.847580459467,059387,NEW BRIDGE ROAD,19 NEW BRIDGE ROAD SINGAPORE 059387,29587.2262836285,30139.8794098869
21 NEW BRIDGE ROAD SINGAPORE 059388,21,NIL,1.28876521028745,103.847608869286,103.847608869286,059388,NEW BRIDGE ROAD,21 NEW BRIDGE ROAD SINGAPORE 059388,29590.3881074749,30130.632873809
23 NEW BRIDGE ROAD SINGAPORE 059389,23,NIL,1.2887268273636,103.847574761012,103.847574761012,059389,NEW BRIDGE ROAD,23 NEW BRIDGE ROAD SINGAPORE 059389,29586.5921693696,30126.3886668645
25 NEW BRIDGE ROAD JAYLEEN CLARKE QUAY HOTEL SINGAPORE 059390,25,JAYLEEN CLARKE QUAY HOTEL,1.28871525324232,103.84750256155,103.84750256155,059390,NEW BRIDGE ROAD,JAYLEEN CLARKE QUAY HOTEL,29578.5569882682,30125.1088154409
33 NEW BRIDGE ROAD SINGAPORE 059394,33,NIL,1.28859134761324,103.847424110235,103.847424110235,059394,NEW BRIDGE ROAD,33 NEW BRIDGE ROAD SINGAPORE 059394,29569.826097561,30111.4079218078
35 NEW BRIDGE ROAD DYNASTY TRAVEL HUB SINGAPORE 059395,35,DYNASTY TRAVEL HUB,1.28832769200185,103.847241298844,103.847241298844,059395,NEW BRIDGE ROAD,DYNASTY TRAVEL HUB,29549.4808972133,30082.2541328389
45 NEW BRIDGE ROAD SINGAPORE 059398,45,NIL,1.28818960673327,103.847110274552,103.847110274552,059398,NEW BRIDGE ROAD,45 NEW BRIDGE ROAD SINGAPORE 059398,29534.8990841815,30066.9852971137
49 NEW BRIDGE ROAD SINGAPORE 059400,49,NIL,1.28813823138118,103.847068354967,103.847068354967,059400,NEW BRIDGE ROAD,49 NEW BRIDGE ROAD SINGAPORE 059400,29530.2338193152,30061.3044505883
53 NEW BRIDGE ROAD SINGAPORE 059402,53,NIL,1.28804309944413,103.846992231093,103.846992231093,059402,NEW BRIDGE ROAD,53 NEW BRIDGE ROAD SINGAPORE 059402,29521.7619317453,30050.7852063328
59 NEW BRIDGE ROAD SPI CENTRE SINGAPORE 059405,59,SPI CENTRE,1.28793534448042,103.846934778453,103.846934778453,059405,NEW BRIDGE ROAD,SPI CENTRE,29515.3680017926,30038.8701842744
133 NEW BRIDGE ROAD CHINATOWN POINT SINGAPORE 059413,133,CHINATOWN POINT,1.28526073702918,103.844942912343,103.844942912343,059413,NEW BRIDGE ROAD,CHINATOWN POINT,29293.6914637154,29743.1248027068
181 NEW BRIDGE ROAD HOTEL 81 - CHINATOWN SINGAPORE 059418,181,HOTEL 81 - CHINATOWN,1.28456367441751,103.844098487807,103.844098487807,059418,NEW BRIDGE ROAD,HOTEL 81 - CHINATOWN,29199.7143684905,29666.0468070786
189 NEW BRIDGE ROAD KRETA AYER CONSERVATION AREA SINGAPORE 059422,189,KRETA AYER CONSERVATION AREA,1.28447755897602,103.843999166795,103.843999166795,059422,NEW BRIDGE ROAD,KRETA AYER CONSERVATION AREA,29188.6608035173,29656.5245599374
191 NEW BRIDGE ROAD SINGAPORE 059423,191,NIL,1.28417074792496,103.84376743232,103.84376743232,059423,NEW BRIDGE ROAD,191 NEW BRIDGE ROAD SINGAPORE 059423,29162.8708166508,29622.5988719948
193 NEW BRIDGE ROAD SINGAPORE 059424,193,NIL,1.28417074819871,103.843767432048,103.843767432048,059424,NEW BRIDGE ROAD,193 NEW BRIDGE ROAD SINGAPORE 059424,29162.8707863828,29622.5989022627
195 NEW BRIDGE ROAD SINGAPORE 059425,195,NIL,1.28417074819871,103.843767432048,103.843767432048,059425,NEW BRIDGE ROAD,195 NEW BRIDGE ROAD SINGAPORE 059425,29162.8707863828,29622.5989022627
197 NEW BRIDGE ROAD SINGAPORE 059426,197,NIL,1.28417074819871,103.843767432048,103.843767432048,059426,NEW BRIDGE ROAD,197 NEW BRIDGE ROAD SINGAPORE 059426,29162.8707863828,29622.5989022627
199 NEW BRIDGE ROAD SINGAPORE 059427,199,NIL,1.28417074819871,103.843767432048,103.843767432048,059427,NEW BRIDGE ROAD,199 NEW BRIDGE ROAD SINGAPORE 059427,29162.8707863828,29622.5989022627
201 NEW BRIDGE ROAD KRETA AYER CONSERVATION AREA SINGAPORE 059428,201,KRETA AYER CONSERVATION AREA,1.28406690964386,103.843663616962,103.843663616962,059428,NEW BRIDGE ROAD,KRETA AYER CONSERVATION AREA,29151.3170732465,29611.1169242486
203 NEW BRIDGE ROAD KRETA AYER CONSERVATION AREA SINGAPORE 059429,203,KRETA AYER CONSERVATION AREA,1.28402940122041,103.84363467787,103.84363467787,059429,NEW BRIDGE ROAD,KRETA AYER CONSERVATION AREA,29148.0964084389,29606.969423512
205 NEW BRIDGE ROAD KRETA AYER CONSERVATION AREA SINGAPORE 059430,205,KRETA AYER CONSERVATION AREA,1.28401671065778,103.843573409289,103.843573409289,059430,NEW BRIDGE ROAD,KRETA AYER CONSERVATION AREA,29141.2777278712,29605.566139251
207 NEW BRIDGE ROAD KRETA AYER CONSERVATION AREA SINGAPORE 059431,207,KRETA AYER CONSERVATION AREA,1.28398481620631,103.843548815753,103.843548815753,059431,NEW BRIDGE ROAD,KRETA AYER CONSERVATION AREA,29138.5406849077,29602.0394045915
211 NEW BRIDGE ROAD LUCKY CHINATOWN SINGAPORE 059432,211,LUCKY CHINATOWN,1.28364109716273,103.843311643743,103.843311643743,059432,NEW BRIDGE ROAD,LUCKY CHINATOWN,29112.1455502426,29564.0326238703
227 NEW BRIDGE ROAD KRETA AYER CONSERVATION AREA SINGAPORE 059433,227,KRETA AYER CONSERVATION AREA,1.28342588709226,103.843047883982,103.843047883982,059433,NEW BRIDGE ROAD,KRETA AYER CONSERVATION AREA,29082.7913569538,29540.2356929276
229 NEW BRIDGE ROAD KRETA AYER CONSERVATION AREA SINGAPORE 059434,229,KRETA AYER CONSERVATION AREA,1.28338380239602,103.843018091719,103.843018091719,059434,NEW BRIDGE ROAD,KRETA AYER CONSERVATION AREA,29079.4757414814,29535.582172038
231 NEW BRIDGE ROAD KRETA AYER CONSERVATION AREA SINGAPORE 059435,231,KRETA AYER CONSERVATION AREA,1.28334344795556,103.842991016714,103.842991016714,059435,NEW BRIDGE ROAD,KRETA AYER CONSERVATION AREA,29076.4625334349,29531.1199750751
235 NEW BRIDGE ROAD KRETA AYER CONSERVATION AREA SINGAPORE 059436,235,KRETA AYER CONSERVATION AREA,1.2832805938755,103.842932132323,103.842932132323,059436,NEW BRIDGE ROAD,KRETA AYER CONSERVATION AREA,29069.9092122801,29524.1698709223
237 NEW BRIDGE ROAD KRETA AYER CONSERVATION AREA SINGAPORE 059437,237,KRETA AYER CONSERVATION AREA,1.2832443585524,103.842909361527,103.842909361527,059437,NEW BRIDGE ROAD,KRETA AYER CONSERVATION AREA,29067.3750253432,29520.1631465778
239 NEW BRIDGE ROAD KRETA AYER CONSERVATION AREA SINGAPORE 059438,239,KRETA AYER CONSERVATION AREA,1.2832085727081,103.842884087525,103.842884087525,059438,NEW BRIDGE ROAD,KRETA AYER CONSERVATION AREA,29064.5622518845,29516.2061222624
241 NEW BRIDGE ROAD KRETA AYER CONSERVATION AREA SINGAPORE 059439,241,KRETA AYER CONSERVATION AREA,1.28316699742478,103.842854886531,103.842854886531,059439,NEW BRIDGE ROAD,KRETA AYER CONSERVATION AREA,29061.3124390086,29511.6089300904
233 NEW BRIDGE ROAD KRETA AYER CONSERVATION AREA SINGAPORE 059441,233,KRETA AYER CONSERVATION AREA,1.28331211137841,103.842963174244,103.842963174244,059441,NEW BRIDGE ROAD,KRETA AYER CONSERVATION AREA,29073.3639091374,29527.6549265664
151 NEW BRIDGE ROAD CHINATOWN MRT STATION SINGAPORE 059443,151,CHINATOWN MRT STATION,1.2839640518753,103.843141945391,103.843141945391,059443,NEW BRIDGE ROAD,CHINATOWN MRT STATION,29093.2593877828,29599.7432148103
2 MOSQUE STREET KRETA AYER CONSERVATION AREA SINGAPORE 059483,2,KRETA AYER CONSERVATION AREA,1.28410640053856,103.843934429381,103.843934429381,059483,MOSQUE STREET,KRETA AYER CONSERVATION AREA,29181.4562364249,29615.483746795
3 MOSQUE STREET KRETA AYER CONSERVATION AREA SINGAPORE 059484,3,KRETA AYER CONSERVATION AREA,1.28406976178743,103.843966430824,103.843966430824,059484,MOSQUE STREET,KRETA AYER CONSERVATION AREA,29185.0177489966,29611.4324377105
5 MOSQUE STREET KRETA AYER CONSERVATION AREA SINGAPORE 059485,5,KRETA AYER CONSERVATION AREA,1.28403452902949,103.8440395405,103.8440395405,059485,MOSQUE STREET,KRETA AYER CONSERVATION AREA,29193.1542673083,29607.5366152581
6 MOSQUE STREET KRETA AYER CONSERVATION AREA SINGAPORE 059486,6,KRETA AYER CONSERVATION AREA,1.28401237758103,103.844075357193,103.844075357193,059486,MOSQUE STREET,KRETA AYER CONSERVATION AREA,29197.140379156,29605.0872392114
7 MOSQUE STREET KRETA AYER CONSERVATION AREA SINGAPORE 059487,7,KRETA AYER CONSERVATION AREA,1.28399154496887,103.844113270505,103.844113270505,059487,MOSQUE STREET,KRETA AYER CONSERVATION AREA,29201.3598268898,29602.783694312
8 MOSQUE STREET SINGAPORE 059488,8,NIL,1.28397001789456,103.844151404925,103.844151404925,059488,MOSQUE STREET,8 MOSQUE STREET SINGAPORE 059488,29205.6038824944,29600.4033595361
9 MOSQUE STREET KRETA AYER CONSERVATION AREA SINGAPORE 059489,9,KRETA AYER CONSERVATION AREA,1.28394857923824,103.844188877099,103.844188877099,059489,MOSQUE STREET,KRETA AYER CONSERVATION AREA,29209.7742355596,29598.0328013189
10 MOSQUE STREET KRETA AYER CONSERVATION AREA SINGAPORE 059490,10,KRETA AYER CONSERVATION AREA,1.28392652604817,103.844226947059,103.844226947059,059490,MOSQUE STREET,KRETA AYER CONSERVATION AREA,29214.0111176521,29595.5942914784
11 MOSQUE STREET KRETA AYER CONSERVATION AREA SINGAPORE 059491,11,KRETA AYER CONSERVATION AREA,1.2839037734581,103.844267706252,103.844267706252,059491,MOSQUE STREET,KRETA AYER CONSERVATION AREA,29218.547289568,29593.0784469396
12 MOSQUE STREET KRETA AYER CONSERVATION AREA SINGAPORE 059492,12,KRETA AYER CONSERVATION AREA,1.28388230057784,103.844306479798,103.844306479798,059492,MOSQUE STREET,KRETA AYER CONSERVATION AREA,29222.8624749342,29590.7041052263
13 MOSQUE STREET KRETA AYER CONSERVATION AREA SINGAPORE 059493,13,KRETA AYER CONSERVATION AREA,1.28386203021551,103.84434308711,103.84434308711,059493,MOSQUE STREET,KRETA AYER CONSERVATION AREA,29226.9365758104,29588.4627307635
18 MOSQUE STREET HOTEL MONO SINGAPORE 059498,18,HOTEL MONO,1.2837904589613,103.844451261948,103.844451261948,059498,MOSQUE STREET,HOTEL MONO,29238.97557553,29580.5488032047
20 MOSQUE STREET KRETA AYER CONSERVATION AREA SINGAPORE 059500,20,KRETA AYER CONSERVATION AREA,1.28369926134494,103.844615300363,103.844615300363,059500,MOSQUE STREET,KRETA AYER CONSERVATION AREA,29257.2317401776,29570.4647217486
21 MOSQUE STREET SINGAPORE 059501,21,NIL,1.28367398380625,103.844662567773,103.844662567773,059501,MOSQUE STREET,21 MOSQUE STREET SINGAPORE 059501,29262.4922249438,29567.6696853284
22 MOSQUE STREET KRETA AYER CONSERVATION AREA SINGAPORE 059502,22,KRETA AYER CONSERVATION AREA,1.28364820918552,103.844705820635,103.844705820635,059502,MOSQUE STREET,KRETA AYER CONSERVATION AREA,29267.3059240021,29564.8196822498
23 MOSQUE STREET SINGAPORE 059503,23,NIL,1.28362999043267,103.844745502568,103.844745502568,059503,MOSQUE STREET,23 MOSQUE STREET SINGAPORE 059503,29271.7222044338,29562.8051663265
24 MOSQUE STREET SINGAPORE 059504,24,NIL,1.28361043530626,103.844787032528,103.844787032528,059504,MOSQUE STREET,24 MOSQUE STREET SINGAPORE 059504,29276.3441558154,29560.642882105
27 MOSQUE STREET SINGAPORE 059505,27,NIL,1.28351410610923,103.845568430963,103.845568430963,059505,MOSQUE STREET,27 MOSQUE STREET SINGAPORE 059505,29363.3074025139,29549.9916997068
28 MOSQUE STREET SINGAPORE 059506,28,NIL,1.28354309355996,103.845522903917,103.845522903917,059506,MOSQUE STREET,28 MOSQUE STREET SINGAPORE 059506,29358.2406025752,29553.1969581097
29 MOSQUE STREET KRETA AYER CONSERVATION AREA SINGAPORE 059507,29,KRETA AYER CONSERVATION AREA,1.28357014955775,103.845475689016,103.845475689016,059507,MOSQUE STREET,KRETA AYER CONSERVATION AREA,29352.9859595299,29556.1886456218
30 MOSQUE STREET SINGAPORE 059508,30,NIL,1.2835968072765,103.845427762096,103.845427762096,059508,MOSQUE STREET,30 MOSQUE STREET SINGAPORE 059508,29347.6520749033,29559.1362932157
31 MOSQUE STREET KRETA AYER CONSERVATION AREA SINGAPORE 059509,31,KRETA AYER CONSERVATION AREA,1.28362324984085,103.845379697557,103.845379697557,059509,MOSQUE STREET,KRETA AYER CONSERVATION AREA,29342.3028746769,29562.0601501744
32 MOSQUE STREET KRETA AYER CONSERVATION AREA SINGAPORE 059510,32,KRETA AYER CONSERVATION AREA,1.28364768347765,103.845331632464,103.845331632464,059510,MOSQUE STREET,KRETA AYER CONSERVATION AREA,29336.9536139145,29564.761870401
33 MOSQUE STREET KRETA AYER CONSERVATION AREA SINGAPORE 059511,33,KRETA AYER CONSERVATION AREA,1.2836742371707,103.845284657434,103.845284657434,059511,MOSQUE STREET,KRETA AYER CONSERVATION AREA,29331.7256672308,29567.6980161611
34 MOSQUE STREET KRETA AYER CONSERVATION AREA SINGAPORE 059512,34,KRETA AYER CONSERVATION AREA,1.28370053985457,103.845236636951,103.845236636951,059512,MOSQUE STREET,KRETA AYER CONSERVATION AREA,29326.3813704178,29570.6064061802
35 MOSQUE STREET KRETA AYER CONSERVATION AREA SINGAPORE 059513,35,KRETA AYER CONSERVATION AREA,1.28372785178997,103.845188880282,103.845188880282,059513,MOSQUE STREET,KRETA AYER CONSERVATION AREA,29321.0664335489,29573.6263942569
36 MOSQUE STREET KRETA AYER CONSERVATION AREA SINGAPORE 059514,36,KRETA AYER CONSERVATION AREA,1.28375624031288,103.845141888939,103.845141888939,059514,MOSQUE STREET,KRETA AYER CONSERVATION AREA,29315.8366707871,29576.7654263116
37 MOSQUE STREET KRETA AYER CONSERVATION AREA SINGAPORE 059515,37,KRETA AYER CONSERVATION AREA,1.28378258760887,103.845094666684,103.845094666684,059515,MOSQUE STREET,KRETA AYER CONSERVATION AREA,29310.5812105061,29579.6787500121
38 MOSQUE STREET KRETA AYER CONSERVATION AREA SINGAPORE 059516,38,KRETA AYER CONSERVATION AREA,1.28380955463811,103.845046885533,103.845046885533,059516,MOSQUE STREET,KRETA AYER CONSERVATION AREA,29305.2635495188,29582.6606004294
39 MOSQUE STREET KRETA AYER CONSERVATION AREA SINGAPORE 059517,39,KRETA AYER CONSERVATION AREA,1.28383925297258,103.844999527579,103.844999527579,059517,MOSQUE STREET,KRETA AYER CONSERVATION AREA,29299.992985514,29585.944464786
40 MOSQUE STREET SINGAPORE 059518,40,NIL,1.28386815063597,103.84495241548,103.84495241548,059518,MOSQUE STREET,40 MOSQUE STREET SINGAPORE 059518,29294.7497837665,29589.1397952903
41 MOSQUE STREET KRETA AYER CONSERVATION AREA SINGAPORE 059519,41,KRETA AYER CONSERVATION AREA,1.28389391187559,103.844903101499,103.844903101499,059519,MOSQUE STREET,KRETA AYER CONSERVATION AREA,29289.2615324231,29591.9883152395
42 MOSQUE STREET SINGAPORE 059520,42,NIL,1.28401087349498,103.844687118062,103.844687118062,059520,MOSQUE STREET,42 MOSQUE STREET SINGAPORE 059520,29265.224303958,29604.921219321
43 MOSQUE STREET SINGAPORE 059521,43,NIL,1.28401087322124,103.844687118062,103.844687118062,059521,MOSQUE STREET,43 MOSQUE STREET SINGAPORE 059521,29265.224303958,29604.921189053
44 MOSQUE STREET SINGAPORE 059522,44,NIL,1.28401087322124,103.844687118062,103.844687118062,059522,MOSQUE STREET,44 MOSQUE STREET SINGAPORE 059522,29265.224303958,29604.921189053
45 MOSQUE STREET SINGAPORE 059523,45,NIL,1.28401087322124,103.844687118062,103.844687118062,059523,MOSQUE STREET,45 MOSQUE STREET SINGAPORE 059523,29265.224303958,29604.921189053
46 MOSQUE STREET KRETA AYER CONSERVATION AREA SINGAPORE 059524,46,KRETA AYER CONSERVATION AREA,1.28413493416113,103.844454492805,103.844454492805,059524,MOSQUE STREET,KRETA AYER CONSERVATION AREA,29239.3349775691,29618.6390932929
47 MOSQUE STREET KRETA AYER CONSERVATION AREA SINGAPORE 059525,47,KRETA AYER CONSERVATION AREA,1.28418463706442,103.844367921506,103.844367921506,059525,MOSQUE STREET,KRETA AYER CONSERVATION AREA,29229.7002848675,29624.134941902
48 MOSQUE STREET PORCELAIN HOTEL SINGAPORE 059526,48,PORCELAIN HOTEL,1.28425245140519,103.844305639358,103.844305639358,059526,MOSQUE STREET,PORCELAIN HOTEL,29222.7687652567,29631.633471651
49 MOSQUE STREET SINGAPORE 059527,49,NIL,1.28428931631021,103.844199106232,103.844199106232,059527,MOSQUE STREET,49 MOSQUE STREET SINGAPORE 059527,29210.9124933546,29635.7097518221
50 MOSQUE STREET SINGAPORE 059528,50,NIL,1.28433444017613,103.844117883733,103.844117883733,059528,MOSQUE STREET,50 MOSQUE STREET SINGAPORE 059528,29201.8730810899,29640.6992775984
1 MAGAZINE ROAD CENTRAL MALL SINGAPORE 059567,1,CENTRAL MALL,1.2884128107362,103.842317897231,103.842317897231,059567,MAGAZINE ROAD,CENTRAL MALL,29001.5479116747,30091.6636620089
15 MAGAZINE ROAD PO CHIAK KENG TEMPLE SINGAPORE 059568,15,PO CHIAK KENG TEMPLE,1.28929183883541,103.84285459837,103.84285459837,059568,MAGAZINE ROAD,PO CHIAK KENG TEMPLE,29061.2778427033,30188.862269545
3 MAGAZINE ROAD CENTRAL MALL SINGAPORE 059570,3,CENTRAL MALL,1.28874333318217,103.842481524942,103.842481524942,059570,MAGAZINE ROAD,CENTRAL MALL,29019.7581597911,30128.2111929692
5 MAGAZINE ROAD CENTRAL MALL SINGAPORE 059571,5,CENTRAL MALL,1.28907404665506,103.842872855742,103.842872855742,059571,MAGAZINE ROAD,CENTRAL MALL,29063.3098232541,30164.7799417842
7 MAGAZINE ROAD CENTRAL MALL SINGAPORE 059572,7,CENTRAL MALL,1.28856664081956,103.842677071456,103.842677071456,059572,MAGAZINE ROAD,CENTRAL MALL,29041.5209006192,30108.6735424269
2 MAGAZINE ROAD SINGAPORE 059573,2,NIL,1.289136974408,103.84201075936,103.84201075936,059573,MAGAZINE ROAD,2 MAGAZINE ROAD SINGAPORE 059573,28967.3657933753,30171.7378248088
10 KENG CHEOW STREET MASJID OMAR KAMPONG MELAKA SINGAPORE 059607,10,MASJID OMAR KAMPONG MELAKA,1.28779955819991,103.844262629371,103.844262629371,059607,KENG CHEOW STREET,MASJID OMAR KAMPONG MELAKA,29217.9804307688,30023.8542072829
11 KENG CHEOW STREET COLUMBIA JUNIOR ACADEMY PTE. LTD. SINGAPORE 059608,11,COLUMBIA JUNIOR ACADEMY PTE. LTD.,1.28852635485141,103.843960031317,103.843960031317,059608,KENG CHEOW STREET,COLUMBIA JUNIOR ACADEMY PTE. LTD.,29184.3034851169,30104.2194875516
5 HONGKONG STREET HOTEL CLOVER 5 HONGKONG STREET SINGAPORE 059648,5,HOTEL CLOVER 5 HONGKONG STREET,1.28743139041276,103.847840903771,103.847840903771,059648,HONGKONG STREET,HOTEL CLOVER 5 HONGKONG STREET,29616.2124182349,29983.1460998189
6 HONGKONG STREET SINGAPORE 059649,6,NIL,1.2875171112182,103.847802684023,103.847802684023,059649,HONGKONG STREET,6 HONGKONG STREET SINGAPORE 059649,29611.9588282155,29992.6246399917
7 HONGKONG STREET HOTEL CLOVER 7 HONGKONG STREET SINGAPORE 059650,7,HOTEL CLOVER 7 HONGKONG STREET,1.28753488880661,103.847755009665,103.847755009665,059650,HONGKONG STREET,HOTEL CLOVER 7 HONGKONG STREET,29606.6530625457,29994.5903639253
8 HONGKONG STREET SINGAPORE 059651,8,NIL,1.28756853409352,103.847717144813,103.847717144813,059651,HONGKONG STREET,8 HONGKONG STREET SINGAPORE 059651,29602.439002513,29998.3106623404
9 HONGKONG STREET SINGAPORE 059652,9,NIL,1.28759267348133,103.847674395595,103.847674395595,059652,HONGKONG STREET,9 HONGKONG STREET SINGAPORE 059652,29597.6813597595,30000.9798444845
10 HONGKONG STREET SINGAPORE 059653,10,NIL,1.28761796775144,103.847631031459,103.847631031459,059653,HONGKONG STREET,10 HONGKONG STREET SINGAPORE 059653,29592.855281096,30003.7767272517
11 HONGKONG STREET SINGAPORE 059654,11,NIL,1.28764265296418,103.847587788617,103.847587788617,059654,HONGKONG STREET,11 HONGKONG STREET SINGAPORE 059654,29588.0427019531,30006.5062637553
12 HONGKONG STREET SINGAPORE 059655,12,NIL,1.28766158486773,103.8475424222,103.8475424222,059655,HONGKONG STREET,12 HONGKONG STREET SINGAPORE 059655,29582.9937903928,30008.5996277779
13 HONGKONG STREET SINGAPORE 059656,13,NIL,1.28769343446392,103.847504388712,103.847504388712,059656,HONGKONG STREET,13 HONGKONG STREET SINGAPORE 059656,29578.7609642101,30012.1213682201
15 HONGKONG STREET THE NOVELTY HOUSE SINGAPORE 059658,15,THE NOVELTY HOUSE,1.28773782897501,103.847416236634,103.847416236634,059658,HONGKONG STREET,THE NOVELTY HOUSE,29568.9503539875,30017.0302298181
17 HONGKONG STREET SINGAPORE 059660,17,NIL,1.28778798800589,103.847331813568,103.847331813568,059660,HONGKONG STREET,17 HONGKONG STREET SINGAPORE 059660,29559.55474809,30022.5765048862
18 HONGKONG STREET CITY BACKPACKERS SINGAPORE 059661,18,CITY BACKPACKERS,1.28780399098668,103.847281906588,103.847281906588,059661,HONGKONG STREET,CITY BACKPACKERS,29554.0005125422,30024.3460014835
19 HONGKONG STREET SINGAPORE 059662,19,NIL,1.28784296116191,103.847250031082,103.847250031082,059662,HONGKONG STREET,19 HONGKONG STREET SINGAPORE 059662,29550.4530140469,30028.655102985
20 HONGKONG STREET FRAGRANCE HOTEL - RIVERSIDE SINGAPORE 059663,20,FRAGRANCE HOTEL - RIVERSIDE,1.28788413189829,103.847164122731,103.847164122731,059663,HONGKONG STREET,FRAGRANCE HOTEL - RIVERSIDE,29540.8921146896,30033.2074985392
27 HONGKONG STREET SINGAPORE 059666,27,NIL,1.28759010797048,103.846843304366,103.846843304366,059666,HONGKONG STREET,27 HONGKONG STREET SINGAPORE 059666,29505.1879102932,30000.6956583858
28 HONGKONG STREET SINGAPORE 059667,28,NIL,1.28756463935236,103.846885444915,103.846885444915,059667,HONGKONG STREET,28 HONGKONG STREET SINGAPORE 059667,29509.8778132983,29997.8794949129
29 HONGKONG STREET SINGAPORE 059668,29,NIL,1.28754017586974,103.846929718802,103.846929718802,059668,HONGKONG STREET,29 HONGKONG STREET SINGAPORE 059668,29514.8051383672,29995.1744754761
31 HONGKONG STREET SINGAPORE 059670,31,NIL,1.28752160058281,103.847038482819,103.847038482819,059670,HONGKONG STREET,31 HONGKONG STREET SINGAPORE 059670,29526.9096682714,29993.1205809042
32 HONGKONG STREET SINGAPORE 059671,32,NIL,1.28748444827412,103.847069796988,103.847069796988,059671,HONGKONG STREET,32 HONGKONG STREET SINGAPORE 059671,29530.3946936484,29989.0124890823
33 HONGKONG STREET VINTAGE INN @ CLARKE QUAY SINGAPORE 059672,33,VINTAGE INN @ CLARKE QUAY,1.28741332125588,103.847112668616,103.847112668616,059672,HONGKONG STREET,VINTAGE INN @ CLARKE QUAY,29535.1659872625,29981.147656193
34 HONGKONG STREET VINTAGE INN @ CLARKE QUAY SINGAPORE 059673,34,VINTAGE INN @ CLARKE QUAY,1.28743955901693,103.847130213821,103.847130213821,059673,HONGKONG STREET,VINTAGE INN @ CLARKE QUAY,29537.1186051602,29984.0489029698
35 HONGKONG STREET SINGAPORE 059674,35,NIL,1.28739727925735,103.847190212919,103.847190212919,059674,HONGKONG STREET,35 HONGKONG STREET SINGAPORE 059674,29543.796025048,29979.3738615438
36 HONGKONG STREET GWP CENTRE SINGAPORE 059675,36,GWP CENTRE,1.28740820469072,103.847253338329,103.847253338329,059675,HONGKONG STREET,GWP CENTRE,29550.8213451402,29980.5819778461
37 HONGKONG STREET SINGAPORE 059676,37,NIL,1.28737662033619,103.847293071358,103.847293071358,059676,HONGKONG STREET,37 HONGKONG STREET SINGAPORE 059676,29555.2433159538,29977.0895670801
38 HONGKONG STREET SINGAPORE 059677,38,NIL,1.28732251766856,103.847321956736,103.847321956736,059677,HONGKONG STREET,38 HONGKONG STREET SINGAPORE 059677,29558.4580482366,29971.1071909033
39 HONGKONG STREET SINGAPORE 059678,39,NIL,1.28729564994102,103.847373506346,103.847373506346,059678,HONGKONG STREET,39 HONGKONG STREET SINGAPORE 059678,29564.1951024057,29968.1363277659
40 HONGKONG STREET SINGAPORE 059679,40,NIL,1.28726533944684,103.847429640536,103.847429640536,059679,HONGKONG STREET,40 HONGKONG STREET SINGAPORE 059679,29570.4423839776,29964.7847841959
41 HONGKONG STREET HOTEL NUVE ELEMENTS SINGAPORE 059680,41,HOTEL NUVE ELEMENTS,1.28726823429622,103.847505778579,103.847505778579,059680,HONGKONG STREET,HOTEL NUVE ELEMENTS,29578.9159060186,29965.1049286593
42 HONGKONG STREET SINGAPORE 059681,42,NIL,1.28724893939021,103.847557053538,103.847557053538,059681,HONGKONG STREET,42 HONGKONG STREET SINGAPORE 059681,29584.6223895252,29962.9714292921
43 HONGKONG STREET SINGAPORE 059682,43,NIL,1.28726142315096,103.847624707256,103.847624707256,059682,HONGKONG STREET,43 HONGKONG STREET SINGAPORE 059682,29592.1516715465,29964.3518612254
45 HONGKONG STREET SINGAPORE 059683,45,NIL,1.28715908506347,103.847623022104,103.847623022104,059683,HONGKONG STREET,45 HONGKONG STREET SINGAPORE 059683,29591.9641916556,29953.035842564
47 HONGKONG STREET HOTEL BENCOOLEN @ HONG KONG STREET SINGAPORE 059685,47,HOTEL BENCOOLEN @ HONG KONG STREET,1.28713327973679,103.847714205369,103.847714205369,059685,HONGKONG STREET,HOTEL BENCOOLEN @ HONG KONG STREET,29602.1121385563,29950.1824797392
1 HAVELOCK SQUARE COMMUNITY JUSTICE CENTRE (CJC) SINGAPORE 059724,1,COMMUNITY JUSTICE CENTRE (CJC),1.28606658978907,103.843404854271,103.843404854271,059724,HAVELOCK SQUARE,COMMUNITY JUSTICE CENTRE (CJC),29122.5180553151,29832.2311134562
3 HAVELOCK SQUARE FAMILY JUSTICE COURTS SINGAPORE 059725,3,FAMILY JUSTICE COURTS,1.28708816651026,103.843766823256,103.843766823256,059725,HAVELOCK SQUARE,FAMILY JUSTICE COURTS,29162.8017148441,29945.1919551194
1A HAVELOCK SQUARE OLD STATE COURTS BUILDING SINGAPORE 059727,1A,OLD STATE COURTS BUILDING,1.28685478364567,103.842938908745,103.842938908745,059727,HAVELOCK SQUARE,OLD STATE COURTS BUILDING,29070.661886231,29919.3853208628
2 HAVELOCK ROAD SINGAPORE 059763,2,NIL,1.28672852677228,103.844901330948,103.844901330948,059763,HAVELOCK ROAD,2 HAVELOCK ROAD SINGAPORE 059763,29289.0630652532,29905.4253938254
18 HAVELOCK ROAD KINDERLAND PRESCHOOL SINGAPORE 059764,18,KINDERLAND PRESCHOOL,1.2876382496479,103.843976681457,103.843976681457,059764,HAVELOCK ROAD,KINDERLAND PRESCHOOL,29186.1569148321,30006.0174055509
20 HAVELOCK ROAD CENTRAL SQUARE SINGAPORE 059765,20,CENTRAL SQUARE,1.28814852700635,103.84326532514,103.84326532514,059765,HAVELOCK ROAD,CENTRAL SQUARE,29106.9887333205,30062.4409225732
50 EU TONG SEN STREET FORMER THONG CHAI MEDICAL INSTITUTION SINGAPORE 059803,50,FORMER THONG CHAI MEDICAL INSTITUTION,1.28744077338899,103.845395611013,103.845395611013,059803,EU TONG SEN STREET,FORMER THONG CHAI MEDICAL INSTITUTION,29344.0719172535,29984.1822031699
60 EU TONG SEN STREET FURAMA CITY CENTRE SINGAPORE SINGAPORE 059804,60,FURAMA CITY CENTRE SINGAPORE,1.28642144223073,103.844635546875,103.844635546875,059804,EU TONG SEN STREET,FURAMA CITY CENTRE SINGAPORE,29259.4836781658,29871.4694378991
70 EU TONG SEN STREET YUE HWA (NAM TIN) BUILDING SINGAPORE 059805,70,YUE HWA (NAM TIN) BUILDING,1.2848077184217,103.843483900908,103.843483900908,059805,EU TONG SEN STREET,YUE HWA (NAM TIN) BUILDING,29131.3158382662,29693.0316528697
80 EU TONG SEN STREET THE MAJESTIC SINGAPORE 059810,80,THE MAJESTIC,1.28473141234245,103.843203365359,103.843203365359,059810,EU TONG SEN STREET,THE MAJESTIC,29100.0945946695,29684.5939983893
90 EU TONG SEN STREET CREATIVE INNOVATIVE DEVELOPMENT CENTRE SINGAPORE 059811,90,CREATIVE INNOVATIVE DEVELOPMENT CENTRE,1.28305961537608,103.841646720778,103.841646720778,059811,EU TONG SEN STREET,CREATIVE INNOVATIVE DEVELOPMENT CENTRE,28926.8535803007,29499.734709274
10 EU TONG SEN STREET CLARKE QUAY MRT STATION SINGAPORE 059815,10,CLARKE QUAY MRT STATION,1.28745211415803,103.846119192727,103.846119192727,059815,EU TONG SEN STREET,CLARKE QUAY MRT STATION,29424.6004630253,29985.4365992192
300 EU TONG SEN STREET OCBC OUTRAM PARK MRT STATION SINGAPORE 059816,300,OCBC OUTRAM PARK MRT STATION,1.27973970679335,103.839513521005,103.839513521005,059816,EU TONG SEN STREET,OCBC OUTRAM PARK MRT STATION,28689.4468921581,29132.6357039642
6 EU TONG SEN STREET NANYANG INSTITUTE OF MANAGEMENT SINGAPORE 059817,6,NANYANG INSTITUTE OF MANAGEMENT,1.2888737988701,103.846797382693,103.846797382693,059817,EU TONG SEN STREET,NANYANG INSTITUTE OF MANAGEMENT,29500.0764650786,30142.6395473219
8 EU TONG SEN STREET EMBASSY OF THE ARAB REPUBLIC OF EGYPT SINGAPORE 059818,8,EMBASSY OF THE ARAB REPUBLIC OF EGYPT,1.28895619990225,103.846796243026,103.846796243026,059818,EU TONG SEN STREET,EMBASSY OF THE ARAB REPUBLIC OF EGYPT,29499.9495816911,30151.7510276567
12 EU TONG SEN STREET THE CENTRAL SINGAPORE 059819,12,THE CENTRAL,1.28883856193458,103.846558025016,103.846558025016,059819,EU TONG SEN STREET,THE CENTRAL,29473.4380060928,30138.7430892438
102A EU TONG SEN STREET TEMPORARY SITE OFFICE SINGAPORE 059820,102A,TEMPORARY SITE OFFICE,1.2820552949899,103.839944894464,103.839944894464,059820,EU TONG SEN STREET,TEMPORARY SITE OFFICE,28737.4546081843,29388.6815980878
15 CARPENTER STREET SINGAPORE 059904,15,NIL,1.28829071888195,103.847922727602,103.847922727602,059904,CARPENTER STREET,15 CARPENTER STREET SINGAPORE 059904,29625.3181779208,30078.1662600301
16 CARPENTER STREET HOTEL CONFORTO SINGAPORE 059905,16,HOTEL CONFORTO,1.28836193961578,103.847864919107,103.847864919107,059905,CARPENTER STREET,HOTEL CONFORTO,29618.8845363734,30086.0414445698
17 CARPENTER STREET SINGAPORE 059906,17,NIL,1.2883732809599,103.847810481342,103.847810481342,059906,CARPENTER STREET,17 CARPENTER STREET SINGAPORE 059906,29612.8260664847,30087.2954774033
18 CARPENTER STREET SINGAPORE 059907,18,NIL,1.28839839373324,103.847769590762,103.847769590762,059907,CARPENTER STREET,18 CARPENTER STREET SINGAPORE 059907,29608.2752751326,30090.0722924974
19 CARPENTER STREET SINGAPORE 059908,19,NIL,1.28845380819871,103.847681129496,103.847681129496,059908,CARPENTER STREET,19 CARPENTER STREET SINGAPORE 059908,29598.4302502135,30096.1996825859
30 CARPENTER STREET SINGAPORE 059909,30,NIL,1.28810626267702,103.847461592676,103.847461592676,059909,CARPENTER STREET,30 CARPENTER STREET SINGAPORE 059909,29573.9978732206,30057.769755451
32 CARPENTER STREET SINGAPORE 059911,32,NIL,1.28803424629534,103.847504214902,103.847504214902,059911,CARPENTER STREET,32 CARPENTER STREET SINGAPORE 059911,29578.7414110927,30049.8065818828
33 CARPENTER STREET SINGAPORE 059912,33,NIL,1.28802525563194,103.847584440886,103.847584440886,059912,CARPENTER STREET,33 CARPENTER STREET SINGAPORE 059912,29587.6698911972,30048.8124904931
36 CARPENTER STREET CARPENTER HAUS SINGAPORE 059915,36,CARPENTER HAUS,1.28797278727517,103.847639178943,103.847639178943,059915,CARPENTER STREET,CARPENTER HAUS,29593.7618072089,30043.0108444467
37 CARPENTER STREET HUI SENG BUILDING SINGAPORE 059916,37,HUI SENG BUILDING,1.28790238868365,103.847772670209,103.847772670209,059916,CARPENTER STREET,HUI SENG BUILDING,29608.6183021925,30035.226615198
38 CARPENTER STREET HUI SENG BUILDING SINGAPORE 059917,38,HUI SENG BUILDING,1.28790279818424,103.847773371078,103.847773371078,059917,CARPENTER STREET,HUI SENG BUILDING,29608.6963027865,30035.2718961015
39 CARPENTER STREET SINGAPORE 059918,39,NIL,1.28786293902993,103.847833485777,103.847833485777,059918,CARPENTER STREET,39 CARPENTER STREET SINGAPORE 059918,29615.3865865674,30030.8645144571
40 CARPENTER STREET SINGAPORE 059919,40,NIL,1.28783630047172,103.847873687167,103.847873687167,059919,CARPENTER STREET,40 CARPENTER STREET SINGAPORE 059919,29619.8606788488,30027.9189856201
42 CARPENTER STREET JAYLEEN 1918 HOTEL SINGAPORE 059921,42,JAYLEEN 1918 HOTEL,1.28778717491168,103.847932682925,103.847932682925,059921,CARPENTER STREET,JAYLEEN 1918 HOTEL,29626.4264401449,30022.4869721904
43 CARPENTER STREET GREATWOOD BUILDING SINGAPORE 059922,43,GREATWOOD BUILDING,1.28774091356635,103.84801346269,103.84801346269,059922,CARPENTER STREET,GREATWOOD BUILDING,29635.4165761322,30017.3716829438
29 CARPENTER STREET SINGAPORE 059923,29,NIL,1.28815969966129,103.847377330079,103.847377330079,059923,CARPENTER STREET,29 CARPENTER STREET SINGAPORE 059923,29564.6201254334,30063.6784896236
2 BANDA STREET CHINATOWN SINGAPORE: HISTORY & CULTURE SINGAPORE 059962,2,CHINATOWN SINGAPORE: HISTORY & CULTURE,1.28179188351794,103.843805947981,103.843805947981,059962,BANDA STREET,CHINATOWN SINGAPORE: HISTORY & CULTURE,29167.1583673488,29359.5563518275
