ADDRESS,BLK_NO,BUILDING,LATITUDE,LONGITUDE,LONGTITUDE,POSTAL,ROAD_NAME,SEARCHVAL,X,Y
101 CANBERRA STREET EASTCREEK @ CANBERRA SINGAPORE 750101,101,EASTCREEK @ CANBERRA,1.45139998591606,103.830859953414,103.830859953414,750101,CANBERRA STREET,EASTCREEK @ CANBERRA,27726.3943516575,48113.9544697236
102 CANBERRA STREET EASTCREEK @ CANBERRA SINGAPORE 750102,102,EASTCREEK @ CANBERRA,1.45183449125061,103.832106719013,103.832106719013,750102,CANBERRA STREET,EASTCREEK @ CANBERRA,27865.1394595401,48161.9997785855
103 CANBERRA STREET EASTCREEK @ CANBERRA SINGAPORE 750103,103,EASTCREEK @ CANBERRA,1.4506760541128,103.830757597034,103.830757597034,750103,CANBERRA STREET,EASTCREEK @ CANBERRA,27715.0036316132,48033.90573203
104 CANBERRA STREET EASTBROOK @ CANBERRA SINGAPORE 750104,104,EASTBROOK @ CANBERRA,1.45027967438307,103.831896894891,103.831896894891,750104,CANBERRA STREET,EASTBROOK @ CANBERRA,27841.7892840374,47990.0759360641
105 CANBERRA STREET EASTBROOK @ CANBERRA SINGAPORE 750105,105,EASTBROOK @ CANBERRA,1.44885564679911,103.832409172149,103.832409172149,750105,CANBERRA STREET,EASTBROOK @ CANBERRA,27898.7975179693,47832.6140756272
106 CANBERRA STREET EASTBROOK @ CANBERRA SINGAPORE 750106,106,EASTBROOK @ CANBERRA,1.44913843217997,103.832773396234,103.832773396234,750106,CANBERRA STREET,EASTBROOK @ CANBERRA,27939.329889521,47863.8830518331
107 CANBERRA STREET EASTBROOK @ CANBERRA SINGAPORE 750107,107,EASTBROOK @ CANBERRA,1.44967607732448,103.832808168458,103.832808168458,750107,CANBERRA STREET,EASTBROOK @ CANBERRA,27943.1994998995,47923.3331553526
108 CANBERRA WALK EASTLAWN @ CANBERRA SINGAPORE 750108,108,EASTLAWN @ CANBERRA,1.44776611412274,103.83222301056,103.83222301056,750108,CANBERRA WALK,EASTLAWN @ CANBERRA,27878.080626782,47712.1390253976
109 CANBERRA WALK EASTGLEN @ CANBERRA SINGAPORE 750109,109,EASTGLEN @ CANBERRA,1.4486176779133,103.829730630675,103.829730630675,750109,CANBERRA WALK,EASTGLEN @ CANBERRA,27600.7182932496,47806.3009671979
114 CANBERRA WALK EASTLACE @ CANBERRA SINGAPORE 750114,114,EASTLACE @ CANBERRA,1.44663703946113,103.829479745239,103.829479745239,750114,CANBERRA WALK,EASTLACE @ CANBERRA,27572.7983483691,47587.2919465266
115 CANBERRA WALK EASTLACE @ CANBERRA SINGAPORE 750115,115,EASTLACE @ CANBERRA,1.44608188224858,103.828739863564,103.828739863564,750115,CANBERRA WALK,EASTLACE @ CANBERRA,27490.461048427,47525.9056000896
116 CANBERRA CRESCENT SINGAPORE 750116,116,NIL,1.4456906155288,103.830296155027,103.830296155027,750116,CANBERRA CRESCENT,116 CANBERRA CRESCENT SINGAPORE 750116,27663.6517574061,47482.6409981847
117 CANBERRA CRESCENT EASTLINK II @ CANBERRA SINGAPORE 750117,117,EASTLINK II @ CANBERRA,1.44510882167817,103.829914452128,103.829914452128,750117,CANBERRA CRESCENT,EASTLINK II @ CANBERRA,27621.1741230777,47418.3092137147
118 CANBERRA CRESCENT EASTLINK II @ CANBERRA SINGAPORE 750118,118,EASTLINK II @ CANBERRA,1.44484856771785,103.829468138726,103.829468138726,750118,CANBERRA CRESCENT,EASTLINK II @ CANBERRA,27571.506389752,47389.5317163207
119 CANBERRA CRESCENT EASTWAVE @ CANBERRA SINGAPORE 750119,119,EASTWAVE @ CANBERRA,1.44612139906122,103.831653686135,103.831653686135,750119,CANBERRA CRESCENT,EASTWAVE @ CANBERRA,27814.723683265,47530.2747230027
120 CANBERRA CRESCENT DBS 120 CANBERRA CRESCENT SINGAPORE 750120,120,DBS 120 CANBERRA CRESCENT,1.4456745290189,103.831508132401,103.831508132401,750120,CANBERRA CRESCENT,DBS 120 CANBERRA CRESCENT,27798.525802047,47480.8620882444
121 CANBERRA STREET EASTBANK @ CANBERRA SINGAPORE 750121,121,EASTBANK @ CANBERRA,1.44745319738571,103.833923026834,103.833923026834,750121,CANBERRA STREET,EASTBANK @ CANBERRA,28067.2655739859,47677.5382403471
126 CANBERRA STREET EASTDELTA @ CANBERRA SINGAPORE 750126,126,EASTDELTA @ CANBERRA,1.44602265750894,103.834372150393,103.834372150393,750126,CANBERRA STREET,EASTDELTA @ CANBERRA,28117.2460058508,47519.3563348446
127 CANBERRA STREET EASTDELTA @ CANBERRA SINGAPORE 750127,127,EASTDELTA @ CANBERRA,1.44548404816697,103.834574326095,103.834574326095,750127,CANBERRA STREET,EASTDELTA @ CANBERRA,28139.7450153837,47459.7996274866
128 CANBERRA STREET EASTCROWN @ CANBERRA SINGAPORE 750128,128,EASTCROWN @ CANBERRA,1.44498309492262,103.834013438761,103.834013438761,750128,CANBERRA STREET,EASTCROWN @ CANBERRA,28077.3270755252,47404.4067050423
129 CANBERRA STREET EASTCROWN @ CANBERRA SINGAPORE 750129,129,EASTCROWN @ CANBERRA,1.44462701611109,103.832728826428,103.832728826428,750129,CANBERRA STREET,EASTCROWN @ CANBERRA,27934.3698447607,47365.0332945865
130 CANBERRA CRESCENT EASTCROWN @ CANBERRA SINGAPORE 750130,130,EASTCROWN @ CANBERRA,1.44446374370467,103.831776277139,103.831776277139,750130,CANBERRA CRESCENT,EASTCROWN @ CANBERRA,27828.3660083497,47346.9795016795
131 CANBERRA CRESCENT EASTLINK I @ CANBERRA SINGAPORE 750131,131,EASTLINK I @ CANBERRA,1.44406079105333,103.831010848735,103.831010848735,750131,CANBERRA CRESCENT,EASTLINK I @ CANBERRA,27743.1857577693,47302.4230924957
132 CANBERRA VIEW EASTLINK I @ CANBERRA SINGAPORE 750132,132,EASTLINK I @ CANBERRA,1.44340777310418,103.830807359933,103.830807359933,750132,CANBERRA VIEW,EASTLINK I @ CANBERRA,27720.5405538753,47230.215669468
133 CANBERRA VIEW CANBERRA PLAZA SINGAPORE 750133,133,CANBERRA PLAZA,1.44324523168314,103.83052345616,103.83052345616,750133,CANBERRA VIEW,CANBERRA PLAZA,27688.9464692548,47212.2426920775
300 CANBERRA ROAD SINGAPORE 750300,300,NIL,1.44585216960767,103.822896239346,103.822896239346,750300,CANBERRA ROAD,300 CANBERRA ROAD SINGAPORE 750300,26840.1574439025,47500.5072809327
302 CANBERRA ROAD SINGAPORE 750302,302,NIL,1.44501283137401,103.823072479872,103.823072479872,750302,CANBERRA ROAD,302 CANBERRA ROAD SINGAPORE 750302,26859.7698260965,47407.6973796953
303 CANBERRA ROAD SINGAPORE 750303,303,NIL,1.44468992379986,103.822441620312,103.822441620312,750303,CANBERRA ROAD,303 CANBERRA ROAD SINGAPORE 750303,26789.5648723347,47371.9922067244
304 CANBERRA ROAD SINGAPORE 750304,304,NIL,1.44511920743254,103.822259561569,103.822259561569,750304,CANBERRA ROAD,304 CANBERRA ROAD SINGAPORE 750304,26769.304815826,47419.4603354037
305 CANBERRA ROAD SINGAPORE 750305,305,NIL,1.44557039670297,103.822062555826,103.822062555826,750305,CANBERRA ROAD,305 CANBERRA ROAD SINGAPORE 750305,26747.3814125396,47469.3506897502
306 CANBERRA ROAD SINGAPORE 750306,306,NIL,1.44567776517239,103.82242147898,103.82242147898,750306,CANBERRA ROAD,306 CANBERRA ROAD SINGAPORE 750306,26787.3239821605,47481.2227615379
307 CANBERRA ROAD SINGAPORE 750307,307,NIL,1.44592261930976,103.82165734645,103.82165734645,750307,CANBERRA ROAD,307 CANBERRA ROAD SINGAPORE 750307,26702.2881703973,47508.297926994
308 CANBERRA ROAD SINGAPORE 750308,308,NIL,1.44632693492685,103.821744465946,103.821744465946,750308,CANBERRA ROAD,308 CANBERRA ROAD SINGAPORE 750308,26711.9834293341,47553.0050707348
309 CANBERRA ROAD SINGAPORE 750309,309,NIL,1.4467573459998,103.821562407206,103.821562407206,750309,CANBERRA ROAD,309 CANBERRA ROAD SINGAPORE 750309,26691.7234030925,47600.5978732407
310 CANBERRA ROAD SINGAPORE 750310,310,NIL,1.44703561029032,103.82209866943,103.82209866943,750310,CANBERRA ROAD,310 CANBERRA ROAD SINGAPORE 750310,26751.4010915812,47631.3666407485
311 CANBERRA ROAD SINGAPORE 750311,311,NIL,1.44631806773829,103.822538328492,103.822538328492,750311,CANBERRA ROAD,311 CANBERRA ROAD SINGAPORE 750311,26800.3278343966,47552.0241459198
312 SEMBAWANG DRIVE SINGAPORE 750312,312,NIL,1.44450265839408,103.821009544645,103.821009544645,750312,SEMBAWANG DRIVE,312 SEMBAWANG DRIVE SINGAPORE 750312,26630.1971580349,47351.2861514743
313 SEMBAWANG DRIVE SINGAPORE 750313,313,NIL,1.44447224601627,103.821707282924,103.821707282924,750313,SEMBAWANG DRIVE,313 SEMBAWANG DRIVE SINGAPORE 750313,26707.8444944369,47347.9228941947
314 SEMBAWANG DRIVE SINGAPORE 750314,314,NIL,1.44369870028224,103.821192155791,103.821192155791,750314,SEMBAWANG DRIVE,314 SEMBAWANG DRIVE SINGAPORE 750314,26650.5184466755,47262.3883871324
315 SEMBAWANG VISTA SINGAPORE 750315,315,NIL,1.44686608385044,103.82060863266,103.82060863266,750315,SEMBAWANG VISTA,315 SEMBAWANG VISTA SINGAPORE 750315,26585.5833910229,47612.6221324522
316 SEMBAWANG VISTA SINGAPORE 750316,316,NIL,1.44634275801164,103.82081661201,103.82081661201,750316,SEMBAWANG VISTA,316 SEMBAWANG VISTA SINGAPORE 750316,26608.7278955765,47554.7552563585
317 SEMBAWANG VISTA SINGAPORE 750317,317,NIL,1.44593452355645,103.82043061222,103.82043061222,750317,SEMBAWANG VISTA,317 SEMBAWANG VISTA SINGAPORE 750317,26565.7719363011,47509.6149777696
318 SEMBAWANG VISTA SINGAPORE 750318,318,NIL,1.44623076981756,103.819993931128,103.819993931128,750318,SEMBAWANG VISTA,318 SEMBAWANG VISTA SINGAPORE 750318,26517.1763857631,47542.3726847544
319 SEMBAWANG CLOSE SINGAPORE 750319,319,NIL,1.44625182986363,103.8192531663,103.8192531663,750319,SEMBAWANG CLOSE,319 SEMBAWANG CLOSE SINGAPORE 750319,26434.7409267491,47544.7018969059
320 SEMBAWANG CLOSE SINGAPORE 750320,320,NIL,1.44643784156419,103.81885853477,103.81885853477,750320,SEMBAWANG CLOSE,320 SEMBAWANG CLOSE SINGAPORE 750320,26390.8247762257,47565.2704144362
321 SEMBAWANG CLOSE SINGAPORE 750321,321,NIL,1.44608014993333,103.818524062291,103.818524062291,750321,SEMBAWANG CLOSE,321 SEMBAWANG CLOSE SINGAPORE 750321,26353.6029956611,47525.7189071663
322 SEMBAWANG CLOSE SINGAPORE 750322,322,NIL,1.44555988914785,103.818296366915,103.818296366915,750322,SEMBAWANG CLOSE,322 SEMBAWANG CLOSE SINGAPORE 750322,26328.2636990724,47468.1912443656
323 SEMBAWANG CLOSE SINGAPORE 750323,323,NIL,1.44509125244238,103.81807503418,103.81807503418,750323,SEMBAWANG CLOSE,323 SEMBAWANG CLOSE SINGAPORE 750323,26303.6324916948,47416.3719114177
324 SEMBAWANG CLOSE SINGAPORE 750324,324,NIL,1.44457098531352,103.81784736593,103.81784736593,750324,SEMBAWANG CLOSE,324 SEMBAWANG CLOSE SINGAPORE 750324,26278.2961916365,47358.8435524534
325 SEMBAWANG CRESCENT SINGAPORE 750325,325,NIL,1.44450474363115,103.818706030955,103.818706030955,750325,SEMBAWANG CRESCENT,325 SEMBAWANG CRESCENT SINGAPORE 750325,26373.8521254286,47351.5182463732
326 SEMBAWANG CRESCENT SINGAPORE 750326,326,NIL,1.44491688471834,103.819119357603,103.819119357603,750326,SEMBAWANG CRESCENT,326 SEMBAWANG CRESCENT SINGAPORE 750326,26419.8491998324,47397.0904490892
327 SEMBAWANG CRESCENT SINGAPORE 750327,327,NIL,1.44566382276232,103.8190220705,103.8190220705,750327,SEMBAWANG CRESCENT,327 SEMBAWANG CRESCENT SINGAPORE 750327,26409.0231895596,47479.6831805464
328 SEMBAWANG CRESCENT SINGAPORE 750328,328,NIL,1.4454350549004,103.819386697528,103.819386697528,750328,SEMBAWANG CRESCENT,328 SEMBAWANG CRESCENT SINGAPORE 750328,26449.6002971912,47454.3869250305
329 SEMBAWANG CLOSE SINGAPORE 750329,329,NIL,1.44635110057387,103.817664303233,103.817664303233,750329,SEMBAWANG CLOSE,329 SEMBAWANG CLOSE SINGAPORE 750329,26257.9255359154,47555.6799129918
330 SEMBAWANG CLOSE SINGAPORE 750330,330,NIL,1.44680507130646,103.817811631963,103.817811631963,750330,SEMBAWANG CLOSE,330 SEMBAWANG CLOSE SINGAPORE 750330,26274.3212486748,47605.8776084445
331 SEMBAWANG CLOSE SINGAPORE 750331,331,NIL,1.44752857706619,103.816661963955,103.816661963955,750331,SEMBAWANG CLOSE,331 SEMBAWANG CLOSE SINGAPORE 750331,26146.3819017839,47685.880157195
332 SEMBAWANG CLOSE SINGAPORE 750332,332,NIL,1.44670127140502,103.817044619348,103.817044619348,750332,SEMBAWANG CLOSE,332 SEMBAWANG CLOSE SINGAPORE 750332,26188.9647476245,47594.4005338419
333 SEMBAWANG CLOSE SINGAPORE 750333,333,NIL,1.44699020882626,103.816416175536,103.816416175536,750333,SEMBAWANG CLOSE,333 SEMBAWANG CLOSE SINGAPORE 750333,26119.0290881144,47626.3502975386
334 SEMBAWANG CLOSE SINGAPORE 750334,334,NIL,1.44732828215134,103.81582008771,103.81582008771,750334,SEMBAWANG CLOSE,334 SEMBAWANG CLOSE SINGAPORE 750334,26052.6941987518,47663.7332551163
335 SEMBAWANG CLOSE SINGAPORE 750335,335,NIL,1.44716347336281,103.815013547479,103.815013547479,750335,SEMBAWANG CLOSE,335 SEMBAWANG CLOSE SINGAPORE 750335,25962.9388516275,47645.5102339126
336 SEMBAWANG CRESCENT SINGAPORE 750336,336,NIL,1.44695013719977,103.815574238972,103.815574238972,750336,SEMBAWANG CRESCENT,336 SEMBAWANG CRESCENT SINGAPORE 750336,26025.3347866619,47621.9200938344
337 SEMBAWANG CRESCENT SINGAPORE 750337,337,NIL,1.44615096906869,103.815651965202,103.815651965202,750337,SEMBAWANG CRESCENT,337 SEMBAWANG CRESCENT SINGAPORE 750337,26033.9838024732,47533.5520192087
338 SEMBAWANG CRESCENT SINGAPORE 750338,338,NIL,1.44577476058766,103.815316349165,103.815316349165,750338,SEMBAWANG CRESCENT,338 SEMBAWANG CRESCENT SINGAPORE 750338,25996.6346845012,47491.9530644454
339 SEMBAWANG CLOSE MULTI STOREY CAR PARK SINGAPORE 750339,339,MULTI STOREY CAR PARK,1.44831031668204,103.817611416635,103.817611416635,750339,SEMBAWANG CLOSE,MULTI STOREY CAR PARK,26252.0415912205,47772.3202520628
340 SEMBAWANG CLOSE SUN TRELLIS SINGAPORE 750340,340,SUN TRELLIS,1.4474899998537,103.818203775979,103.818203775979,750340,SEMBAWANG CLOSE,SUN TRELLIS,26317.9612038471,47681.6132795308
341 SEMBAWANG CLOSE SUN TRELLIS SINGAPORE 750341,341,SUN TRELLIS,1.44706807805733,103.818677573572,103.818677573572,750341,SEMBAWANG CLOSE,SUN TRELLIS,26370.687093175,47634.9589358605
350 CANBERRA ROAD SINGAPORE 750350,350,NIL,1.45009846116966,103.82103927759,103.82103927759,750350,CANBERRA ROAD,350 CANBERRA ROAD SINGAPORE 750350,26633.5093229571,47970.0419511255
351 CANBERRA ROAD MULTI STOREY CAR PARK SINGAPORE 750351,351,MULTI STOREY CAR PARK,1.45118891260581,103.8203051003,103.8203051003,750351,CANBERRA ROAD,MULTI STOREY CAR PARK,26551.8077717451,48090.619064996
353 ADMIRALTY DRIVE SINGAPORE 750353,353,NIL,1.45107945151875,103.81903426078,103.81903426078,750353,ADMIRALTY DRIVE,353 ADMIRALTY DRIVE SINGAPORE 750353,26410.3835538197,48078.5162603669
354 ADMIRALTY DRIVE MULTI STOREY CAR PARK SINGAPORE 750354,354,MULTI STOREY CAR PARK,1.45006052122463,103.818406140896,103.818406140896,750354,ADMIRALTY DRIVE,MULTI STOREY CAR PARK,26340.4830959756,47965.8485035896
355 SEMBAWANG WAY SINGAPORE 750355,355,NIL,1.44954485621129,103.81872759237,103.81872759237,750355,SEMBAWANG WAY,355 SEMBAWANG WAY SINGAPORE 750355,26376.2551611913,47908.8286164831
356 ADMIRALTY DRIVE SINGAPORE 750356,356,NIL,1.4495270530775,103.817227040269,103.817227040269,750356,ADMIRALTY DRIVE,356 ADMIRALTY DRIVE SINGAPORE 750356,26209.2675425271,47906.8611672744
357 ADMIRALTY DRIVE SUN BLISS SINGAPORE 750357,357,SUN BLISS,1.45003603339558,103.816435076271,103.816435076271,750357,ADMIRALTY DRIVE,SUN BLISS,26121.1349528143,47963.1423037015
358 ADMIRALTY DRIVE SUN BLISS SINGAPORE 750358,358,SUN BLISS,1.44935079584395,103.816410662509,103.816410662509,750358,ADMIRALTY DRIVE,SUN BLISS,26118.4175235042,47887.3721876498
359 ADMIRALTY DRIVE SUN BLISS SINGAPORE 750359,359,SUN BLISS,1.44970819589157,103.815865172184,103.815865172184,750359,ADMIRALTY DRIVE,SUN BLISS,26057.7134174192,47926.8921556827
360 ADMIRALTY DRIVE SINGAPORE 750360,360,NIL,1.44907534185946,103.815474116863,103.815474116863,750360,ADMIRALTY DRIVE,360 ADMIRALTY DRIVE SINGAPORE 750360,26014.1946249865,47856.9146658182
361 SEMBAWANG CRESCENT SUN NATURA SINGAPORE 750361,361,SUN NATURA,1.44631506781839,103.813936813705,103.813936813705,750361,SEMBAWANG CRESCENT,SUN NATURA,25843.1145630479,47551.6987953614
362 SEMBAWANG CRESCENT SUN NATURA SINGAPORE 750362,362,SUN NATURA,1.44747793477854,103.814073166975,103.814073166975,750362,SEMBAWANG CRESCENT,SUN NATURA,25858.2896285597,47680.2826686986
363 SEMBAWANG CRESCENT SUN NATURA SINGAPORE 750363,363,SUN NATURA,1.44605125854227,103.813035381519,103.813035381519,750363,SEMBAWANG CRESCENT,SUN NATURA,25742.7990796203,47522.5289643612
364 SEMBAWANG CRESCENT SUN BREEZE SINGAPORE 750364,364,SUN BREEZE,1.44425810224088,103.81563710184,103.81563710184,750364,SEMBAWANG CRESCENT,SUN BREEZE,26032.3281134954,47324.2483064439
365 SEMBAWANG CRESCENT SUN BREEZE SINGAPORE 750365,365,SUN BREEZE,1.44436832551494,103.816263881257,103.816263881257,750365,SEMBAWANG CRESCENT,SUN BREEZE,26102.0789566971,47336.4357100874
366 SEMBAWANG CRESCENT SUN BREEZE SINGAPORE 750366,366,SUN BREEZE,1.44395271144982,103.816662106178,103.816662106178,750366,SEMBAWANG CRESCENT,SUN BREEZE,26146.3948262129,47290.478861833
367 SEMBAWANG CRESCENT SUN BREEZE SINGAPORE 750367,367,SUN BREEZE,1.44400233034532,103.815539890243,103.815539890243,750367,SEMBAWANG CRESCENT,SUN BREEZE,26021.5097610233,47295.9664170127
370 SEMBAWANG AVENUE SUN SAILS SINGAPORE 750370,370,SUN SAILS,1.44287151298518,103.821490812332,103.821490812332,750370,SEMBAWANG AVENUE,SUN SAILS,26683.7537824446,47170.9219908901
371 SEMBAWANG AVENUE SUN SAILS SINGAPORE 750371,371,SUN SAILS,1.44239862156949,103.821826618463,103.821826618463,750371,SEMBAWANG AVENUE,SUN SAILS,26721.1235129135,47118.6318394542
372 SEMBAWANG AVENUE SUN SAILS SINGAPORE 750372,372,SUN SAILS,1.44183381948472,103.821953099547,103.821953099547,750372,SEMBAWANG AVENUE,SUN SAILS,26735.1985793617,47056.1787887365
373 SEMBAWANG AVENUE SUN SAILS SINGAPORE 750373,373,SUN SAILS,1.44195724167154,103.822220902967,103.822220902967,750373,SEMBAWANG AVENUE,SUN SAILS,26765.0010112207,47069.8260475025
401 ADMIRALTY LINK SINGAPORE 750401,401,NIL,1.45427018021651,103.815812639222,103.815812639222,750401,ADMIRALTY LINK,401 ADMIRALTY LINK SINGAPORE 750401,26051.8712425428,48431.3335899729
402 ADMIRALTY LINK SINGAPORE 750402,402,NIL,1.45389053873224,103.815769086937,103.815769086937,750402,ADMIRALTY LINK,402 ADMIRALTY LINK SINGAPORE 750402,26047.0242487015,48389.3547720164
403 ADMIRALTY LINK SINGAPORE 750403,403,NIL,1.45391726002344,103.816130138927,103.816130138927,750403,ADMIRALTY LINK,403 ADMIRALTY LINK SINGAPORE 750403,26087.2035442237,48392.3091693707
404 ADMIRALTY LINK SINGAPORE 750404,404,NIL,1.45356650489638,103.816469172419,103.816469172419,750404,ADMIRALTY LINK,404 ADMIRALTY LINK SINGAPORE 750404,26124.9322227109,48353.5241382513
405 ADMIRALTY LINK SINGAPORE 750405,405,NIL,1.45329835117102,103.816138602463,103.816138602463,750405,ADMIRALTY LINK,405 ADMIRALTY LINK SINGAPORE 750405,26088.1448785169,48323.8733187206
406 SEMBAWANG DRIVE SINGAPORE 750406,406,NIL,1.45292980520031,103.816977584813,103.816977584813,750406,SEMBAWANG DRIVE,406 SEMBAWANG DRIVE SINGAPORE 750406,26181.509834039,48283.1206567846
407 SEMBAWANG DRIVE SINGAPORE 750407,407,NIL,1.45332598016276,103.816840072575,103.816840072575,750407,SEMBAWANG DRIVE,407 SEMBAWANG DRIVE SINGAPORE 750407,26166.207249511,48326.9278122988
408 SEMBAWANG DRIVE SINGAPORE 750408,408,NIL,1.45345895920531,103.817721249079,103.817721249079,750408,SEMBAWANG DRIVE,408 SEMBAWANG DRIVE SINGAPORE 750408,26264.2681313669,48341.631272357
409 SEMBAWANG DRIVE SINGAPORE 750409,409,NIL,1.45303321140803,103.817650679888,103.817650679888,750409,SEMBAWANG DRIVE,409 SEMBAWANG DRIVE SINGAPORE 750409,26256.4145884365,48294.5542665608
410 SEMBAWANG DRIVE SINGAPORE 750410,410,NIL,1.45264774845535,103.817721274232,103.817721274232,750410,SEMBAWANG DRIVE,410 SEMBAWANG DRIVE SINGAPORE 750410,26264.2703106618,48251.9316485897
411 SEMBAWANG DRIVE SINGAPORE 750411,411,NIL,1.45219746411589,103.817932344079,103.817932344079,750411,SEMBAWANG DRIVE,411 SEMBAWANG DRIVE SINGAPORE 750411,26287.7586595109,48202.1412996631
412 SEMBAWANG DRIVE SINGAPORE 750412,412,NIL,1.45189061357974,103.818160670565,103.818160670565,750412,SEMBAWANG DRIVE,412 SEMBAWANG DRIVE SINGAPORE 750412,26313.167511926,48168.2111320607
413 SEMBAWANG DRIVE SINGAPORE 750413,413,NIL,1.45177042242752,103.817947511696,103.817947511696,750413,SEMBAWANG DRIVE,413 SEMBAWANG DRIVE SINGAPORE 750413,26289.4462509425,48154.921156574
414 SEMBAWANG DRIVE SINGAPORE 750414,414,NIL,1.45132454894718,103.818031195261,103.818031195261,750414,SEMBAWANG DRIVE,414 SEMBAWANG DRIVE SINGAPORE 750414,26298.758559349,48105.6186367404
415 SEMBAWANG DRIVE SINGAPORE 750415,415,NIL,1.45162631706751,103.81857298042,103.81857298042,750415,SEMBAWANG DRIVE,415 SEMBAWANG DRIVE SINGAPORE 750415,26359.0508089783,48138.9862435982
416 CANBERRA ROAD SINGAPORE 750416,416,NIL,1.45187860111274,103.818911242365,103.818911242365,750416,CANBERRA ROAD,416 CANBERRA ROAD SINGAPORE 750416,26396.6941317525,48166.8823070396
417 CANBERRA ROAD SINGAPORE 750417,417,NIL,1.45199817874292,103.819475589257,103.819475589257,750417,CANBERRA ROAD,417 CANBERRA ROAD SINGAPORE 750417,26459.4969895594,48180.104209831
418 CANBERRA ROAD SINGAPORE 750418,418,NIL,1.45235459621765,103.819266367388,103.819266367388,750418,CANBERRA ROAD,418 CANBERRA ROAD SINGAPORE 750418,26436.2141905883,48219.5152131207
419 CANBERRA ROAD SINGAPORE 750419,419,NIL,1.45217478366368,103.818827838149,103.818827838149,750419,CANBERRA ROAD,419 CANBERRA ROAD SINGAPORE 750419,26387.4127874933,48199.6327497084
420 CANBERRA ROAD SINGAPORE 750420,420,NIL,1.45267974712812,103.818888937745,103.818888937745,750420,CANBERRA ROAD,420 CANBERRA ROAD SINGAPORE 750420,26394.2125505712,48255.4690375794
421 CANBERRA ROAD SINGAPORE 750421,421,NIL,1.45299061364993,103.818532777338,103.818532777338,750421,CANBERRA ROAD,421 CANBERRA ROAD SINGAPORE 750421,26354.5778366132,48289.8433575761
422 CANBERRA ROAD SINGAPORE 750422,422,NIL,1.45343668669671,103.818449528171,103.818449528171,750422,CANBERRA ROAD,422 CANBERRA ROAD SINGAPORE 750422,26345.3138661766,48339.1679427698
423 CANBERRA ROAD SINGAPORE 750423,423,NIL,1.45374132100674,103.818123782511,103.818123782511,750423,CANBERRA ROAD,423 CANBERRA ROAD SINGAPORE 750423,26309.0638392288,48372.8531213123
424 CANBERRA ROAD SINGAPORE 750424,424,NIL,1.45383269452891,103.818731178228,103.818731178228,750424,CANBERRA ROAD,424 CANBERRA ROAD SINGAPORE 750424,26376.6572713554,48382.9563018661
425 CANBERRA ROAD SINGAPORE 750425,425,NIL,1.4543786727951,103.818678117563,103.818678117563,750425,CANBERRA ROAD,425 CANBERRA ROAD SINGAPORE 750425,26370.7528655035,48443.3278838806
462 SEMBAWANG DRIVE SINGAPORE 750462,462,NIL,1.45445319201857,103.814035193265,103.814035193265,750462,SEMBAWANG DRIVE,462 SEMBAWANG DRIVE SINGAPORE 750462,25854.0703321658,48451.5717324615
463 SEMBAWANG DRIVE DBS SEMBAWANG DRIVE 463 SINGAPORE 750463,463,DBS SEMBAWANG DRIVE 463,1.45555388401849,103.81464932384,103.81464932384,750463,SEMBAWANG DRIVE,DBS SEMBAWANG DRIVE 463,25922.4141681446,48573.2801727597
465 SEMBAWANG DRIVE SEMBAWANG RIVERLODGE SINGAPORE 750465,465,SEMBAWANG RIVERLODGE,1.45530055840137,103.814126456343,103.814126456343,750465,SEMBAWANG DRIVE,SEMBAWANG RIVERLODGE,25864.2272383897,48545.2691817842
466 SEMBAWANG DRIVE SPRING LODGE SINGAPORE 750466,466,SPRING LODGE,1.45553596793073,103.81346991378,103.81346991378,750466,SEMBAWANG DRIVE,SPRING LODGE,25791.1648961622,48571.3002228737
467 ADMIRALTY DRIVE BLUE RIVERVIEW SINGAPORE 750467,467,BLUE RIVERVIEW,1.45222667691167,103.814425933159,103.814425933159,750467,ADMIRALTY DRIVE,BLUE RIVERVIEW,25897.5513198869,48205.3744651489
468 ADMIRALTY DRIVE BLUE RIVERVIEW SINGAPORE 750468,468,BLUE RIVERVIEW,1.45080799260807,103.814029005989,103.814029005989,750468,ADMIRALTY DRIVE,BLUE RIVERVIEW,25853.3783455221,48048.5038292371
469 ADMIRALTY DRIVE BLUE RIVERVIEW SINGAPORE 750469,469,BLUE RIVERVIEW,1.4485318461902,103.814038812764,103.814038812764,750469,ADMIRALTY DRIVE,BLUE RIVERVIEW,25854.4675389165,47796.8189462069
470 SEMBAWANG DRIVE SINGAPORE 750470,470,NIL,1.45157616201366,103.81515743452,103.81515743452,750470,SEMBAWANG DRIVE,470 SEMBAWANG DRIVE SINGAPORE 750470,25978.9551249435,48133.4431164004
471 SEMBAWANG DRIVE SINGAPORE 750471,471,NIL,1.45194275649274,103.815879050674,103.815879050674,750471,SEMBAWANG DRIVE,471 SEMBAWANG DRIVE SINGAPORE 750471,26059.25977844,48173.9786660895
472 SEMBAWANG DRIVE SINGAPORE 750472,472,NIL,1.45158308311633,103.81624498827,103.81624498827,750472,SEMBAWANG DRIVE,472 SEMBAWANG DRIVE SINGAPORE 750472,26099.9824750731,48134.2074737921
473 SEMBAWANG DRIVE SINGAPORE 750473,473,NIL,1.45133628212005,103.816522350208,103.816522350208,750473,SEMBAWANG DRIVE,473 SEMBAWANG DRIVE SINGAPORE 750473,26130.8482212005,48106.9172240458
474 SEMBAWANG DRIVE SINGAPORE 750474,474,NIL,1.4507121028977,103.816543560672,103.816543560672,750474,SEMBAWANG DRIVE,474 SEMBAWANG DRIVE SINGAPORE 750474,26133.2080948194,48037.8985936381
475 SEMBAWANG DRIVE SINGAPORE 750475,475,NIL,1.45089730668543,103.817081593147,103.817081593147,750475,SEMBAWANG DRIVE,475 SEMBAWANG DRIVE SINGAPORE 750475,26193.082676542,48058.377063917
476 SEMBAWANG DRIVE SINGAPORE 750476,476,NIL,1.45154963235734,103.816931737183,103.816931737183,750476,SEMBAWANG DRIVE,476 SEMBAWANG DRIVE SINGAPORE 750476,26176.4066217169,48130.5080905538
477 SEMBAWANG DRIVE SINGAPORE 750477,477,NIL,1.45208461891806,103.816554224473,103.816554224473,750477,SEMBAWANG DRIVE,477 SEMBAWANG DRIVE SINGAPORE 750477,26134.3959315717,48189.6645340957
478 SEMBAWANG DRIVE SINGAPORE 750478,478,NIL,1.45245222136363,103.81648846033,103.81648846033,750478,SEMBAWANG DRIVE,478 SEMBAWANG DRIVE SINGAPORE 750478,26127.0777384695,48230.3122266643
479 SEMBAWANG DRIVE SINGAPORE 750479,479,NIL,1.45244222327433,103.815808054796,103.815808054796,750479,SEMBAWANG DRIVE,479 SEMBAWANG DRIVE SINGAPORE 750479,26051.3595017418,48229.2072636504
480 SEMBAWANG DRIVE SINGAPORE 750480,480,NIL,1.45220212566522,103.815168664829,103.815168664829,750480,SEMBAWANG DRIVE,480 SEMBAWANG DRIVE SINGAPORE 750480,25980.205434815,48202.6590335257
481 SEMBAWANG DRIVE SINGAPORE 750481,481,NIL,1.45297628362912,103.815094118491,103.815094118491,750481,SEMBAWANG DRIVE,481 SEMBAWANG DRIVE SINGAPORE 750481,25971.9103122698,48288.2616132833
482 ADMIRALTY LINK SINGAPORE 750482,482,NIL,1.45543968418756,103.815460900731,103.815460900731,750482,ADMIRALTY LINK,482 ADMIRALTY LINK SINGAPORE 750482,26012.7294426989,48560.651794862
483 ADMIRALTY LINK SINGAPORE 750483,483,NIL,1.45603699736223,103.815580869079,103.815580869079,750483,ADMIRALTY LINK,483 ADMIRALTY LINK SINGAPORE 750483,26026.0804989766,48626.6995924003
484 ADMIRALTY LINK SINGAPORE 750484,484,NIL,1.45707121613828,103.815308448775,103.815308448775,750484,ADMIRALTY LINK,484 ADMIRALTY LINK SINGAPORE 750484,25995.7654485451,48741.0585727673
485 ADMIRALTY LINK SINGAPORE 750485,485,NIL,1.45642486305407,103.815857505979,103.815857505979,750485,ADMIRALTY LINK,485 ADMIRALTY LINK SINGAPORE 750485,26056.8660349473,48669.5876000524
486 ADMIRALTY LINK SEMBAWANG GREEN SINGAPORE 750486,486,SEMBAWANG GREEN,1.45602740243461,103.816100124988,103.816100124988,750486,ADMIRALTY LINK,SEMBAWANG GREEN,26083.8652580315,48625.6381850149
487 ADMIRALTY LINK PCF SPARKLETOTS PRESCHOOL @ CANBERRA BLK 487 (KN) SINGAPORE 750487,487,PCF SPARKLETOTS PRESCHOOL @ CANBERRA BLK 487 (KN),1.45545241379364,103.816118262593,103.816118262593,750487,ADMIRALTY LINK,PCF SPARKLETOTS PRESCHOOL @ CANBERRA BLK 487 (KN),26085.8831942379,48562.058802085
488 ADMIRALTY LINK SEMBAWANG GREEN SINGAPORE 750488,488,SEMBAWANG GREEN,1.45507803962368,103.81645291747,103.81645291747,750488,ADMIRALTY LINK,SEMBAWANG GREEN,26123.124558188,48520.6620979905
489 ADMIRALTY LINK SEMBAWANG GREEN SINGAPORE 750489,489,SEMBAWANG GREEN,1.45495119192133,103.816819778829,103.816819778829,750489,ADMIRALTY LINK,SEMBAWANG GREEN,26163.9501962336,48506.6356116552
490 ADMIRALTY LINK SEMBAWANG GREEN SINGAPORE 750490,490,SEMBAWANG GREEN,1.45529973571916,103.817240683169,103.817240683169,750490,ADMIRALTY LINK,SEMBAWANG GREEN,26210.7903247876,48545.1755023748
491 ADMIRALTY LINK MY FIRST SKOOL SINGAPORE 750491,491,MY FIRST SKOOL,1.45611278902566,103.817716592062,103.817716592062,750491,ADMIRALTY LINK,MY FIRST SKOOL,26263.7519109054,48635.0784967244
492 ADMIRALTY LINK SEMBAWANG GREEN SINGAPORE 750492,492,SEMBAWANG GREEN,1.4564743178621,103.81718135862,103.81718135862,750492,ADMIRALTY LINK,SEMBAWANG GREEN,26204.1893920945,48675.054966487
493 ADMIRALTY LINK SEMBAWANG GREEN SINGAPORE 750493,493,SEMBAWANG GREEN,1.45654601332376,103.816763883508,103.816763883508,750493,ADMIRALTY LINK,SEMBAWANG GREEN,26157.7312454944,48682.9830291942
501 WELLINGTON CIRCLE MONTREAL SPRING SINGAPORE 750501,501,MONTREAL SPRING,1.45159667752222,103.821373414321,103.821373414321,750501,WELLINGTON CIRCLE,MONTREAL SPRING,26670.6942976536,48135.7070102412
502 WELLINGTON CIRCLE MONTREAL SPRING SINGAPORE 750502,502,MONTREAL SPRING,1.45126504902062,103.821677740278,103.821677740278,750502,WELLINGTON CIRCLE,MONTREAL SPRING,26704.5607208833,48099.0370150208
503 CANBERRA LINK MONTREAL SPRING SINGAPORE 750503,503,MONTREAL SPRING,1.45056197040152,103.821965305618,103.821965305618,750503,CANBERRA LINK,MONTREAL SPRING,26736.5617585443,48021.2939409856
504 MONTREAL DRIVE MONTREAL SPRING SINGAPORE 750504,504,MONTREAL SPRING,1.45089251057067,103.823678171092,103.823678171092,750504,MONTREAL DRIVE,MONTREAL SPRING,26927.1765350308,48057.8425313253
505 CANBERRA LINK MONTREAL SPRING SINGAPORE 750505,505,MONTREAL SPRING,1.45026201889682,103.822534715231,103.822534715231,750505,CANBERRA LINK,MONTREAL SPRING,26799.9278127244,47988.1264963057
506 WELLINGTON CIRCLE MONTREAL SPRING SINGAPORE 750506,506,MONTREAL SPRING,1.45241118697299,103.823565835757,103.823565835757,750506,WELLINGTON CIRCLE,MONTREAL SPRING,26914.6761301672,48225.7702130284
507 WELLINGTON CIRCLE MONTREAL SPRING SINGAPORE 750507,507,MONTREAL SPRING,1.45200322156883,103.823558728812,103.823558728812,750507,WELLINGTON CIRCLE,MONTREAL SPRING,26913.8850461449,48180.6594457235
508 WELLINGTON CIRCLE MULTI STOREY CAR PARK SINGAPORE 750508,508,MULTI STOREY CAR PARK,1.4530678854261,103.820076568364,103.820076568364,750508,WELLINGTON CIRCLE,MULTI STOREY CAR PARK,26526.3770355769,48298.3866170514
509 WELLINGTON CIRCLE WELLINGTON VIEW SINGAPORE 750509,509,WELLINGTON VIEW,1.45359091761866,103.821195068901,103.821195068901,750509,WELLINGTON CIRCLE,WELLINGTON VIEW,26650.8484887695,48356.2201983649
511 CANBERRA ROAD BERRY TREE PRESCHOOL@SEMBAWANG PRIVATE LIMITED SINGAPORE 750511,511,BERRY TREE PRESCHOOL@SEMBAWANG PRIVATE LIMITED,1.45384518789713,103.819543348113,103.819543348113,750511,CANBERRA ROAD,BERRY TREE PRESCHOOL@SEMBAWANG PRIVATE LIMITED,26467.038711722,48384.3371878192
512 WELLINGTON CIRCLE SINGAPORE 750512,512,NIL,1.45391372464483,103.820295977961,103.820295977961,750512,WELLINGTON CIRCLE,512 WELLINGTON CIRCLE SINGAPORE 750512,26550.7943391139,48391.9151407573
513 WELLINGTON CIRCLE SINGAPORE 750513,513,NIL,1.45420776620009,103.82013524496,103.82013524496,750513,WELLINGTON CIRCLE,513 WELLINGTON CIRCLE SINGAPORE 750513,26532.9075346719,48424.4288877957
588 MONTREAL DRIVE MONTREAL SPRING SINGAPORE 750588,588,MONTREAL SPRING,1.45016263443854,103.824598070405,103.824598070405,750588,MONTREAL DRIVE,MONTREAL SPRING,27029.5463367803,47977.1360703446
590 MONTREAL LINK MONTREAL DALE SINGAPORE 750590,590,MONTREAL DALE,1.45063212743043,103.826554055194,103.826554055194,750590,MONTREAL LINK,MONTREAL DALE,27247.2164531928,48029.0495064538
591 MONTREAL LINK MONTREAL DALE SINGAPORE 750591,591,MONTREAL DALE,1.45035494651699,103.826355269162,103.826355269162,750591,MONTREAL LINK,MONTREAL DALE,27225.0946432734,47998.4002974816
592 MONTREAL LINK MONTREAL VILLE SINGAPORE 750592,592,MONTREAL VILLE,1.45123081086214,103.827439937897,103.827439937897,750592,MONTREAL LINK,MONTREAL VILLE,27345.801243579,48095.2486439105
593 MONTREAL LINK MONTREAL VILLE SINGAPORE 750593,593,MONTREAL VILLE,1.45171802572022,103.828123594223,103.828123594223,750593,MONTREAL LINK,MONTREAL VILLE,27421.8813945875,48149.1222346444
101A CANBERRA STREET EASTCREEK @ CANBERRA SINGAPORE 751101,101A,EASTCREEK @ CANBERRA,1.45173892803325,103.83045410628,103.83045410628,751101,CANBERRA STREET,EASTCREEK @ CANBERRA,27681.2301008264,48151.4330438618
102A CANBERRA STREET EASTCREEK @ CANBERRA SINGAPORE 751102,102A,EASTCREEK @ CANBERRA,1.45119390519494,103.832227554636,103.832227554636,751102,CANBERRA STREET,EASTCREEK @ CANBERRA,27878.5864955941,48091.1669760384
103A CANBERRA STREET EASTCREEK @ CANBERRA SINGAPORE 751103,103A,EASTCREEK @ CANBERRA,1.45103006132424,103.830534008712,103.830534008712,751103,CANBERRA STREET,EASTCREEK @ CANBERRA,27690.1218658667,48073.0501046516
104A CANBERRA STREET EASTBROOK @ CANBERRA SINGAPORE 751104,104A,EASTBROOK @ CANBERRA,1.45035225780871,103.832262400576,103.832262400576,751104,CANBERRA STREET,EASTBROOK @ CANBERRA,27882.4642480602,47998.1018248945
106A CANBERRA STREET EASTBROOK @ CANBERRA SINGAPORE 751106,106A,EASTBROOK @ CANBERRA,1.44850335223601,103.833100432078,103.833100432078,751106,CANBERRA STREET,EASTBROOK @ CANBERRA,27975.7237801943,47793.6590897795
107A CANBERRA STREET EASTBROOK @ CANBERRA SINGAPORE 751107,107A,EASTBROOK @ CANBERRA,1.44990474622,103.832979240964,103.832979240964,751107,CANBERRA STREET,EASTBROOK @ CANBERRA,27962.2371536177,47948.6182117146
108A CANBERRA WALK EASTLAWN @ CANBERRA SINGAPORE 751108,108A,EASTLAWN @ CANBERRA,1.44776056626366,103.831274677849,103.831274677849,751108,CANBERRA WALK,EASTLAWN @ CANBERRA,27772.5461862627,47711.5256447066
109A CANBERRA WALK EASTGLEN @ CANBERRA SINGAPORE 751109,109A,EASTGLEN @ CANBERRA,1.4480211764862,103.830136528853,103.830136528853,751109,CANBERRA WALK,EASTGLEN @ CANBERRA,27645.8882344626,47740.3427628931
115A CANBERRA WALK EASTLACE @ CANBERRA SINGAPORE 751115,115A,EASTLACE @ CANBERRA,1.44662215217976,103.829140768756,103.829140768756,751115,CANBERRA WALK,EASTLACE @ CANBERRA,27535.0756024066,47585.6458525006
116A CANBERRA CRESCENT EASTLINK II @ CANBERRA SINGAPORE 751116,116A,EASTLINK II @ CANBERRA,1.44537906713915,103.830020383661,103.830020383661,751116,CANBERRA CRESCENT,EASTLINK II @ CANBERRA,27632.9626854993,47448.1915833205
117A CANBERRA CRESCENT EASTLINK II @ CANBERRA SINGAPORE 751117,117A,EASTLINK II @ CANBERRA,1.44497965573574,103.830518633862,103.830518633862,751117,CANBERRA CRESCENT,EASTLINK II @ CANBERRA,27688.4100600481,47404.0265997034
118A CANBERRA CRESCENT EASTLINK II @ CANBERRA SINGAPORE 751118,118A,EASTLINK II @ CANBERRA,1.44463698935014,103.829634928256,103.829634928256,751118,CANBERRA CRESCENT,EASTLINK II @ CANBERRA,27590.0674135312,47366.1364112534
119A CANBERRA CRESCENT EASTWAVE @ CANBERRA SINGAPORE 751119,119A,EASTWAVE @ CANBERRA,1.44604755101014,103.831125256006,103.831125256006,751119,CANBERRA CRESCENT,EASTWAVE @ CANBERRA,27755.917712708,47522.1090263557
120A CANBERRA CRESCENT EASTWAVE @ CANBERRA SINGAPORE 751120,120A,EASTWAVE @ CANBERRA,1.446140802959,103.832236151361,103.832236151361,751120,CANBERRA CRESCENT,EASTWAVE @ CANBERRA,27879.5429033432,47532.4202690292
121A CANBERRA STREET EASTBANK @ CANBERRA SINGAPORE 751121,121A,EASTBANK @ CANBERRA,1.4476018660383,103.833517820559,103.833517820559,751121,CANBERRA STREET,EASTBANK @ CANBERRA,28022.1725134514,47693.977266591
126A CANBERRA STREET EASTDELTA @ CANBERRA SINGAPORE 751126,126A,EASTDELTA @ CANBERRA,1.44515880423783,103.834981318758,103.834981318758,751126,CANBERRA STREET,EASTDELTA @ CANBERRA,28185.03693657,47423.8358145934
128A CANBERRA STREET EASTCROWN @ CANBERRA SINGAPORE 751128,128A,EASTCROWN @ CANBERRA,1.44572196543585,103.833276458051,103.833276458051,751128,CANBERRA STREET,EASTCROWN @ CANBERRA,27995.312674433,47486.1072876789
129A CANBERRA STREET EASTCROWN @ CANBERRA SINGAPORE 751129,129A,EASTCROWN @ CANBERRA,1.44525782010492,103.832559693596,103.832559693596,751129,CANBERRA STREET,EASTCROWN @ CANBERRA,27915.5480320342,47434.784440469
130A CANBERRA CRESCENT EASTCROWN @ CANBERRA SINGAPORE 751130,130A,EASTCROWN @ CANBERRA,1.44476382182316,103.831865540071,103.831865540071,751130,CANBERRA CRESCENT,EASTCROWN @ CANBERRA,27838.29959739,47380.1606274899
131A CANBERRA CRESCENT EASTLINK I @ CANBERRA SINGAPORE 751131,131A,EASTLINK I @ CANBERRA,1.44372597469524,103.831029801721,103.831029801721,751131,CANBERRA CRESCENT,EASTLINK I @ CANBERRA,27745.2948914105,47265.4007779453
132A CANBERRA CRESCENT EASTLINK I @ CANBERRA SINGAPORE 751132,132A,EASTLINK I @ CANBERRA,1.44345437411826,103.831294578169,103.831294578169,751132,CANBERRA CRESCENT,EASTLINK I @ CANBERRA,27774.7603498073,47235.3685212843
306A CANBERRA ROAD MULTI STOREY CAR PARK SINGAPORE 751306,306A,MULTI STOREY CAR PARK,1.44535856249218,103.822587675705,103.822587675705,751306,CANBERRA ROAD,MULTI STOREY CAR PARK,26805.8189006634,47445.9268419743
313A SEMBAWANG DRIVE MULTI STOREY CAR PARK SINGAPORE 751313,313A,MULTI STOREY CAR PARK,1.44410704772453,103.821277851245,103.821277851245,751313,SEMBAWANG DRIVE,MULTI STOREY CAR PARK,26660.0552527169,47307.5413480066
316A SEMBAWANG VISTA MULTI STOREY CAR PARK SINGAPORE 751316,316A,MULTI STOREY CAR PARK,1.44646879141296,103.820484203624,103.820484203624,751316,SEMBAWANG VISTA,MULTI STOREY CAR PARK,26571.7361516878,47568.6916046366
322A SEMBAWANG CLOSE MULTI STOREY CAR PARK SINGAPORE 751322,322A,MULTI STOREY CAR PARK,1.44615746767131,103.818199524387,103.818199524387,751322,SEMBAWANG CLOSE,MULTI STOREY CAR PARK,26317.4870861499,47534.2685531862
323A SEMBAWANG CLOSE SINGAPORE 751323,323A,NIL,1.44526377947414,103.818348117817,103.818348117817,751323,SEMBAWANG CLOSE,323A SEMBAWANG CLOSE SINGAPORE 751323,26334.0225461908,47435.4488832466
325A SEMBAWANG CRESCENT MULTI STOREY CAR PARK SINGAPORE 751325,325A,MULTI STOREY CAR PARK,1.44500816617163,103.818748828013,103.818748828013,751325,SEMBAWANG CRESCENT,MULTI STOREY CAR PARK,26378.6151256142,47407.1841557641
330A SEMBAWANG CLOSE MULTI STOREY CAR PARK SINGAPORE 751330,330A,MULTI STOREY CAR PARK,1.44709213339557,103.817269555868,103.817269555868,751330,SEMBAWANG CLOSE,MULTI STOREY CAR PARK,26213.9969452508,47637.6199153811
334A SEMBAWANG CLOSE SINGAPORE 751334,334A,NIL,1.44804933629396,103.816349002107,103.816349002107,751334,SEMBAWANG CLOSE,334A SEMBAWANG CLOSE SINGAPORE 751334,26111.5546214115,47743.4633617457
335A SEMBAWANG CLOSE MULTI STOREY CAR PARK SINGAPORE 751335,335A,MULTI STOREY CAR PARK,1.44768656936526,103.81549721844,103.81549721844,751335,SEMBAWANG CLOSE,MULTI STOREY CAR PARK,26016.7642557323,47703.3511400763
336A SEMBAWANG CRESCENT MULTI STOREY CAR PARK SINGAPORE 751336,336A,MULTI STOREY CAR PARK,1.44663862549183,103.815010452386,103.815010452386,751336,SEMBAWANG CRESCENT,MULTI STOREY CAR PARK,25962.5939479535,47587.4751888998
337A SEMBAWANG CRESCENT SINGAPORE 751337,337A,NIL,1.44637239271922,103.815645306311,103.815645306311,751337,SEMBAWANG CRESCENT,337A SEMBAWANG CRESCENT SINGAPORE 751337,26033.2429633038,47558.0359425768
339A SEMBAWANG CLOSE SUN TRELLIS SINGAPORE 751339,339A,SUN TRELLIS,1.44801536040364,103.81788087791,103.81788087791,751339,SEMBAWANG CLOSE,SUN TRELLIS,26282.0281432252,47739.705258619
340A SEMBAWANG CLOSE SUN TRELLIS SINGAPORE 751340,340A,SUN TRELLIS,1.44753390062501,103.81789234547,103.81789234547,751340,SEMBAWANG CLOSE,SUN TRELLIS,26283.303938739,47686.4678403661
341A SEMBAWANG CLOSE SUN TRELLIS SINGAPORE 751341,341A,SUN TRELLIS,1.44757636464401,103.818609770738,103.818609770738,751341,SEMBAWANG CLOSE,SUN TRELLIS,26363.1420718022,47691.1627678573
350A CANBERRA ROAD SINGAPORE 751350,350A,NIL,1.45054091181454,103.820624275703,103.820624275703,751350,CANBERRA ROAD,350A CANBERRA ROAD SINGAPORE 751350,26587.3264939375,48018.9661816992
351A CANBERRA ROAD SINGAPORE 751351,351A,NIL,1.45038763174432,103.820209041546,103.820209041546,751351,CANBERRA ROAD,351A CANBERRA ROAD SINGAPORE 751351,26541.117452844,48002.0175031442
352A CANBERRA ROAD SINGAPORE 751352,352A,NIL,1.45065508162834,103.819650880153,103.819650880153,751352,CANBERRA ROAD,352A CANBERRA ROAD SINGAPORE 751352,26479.0031613978,48031.5911393147
353A ADMIRALTY DRIVE SINGAPORE 751353,353A,NIL,1.45053763016096,103.819135455324,103.819135455324,751353,ADMIRALTY DRIVE,353A ADMIRALTY DRIVE SINGAPORE 751353,26421.644515018,48018.6042976845
354A ADMIRALTY DRIVE SINGAPORE 751354,354A,NIL,1.45006599986269,103.818890891158,103.818890891158,751354,ADMIRALTY DRIVE,354A ADMIRALTY DRIVE SINGAPORE 751354,26394.4280888839,47966.4539540671
355A SEMBAWANG WAY SINGAPORE 751355,355A,NIL,1.44952989851944,103.818964193245,103.818964193245,751355,SEMBAWANG WAY,355A SEMBAWANG WAY SINGAPORE 751355,26402.5850683516,47907.1745014414
356A ADMIRALTY DRIVE SUN BLISS SINGAPORE 751356,356A,SUN BLISS,1.44944134467676,103.816852385344,103.816852385344,751356,ADMIRALTY DRIVE,SUN BLISS,26167.5743332636,47897.3842615727
357A ADMIRALTY DRIVE SUN BLISS SINGAPORE 751357,357A,SUN BLISS,1.45004399363065,103.817003273639,103.817003273639,751357,ADMIRALTY DRIVE,SUN BLISS,26184.3662841981,47964.0220426489
358A ADMIRALTY DRIVE MULTI STOREY CAR PARK SINGAPORE 751358,358A,MULTI STOREY CAR PARK,1.44883583728958,103.815927135351,103.815927135351,751358,ADMIRALTY DRIVE,MULTI STOREY CAR PARK,26064.6081916988,47830.4310578369
359A ADMIRALTY DRIVE SUN BLISS SINGAPORE 751359,359A,SUN BLISS,1.44966317668208,103.815544863508,103.815544863508,751359,ADMIRALTY DRIVE,SUN BLISS,26022.0681145191,47921.9144344199
360A ADMIRALTY DRIVE SUN BLISS SINGAPORE 751360,360A,SUN BLISS,1.449203308783,103.815848473794,103.815848473794,751360,ADMIRALTY DRIVE,SUN BLISS,26055.8547210759,47871.0642823111
362A SEMBAWANG CRESCENT SUN NATURA SINGAPORE 751362,362A,SUN NATURA,1.44719485060317,103.814007986875,103.814007986875,751362,SEMBAWANG CRESCENT,SUN NATURA,25851.0358457258,47648.9807003886
363A SEMBAWANG CRESCENT SUN NATURA SINGAPORE 751363,363A,SUN NATURA,1.44576016585328,103.814267716736,103.814267716736,751363,SEMBAWANG CRESCENT,SUN NATURA,25879.9383498942,47490.3402046654
364A SEMBAWANG CRESCENT SUN BREEZE SINGAPORE 751364,364A,SUN BREEZE,1.44449842035041,103.815603121909,103.815603121909,751364,SEMBAWANG CRESCENT,SUN BREEZE,26028.5468856301,47350.8215076569
365A SEMBAWANG CRESCENT SUN BREEZE SINGAPORE 751365,365A,SUN BREEZE,1.4440528137681,103.817027689848,103.817027689848,751365,SEMBAWANG CRESCENT,SUN BREEZE,26187.0786587559,47301.547379192
366A SEMBAWANG CRESCENT SUN BREEZE SINGAPORE 751366,366A,SUN BREEZE,1.4438005069825,103.816211984803,103.816211984803,751366,SEMBAWANG CRESCENT,SUN BREEZE,26096.3032200439,47273.6492272597
370A SEMBAWANG AVENUE SUN SAILS SINGAPORE 751370,370A,SUN SAILS,1.44310181165442,103.821807418044,103.821807418044,751370,SEMBAWANG AVENUE,SUN SAILS,26718.987198622,47196.3870812189
371A SEMBAWANG AVENUE SUN SAILS SINGAPORE 751371,371A,SUN SAILS,1.44264753602082,103.822106452967,103.822106452967,751371,SEMBAWANG AVENUE,SUN SAILS,26752.2648793003,47146.1553948205
372A SEMBAWANG AVENUE SUN SAILS SINGAPORE 751372,372A,SUN SAILS,1.4424929159874,103.822566823093,103.822566823093,751372,SEMBAWANG AVENUE,SUN SAILS,26803.4968317561,47129.0580399297
373A SEMBAWANG AVENUE SUN SAILS SINGAPORE 751373,373A,SUN SAILS,1.44216814968012,103.822677067136,103.822677067136,751373,SEMBAWANG AVENUE,SUN SAILS,26815.7651114529,47093.146953864
403A ADMIRALTY LINK SINGAPORE 751403,403A,NIL,1.45366885379424,103.816072556686,103.816072556686,751403,ADMIRALTY LINK,403A ADMIRALTY LINK SINGAPORE 751403,26080.7953580506,48364.8417005781
404A ADMIRALTY LINK MULTI STOREY CAR PARK SINGAPORE 751404,404A,MULTI STOREY CAR PARK,1.45435345868117,103.816414598525,103.816414598525,751404,ADMIRALTY LINK,MULTI STOREY CAR PARK,26118.8596782098,48440.5415949076
406A SEMBAWANG DRIVE FC SINGAPORE 751406,406A,FC,1.45273624315703,103.817249275768,103.817249275768,751406,SEMBAWANG DRIVE,FC,26211.7445229748,48261.7173179947
415A SEMBAWANG DRIVE SINGAPORE 751415,415A,NIL,1.45188168476075,103.818665235954,103.818665235954,751415,SEMBAWANG DRIVE,415A SEMBAWANG DRIVE SINGAPORE 751415,26369.3175577158,48167.2234574836
423A SEMBAWANG DRIVE SINGAPORE 751423,423A,NIL,1.45348554903777,103.817998090019,103.817998090019,751423,SEMBAWANG DRIVE,423A SEMBAWANG DRIVE SINGAPORE 751423,26295.0760959145,48344.571231883
424A CANBERRA ROAD MULTI STOREY CAR PARK SINGAPORE 751424,424A,MULTI STOREY CAR PARK,1.45319114843806,103.819067983913,103.819067983913,751424,CANBERRA ROAD,MULTI STOREY CAR PARK,26414.1378734484,48312.0171073563
462A SEMBAWANG DRIVE SINGAPORE 751462,462A,NIL,1.45441771969783,103.813240838967,103.813240838967,751462,SEMBAWANG DRIVE,462A SEMBAWANG DRIVE SINGAPORE 751462,25765.6714749997,48447.650151955
463A SEMBAWANG DRIVE SEMBAWANG RIVERLODGE SINGAPORE 751463,463A,SEMBAWANG RIVERLODGE,1.45559843682203,103.814045150572,103.814045150572,751463,SEMBAWANG DRIVE,SEMBAWANG RIVERLODGE,25855.1795024294,48578.2071648818
466A SEMBAWANG DRIVE MAINSPRING LEARNING CENTRE SINGAPORE 751466,466A,MAINSPRING LEARNING CENTRE,1.45520101606352,103.813588642102,103.813588642102,751466,SEMBAWANG DRIVE,MAINSPRING LEARNING CENTRE,25804.3771131979,48534.2628045976
467A ADMIRALTY DRIVE BLUE RIVERVIEW SINGAPORE 751467,467A,BLUE RIVERVIEW,1.45201033384253,103.813929032074,103.813929032074,751467,ADMIRALTY DRIVE,BLUE RIVERVIEW,25842.2539837342,48181.4527998455
468A ADMIRALTY DRIVE BLUE RIVERVIEW SINGAPORE 751468,468A,BLUE RIVERVIEW,1.45051331300816,103.813729263582,103.813729263582,751468,ADMIRALTY DRIVE,BLUE RIVERVIEW,25820.0215140665,48015.9199210126
469A ADMIRALTY DRIVE BLUE RIVERVIEW SINGAPORE 751469,469A,BLUE RIVERVIEW,1.44992054287523,103.81367406265,103.81367406265,751469,ADMIRALTY DRIVE,BLUE RIVERVIEW,25813.8779608756,47950.3744206652
475A SEMBAWANG DRIVE SINGAPORE 751475,475A,NIL,1.45119560597258,103.816927028619,103.816927028619,751475,SEMBAWANG DRIVE,475A SEMBAWANG DRIVE SINGAPORE 751475,26175.8823499708,48091.3616294414
476A SEMBAWANG DRIVE MULTI STOREY CAR PARK SINGAPORE 751476,476A,MULTI STOREY CAR PARK,1.45180340024791,103.816701404767,103.816701404767,751476,SEMBAWANG DRIVE,MULTI STOREY CAR PARK,26150.7745126532,48158.5686604865
480A SEMBAWANG DRIVE SINGAPORE 751480,480A,NIL,1.45194866147393,103.814821463,103.814821463,751480,SEMBAWANG DRIVE,480A SEMBAWANG DRIVE SINGAPORE 751480,25941.5672034165,48174.6325453408
481A SEMBAWANG DRIVE MULTI STOREY CAR PARK SINGAPORE 751481,481A,MULTI STOREY CAR PARK,1.45248404456569,103.815410420566,103.815410420566,751481,SEMBAWANG DRIVE,MULTI STOREY CAR PARK,26007.1092229467,48233.8319996875
482A ADMIRALTY LINK MULTI STOREY CAR PARK SINGAPORE 751482,482A,MULTI STOREY CAR PARK,1.45488185139782,103.81567746984,103.81567746984,751482,ADMIRALTY LINK,MULTI STOREY CAR PARK,26036.829598302,48498.9692459367
484A ADMIRALTY LINK MULTI STOREY CAR PARK SINGAPORE 751484,484A,MULTI STOREY CAR PARK,1.45648173153249,103.815234506396,103.815234506396,751484,ADMIRALTY LINK,MULTI STOREY CAR PARK,25987.5363404714,48675.876379028
492A ADMIRALTY LINK SEMBAWANG GREEN SINGAPORE 751492,492A,SEMBAWANG GREEN,1.45665763839691,103.817394361321,103.817394361321,751492,ADMIRALTY LINK,SEMBAWANG GREEN,26227.8932792554,48695.3254654501
501A WELLINGTON CIRCLE MONTREAL SPRING SINGAPORE 751501,501A,MONTREAL SPRING,1.45176919565749,103.820781714095,103.820781714095,751501,WELLINGTON CIRCLE,MONTREAL SPRING,26604.8476308677,48154.7835583203
502A WELLINGTON CIRCLE MONTREAL SPRING SINGAPORE 751502,502A,MONTREAL SPRING,1.45093008840551,103.821415036965,103.821415036965,751502,WELLINGTON CIRCLE,MONTREAL SPRING,26675.3258439861,48061.9989005812
503A CANBERRA LINK MONTREAL SPRING SINGAPORE 751503,503A,MONTREAL SPRING,1.45058879786565,103.821649350316,103.821649350316,751503,CANBERRA LINK,MONTREAL SPRING,26701.4009855269,48024.2605666071
504A MONTREAL DRIVE MONTREAL SPRING SINGAPORE 751504,504A,MONTREAL SPRING,1.45129656287889,103.824120156543,103.824120156543,751504,MONTREAL DRIVE,MONTREAL SPRING,26976.3626441984,48102.5204059258
506A WELLINGTON CIRCLE MONTREAL SPRING SINGAPORE 751506,506A,MONTREAL SPRING,1.45198402771961,103.823946118275,103.823946118275,751506,WELLINGTON CIRCLE,MONTREAL SPRING,26956.9952813331,48178.5369033646
507A WELLINGTON CIRCLE MONTREAL SPRING SINGAPORE 751507,507A,MONTREAL SPRING,1.4527308013707,103.823966895951,103.823966895951,751507,WELLINGTON CIRCLE,MONTREAL SPRING,26959.3078460936,48261.1113832276
508A WELLINGTON CIRCLE WELLINGTON VIEW SINGAPORE 751508,508A,WELLINGTON VIEW,1.45251383070644,103.820519939603,103.820519939603,751508,WELLINGTON CIRCLE,WELLINGTON VIEW,26575.7167850304,48237.1217360329
509A WELLINGTON CIRCLE WELLINGTON VIEW SINGAPORE 751509,509A,WELLINGTON VIEW,1.45308000905079,103.820743432328,103.820743432328,751509,WELLINGTON CIRCLE,WELLINGTON VIEW,26600.5882899314,48299.7267622985
510A WELLINGTON CIRCLE WELLINGTON VIEW SINGAPORE 751510,510A,WELLINGTON VIEW,1.45347436227405,103.820317524174,103.820317524174,751510,WELLINGTON CIRCLE,WELLINGTON VIEW,26553.1918055685,48343.3326357212
588A MONTREAL DRIVE MONTREAL SPRING SINGAPORE 751588,588A,MONTREAL SPRING,1.45035683378178,103.825726692093,103.825726692093,751588,MONTREAL DRIVE,MONTREAL SPRING,27155.1440313794,47998.6092071049
589A MONTREAL DRIVE MONTREAL SPRING SINGAPORE 751589,589A,MONTREAL SPRING,1.44970161541843,103.825767137323,103.825767137323,751589,MONTREAL DRIVE,MONTREAL SPRING,27159.6446989495,47926.1584294885
590A MONTREAL LINK MONTREAL DALE SINGAPORE 751590,590A,MONTREAL DALE,1.45035573249189,103.826654919951,103.826654919951,751590,MONTREAL LINK,MONTREAL DALE,27258.4410020066,47998.4871060587
591A MONTREAL LINK MONTREAL DALE SINGAPORE 751591,591A,MONTREAL DALE,1.45075627789135,103.826236742405,103.826236742405,751591,MONTREAL LINK,MONTREAL DALE,27211.9046429368,48042.7775504701
592A MONTREAL LINK MONTREAL VILLE SINGAPORE 751592,592A,MONTREAL VILLE,1.45093939112951,103.827087654463,103.827087654463,751592,MONTREAL LINK,MONTREAL VILLE,27306.5976365125,48063.0250154976
593A MONTREAL LINK MONTREAL VILLE SINGAPORE 751593,593A,MONTREAL VILLE,1.45154716074707,103.827907536375,103.827907536375,751593,MONTREAL LINK,MONTREAL VILLE,27397.8375677019,48130.2288986724
101B CANBERRA STREET EASTCREEK @ CANBERRA SINGAPORE 752101,101B,EASTCREEK @ CANBERRA,1.45166310353079,103.831174909166,103.831174909166,752101,CANBERRA STREET,EASTCREEK @ CANBERRA,27761.4439201029,48143.0486610327
102B CANBERRA STREET EASTCREEK @ CANBERRA SINGAPORE 752102,102B,EASTCREEK @ CANBERRA,1.45123970424367,103.83143636512,103.83143636512,752102,CANBERRA STREET,EASTCREEK @ CANBERRA,27790.5397458831,48096.2312637344
103B CANBERRA STREET EASTCREEK @ CANBERRA SINGAPORE 752103,103B,EASTCREEK @ CANBERRA,1.45056599465441,103.831238741555,103.831238741555,752103,CANBERRA STREET,EASTCREEK @ CANBERRA,27768.5473315939,48021.7358535491
104B CANBERRA STREET EASTBROOK @ CANBERRA SINGAPORE 752104,104B,EASTBROOK @ CANBERRA,1.45007421711069,103.831377046227,103.831377046227,752104,CANBERRA STREET,EASTBROOK @ CANBERRA,27783.9383894382,47967.3575441856
106B CANBERRA STREET EASTBROOK @ CANBERRA SINGAPORE 752106,106B,EASTBROOK @ CANBERRA,1.44803885202675,103.833228909288,103.833228909288,752106,CANBERRA STREET,EASTBROOK @ CANBERRA,27990.0212557875,47742.2969849929
107B CANBERRA STREET EASTBROOK @ CANBERRA SINGAPORE 752107,107B,EASTBROOK @ CANBERRA,1.44916516333167,103.833497265983,103.833497265983,752107,CANBERRA STREET,EASTBROOK @ CANBERRA,28019.8851013863,47866.8388415165
108B CANBERRA WALK EASTLAWN @ CANBERRA SINGAPORE 752108,108B,EASTLAWN @ CANBERRA,1.44818951673352,103.831856910403,103.831856910403,752108,CANBERRA WALK,EASTLAWN @ CANBERRA,27837.3394969469,47758.9567859117
109B CANBERRA WALK EASTGLEN @ CANBERRA SINGAPORE 752109,109B,EASTGLEN @ CANBERRA,1.4478383335801,103.829664870604,103.829664870604,752109,CANBERRA WALK,EASTGLEN @ CANBERRA,27593.4001001464,47720.1249907576
115B CANBERRA WALK EASTLACE @ CANBERRA SINGAPORE 752115,115B,EASTLACE @ CANBERRA,1.44631122878781,103.829416902418,103.829416902418,752115,CANBERRA WALK,EASTLACE @ CANBERRA,27565.8048701957,47551.2654486392
117B CANBERRA CRESCENT EASTLINK II @ CANBERRA SINGAPORE 752117,117B,EASTLINK II @ CANBERRA,1.4447956978802,103.830159588142,103.830159588142,752117,CANBERRA CRESCENT,EASTLINK II @ CANBERRA,27648.4538698345,47383.6855158005
118B CANBERRA CRESCENT EASTLINK II @ CANBERRA SINGAPORE 752118,118B,EASTLINK II @ CANBERRA,1.4450285258496,103.829460415871,103.829460415871,752118,CANBERRA CRESCENT,EASTLINK II @ CANBERRA,27570.6469908906,47409.4305849802
119B CANBERRA CRESCENT EASTWAVE @ CANBERRA SINGAPORE 752119,119B,EASTWAVE @ CANBERRA,1.44637013931729,103.831574876885,103.831574876885,752119,CANBERRA CRESCENT,EASTWAVE @ CANBERRA,27805.9534744471,47557.7791792713
120B CANBERRA CRESCENT EASTWAVE @ CANBERRA SINGAPORE 752120,120B,EASTWAVE @ CANBERRA,1.44629377124154,103.83270384797,103.83270384797,752120,CANBERRA CRESCENT,EASTWAVE @ CANBERRA,27931.5901844762,47549.3347144946
121B CANBERRA STREET EASTBANK @ CANBERRA SINGAPORE 752121,121B,EASTBANK @ CANBERRA,1.44788626704481,103.834033767478,103.834033767478,752121,CANBERRA STREET,EASTBANK @ CANBERRA,28079.5892440919,47725.4249147065
126B CANBERRA STREET EASTDELTA @ CANBERRA SINGAPORE 752126,126B,EASTDELTA @ CANBERRA,1.44560242235984,103.835161882332,103.835161882332,752126,CANBERRA STREET,EASTDELTA @ CANBERRA,28205.1307915812,47472.8888959736
128B CANBERRA STREET EASTCROWN @ CANBERRA SINGAPORE 752128,128B,EASTCROWN @ CANBERRA,1.44514889153347,103.833925659353,103.833925659353,752128,CANBERRA STREET,EASTCROWN @ CANBERRA,28067.5585983358,47422.7396595646
129B CANBERRA STREET EASTCROWN @ CANBERRA SINGAPORE 752129,129B,EASTCROWN @ CANBERRA,1.44487017343162,103.832974164005,103.832974164005,752129,CANBERRA STREET,EASTCROWN @ CANBERRA,27961.6720806295,47391.9204050582
130B CANBERRA CRESCENT EASTCROWN @ CANBERRA SINGAPORE 752130,130B,EASTCROWN @ CANBERRA,1.44438611303635,103.832077558585,103.832077558585,752130,CANBERRA CRESCENT,EASTCROWN @ CANBERRA,27861.89391445,47338.3954712283
131B CANBERRA CRESCENT EASTLINK I @ CANBERRA SINGAPORE 752131,131B,EASTLINK I @ CANBERRA,1.4441465844546,103.830857595253,103.830857595253,752131,CANBERRA CRESCENT,EASTLINK I @ CANBERRA,27726.1310504675,47311.9097142201
132B CANBERRA VIEW EASTLINK I @ CANBERRA SINGAPORE 752132,132B,EASTLINK I @ CANBERRA,1.44312045724646,103.831654222251,103.831654222251,752132,CANBERRA VIEW,EASTLINK I @ CANBERRA,27814.783099317,47198.4456370585
306B CANBERRA ROAD MULTI STOREY CAR PARK SINGAPORE 752306,306B,MULTI STOREY CAR PARK,1.44651968801694,103.82209653115,103.82209653115,752306,CANBERRA ROAD,MULTI STOREY CAR PARK,26751.1628522817,47574.3185438812
339B SEMBAWANG CLOSE SUN TRELLIS SINGAPORE 752339,339B,SUN TRELLIS,1.44801595683776,103.817560653972,103.817560653972,752339,SEMBAWANG CLOSE,SUN TRELLIS,26246.3922839351,47739.7714546993
340B SEMBAWANG CLOSE SUN TRELLIS SINGAPORE 752340,340B,SUN TRELLIS,1.44717581022133,103.818266688906,103.818266688906,752340,SEMBAWANG CLOSE,SUN TRELLIS,26324.9621884804,47646.8717180882
341B SEMBAWANG CLOSE SUN TRELLIS SINGAPORE 752341,341B,SUN TRELLIS,1.44798211047398,103.818506856223,103.818506856223,752341,SEMBAWANG CLOSE,SUN TRELLIS,26351.6896050703,47736.0281828865
350B CANBERRA ROAD SINGAPORE 752350,350B,NIL,1.45007343308879,103.820762984254,103.820762984254,752350,CANBERRA ROAD,350B CANBERRA ROAD SINGAPORE 752350,26602.7622575937,47967.2746401783
351B CANBERRA ROAD SINGAPORE 752351,351B,NIL,1.45086077228911,103.819972769999,103.819972769999,752351,CANBERRA ROAD,351B CANBERRA ROAD SINGAPORE 752351,26514.8245028919,48054.3351681754
352B CANBERRA ROAD SINGAPORE 752352,352B,NIL,1.45029896549211,103.819814828234,103.819814828234,752352,CANBERRA ROAD,352B CANBERRA ROAD SINGAPORE 752352,26497.2477334077,47992.213491343
353B ADMIRALTY DRIVE SINGAPORE 752353,353B,NIL,1.45016506715726,103.819306849533,103.819306849533,752353,ADMIRALTY DRIVE,353B ADMIRALTY DRIVE SINGAPORE 752353,26440.7177033499,47977.4080281798
354B ADMIRALTY DRIVE SINGAPORE 752354,354B,NIL,1.45039898878298,103.818680990646,103.818680990646,752354,ADMIRALTY DRIVE,354B ADMIRALTY DRIVE SINGAPORE 752354,26371.0697410246,48003.2743509002
356B ADMIRALTY DRIVE SUN BLISS SINGAPORE 752356,356B,SUN BLISS,1.44922869240593,103.81737574003,103.81737574003,752356,ADMIRALTY DRIVE,SUN BLISS,26225.8152308334,47873.8698217217
357B ADMIRALTY DRIVE SUN BLISS SINGAPORE 752357,357B,SUN BLISS,1.45024168257745,103.817316100829,103.817316100829,752357,ADMIRALTY DRIVE,SUN BLISS,26219.1791267432,47985.8812475409
359B ADMIRALTY DRIVE SINGAPORE 752359,359B,NIL,1.44963205506725,103.815084137742,103.815084137742,752359,ADMIRALTY DRIVE,359B ADMIRALTY DRIVE SINGAPORE 752359,25970.7966320766,47918.4735700302
360B ADMIRALTY DRIVE SUN BLISS SINGAPORE 752360,360B,SUN BLISS,1.44873828964853,103.815232119298,103.815232119298,752360,ADMIRALTY DRIVE,SUN BLISS,25987.2638378143,47819.6453342512
362B SEMBAWANG CRESCENT SUN NATURA SINGAPORE 752362,362B,SUN NATURA,1.4465925712422,103.813540833248,103.813540833248,752362,SEMBAWANG CRESCENT,SUN NATURA,25799.0484346645,47582.3841140382
363B SEMBAWANG CRESCENT SUN NATURA SINGAPORE 752363,363B,SUN NATURA,1.44575590718724,103.813638043808,103.813638043808,752363,SEMBAWANG CRESCENT,SUN NATURA,25809.8656369541,47489.8699007351
364B SEMBAWANG CRESCENT SUN BREEZE SINGAPORE 752364,364B,SUN BREEZE,1.44420252333676,103.815331181349,103.815331181349,752364,SEMBAWANG CRESCENT,SUN BREEZE,25998.2838961296,47318.1029371731
365B SEMBAWANG CRESCENT SUN BREEZE SINGAPORE 752365,365B,SUN BREEZE,1.44396286350094,103.817361902182,103.817361902182,752365,SEMBAWANG CRESCENT,SUN BREEZE,26224.2712004473,47291.6008657217
366B SEMBAWANG CRESCENT SUN BREEZE SINGAPORE 752366,366B,SUN BREEZE,1.44392167964017,103.815957543756,103.815957543756,752366,SEMBAWANG CRESCENT,SUN BREEZE,26067.9880055645,47287.0481069516
370B SEMBAWANG AVENUE SUN SAILS SINGAPORE 752370,370B,SUN SAILS,1.44357741780758,103.822768087778,103.822768087778,752370,SEMBAWANG AVENUE,SUN SAILS,26825.8950186353,47248.9767040834
371B SEMBAWANG AVENUE SUN SAILS SINGAPORE 752371,371B,SUN SAILS,1.44344134729317,103.823141696082,103.823141696082,752371,SEMBAWANG AVENUE,SUN SAILS,26867.4717264287,47233.930519646
372B SEMBAWANG AVENUE SUN SAILS SINGAPORE 752372,372B,SUN SAILS,1.44290888386805,103.823196549373,103.823196549373,752372,SEMBAWANG AVENUE,SUN SAILS,26873.5757799009,47175.0533587914
373B SEMBAWANG AVENUE SUN SAILS SINGAPORE 752373,373B,SUN SAILS,1.4424359554272,103.823324476449,103.823324476449,752373,SEMBAWANG AVENUE,SUN SAILS,26887.8118417552,47122.7592422515
462B SEMBAWANG DRIVE SINGAPORE 752462,462B,NIL,1.4544233630551,103.813496479968,103.813496479968,752462,SEMBAWANG DRIVE,462B SEMBAWANG DRIVE SINGAPORE 752462,25794.120201556,48448.2739145644
463B SEMBAWANG DRIVE HAMILTON PRESCHOOL SINGAPORE 752463,463B,HAMILTON PRESCHOOL,1.45599868966281,103.813971740295,103.813971740295,752463,SEMBAWANG DRIVE,HAMILTON PRESCHOOL,25847.0105065713,48622.4651922807
466B SEMBAWANG DRIVE SPRING LODGE SINGAPORE 752466,466B,SPRING LODGE,1.45500467033158,103.813212087255,103.813212087255,752466,SEMBAWANG DRIVE,SPRING LODGE,25762.4724518014,48512.5522457734
467B ADMIRALTY DRIVE BLUE RIVERVIEW SINGAPORE 752467,467B,BLUE RIVERVIEW,1.45114148417526,103.813629843094,103.813629843094,752467,ADMIRALTY DRIVE,BLUE RIVERVIEW,25808.9582028016,48085.3800402321
468B ADMIRALTY DRIVE BLUE RIVERVIEW SINGAPORE 752468,468B,BLUE RIVERVIEW,1.45000861656514,103.814110899773,103.814110899773,752468,ADMIRALTY DRIVE,BLUE RIVERVIEW,25862.4910668442,47960.1127509438
469B ADMIRALTY DRIVE BLUE RIVERVIEW SINGAPORE 752469,469B,BLUE RIVERVIEW,1.44826812204429,103.813348364213,103.813348364213,752469,ADMIRALTY DRIVE,BLUE RIVERVIEW,25777.631293674,47767.6583166737
482B ADMIRALTY LINK SINGAPORE 752482,482B,NIL,1.45528854400541,103.815796733334,103.815796733334,752482,ADMIRALTY LINK,482B ADMIRALTY LINK SINGAPORE 752482,26050.1020486262,48543.9391763117
484B ADMIRALTY LINK SINGAPORE 752484,484B,NIL,1.45673237952445,103.81520912889,103.81520912889,752484,ADMIRALTY LINK,484B ADMIRALTY LINK SINGAPORE 752484,25984.7124586627,48703.5918031428
501B WELLINGTON CIRCLE GLORY JOY CHILD DEVELOPMENT CENTRE SINGAPORE 752501,501B,GLORY JOY CHILD DEVELOPMENT CENTRE,1.45218571290718,103.821369887884,103.821369887884,752501,WELLINGTON CIRCLE,GLORY JOY CHILD DEVELOPMENT CENTRE,26670.3022061922,48200.8395947553
503B CANBERRA LINK EVANGEL STUDENT CARE CENTRE (CANBERRA) SINGAPORE 752503,503B,EVANGEL STUDENT CARE CENTRE (CANBERRA),1.45038042756867,103.822061849106,103.822061849106,752503,CANBERRA LINK,EVANGEL STUDENT CARE CENTRE (CANBERRA),26747.3054096326,48001.2197904326
504B MONTREAL DRIVE MONTREAL SPRING SINGAPORE 752504,504B,MONTREAL SPRING,1.45088207954215,103.823325694936,103.823325694936,752504,MONTREAL DRIVE,MONTREAL SPRING,26887.9515587678,48056.6892908774
507B WELLINGTON CIRCLE MONTREAL SPRING SINGAPORE 752507,507B,MONTREAL SPRING,1.45288094461879,103.823411094973,103.823411094973,752507,WELLINGTON CIRCLE,MONTREAL SPRING,26897.4561899425,48277.7137355134
508B WELLINGTON CIRCLE WELLINGTON VIEW SINGAPORE 752508,508B,WELLINGTON VIEW,1.45262510110474,103.820909521779,103.820909521779,752508,WELLINGTON CIRCLE,WELLINGTON VIEW,26619.0711012408,48249.4252173956
509B WELLINGTON CIRCLE WELLINGTON VIEW SINGAPORE 752509,509B,WELLINGTON VIEW,1.45328536421439,103.821213227146,103.821213227146,752509,WELLINGTON CIRCLE,WELLINGTON VIEW,26652.8690280225,48322.4336220752
510B WELLINGTON CIRCLE WELLINGTON VIEW SINGAPORE 752510,510B,WELLINGTON VIEW,1.453608954893,103.820883631768,103.820883631768,752510,WELLINGTON CIRCLE,WELLINGTON VIEW,26616.1905577658,48358.214858491
588B MONTREAL DRIVE MONTREAL SPRING SINGAPORE 752588,588B,MONTREAL SPRING,1.45043745007348,103.825135383691,103.825135383691,752588,MONTREAL DRIVE,MONTREAL SPRING,27089.340859686,48007.52358233
589B MONTREAL DRIVE MONTREAL SPRING SINGAPORE 752589,589B,MONTREAL SPRING,1.44967865537361,103.825477345733,103.825477345733,752589,MONTREAL DRIVE,MONTREAL SPRING,27127.3954940904,47923.6197326221
590B MONTREAL LINK MONTREAL DALE SINGAPORE 752590,590B,MONTREAL DALE,1.45008621870701,103.827067209255,103.827067209255,752590,MONTREAL LINK,MONTREAL DALE,27304.322150032,47968.6854914352
592B MONTREAL LINK MONTREAL VILLE SINGAPORE 752592,592B,MONTREAL VILLE,1.45066388771139,103.827601887037,103.827601887037,752592,MONTREAL LINK,MONTREAL VILLE,27363.8234367119,48032.5610768534
593B MONTREAL LINK MONTREAL VILLE SINGAPORE 752593,593B,MONTREAL VILLE,1.4513699701967,103.828324578002,103.828324578002,752593,MONTREAL LINK,MONTREAL VILLE,27444.247588207,48110.6359485239
101C CANBERRA STREET SINGAPORE 753101,101C,NIL,1.45209602014253,103.830626737591,103.830626737591,753101,CANBERRA STREET,101C CANBERRA STREET SINGAPORE 753101,27700.4412506279,48190.9184761252
102C CANBERRA STREET EASTCREEK @ CANBERRA SINGAPORE 753102,102C,EASTCREEK @ CANBERRA,1.4515599303551,103.831765050319,103.831765050319,753102,CANBERRA STREET,EASTCREEK @ CANBERRA,27827.1171816103,48131.640234217
104C CANBERRA STREET EASTBROOK @ CANBERRA SINGAPORE 753104,104C,EASTBROOK @ CANBERRA,1.44970999451163,103.831775965127,103.831775965127,753104,CANBERRA STREET,EASTBROOK @ CANBERRA,27828.3316844562,47927.0836006794
107C CANBERRA STREET EASTBROOK @ CANBERRA SINGAPORE 753107,107C,EASTBROOK @ CANBERRA,1.44855782306648,103.833864786,103.833864786,753107,CANBERRA STREET,EASTBROOK @ CANBERRA,28060.7842603642,47799.6822066624
108C CANBERRA WALK EASTLAWN @ CANBERRA SINGAPORE 753108,108C,EASTLAWN @ CANBERRA,1.44735330149199,103.831796158318,103.831796158318,753108,CANBERRA WALK,EASTLAWN @ CANBERRA,27830.578688764,47666.4923029039
109C CANBERRA WALK EASTGLEN @ CANBERRA SINGAPORE 753109,109C,EASTGLEN @ CANBERRA,1.44833180099522,103.829335079723,103.829335079723,753109,CANBERRA WALK,EASTGLEN @ CANBERRA,27556.6996856015,47774.6902049202
115C CANBERRA WALK EASTLACE @ CANBERRA SINGAPORE 753115,115C,EASTLACE @ CANBERRA,1.44607590012952,103.829826244984,103.829826244984,753115,CANBERRA WALK,EASTLACE @ CANBERRA,27611.3582159579,47525.2439116966
120C CANBERRA CRESCENT EASTWAVE @ CANBERRA SINGAPORE 753120,120C,EASTWAVE @ CANBERRA,1.44707143643003,103.83280231533,103.83280231533,753120,CANBERRA CRESCENT,EASTWAVE @ CANBERRA,27942.5480723539,47635.3250271231
121C CANBERRA STREET EASTBANK @ CANBERRA SINGAPORE 753121,121C,EASTBANK @ CANBERRA,1.44744539468374,103.834503117404,103.834503117404,753121,CANBERRA STREET,EASTBANK @ CANBERRA,28131.8204940306,47676.6754817385
126C CANBERRA STREET EASTDELTA @ CANBERRA SINGAPORE 753126,126C,EASTDELTA @ CANBERRA,1.44614061239177,103.834964649867,103.834964649867,753126,CANBERRA STREET,EASTDELTA @ CANBERRA,28183.1818723846,47532.3992327806
128C CANBERRA STREET EASTCROWN @ CANBERRA SINGAPORE 753128,128C,EASTCROWN @ CANBERRA,1.44466202296921,103.833900949952,103.833900949952,753128,CANBERRA STREET,EASTCROWN @ CANBERRA,28064.8088428192,47368.9041762203
129C CANBERRA STREET EASTCROWN @ CANBERRA SINGAPORE 753129,129C,EASTCROWN @ CANBERRA,1.44420165808041,103.833186562603,103.833186562603,753129,CANBERRA STREET,EASTCROWN @ CANBERRA,27985.3087123306,47317.999329865
131C CANBERRA CRESCENT EASTLINK I @ CANBERRA SINGAPORE 753131,131C,EASTLINK I @ CANBERRA,1.44396456450031,103.830575292056,103.830575292056,753131,CANBERRA CRESCENT,EASTLINK I @ CANBERRA,27694.7150929319,47291.7828973755
132C CANBERRA VIEW EASTLINK I @ CANBERRA SINGAPORE 753132,132C,EASTLINK I @ CANBERRA,1.44267376186975,103.8309577035,103.8309577035,753132,CANBERRA VIEW,EASTLINK I @ CANBERRA,27737.2713634828,47149.0523738097
350C CANBERRA ROAD SINGAPORE 753350,350C,NIL,1.44996054030355,103.82038215131,103.82038215131,753350,CANBERRA ROAD,350C CANBERRA ROAD SINGAPORE 753350,26560.3815413481,47954.7917604782
351C CANBERRA ROAD SINGAPORE 753351,351C,NIL,1.45133511467761,103.819767140308,103.819767140308,753351,CANBERRA ROAD,351C CANBERRA ROAD SINGAPORE 753351,26491.9415137181,48106.7857096568
352C CANBERRA ROAD SINGAPORE 753352,352C,NIL,1.44983764720493,103.819822012552,103.819822012552,753352,CANBERRA ROAD,352C CANBERRA ROAD SINGAPORE 753352,26498.0469292495,47941.2032215986
353C ADMIRALTY DRIVE SINGAPORE 753353,353C,NIL,1.44975787431726,103.819449183568,103.819449183568,753353,ADMIRALTY DRIVE,353C ADMIRALTY DRIVE SINGAPORE 753353,26456.5569392294,47932.3825863209
354C ADMIRALTY DRIVE SINGAPORE 753354,354C,NIL,1.45064444362685,103.818249469516,103.818249469516,753354,ADMIRALTY DRIVE,354C ADMIRALTY DRIVE SINGAPORE 753354,26323.0484952098,48030.4158335067
356C ADMIRALTY DRIVE SUN BLISS SINGAPORE 753356,356C,SUN BLISS,1.44925221115986,103.817794617678,103.817794617678,753356,ADMIRALTY DRIVE,SUN BLISS,26272.4296813011,47876.470083667
357C ADMIRALTY DRIVE SUN BLISS SINGAPORE 753357,357C,SUN BLISS,1.44982941530451,103.817599040753,103.817599040753,753357,ADMIRALTY DRIVE,SUN BLISS,26250.6655178769,47940.2945767287
359C ADMIRALTY DRIVE SUN BLISS SINGAPORE 753359,359C,SUN BLISS,1.44912493660072,103.814713869962,103.814713869962,753359,ADMIRALTY DRIVE,SUN BLISS,25929.5912519069,47862.3992850035
360C ADMIRALTY DRIVE SUN BLISS SINGAPORE 753360,360C,SUN BLISS,1.4486749328363,103.814692191276,103.814692191276,753360,ADMIRALTY DRIVE,SUN BLISS,25927.1783487815,47812.6401423682
362C SEMBAWANG CRESCENT SUN NATURA SINGAPORE 753362,362C,SUN NATURA,1.44668372388674,103.813225771052,103.813225771052,753362,SEMBAWANG CRESCENT,SUN NATURA,25763.9870617064,47592.4636250287
363C SEMBAWANG CRESCENT SUN NATURA SINGAPORE 753363,363C,SUN NATURA,1.44565214622624,103.812883724067,103.812883724067,753363,SEMBAWANG CRESCENT,SUN NATURA,25725.9215913638,47478.3972755261
365C SEMBAWANG CRESCENT SUN BREEZE SINGAPORE 753365,365C,SUN BREEZE,1.44339578695379,103.816986885504,103.816986885504,753365,SEMBAWANG CRESCENT,SUN BREEZE,26182.5372504788,47228.8966815416
463C SEMBAWANG DRIVE SEMBAWANG RIVERLODGE SINGAPORE 753463,463C,SEMBAWANG RIVERLODGE,1.45623509145475,103.814292200264,103.814292200264,753463,SEMBAWANG DRIVE,SEMBAWANG RIVERLODGE,25882.6727292752,48648.6050165035
466C SEMBAWANG DRIVE SPRING LODGE SINGAPORE 753466,466C,SPRING LODGE,1.45588056867505,103.813146773816,103.813146773816,753466,SEMBAWANG DRIVE,SPRING LODGE,25755.2049878389,48609.4047691841
468C ADMIRALTY DRIVE BLUE RIVERVIEW SINGAPORE 753468,468C,BLUE RIVERVIEW,1.45030915760096,103.814877754821,103.814877754821,753468,ADMIRALTY DRIVE,BLUE RIVERVIEW,25947.8301032679,47993.3443637509
501C WELLINGTON CIRCLE MONTREAL SPRING SINGAPORE 753501,501C,MONTREAL SPRING,1.45169408187552,103.821715715582,103.821715715582,753501,WELLINGTON CIRCLE,MONTREAL SPRING,26708.7870091815,48146.4772971552
503C CANBERRA LINK MONTREAL SPRING SINGAPORE 753503,503C,MONTREAL SPRING,1.4505380366564,103.82294129946,103.82294129946,753503,CANBERRA LINK,MONTREAL SPRING,26845.1743016681,48018.6469452754
504C CANBERRA LINK MONTREAL SPRING SINGAPORE 753504,504C,MONTREAL SPRING,1.45011948894625,103.823591671435,103.823591671435,753504,CANBERRA LINK,MONTREAL SPRING,26917.5501357568,47972.3657150399
507C WELLINGTON CIRCLE MONTREAL SPRING SINGAPORE 753507,507C,MONTREAL SPRING,1.4517313216515,103.823451879244,103.823451879244,753507,WELLINGTON CIRCLE,MONTREAL SPRING,26901.9942687415,48150.5941666923
508C WELLINGTON CIRCLE WELLINGTON VIEW SINGAPORE 753508,508C,WELLINGTON VIEW,1.45288239563765,103.821431874269,103.821431874269,753508,WELLINGTON CIRCLE,WELLINGTON VIEW,26677.2007034337,48277.8752454743
588C MONTREAL DRIVE MONTREAL SPRING SINGAPORE 753588,588C,MONTREAL SPRING,1.45048422477721,103.824578498241,103.824578498241,753588,MONTREAL DRIVE,MONTREAL SPRING,27027.3684040122,48012.6959267277
589C MONTREAL DRIVE MONTREAL SPRING SINGAPORE 753589,589C,MONTREAL SPRING,1.44971283561317,103.824890741709,103.824890741709,753589,MONTREAL DRIVE,MONTREAL SPRING,27062.1158071756,47927.3994470891
590C MONTREAL LINK MONTREAL DALE SINGAPORE 753590,590C,MONTREAL DALE,1.44994314368403,103.82672063438,103.82672063438,753590,MONTREAL LINK,MONTREAL DALE,27265.7538376767,47952.8650822416
592C MONTREAL LINK E-BRIDGE PRE-SCHOOL PTE. LTD. SINGAPORE 753592,592C,E-BRIDGE PRE-SCHOOL PTE. LTD.,1.45093931289388,103.828070545183,103.828070545183,753592,MONTREAL LINK,E-BRIDGE PRE-SCHOOL PTE. LTD.,27415.9776848992,48063.0160864424
104D CANBERRA STREET EASTBROOK @ CANBERRA SINGAPORE 754104,104D,EASTBROOK @ CANBERRA,1.44985632437762,103.83236697954,103.83236697954,754104,CANBERRA STREET,EASTBROOK @ CANBERRA,27894.1021969952,47943.2639870029
108D CANBERRA WALK EASTLAWN @ CANBERRA SINGAPORE 754108,108D,EASTLAWN @ CANBERRA,1.44777193705961,103.831907132201,103.831907132201,754108,CANBERRA WALK,EASTLAWN @ CANBERRA,27842.928359068,47712.7829162143
109D CANBERRA WALK EASTGLEN @ CANBERRA SINGAPORE 754109,109D,EASTGLEN @ CANBERRA,1.44904350326715,103.829565161555,103.829565161555,754109,CANBERRA WALK,EASTGLEN @ CANBERRA,27582.3042810671,47853.3866296373
115D CANBERRA WALK EASTLACE @ CANBERRA SINGAPORE 754115,115D,EASTLACE @ CANBERRA,1.44554357187768,103.828991632152,103.828991632152,754115,CANBERRA WALK,EASTLACE @ CANBERRA,27518.4788194308,47466.3818848338
120D CANBERRA CRESCENT EASTWAVE @ CANBERRA SINGAPORE 754120,120D,EASTWAVE @ CANBERRA,1.44676707236829,103.83229420147,103.83229420147,754120,CANBERRA CRESCENT,EASTWAVE @ CANBERRA,27886.0029991083,47601.6699954923
121D CANBERRA STREET EASTBANK @ CANBERRA SINGAPORE 754121,121D,EASTBANK @ CANBERRA,1.44703776237182,103.833923460819,103.833923460819,754121,CANBERRA STREET,EASTBANK @ CANBERRA,28067.3138816878,47631.6015203018
126D CANBERRA STREET EASTDELTA @ CANBERRA SINGAPORE 754126,126D,EASTDELTA @ CANBERRA,1.4465750273277,103.834792499436,103.834792499436,754126,CANBERRA STREET,EASTDELTA @ CANBERRA,28164.0242061103,47580.4346440118
128D CANBERRA STREET EASTCROWN @ CANBERRA SINGAPORE 754128,128D,EASTCROWN @ CANBERRA,1.44566266312687,103.833787968867,103.833787968867,754128,CANBERRA STREET,EASTCROWN @ CANBERRA,28052.2357947947,47479.5499408823
351D CANBERRA ROAD SINGAPORE 754351,351D,NIL,1.45124006211956,103.819498420242,103.819498420242,754351,CANBERRA ROAD,351D CANBERRA ROAD SINGAPORE 754351,26462.037199825,48096.2754549906
354D ADMIRALTY DRIVE SINGAPORE 754354,354D,NIL,1.45078388181645,103.818644888494,103.818644888494,754354,ADMIRALTY DRIVE,354D ADMIRALTY DRIVE SINGAPORE 754354,26367.0524228858,48045.8339206614
466D SEMBAWANG DRIVE SPRING LODGE SINGAPORE 754466,466D,SPRING LODGE,1.45595291786323,103.813547483063,103.813547483063,754466,SEMBAWANG DRIVE,SPRING LODGE,25799.7975067263,48617.4043854047
468D ADMIRALTY DRIVE BLUE RIVERVIEW SINGAPORE 754468,468D,BLUE RIVERVIEW,1.45083059926032,103.814273470438,103.814273470438,754468,ADMIRALTY DRIVE,BLUE RIVERVIEW,25880.5833606273,48051.0033290647
501D WELLINGTON CIRCLE MONTREAL SPRING SINGAPORE 754501,501D,MONTREAL SPRING,1.45105057890399,103.822432144608,103.822432144608,754501,WELLINGTON CIRCLE,MONTREAL SPRING,26788.5137560647,48075.3215654902
504D MONTREAL DRIVE MONTREAL SPRING SINGAPORE 754504,504D,MONTREAL SPRING,1.45045843825508,103.823880958571,103.823880958571,754504,MONTREAL DRIVE,MONTREAL SPRING,26949.7433448471,48009.8448945377
507D WELLINGTON CIRCLE MONTREAL SPRING SINGAPORE 754507,507D,MONTREAL SPRING,1.45125280194375,103.822961716013,103.822961716013,754507,WELLINGTON CIRCLE,MONTREAL SPRING,26847.4467008132,48097.6820989978
589D MONTREAL DRIVE MONTREAL SPRING SINGAPORE 754589,589D,MONTREAL SPRING,1.44984328065002,103.824378409707,103.824378409707,754589,MONTREAL DRIVE,MONTREAL SPRING,27005.1014591111,47941.8236244619
