ADDRESS,BLK_NO,BUILDING,LATITUDE,LONGITUDE,LONGTITUDE,POSTAL,ROAD_NAME,SEARCHVAL,X,Y
1 KEMPAS ROAD KEMPAS RESIDENCES SINGAPORE 330001,1,KEMPAS RESIDENCES,1.31601875088283,103.859209335509,103.859209335509,330001,KEMPAS ROAD,KEMPAS RESIDENCES,30881.3907707343,33144.1995056532
2 KEMPAS ROAD KEMPAS RESIDENCES SINGAPORE 330002,2,KEMPAS RESIDENCES,1.31687158155777,103.859945606885,103.859945606885,330002,KEMPAS ROAD,KEMPAS RESIDENCES,30963.3296532072,33238.5020119697
3 KEMPAS ROAD SINGAPORE 330003,3,NIL,1.31769627138792,103.860858765288,103.860858765288,330003,KEMPAS ROAD,3 KEMPAS ROAD SINGAPORE 330003,31064.9543177336,33329.6930906344
4 BOON KENG ROAD SINGAPORE 330004,4,NIL,1.31569896370315,103.859785170022,103.859785170022,330004,BOON KENG ROAD,4 BOON KENG ROAD SINGAPORE 330004,30945.4759619394,33108.8397509102
5 BOON KENG ROAD SINGAPORE 330005,5,NIL,1.31629995826281,103.860397463054,103.860397463054,330005,BOON KENG ROAD,5 BOON KENG ROAD SINGAPORE 330005,31013.6175472504,33175.2953792606
6 BOON KENG ROAD SINGAPORE 330006,6,NIL,1.31708803504618,103.860896688005,103.860896688005,330006,BOON KENG ROAD,6 BOON KENG ROAD SINGAPORE 330006,31069.1754907435,33262.4374794737
7 BOON KENG ROAD CITY VIEW @ BOON KENG SINGAPORE 330007,7,CITY VIEW @ BOON KENG,1.31678922529744,103.861781918434,103.861781918434,330007,BOON KENG ROAD,CITY VIEW @ BOON KENG,31167.6934191529,33229.3977354169
8 BOON KENG ROAD CITY VIEW @ BOON KENG SINGAPORE 330008,8,CITY VIEW @ BOON KENG,1.31642489627751,103.861501638313,103.861501638313,330008,BOON KENG ROAD,CITY VIEW @ BOON KENG,31136.5014144294,33189.1117452513
9 BOON KENG ROAD CITY VIEW @ BOON KENG SINGAPORE 330009,9,CITY VIEW @ BOON KENG,1.31605118149851,103.861218698544,103.861218698544,330009,BOON KENG ROAD,CITY VIEW @ BOON KENG,31105.0134190917,33147.7879264615
10 BENDEMEER ROAD BENDEMEER LIGHT SINGAPORE 330010,10,BENDEMEER LIGHT,1.31550993783628,103.860952982979,103.860952982979,330010,BENDEMEER ROAD,BENDEMEER LIGHT,31075.4425070398,33087.9396476168
11 BENDEMEER ROAD BENDEMEER LIGHT SINGAPORE 330011,11,BENDEMEER LIGHT,1.31532027092245,103.860265846084,103.860265846084,330011,BENDEMEER ROAD,BENDEMEER LIGHT,30998.9710212694,33066.9664168768
22 BOON KENG ROAD BENDEMEER VILLE SINGAPORE 330022,22,BENDEMEER VILLE,1.31817642675037,103.861403795159,103.861403795159,330022,BOON KENG ROAD,BENDEMEER VILLE,31125.6102371877,33382.7868873049
23 BENDEMEER ROAD BENDEMEER VILLE SINGAPORE 330023,23,BENDEMEER VILLE,1.31771041461305,103.862786032663,103.862786032663,330023,BENDEMEER ROAD,BENDEMEER VILLE,31279.4403935988,33331.2594285235
24 BENDEMEER ROAD BENDEMEER VILLE SINGAPORE 330024,24,BENDEMEER VILLE,1.31862347782977,103.862324355167,103.862324355167,330024,BENDEMEER ROAD,BENDEMEER VILLE,31228.0590081075,33432.2206793837
25 BENDEMEER ROAD BENDEMEER SHOPPING MALL SINGAPORE 330025,25,BENDEMEER SHOPPING MALL,1.31868262266763,103.862702893919,103.862702893919,330025,BENDEMEER ROAD,BENDEMEER SHOPPING MALL,31270.1865932047,33438.7611063775
26 BENDEMEER ROAD BENDEMEER VILLE SINGAPORE 330026,26,BENDEMEER VILLE,1.3183075369852,103.86292186863,103.86292186863,330026,BENDEMEER ROAD,BENDEMEER VILLE,31294.5568300271,33397.2863411512
27 BENDEMEER ROAD BENDEMEER SHOPPING MALL SINGAPORE 330027,27,BENDEMEER SHOPPING MALL,1.31883815362848,103.862815823199,103.862815823199,330027,BENDEMEER ROAD,BENDEMEER SHOPPING MALL,31282.754314064,33455.9590720441
28 BENDEMEER ROAD BENDEMEER VILLE SINGAPORE 330028,28,BENDEMEER VILLE,1.31869832503738,103.863232193576,103.863232193576,330028,BENDEMEER ROAD,BENDEMEER VILLE,31329.0924481088,33440.4980951585
29 BENDEMEER ROAD BENDEMEER MARKET AND FOOD CENTRE SINGAPORE 330029,29,BENDEMEER MARKET AND FOOD CENTRE,1.31921708867291,103.863021454035,103.863021454035,330029,BENDEMEER ROAD,BENDEMEER MARKET AND FOOD CENTRE,31305.6385139572,33497.8600407485
30 BENDEMEER ROAD BENDEMEER VILLE SINGAPORE 330030,30,BENDEMEER VILLE,1.319303367127,103.86404981515,103.86404981515,330030,BENDEMEER ROAD,BENDEMEER VILLE,31420.0849082628,33507.4016593993
31 BENDEMEER ROAD BENDEMEER VILLE SINGAPORE 330031,31,BENDEMEER VILLE,1.31957139918068,103.863680644289,103.863680644289,330031,BENDEMEER ROAD,BENDEMEER VILLE,31378.9994498445,33537.0387675315
32 BENDEMEER ROAD BENDEMEER VILLE SINGAPORE 330032,32,BENDEMEER VILLE,1.31981683292999,103.863375513331,103.863375513331,330032,BENDEMEER ROAD,BENDEMEER VILLE,31345.0410422124,33564.1771628056
33 BENDEMEER ROAD BENDEMEER VILLE SINGAPORE 330033,33,BENDEMEER VILLE,1.31966574874929,103.862764341278,103.862764341278,330033,BENDEMEER ROAD,BENDEMEER VILLE,31277.0237977784,33547.4702346362
34 WHAMPOA WEST BENDEMEER VILLE SINGAPORE 330034,34,BENDEMEER VILLE,1.32050169556608,103.863341271367,103.863341271367,330034,WHAMPOA WEST,BENDEMEER VILLE,31341.2293344876,33639.9057209138
39 BENDEMEER ROAD PCF SPARKLETOTS PRESCHOOL @ KOLAM AYER 39 (CC) SINGAPORE 330039,39,PCF SPARKLETOTS PRESCHOOL @ KOLAM AYER 39 (CC),1.32075606190463,103.866219436718,103.866219436718,330039,BENDEMEER ROAD,PCF SPARKLETOTS PRESCHOOL @ KOLAM AYER 39 (CC),31661.5403932473,33668.0363006946
43 BENDEMEER ROAD SINGAPORE 330043,43,NIL,1.32112499272338,103.865833285976,103.865833285976,330043,BENDEMEER ROAD,43 BENDEMEER ROAD SINGAPORE 330043,31618.5650927303,33708.8302178923
44 BENDEMEER ROAD SINGAPORE 330044,44,NIL,1.32226013692281,103.86662310263,103.86662310263,330044,BENDEMEER ROAD,44 BENDEMEER ROAD SINGAPORE 330044,31706.4621975301,33834.3498210926
45 BENDEMEER ROAD SINGAPORE 330045,45,NIL,1.3223875270991,103.866126107239,103.866126107239,330045,BENDEMEER ROAD,45 BENDEMEER ROAD SINGAPORE 330045,31651.1513618566,33848.4352391921
46 BENDEMEER ROAD SINGAPORE 330046,46,NIL,1.32290623334055,103.866028945394,103.866028945394,330046,BENDEMEER ROAD,46 BENDEMEER ROAD SINGAPORE 330046,31640.3374587772,33905.7909798454
47 BENDEMEER ROAD SINGAPORE 330047,47,NIL,1.3233974126952,103.866812029524,103.866812029524,330047,BENDEMEER ROAD,47 BENDEMEER ROAD SINGAPORE 330047,31727.4861876797,33960.104243312
48 BENDEMEER ROAD SINGAPORE 330048,48,NIL,1.32332270615854,103.866399245801,103.866399245801,330048,BENDEMEER ROAD,48 BENDEMEER ROAD SINGAPORE 330048,31681.5475910204,33951.8429603707
49 WHAMPOA SOUTH SINGAPORE 330049,49,NIL,1.32448737406528,103.866368168069,103.866368168069,330049,WHAMPOA SOUTH,49 WHAMPOA SOUTH SINGAPORE 330049,31678.08723405,34080.6259365045
53 GEYLANG BAHRU GEYLANG BAHRU RIVERPOINT SINGAPORE 330053,53,GEYLANG BAHRU RIVERPOINT,1.32432231336421,103.868159565036,103.868159565036,330053,GEYLANG BAHRU,GEYLANG BAHRU RIVERPOINT,31877.4520003414,34062.3770967089
54 GEYLANG BAHRU GEYLANG BAHRU RIVERPOINT SINGAPORE 330054,54,GEYLANG BAHRU RIVERPOINT,1.32388371941336,103.867864793507,103.867864793507,330054,GEYLANG BAHRU,GEYLANG BAHRU RIVERPOINT,31844.6475595888,34013.8791604191
55 GEYLANG BAHRU GEYLANG BAHRU RIVERPOINT SINGAPORE 330055,55,GEYLANG BAHRU RIVERPOINT,1.32408464111823,103.86859054805,103.86859054805,330055,GEYLANG BAHRU,GEYLANG BAHRU RIVERPOINT,31925.4164634189,34036.0971922595
56 GEYLANG BAHRU GEYLANG BAHRU RIVERPOINT SINGAPORE 330056,56,GEYLANG BAHRU RIVERPOINT,1.32364514773996,103.868295292623,103.868295292623,330056,GEYLANG BAHRU,GEYLANG BAHRU RIVERPOINT,31892.5581759233,33987.4997953735
57 GEYLANG BAHRU GEYLANG BAHRU VILLE SINGAPORE 330057,57,GEYLANG BAHRU VILLE,1.32353780675049,103.86914775647,103.86914775647,330057,GEYLANG BAHRU,GEYLANG BAHRU VILLE,31987.4290544391,33975.6319308337
58 GEYLANG BAHRU SINGAPORE 330058,58,NIL,1.32319537324232,103.86795724315,103.86795724315,330058,GEYLANG BAHRU,58 GEYLANG BAHRU SINGAPORE 330058,31854.937342261,33937.7655027527
59A GEYLANG BAHRU SINGAPORE 330059,59A,NIL,1.32265385433949,103.868226925188,103.868226925188,330059,GEYLANG BAHRU,59A GEYLANG BAHRU SINGAPORE 330059,31884.951105183,33877.887531016
60 GEYLANG BAHRU SINGAPORE 330060,60,NIL,1.32282118210161,103.869177870562,103.869177870562,330060,GEYLANG BAHRU,60 GEYLANG BAHRU SINGAPORE 330060,31990.7815968515,33896.3912877701
61 GEYLANG BAHRU GEYLANG BAHRU VILLE SINGAPORE 330061,61,GEYLANG BAHRU VILLE,1.32231126658548,103.869263053603,103.869263053603,330061,GEYLANG BAHRU,GEYLANG BAHRU VILLE,32000.2624373911,33840.0075731464
62 GEYLANG BAHRU GEYLANG BAHRU VILLE SINGAPORE 330062,62,GEYLANG BAHRU VILLE,1.32181258135723,103.868465951996,103.868465951996,330062,GEYLANG BAHRU,GEYLANG BAHRU VILLE,31911.5537268762,33784.8642404936
63 KALLANG BAHRU SINGAPORE 330063,63,NIL,1.32100020851204,103.868321383856,103.868321383856,330063,KALLANG BAHRU,63 KALLANG BAHRU SINGAPORE 330063,31895.4659908507,33695.0359777976
64 KALLANG BAHRU SINGAPORE 330064,64,NIL,1.32034663718702,103.86834750594,103.86834750594,330064,KALLANG BAHRU,64 KALLANG BAHRU SINGAPORE 330064,31898.3741387259,33622.7674437109
65 KALLANG BAHRU SINGAPORE 330065,65,NIL,1.31969547154613,103.868364964604,103.868364964604,330065,KALLANG BAHRU,65 KALLANG BAHRU SINGAPORE 330065,31900.3181302482,33550.7649046648
66 KALLANG BAHRU GEYLANG BAHRU VILLE SINGAPORE 330066,66,GEYLANG BAHRU VILLE,1.32066445696203,103.869914604242,103.869914604242,330066,KALLANG BAHRU,GEYLANG BAHRU VILLE,32072.7762329504,33657.9128405917
67 KALLANG BAHRU GEYLANG BAHRU VILLE SINGAPORE 330067,67,GEYLANG BAHRU VILLE,1.32139446427243,103.869336174701,103.869336174701,330067,KALLANG BAHRU,GEYLANG BAHRU VILLE,32008.4015587494,33738.6323773395
68 GEYLANG BAHRU GEYLANG BAHRU VILLE SINGAPORE 330068,68,GEYLANG BAHRU VILLE,1.32195385488883,103.869843391813,103.869843391813,330068,GEYLANG BAHRU,GEYLANG BAHRU VILLE,32064.8488966748,33800.4877564535
69 GEYLANG BAHRU GEYLANG BAHRU MARKET AND FOOD CENTRE SINGAPORE 330069,69,GEYLANG BAHRU MARKET AND FOOD CENTRE,1.32139947024504,103.870046130327,103.870046130327,330069,GEYLANG BAHRU,GEYLANG BAHRU MARKET AND FOOD CENTRE,32087.4125888888,33739.1870684102
70 GEYLANG BAHRU SINGAPORE 330070,70,NIL,1.32187562701011,103.870354259658,103.870354259658,330070,GEYLANG BAHRU,70 GEYLANG BAHRU SINGAPORE 330070,32121.7035508575,33791.8385590333
71 KALLANG BAHRU SINGAPORE 330071,71,NIL,1.3209929422065,103.870389998344,103.870389998344,330071,KALLANG BAHRU,71 KALLANG BAHRU SINGAPORE 330071,32125.6823681211,33694.2358436473
72 GEYLANG BAHRU SINGAPORE 330072,72,NIL,1.32158321590245,103.871419569078,103.871419569078,330072,GEYLANG BAHRU,72 GEYLANG BAHRU SINGAPORE 330072,32240.2624258427,33759.5070252586
73 GEYLANG BAHRU SINGAPORE 330073,73,NIL,1.32264236942866,103.870596516216,103.870596516216,330073,GEYLANG BAHRU,73 GEYLANG BAHRU SINGAPORE 330073,32148.6630320791,33876.621421257
93 GEYLANG BAHRU SINGAPORE 330093,93,NIL,1.32218898844635,103.871612008197,103.871612008197,330093,GEYLANG BAHRU,93 GEYLANG BAHRU SINGAPORE 330093,32261.6779626301,33826.4905877803
94 GEYLANG BAHRU SINGAPORE 330094,94,NIL,1.32265301195608,103.87130995354,103.87130995354,330094,GEYLANG BAHRU,94 GEYLANG BAHRU SINGAPORE 330094,32228.0614924105,33877.7994209155
95 GEYLANG BAHRU SINGAPORE 330095,95,NIL,1.32300949333249,103.871104763913,103.871104763913,330095,GEYLANG BAHRU,95 GEYLANG BAHRU SINGAPORE 330095,32205.2253278075,33917.2169620898
96 GEYLANG BAHRU SINGAPORE 330096,96,NIL,1.32338061098186,103.870461630612,103.870461630612,330096,GEYLANG BAHRU,96 GEYLANG BAHRU SINGAPORE 330096,32133.6503845667,33958.2521756552
97 GEYLANG BAHRU SINGAPORE 330097,97,NIL,1.32374860212507,103.870243903519,103.870243903519,330097,GEYLANG BAHRU,97 GEYLANG BAHRU SINGAPORE 330097,32109.4189264504,33998.9423947427
1A KEMPAS ROAD KEMPAS RESIDENCES SINGAPORE 331001,1A,KEMPAS RESIDENCES,1.3161855822938,103.859370843058,103.859370843058,331001,KEMPAS ROAD,KEMPAS RESIDENCES,30899.3648075052,33162.6470547616
2A KEMPAS ROAD KEMPAS RESIDENCES SINGAPORE 331002,2A,KEMPAS RESIDENCES,1.31722160443598,103.860245807364,103.860245807364,331002,KEMPAS ROAD,KEMPAS RESIDENCES,30996.7386363987,33277.2061065007
6A BOON KENG ROAD MULTI STOREY CAR PARK SINGAPORE 331006,6A,MULTI STOREY CAR PARK,1.3172770000934,103.861375901573,103.861375901573,331006,BOON KENG ROAD,MULTI STOREY CAR PARK,31122.5070726937,33283.3328609616
8A BOON KENG ROAD CITY VIEW @ BOON KENG SINGAPORE 331008,8A,CITY VIEW @ BOON KENG,1.31669114643967,103.861380687738,103.861380687738,331008,BOON KENG ROAD,CITY VIEW @ BOON KENG,31123.040455102,33218.5521720257
10A BENDEMEER ROAD BENDEMEER LIGHT SINGAPORE 331010,10A,BENDEMEER LIGHT,1.31499138887312,103.86050538635,103.86050538635,331010,BENDEMEER ROAD,BENDEMEER LIGHT,31025.6299414122,33030.6006148905
11A BENDEMEER ROAD SINGAPORE 331011,11A,NIL,1.31525572704872,103.860149969633,103.860149969633,331011,BENDEMEER ROAD,11A BENDEMEER ROAD SINGAPORE 331011,30986.0751651991,33059.829347387
22A BOON KENG ROAD BENDEMEER VILLE SINGAPORE 331022,22A,BENDEMEER VILLE,1.31891740080626,103.861918615773,103.861918615773,331022,BOON KENG ROAD,BENDEMEER VILLE,31182.9038074026,33464.7206544876
38A BENDEMEER ROAD THE RIVER VISTA @ KALLANG SINGAPORE 331038,38A,THE RIVER VISTA @ KALLANG,1.32005797775204,103.866939439236,103.866939439236,331038,BENDEMEER ROAD,THE RIVER VISTA @ KALLANG,31741.6706123529,33590.8467978146
39A BENDEMEER ROAD THE RIVER VISTA @ KALLANG SINGAPORE 331039,39A,THE RIVER VISTA @ KALLANG,1.3201793852072,103.866365809133,103.866365809133,331039,BENDEMEER ROAD,THE RIVER VISTA @ KALLANG,31677.8310458362,33604.2705577891
44A BENDEMEER ROAD SINGAPORE 331044,44A,NIL,1.32286312242167,103.866978210097,103.866978210097,331044,BENDEMEER ROAD,44A BENDEMEER ROAD SINGAPORE 331044,31745.9812272545,33901.0254068803
47A WHAMPOA SOUTH SINGAPORE 331047,47A,NIL,1.32380442520685,103.866839885662,103.866839885662,331047,WHAMPOA SOUTH,47A WHAMPOA SOUTH SINGAPORE 331047,31730.5856897486,34005.1096477639
49A WHAMPOA SOUTH MULTI STOREY CAR PARK SINGAPORE 331049,49A,MULTI STOREY CAR PARK,1.32378180307019,103.866396218828,103.866396218828,331049,WHAMPOA SOUTH,MULTI STOREY CAR PARK,31681.2100424664,34002.6075448897
57A GEYLANG BAHRU GEYLANG BAHRU VILLE SINGAPORE 331057,57A,GEYLANG BAHRU VILLE,1.32294656304376,103.869623113187,103.869623113187,331057,GEYLANG BAHRU,GEYLANG BAHRU VILLE,32040.3324654913,33910.2559917308
59B GEYLANG BAHRU SINGAPORE 331059,59B,NIL,1.32212605377883,103.867995537199,103.867995537199,331059,GEYLANG BAHRU,59B GEYLANG BAHRU SINGAPORE 331059,31859.200739108,33819.5256825835
60A GEYLANG BAHRU MULTI STOREY CAR PARK SINGAPORE 331060,60A,MULTI STOREY CAR PARK,1.3227572486141,103.868638723075,103.868638723075,331060,GEYLANG BAHRU,MULTI STOREY CAR PARK,31930.7799501335,33889.3209894542
65A KALLANG BAHRU MULTI STOREY CAR PARK SINGAPORE 331065,65A,MULTI STOREY CAR PARK,1.32024481010971,103.869117501455,103.869117501455,331065,KALLANG BAHRU,MULTI STOREY CAR PARK,31984.0672197556,33611.5091460943
67A KALLANG BAHRU SINGAPORE 331067,67A,NIL,1.32167021308054,103.868929565959,103.868929565959,331067,KALLANG BAHRU,67A KALLANG BAHRU SINGAPORE 331067,31963.1495913006,33769.1226188615
70A GEYLANG BAHRU SINGAPORE 331070,70A,NIL,1.32191660060953,103.870178557596,103.870178557596,331070,GEYLANG BAHRU,70A GEYLANG BAHRU SINGAPORE 331070,32102.1495858729,33796.3689194974
1B KEMPAS ROAD KEMPAS RESIDENCES SINGAPORE 332001,1B,KEMPAS RESIDENCES,1.31648901569608,103.859664747794,103.859664747794,332001,KEMPAS ROAD,KEMPAS RESIDENCES,30932.0732079456,33196.1995081957
2B KEMPAS ROAD KEMPAS RESIDENCES SINGAPORE 332002,2B,KEMPAS RESIDENCES,1.31755142207138,103.860510330249,103.860510330249,332002,KEMPAS ROAD,KEMPAS RESIDENCES,31026.1770654861,33313.6759698149
8B BOON KENG ROAD CITY VIEW @ BOON KENG SINGAPORE 332008,8B,CITY VIEW @ BOON KENG,1.31641012288901,103.861164495282,103.861164495282,332008,BOON KENG ROAD,CITY VIEW @ BOON KENG,31098.9806769891,33187.4777584188
10B BENDEMEER ROAD BENDEMEER LIGHT SINGAPORE 332010,10B,BENDEMEER LIGHT,1.31547715332072,103.860312930116,103.860312930116,332010,BENDEMEER ROAD,BENDEMEER LIGHT,31004.2108330028,33084.3137247767
38B BENDEMEER ROAD THE RIVER VISTA @ KALLANG SINGAPORE 332038,38B,THE RIVER VISTA @ KALLANG,1.32053258273429,103.866795494049,103.866795494049,332038,BENDEMEER ROAD,THE RIVER VISTA @ KALLANG,31725.6502225911,33643.3259728067
59C GEYLANG BAHRU SINGAPORE 332059,59C,NIL,1.32221075711137,103.868500280143,103.868500280143,332059,GEYLANG BAHRU,59C GEYLANG BAHRU SINGAPORE 332059,31915.3734858856,33828.8925338965
1C KEMPAS ROAD KEMPAS RESIDENCES SINGAPORE 333001,1C,KEMPAS RESIDENCES,1.31640924427479,103.85944819945,103.85944819945,333001,KEMPAS ROAD,KEMPAS RESIDENCES,30907.9735668981,33187.3785399683
8C BOON KENG ROAD CITY VIEW @ BOON KENG SINGAPORE 333008,8C,CITY VIEW @ BOON KENG,1.31654709483479,103.861033683127,103.861033683127,333008,BOON KENG ROAD,CITY VIEW @ BOON KENG,31084.4223821815,33202.6232521106
10C BENDEMEER ROAD BENDEMEER LIGHT SINGAPORE 333010,10C,BENDEMEER LIGHT,1.31584236197018,103.860644539729,103.860644539729,333010,BENDEMEER ROAD,BENDEMEER LIGHT,31041.1153445626,33124.6970265079
38C BENDEMEER ROAD THE RIVER VISTA @ KALLANG SINGAPORE 333038,38C,THE RIVER VISTA @ KALLANG,1.32112027780383,103.866786871368,103.866786871368,333038,BENDEMEER ROAD,THE RIVER VISTA @ KALLANG,31724.6897286642,33708.3102744687
59 GEYLANG BAHRU SINGAPORE 333059,59,NIL,1.32244612965134,103.86824771523,103.86824771523,333059,GEYLANG BAHRU,59 GEYLANG BAHRU SINGAPORE 333059,31887.2651530746,33854.9184294287
8D BOON KENG ROAD SINGAPORE 334008,8D,NIL,1.31698546318248,103.861338763086,103.861338763086,334008,BOON KENG ROAD,8D BOON KENG ROAD SINGAPORE 334008,31118.3742821962,33251.0961567797
38D BENDEMEER ROAD THE RIVER VISTA @ KALLANG SINGAPORE 334038,38D,THE RIVER VISTA @ KALLANG,1.32163647015368,103.866767328257,103.866767328257,334038,BENDEMEER ROAD,THE RIVER VISTA @ KALLANG,31722.5140054589,33765.3881550319
