ADDRESS,BLK_NO,BUILDING,LATITUDE,LONGITUDE,LONGTITUDE,POSTAL,ROAD_NAME,SEARCHVAL,X,Y
2 WHAMPOA EAST EIGHT RIVERSUITES SINGAPORE 338517,2,EIGHT RIVERSUITES,1.3218204074661,103.864744134712,103.864744134712,338517,WHAMPOA EAST,EIGHT RIVERSUITES,31497.3523512008,33785.7240631077
4 WHAMPOA EAST EIGHT RIVERSUITES SINGAPORE 338518,4,EIGHT RIVERSUITES,1.32143719656187,103.864563355487,103.864563355487,338518,WHAMPOA EAST,EIGHT RIVERSUITES,31477.2339488557,33743.3503084984
6 WHAMPOA EAST EIGHT RIVERSUITES SINGAPORE 338519,6,EIGHT RIVERSUITES,1.32154184645146,103.864830954478,103.864830954478,338519,WHAMPOA EAST,EIGHT RIVERSUITES,31507.0149207143,33754.9223337658
8 WHAMPOA EAST EIGHT RIVERSUITES SINGAPORE 338520,8,EIGHT RIVERSUITES,1.32118876331653,103.865044082222,103.865044082222,338520,WHAMPOA EAST,EIGHT RIVERSUITES,31530.7344261548,33715.8805090711
10 WHAMPOA EAST EIGHT RIVERSUITES SINGAPORE 338521,10,EIGHT RIVERSUITES,1.32161511306166,103.864370653972,103.864370653972,338521,WHAMPOA EAST,EIGHT RIVERSUITES,31455.7879322087,33763.0231358558
12 WHAMPOA EAST EIGHT RIVERSUITES SINGAPORE 338522,12,EIGHT RIVERSUITES,1.32168033243186,103.864126887694,103.864126887694,338522,WHAMPOA EAST,EIGHT RIVERSUITES,31428.6590713505,33770.2344224397
14 WHAMPOA EAST EIGHT RIVERSUITES SINGAPORE 338523,14,EIGHT RIVERSUITES,1.32171149604599,103.864087456778,103.864087456778,338523,WHAMPOA EAST,EIGHT RIVERSUITES,31424.2707585348,33773.6802810468
16 WHAMPOA EAST EIGHT RIVERSUITES SINGAPORE 338524,16,EIGHT RIVERSUITES,1.32174290574495,103.864048058501,103.864048058501,338524,WHAMPOA EAST,EIGHT RIVERSUITES,31419.8860778781,33777.1533505693
18 WHAMPOA EAST EIGHT RIVERSUITES SINGAPORE 338525,18,EIGHT RIVERSUITES,1.32177425330726,103.864008553608,103.864008553608,338525,WHAMPOA EAST,EIGHT RIVERSUITES,31415.4895321708,33780.6195492614
20 WHAMPOA EAST EIGHT RIVERSUITES SINGAPORE 338526,20,EIGHT RIVERSUITES,1.32180572760717,103.863969058235,103.863969058235,338526,WHAMPOA EAST,EIGHT RIVERSUITES,31411.0940458439,33784.0997620299
22 WHAMPOA EAST EIGHT RIVERSUITES SINGAPORE 338527,22,EIGHT RIVERSUITES,1.32183713976877,103.863929589242,103.863929589242,338527,WHAMPOA EAST,EIGHT RIVERSUITES,31406.7014955105,33787.5731039643
24 WHAMPOA EAST EIGHT RIVERSUITES SINGAPORE 338528,24,EIGHT RIVERSUITES,1.32186851005217,103.863889833315,103.863889833315,338528,WHAMPOA EAST,EIGHT RIVERSUITES,31402.2770124543,33791.0418148991
26 WHAMPOA EAST EIGHT RIVERSUITES SINGAPORE 338529,26,EIGHT RIVERSUITES,1.32187328731072,103.864410148586,103.864410148586,338529,WHAMPOA EAST,EIGHT RIVERSUITES,31460.1829342479,33791.5707781818
28 WHAMPOA EAST EIGHT RIVERSUITES SINGAPORE 338530,28,EIGHT RIVERSUITES,1.32184158251693,103.864449949378,103.864449949378,338530,WHAMPOA EAST,EIGHT RIVERSUITES,31464.6124115214,33788.0650797728
30 WHAMPOA EAST EIGHT RIVERSUITES SINGAPORE 338531,30,EIGHT RIVERSUITES,1.3218101818438,103.864489429787,103.864489429787,338531,WHAMPOA EAST,EIGHT RIVERSUITES,31469.0062331092,33784.5930090919
32 WHAMPOA EAST EIGHT RIVERSUITES SINGAPORE 338532,32,EIGHT RIVERSUITES,1.32177874804878,103.864528877015,103.864528877015,338532,WHAMPOA EAST,EIGHT RIVERSUITES,31473.3963620039,33781.117275985
34 WHAMPOA EAST EIGHT RIVERSUITES SINGAPORE 338533,34,EIGHT RIVERSUITES,1.32174735065898,103.864568375373,103.864568375373,338533,WHAMPOA EAST,EIGHT RIVERSUITES,31477.7921812795,33777.6455685217
36 WHAMPOA EAST EIGHT RIVERSUITES SINGAPORE 338534,36,EIGHT RIVERSUITES,1.32171590810321,103.86460782831,103.86460782831,338534,WHAMPOA EAST,EIGHT RIVERSUITES,31482.1829458009,33774.1688668393
38 WHAMPOA EAST EIGHT RIVERSUITES SINGAPORE 338535,38,EIGHT RIVERSUITES,1.32168449702562,103.864647322314,103.864647322314,338535,WHAMPOA EAST,EIGHT RIVERSUITES,31486.5782807888,33770.6956459768
40 WHAMPOA EAST EIGHT RIVERSUITES SINGAPORE 338536,40,EIGHT RIVERSUITES,1.32127546323242,103.864813004937,103.864813004937,338536,WHAMPOA EAST,EIGHT RIVERSUITES,31505.0176878087,33725.4670151435
42 WHAMPOA EAST EIGHT RIVERSUITES SINGAPORE 338537,42,EIGHT RIVERSUITES,1.3212945840146,103.864770711633,103.864770711633,338537,WHAMPOA EAST,EIGHT RIVERSUITES,31500.3108347328,33727.581233805
44 WHAMPOA EAST EIGHT RIVERSUITES SINGAPORE 338538,44,EIGHT RIVERSUITES,1.32132489747169,103.864727559304,103.864727559304,338538,WHAMPOA EAST,EIGHT RIVERSUITES,31495.5083650965,33730.9330800548
46 WHAMPOA EAST EIGHT RIVERSUITES SINGAPORE 338539,46,EIGHT RIVERSUITES,1.32135341108068,103.864688620641,103.864688620641,338539,WHAMPOA EAST,EIGHT RIVERSUITES,31491.1748373322,33734.0859143101
48 WHAMPOA EAST EIGHT RIVERSUITES SINGAPORE 338540,48,EIGHT RIVERSUITES,1.32138149827462,103.864644840838,103.864644840838,338540,WHAMPOA EAST,EIGHT RIVERSUITES,31486.3025394566,33737.1915910468
51 LAVENDER STREET FRAGRANCE HOTEL - LAVENDER SINGAPORE 338710,51,FRAGRANCE HOTEL - LAVENDER,1.30978959182884,103.863070790825,103.863070790825,338710,LAVENDER STREET,FRAGRANCE HOTEL - LAVENDER,31311.1416268814,32455.4158199448
53 LAVENDER STREET SINGAPORE 338711,53,NIL,1.30987892828766,103.863057579455,103.863057579455,338711,LAVENDER STREET,53 LAVENDER STREET SINGAPORE 338711,31309.6712082317,32465.294169914
55 LAVENDER STREET SINGAPORE 338713,55,NIL,1.30992619826532,103.863023531776,103.863023531776,338713,LAVENDER STREET,55 LAVENDER STREET SINGAPORE 338713,31305.8819593508,32470.5209966823
57 LAVENDER STREET SINGAPORE 338714,57,NIL,1.30999033742733,103.862979480602,103.862979480602,338714,LAVENDER STREET,57 LAVENDER STREET SINGAPORE 338714,31300.9793934915,32477.6131182164
70 LAVENDER STREET RADUGA CENTER SINGAPORE 338715,70,RADUGA CENTER,1.31074501925246,103.863242943597,103.863242943597,338715,LAVENDER STREET,RADUGA CENTER,31330.2993536908,32561.0623125397
85 LAVENDER STREET HOTEL 81 - LAVENDER SINGAPORE 338716,85,HOTEL 81 - LAVENDER,1.31075782490313,103.862351663229,103.862351663229,338716,LAVENDER STREET,HOTEL 81 - LAVENDER,31231.1082350556,32562.4771289025
91 LAVENDER STREET SINGAPORE 338719,91,NIL,1.3109074576745,103.862309080843,103.862309080843,338719,LAVENDER STREET,91 LAVENDER STREET SINGAPORE 338719,31226.3690255042,32579.0226984508
93 LAVENDER STREET SINGAPORE 338720,93,NIL,1.31097724021024,103.862255746186,103.862255746186,338720,LAVENDER STREET,93 LAVENDER STREET SINGAPORE 338720,31220.4332922902,32586.7388247363
95 LAVENDER STREET SINGAPORE 338721,95,NIL,1.31101950022501,103.862229622342,103.862229622342,338721,LAVENDER STREET,95 LAVENDER STREET SINGAPORE 338721,31217.5259011136,32591.4116868656
97 LAVENDER STREET HOTEL 81 - VIOLET SINGAPORE 338722,97,HOTEL 81 - VIOLET,1.31107473230103,103.862168547989,103.862168547989,338722,LAVENDER STREET,HOTEL 81 - VIOLET,31210.7288318863,32597.518888209
101 LAVENDER STREET SINGAPORE 338724,101,NIL,1.31116388524377,103.862117567741,103.862117567741,338724,LAVENDER STREET,101 LAVENDER STREET SINGAPORE 338724,31205.0550983381,32607.3768980931
103 LAVENDER STREET CAREPOINT SINGAPORE 338725,103,CAREPOINT,1.31137846317915,103.861898763846,103.861898763846,338725,LAVENDER STREET,CAREPOINT,31180.7040211502,32631.1035467777
112 LAVENDER STREET CHANG HUA BUILDING SINGAPORE 338728,112,CHANG HUA BUILDING,1.3112514969025,103.862759928119,103.862759928119,338728,LAVENDER STREET,CHANG HUA BUILDING,31276.5436264854,32617.0653770007
114 LAVENDER STREET CT HUB 2 SINGAPORE 338729,114,CT HUB 2,1.31147644517774,103.863398476032,103.863398476032,338729,LAVENDER STREET,CT HUB 2,31347.6076764278,32641.9398481641
116 LAVENDER STREET PEK CHUAN BUILDING SINGAPORE 338730,116,PEK CHUAN BUILDING,1.31187209370095,103.862372433833,103.862372433833,338730,LAVENDER STREET,PEK CHUAN BUILDING,31233.4183783764,32685.6872849464
119 LAVENDER STREET SINGAPORE 338731,119,NIL,1.31190106395845,103.861539586844,103.861539586844,338731,LAVENDER STREET,119 LAVENDER STREET SINGAPORE 338731,31140.7303663101,32688.889607355
121 LAVENDER STREET PETAIN ROAD/TYRWHITT ROAD CONSERVATION AREA SINGAPORE 338732,121,PETAIN ROAD/TYRWHITT ROAD CONSERVATION AREA,1.31197813281866,103.861524207922,103.861524207922,338732,LAVENDER STREET,PETAIN ROAD/TYRWHITT ROAD CONSERVATION AREA,31139.0187420985,32697.4114673678
123 LAVENDER STREET PETAIN ROAD/TYRWHITT ROAD CONSERVATION AREA SINGAPORE 338733,123,PETAIN ROAD/TYRWHITT ROAD CONSERVATION AREA,1.31200560027263,103.861476174856,103.861476174856,338733,LAVENDER STREET,PETAIN ROAD/TYRWHITT ROAD CONSERVATION AREA,31133.6730832262,32700.4486173894
125 LAVENDER STREET SINGAPORE 338734,125,NIL,1.31205435803244,103.861460597348,103.861460597348,338734,LAVENDER STREET,125 LAVENDER STREET SINGAPORE 338734,31131.9393936554,32705.8399809171
127 LAVENDER STREET SINGAPORE 338735,127,NIL,1.31209882632763,103.861426952642,103.861426952642,338735,LAVENDER STREET,127 LAVENDER STREET SINGAPORE 338735,31128.1950019253,32710.7570148725
129 LAVENDER STREET JOHN HOCHSTADT BUILDING SINGAPORE 338736,129,JOHN HOCHSTADT BUILDING,1.31217828216065,103.861312474765,103.861312474765,338736,LAVENDER STREET,JOHN HOCHSTADT BUILDING,31115.4546022192,32719.5426906291
131 LAVENDER STREET JOHN HOCHSTADT BUILDING SINGAPORE 338737,131,JOHN HOCHSTADT BUILDING,1.31217277716188,103.861308545242,103.861308545242,338737,LAVENDER STREET,JOHN HOCHSTADT BUILDING,31115.0172903901,32718.9339712095
133 LAVENDER STREET JOHN HOCHSTADT BUILDING SINGAPORE 338738,133,JOHN HOCHSTADT BUILDING,1.31217828216065,103.861312474765,103.861312474765,338738,LAVENDER STREET,JOHN HOCHSTADT BUILDING,31115.4546022192,32719.5426906291
139 LAVENDER STREET THE QUAY HOTEL LAVENDER SINGAPORE 338739,139,THE QUAY HOTEL LAVENDER,1.31235657949508,103.861188769395,103.861188769395,338739,LAVENDER STREET,THE QUAY HOTEL LAVENDER,31101.6871492891,32739.2577418238
161 LAVENDER STREET LAVENDER PLACE SINGAPORE 338750,161,LAVENDER PLACE,1.31294835073684,103.860789711586,103.860789711586,338750,LAVENDER STREET,LAVENDER PLACE,31057.2750881212,32804.692279743
203 LAVENDER STREET KWAN YIN CHAN LIN SINGAPORE 338763,203,KWAN YIN CHAN LIN,1.31417081930937,103.859881360833,103.859881360833,338763,LAVENDER STREET,KWAN YIN CHAN LIN,30956.1828676956,32939.8654931337
205 LAVENDER STREET SINGAPORE 338764,205,NIL,1.31422832867331,103.859856567569,103.859856567569,338764,LAVENDER STREET,205 LAVENDER STREET SINGAPORE 338764,30953.4235474961,32946.2245543692
207 LAVENDER STREET SINGAPORE 338765,207,NIL,1.31426855842628,103.859826691763,103.859826691763,338765,LAVENDER STREET,207 LAVENDER STREET SINGAPORE 338765,30950.0986094847,32950.6729188655
208 LAVENDER STREET HIN FAH HOUSE SINGAPORE 338766,208,HIN FAH HOUSE,1.31322252487849,103.861236079136,103.861236079136,338766,LAVENDER STREET,HIN FAH HOUSE,31106.9512056774,32835.0096002743
209 LAVENDER STREET SINGAPORE 338767,209,NIL,1.31430787225598,103.859797989238,103.859797989238,338767,LAVENDER STREET,209 LAVENDER STREET SINGAPORE 338767,30946.904247555,32955.0200066864
210 LAVENDER STREET HIN FAH HOUSE SINGAPORE 338768,210,HIN FAH HOUSE,1.31324588814335,103.861246263419,103.861246263419,338768,LAVENDER STREET,HIN FAH HOUSE,31108.0845903279,32837.5930029526
211 LAVENDER STREET SINGAPORE 338769,211,NIL,1.31434687129758,103.859768810212,103.859768810212,338769,LAVENDER STREET,211 LAVENDER STREET SINGAPORE 338769,30943.6568561178,32959.3322863262
213 LAVENDER STREET SINGAPORE 338770,213,NIL,1.31439264476511,103.859731762807,103.859731762807,338770,LAVENDER STREET,213 LAVENDER STREET SINGAPORE 338770,30939.533781644,32964.3936380278
216 LAVENDER STREET DBS EXXONMOBIL LAVENDER STREET SINGAPORE 338771,216,DBS EXXONMOBIL LAVENDER STREET,1.31337862160315,103.861165196035,103.861165196035,338771,LAVENDER STREET,DBS EXXONMOBIL LAVENDER STREET,31099.062400545,32852.2698877212
217 LAVENDER STREET SINGAPORE 338772,217,NIL,1.3145333615452,103.85960397043,103.85960397043,338772,LAVENDER STREET,217 LAVENDER STREET SINGAPORE 338772,30925.3115522591,32979.9532280043
219 LAVENDER STREET SINGAPORE 338773,219,NIL,1.31462247330978,103.85958517286,103.85958517286,338773,LAVENDER STREET,219 LAVENDER STREET SINGAPORE 338773,30923.2194594927,32989.8067279607
221 LAVENDER STREET SINGAPORE 338774,221,NIL,1.31466600998161,103.859559596973,103.859559596973,338774,LAVENDER STREET,221 LAVENDER STREET SINGAPORE 338774,30920.3730583033,32994.6207599659
223 LAVENDER STREET SINGAPORE 338775,223,NIL,1.31470068972583,103.859536355065,103.859536355065,338775,LAVENDER STREET,223 LAVENDER STREET SINGAPORE 338775,30917.7864169516,32998.4554410912
225 LAVENDER STREET SINGAPORE 338776,225,NIL,1.31474015468409,103.859504689114,103.859504689114,338776,LAVENDER STREET,225 LAVENDER STREET SINGAPORE 338776,30914.2622550707,33002.8192368411
227 LAVENDER STREET SINGAPORE 338777,227,NIL,1.31477455577244,103.859480996271,103.859480996271,338777,LAVENDER STREET,227 LAVENDER STREET SINGAPORE 338777,30911.6254294012,33006.6231051572
229 LAVENDER STREET SINGAPORE 338778,229,NIL,1.31481424053218,103.859449839454,103.859449839454,338778,LAVENDER STREET,229 LAVENDER STREET SINGAPORE 338778,30908.1579291867,33011.0112060979
231 LAVENDER STREET SINGAPORE 338779,231,NIL,1.31484790720171,103.859425468029,103.859425468029,338779,LAVENDER STREET,231 LAVENDER STREET SINGAPORE 338779,30905.4455848979,33014.7338654157
233 LAVENDER STREET SINGAPORE 338780,233,NIL,1.31488735518082,103.859394401775,103.859394401775,338780,LAVENDER STREET,233 LAVENDER STREET SINGAPORE 338780,30901.988163922,33019.0957845487
235 LAVENDER STREET SINGAPORE 338781,235,NIL,1.314919735322,103.859368414815,103.859368414815,338781,LAVENDER STREET,235 LAVENDER STREET SINGAPORE 338781,30899.0960278101,33022.6761843432
237 LAVENDER STREET SINGAPORE 338782,237,NIL,1.3149587015383,103.859336600629,103.859336600629,338782,LAVENDER STREET,237 LAVENDER STREET SINGAPORE 338782,30895.5553698782,33026.9848318249
239 LAVENDER STREET SINGAPORE 338783,239,NIL,1.31499471077992,103.859315400974,103.859315400974,338783,LAVENDER STREET,239 LAVENDER STREET SINGAPORE 338783,30893.1960108159,33030.966524547
241 LAVENDER STREET SINGAPORE 338784,241,NIL,1.31503428331496,103.85928349405,103.85928349405,338784,LAVENDER STREET,241 LAVENDER STREET SINGAPORE 338784,30889.6450315015,33035.3422156125
243 LAVENDER STREET SINGAPORE 338785,243,NIL,1.31506760590309,103.859258883552,103.859258883552,338785,LAVENDER STREET,243 LAVENDER STREET SINGAPORE 338785,30886.9060816551,33039.0268280748
245 LAVENDER STREET SINGAPORE 338786,245,NIL,1.31511024174256,103.859230814469,103.859230814469,338786,LAVENDER STREET,245 LAVENDER STREET SINGAPORE 338786,30883.7822138602,33043.7412481457
247 LAVENDER STREET SINGAPORE 338787,247,NIL,1.31514051964509,103.859201764251,103.859201764251,338787,LAVENDER STREET,247 LAVENDER STREET SINGAPORE 338787,30880.5491694473,33047.0891898256
249 LAVENDER STREET SINGAPORE 338788,249,NIL,1.31518486327619,103.859176334682,103.859176334682,338788,LAVENDER STREET,249 LAVENDER STREET SINGAPORE 338788,30877.719052433,33051.9924518485
251 LAVENDER STREET SINGAPORE 338789,251,NIL,1.31521454279995,103.859147087275,103.859147087275,338789,LAVENDER STREET,251 LAVENDER STREET SINGAPORE 338789,30874.4640637329,33055.2742277142
253 LAVENDER STREET SINGAPORE 338790,253,NIL,1.31523640884988,103.859095420232,103.859095420232,338790,LAVENDER STREET,253 LAVENDER STREET SINGAPORE 338790,30868.7139943298,33057.6920039859
255 LAVENDER STREET SINGAPORE 338791,255,NIL,1.31529315118873,103.85909868721,103.85909868721,338791,LAVENDER STREET,255 LAVENDER STREET SINGAPORE 338791,30869.0775128147,33063.9662845973
257 LAVENDER STREET SINGAPORE 338792,257,NIL,1.3153326473517,103.859066574666,103.859066574666,338792,LAVENDER STREET,257 LAVENDER STREET SINGAPORE 338792,30865.5036509046,33068.3335308973
259 LAVENDER STREET SINGAPORE 338793,259,NIL,1.315365319832,103.859040998923,103.859040998923,338793,LAVENDER STREET,259 LAVENDER STREET SINGAPORE 338793,30862.6572799841,33071.9462568965
261 LAVENDER STREET SINGAPORE 338794,261,NIL,1.31540869911376,103.859014272844,103.859014272844,338794,LAVENDER STREET,261 LAVENDER STREET SINGAPORE 338794,30859.6828754917,33076.7428848129
263 LAVENDER STREET MONI GALLERY HOSTEL SINGAPORE 338795,263,MONI GALLERY HOSTEL,1.3154602466061,103.859012041016,103.859012041016,338795,LAVENDER STREET,MONI GALLERY HOSTEL,30859.4344358817,33082.4427396301
265 LAVENDER STREET MONI GALLERY HOSTEL SINGAPORE 338796,265,MONI GALLERY HOSTEL,1.31548896061531,103.858988267053,103.858988267053,338796,LAVENDER STREET,MONI GALLERY HOSTEL,30856.788590353,33085.6177603193
267 LAVENDER STREET SINGAPORE 338797,267,NIL,1.31551637771989,103.858933908613,103.858933908613,338797,LAVENDER STREET,267 LAVENDER STREET SINGAPORE 338797,30850.7389889834,33088.6493410319
269 LAVENDER STREET SINGAPORE 338798,269,NIL,1.31555812910047,103.858908182015,103.858908182015,338798,LAVENDER STREET,269 LAVENDER STREET SINGAPORE 338798,30847.875819332,33093.2659652475
278 LAVENDER STREET SINGAPORE 338799,278,NIL,1.3143363914229,103.860404524076,103.860404524076,338799,LAVENDER STREET,278 LAVENDER STREET SINGAPORE 338799,31014.4057255471,32958.1742332689
280 LAVENDER STREET SINGAPORE 338800,280,NIL,1.31438400127816,103.860325976618,103.860325976618,338800,LAVENDER STREET,280 LAVENDER STREET SINGAPORE 338800,31005.6640897049,32963.4385923371
282 LAVENDER STREET SINGAPORE 338801,282,NIL,1.3144279499972,103.860293798063,103.860293798063,338801,LAVENDER STREET,282 LAVENDER STREET SINGAPORE 338801,31002.0828726757,32968.2981776595
284 LAVENDER STREET SINGAPORE 338802,284,NIL,1.31448009543314,103.860256228546,103.860256228546,338802,LAVENDER STREET,284 LAVENDER STREET SINGAPORE 338802,30997.9016836733,32974.0641074851
286 LAVENDER STREET SINGAPORE 338803,286,NIL,1.31451899650064,103.860225473169,103.860225473169,338803,LAVENDER STREET,286 LAVENDER STREET SINGAPORE 338803,30994.4788590027,32978.3655511867
288 LAVENDER STREET LAVENDER RESIDENCE SINGAPORE 338804,288,LAVENDER RESIDENCE,1.31467959210646,103.860220408302,103.860220408302,338804,LAVENDER STREET,LAVENDER RESIDENCE,30993.9149967339,32996.1233837511
294 LAVENDER STREET SINGAPORE 338807,294,NIL,1.31480578204609,103.859952235005,103.859952235005,338807,LAVENDER STREET,294 LAVENDER STREET SINGAPORE 338807,30964.069735677,33010.0765004922
296 LAVENDER STREET SINGAPORE 338808,296,NIL,1.31486741286283,103.859915375697,103.859915375697,338808,LAVENDER STREET,296 LAVENDER STREET SINGAPORE 338808,30959.9675763799,33016.8912764899
298 LAVENDER STREET SINGAPORE 338809,298,NIL,1.3149159963906,103.859886186433,103.859886186433,338809,LAVENDER STREET,298 LAVENDER STREET SINGAPORE 338809,30956.7190347593,33022.263359312
300 LAVENDER STREET SINGAPORE 338810,300,NIL,1.31495830468077,103.859848567841,103.859848567841,338810,LAVENDER STREET,300 LAVENDER STREET SINGAPORE 338810,30952.5323975198,33026.9415486082
302 LAVENDER STREET SINGAPORE 338811,302,NIL,1.31500659504432,103.859818954566,103.859818954566,338811,LAVENDER STREET,302 LAVENDER STREET SINGAPORE 338811,30949.2366681127,33032.2812144198
304 LAVENDER STREET SINGAPORE 338812,304,NIL,1.31504861728655,103.859780960646,103.859780960646,338812,LAVENDER STREET,304 LAVENDER STREET SINGAPORE 338812,30945.0082610548,33036.9277736712
306 LAVENDER STREET SINGAPORE 338813,306,NIL,1.31509718438926,103.859751728678,103.859751728678,338813,LAVENDER STREET,306 LAVENDER STREET SINGAPORE 338813,30941.7549673617,33042.2980404142
308 LAVENDER STREET SINGAPORE 338814,308,NIL,1.3151925413522,103.859760427379,103.859760427379,338814,LAVENDER STREET,308 LAVENDER STREET SINGAPORE 338814,30942.7229374805,33052.8421346862
310 LAVENDER STREET SINGAPORE 338815,310,NIL,1.31531732765838,103.85958474333,103.85958474333,338815,LAVENDER STREET,310 LAVENDER STREET SINGAPORE 338815,30923.1708491109,33066.6401582789
312 LAVENDER STREET SINGAPORE 338816,312,NIL,1.31537795277315,103.85954805425,103.85954805425,338816,LAVENDER STREET,312 LAVENDER STREET SINGAPORE 338816,30919.0876375716,33073.3437297065
314 LAVENDER STREET SINGAPORE 338817,314,NIL,1.31542602524465,103.859518170077,103.859518170077,338817,LAVENDER STREET,314 LAVENDER STREET SINGAPORE 338817,30915.7617612528,33078.659302203
316 LAVENDER STREET SINGAPORE 338818,316,NIL,1.31550968331548,103.85953585328,103.85953585328,338818,LAVENDER STREET,316 LAVENDER STREET SINGAPORE 338818,30917.7296342133,33087.9098033849
318 LAVENDER STREET SINGAPORE 338819,318,NIL,1.31551664633372,103.859451025487,103.859451025487,338819,LAVENDER STREET,318 LAVENDER STREET SINGAPORE 338819,30908.289110628,33088.6796392836
320 LAVENDER STREET SINGAPORE 338820,320,NIL,1.31558684714482,103.859442914891,103.859442914891,338820,LAVENDER STREET,320 LAVENDER STREET SINGAPORE 338820,30907.3863982819,33096.4420755841
322 LAVENDER STREET GAP YEAR HOSTEL SINGAPORE 338821,322,GAP YEAR HOSTEL,1.31564445537339,103.859439226718,103.859439226718,338821,LAVENDER STREET,GAP YEAR HOSTEL,30906.9758736184,33102.8120938297
324 LAVENDER STREET SINGAPORE 338822,324,NIL,1.31569661388633,103.859380318699,103.859380318699,338822,LAVENDER STREET,324 LAVENDER STREET SINGAPORE 338822,30900.41991915,33108.5794462506
2 LAVENDER STREET TAI PEI BUDDHIST CENTRE SINGAPORE 338823,2,TAI PEI BUDDHIST CENTRE,1.3092671522996,103.864545323911,103.864545323911,338823,LAVENDER STREET,TAI PEI BUDDHIST CENTRE,31475.2440408021,32397.6491308771
51 KAMPONG BUGIS KALLANG RIVERSIDE SINGAPORE 338986,51,KALLANG RIVERSIDE,1.30710474181654,103.867087818477,103.867087818477,338986,KAMPONG BUGIS,KALLANG RIVERSIDE,31758.2031061314,32158.5445299186
66 KAMPONG BUGIS KALLANG RIVERGREEN BUILDING SINGAPORE 338987,66,KALLANG RIVERGREEN BUILDING,1.30605980126714,103.866069393176,103.866069393176,338987,KAMPONG BUGIS,KALLANG RIVERGREEN BUILDING,31644.8633093107,32042.9988629818
11 KAMPONG BUGIS SINGAPORE 338988,11,NIL,1.30851817040668,103.866029972981,103.866029972981,338988,KAMPONG BUGIS,11 KAMPONG BUGIS SINGAPORE 338988,31640.4726658612,32314.8326584846
226 KALLANG ROAD SRI MANMATHA KARUNESHVARAR TEMPLE SINGAPORE 339096,226,SRI MANMATHA KARUNESHVARAR TEMPLE,1.30885879416168,103.865919309389,103.865919309389,339096,KALLANG ROAD,SRI MANMATHA KARUNESHVARAR TEMPLE,31628.1563508743,32352.4969267026
228 KALLANG ROAD SRI MANMATHA KARUNESHVARAR TEMPLE SINGAPORE 339097,228,SRI MANMATHA KARUNESHVARAR TEMPLE,1.30885783604086,103.865923558129,103.865923558129,339097,KALLANG ROAD,SRI MANMATHA KARUNESHVARAR TEMPLE,31628.6291973162,32352.3909887597
398 KALLANG ROAD THE RIVERINE BY THE PARK SINGAPORE 339098,398,THE RIVERINE BY THE PARK,1.30963804234283,103.869220196792,103.869220196792,339098,KALLANG ROAD,THE RIVERINE BY THE PARK,31995.5130577981,32438.6672127638
5 KALLANG PLACE FOOD CENTRE SINGAPORE 339152,5,FOOD CENTRE,1.31727445408716,103.867560300294,103.867560300294,339152,KALLANG PLACE,FOOD CENTRE,31810.7705728328,33283.0599345528
7 KALLANG PLACE SINGAPORE 339153,7,NIL,1.31684191877395,103.867368600593,103.867368600593,339153,KALLANG PLACE,7 KALLANG PLACE SINGAPORE 339153,31789.4369109413,33235.2321011536
9 KALLANG PLACE SINGAPORE 339154,9,NIL,1.31609119506182,103.868273015065,103.868273015065,339154,KALLANG PLACE,9 KALLANG PLACE SINGAPORE 339154,31890.0906390864,33152.2223071493
11 KALLANG PLACE SINGAPORE 339155,11,NIL,1.31534305415587,103.868321269812,103.868321269812,339155,KALLANG PLACE,11 KALLANG PLACE SINGAPORE 339155,31895.4620862808,33069.4967900477
16 KALLANG PLACE SINGAPORE 339156,16,NIL,1.31704243513164,103.86605674661,103.86605674661,339156,KALLANG PLACE,16 KALLANG PLACE SINGAPORE 339156,31643.4399876446,33257.4022187758
26 KALLANG PLACE SINGAPORE 339157,26,NIL,1.31542028573411,103.867474754712,103.867474754712,339157,KALLANG PLACE,26 KALLANG PLACE SINGAPORE 339157,31801.252986961,33078.0353579856
28 KALLANG PLACE SINGAPORE 339158,28,NIL,1.31520354984236,103.866826668825,103.866826668825,339158,KALLANG PLACE,28 KALLANG PLACE SINGAPORE 339158,31729.1275901692,33054.0688355304
30 KALLANG PLACE SINGAPORE 339159,30,NIL,1.31492054725985,103.866169961722,103.866169961722,339159,KALLANG PLACE,30 KALLANG PLACE SINGAPORE 339159,31656.0428193649,33022.7748882379
32 KALLANG PLACE SINGAPORE 339160,32,NIL,1.31472941455869,103.867492478236,103.867492478236,339160,KALLANG PLACE,32 KALLANG PLACE SINGAPORE 339160,31803.2264897674,33001.6423873659
33 KALLANG PLACE SINGAPORE 339161,33,NIL,1.31476276084926,103.868307089219,103.868307089219,339161,KALLANG PLACE,33 KALLANG PLACE SINGAPORE 339161,31893.8848216496,33005.3309043981
34 KALLANG PLACE SINGAPORE 339162,34,NIL,1.3144889670251,103.867631229865,103.867631229865,339162,KALLANG PLACE,34 KALLANG PLACE SINGAPORE 339162,31818.6685794322,32975.0551418085
35 KALLANG PLACE SINGAPORE 339163,35,NIL,1.31483630719405,103.868457783684,103.868457783684,339163,KALLANG PLACE,35 KALLANG PLACE SINGAPORE 339163,31910.6555547277,33013.463518139
36 KALLANG PLACE SINGAPORE 339164,36,NIL,1.31433728825065,103.867696668296,103.867696668296,339164,KALLANG PLACE,36 KALLANG PLACE SINGAPORE 339164,31825.9514800664,32958.2833796181
37 KALLANG PLACE SINGAPORE 339165,37,NIL,1.31490858454491,103.868605576733,103.868605576733,339165,KALLANG PLACE,37 KALLANG PLACE SINGAPORE 339165,31927.1033889558,33021.4558095075
38 KALLANG PLACE SINGAPORE 339166,38,NIL,1.31418557854245,103.867762125212,103.867762125212,339166,KALLANG PLACE,38 KALLANG PLACE SINGAPORE 339166,31833.2364389235,32941.5081971474
39 KALLANG PLACE SINGAPORE 339167,39,NIL,1.31498090075588,103.868753432072,103.868753432072,339167,KALLANG PLACE,39 KALLANG PLACE SINGAPORE 339167,31943.5581545513,33029.4523989297
40 KALLANG PLACE SINGAPORE 339168,40,NIL,1.31403383954409,103.867827512496,103.867827512496,339168,KALLANG PLACE,40 KALLANG PLACE SINGAPORE 339168,31840.5136491768,32924.7297760006
41 KALLANG PLACE SINGAPORE 339169,41,NIL,1.31505518286225,103.868904442334,103.868904442334,339169,KALLANG PLACE,41 KALLANG PLACE SINGAPORE 339169,31960.3640287584,33037.6663730107
42 KALLANG PLACE SINGAPORE 339170,42,NIL,1.31387860194954,103.86789391527,103.86789391527,339170,KALLANG PLACE,42 KALLANG PLACE SINGAPORE 339170,31847.9038800811,32907.5644997545
43 KALLANG PLACE SINGAPORE 339171,43,NIL,1.3144664474696,103.86886382327,103.86886382327,339171,KALLANG PLACE,43 KALLANG PLACE SINGAPORE 339171,31955.8444436984,32972.5669622067
44 KALLANG PLACE FOUR STAR BUILDING SINGAPORE 339172,44,FOUR STAR BUILDING,1.31351364484193,103.868009327651,103.868009327651,339172,KALLANG PLACE,FOUR STAR BUILDING,31860.748734599,32867.2095893919
45 KALLANG PLACE SINGAPORE 339173,45,NIL,1.31442133654707,103.868769024011,103.868769024011,339173,KALLANG PLACE,45 KALLANG PLACE SINGAPORE 339173,31945.2942655617,32967.5786774177
47 KALLANG PLACE SINGAPORE 339174,47,NIL,1.31437067169579,103.868666101932,103.868666101932,339174,KALLANG PLACE,47 KALLANG PLACE SINGAPORE 339174,31933.8401038237,32961.9762552399
49 KALLANG PLACE SINGAPORE 339175,49,NIL,1.31432489886982,103.86857196982,103.86857196982,339175,KALLANG PLACE,49 KALLANG PLACE SINGAPORE 339175,31923.364173051,32956.9147824664
51 KALLANG PLACE SINGAPORE 339176,51,NIL,1.3142775039562,103.868473797258,103.868473797258,339176,KALLANG PLACE,51 KALLANG PLACE SINGAPORE 339176,31912.4385811128,32951.6739416216
53 KALLANG PLACE LIM KIM HAI BUILDING SINGAPORE 339177,53,LIM KIM HAI BUILDING,1.31371052007169,103.868499433114,103.868499433114,339177,KALLANG PLACE,LIM KIM HAI BUILDING,31915.2924887612,32888.979806412
1 KALLANG PLACE SINGAPORE 339211,1,NIL,1.31765891859771,103.867035910804,103.867035910804,339211,KALLANG PLACE,1 KALLANG PLACE SINGAPORE 339211,31752.4105404802,33325.5712571479
26A KALLANG PLACE FOOD CENTRE SINGAPORE 339212,26A,FOOD CENTRE,1.31592297235373,103.86703844866,103.86703844866,339212,KALLANG PLACE,FOOD CENTRE,31752.6955740824,33133.6192108728
30A KALLANG PLACE SINGAPORE 339213,30A,NIL,1.31461770584528,103.865922056564,103.865922056564,339213,KALLANG PLACE,30A KALLANG PLACE SINGAPORE 339213,31628.4537943508,32989.2878741827
1 KALLANG JUNCTION SINGAPORE 339263,1,NIL,1.31246375796518,103.864268387794,103.864268387794,339263,KALLANG JUNCTION,1 KALLANG JUNCTION SINGAPORE 339263,31444.4192775246,32751.1130148824
17 KALLANG JUNCTION TRION SINGAPORE 339274,17,TRION,1.3140107307196,103.865483721633,103.865483721633,339274,KALLANG JUNCTION,TRION,31579.6721865162,32922.1710417289
26 KALLANG JUNCTION SINGAPORE 339279,26,NIL,1.31342267805541,103.866331867457,103.866331867457,339279,KALLANG JUNCTION,26 KALLANG JUNCTION SINGAPORE 339279,31674.0635596346,32857.1484207995
201 KALLANG BAHRU ESSILOR BUILDING I SINGAPORE 339338,201,ESSILOR BUILDING I,1.31746613080973,103.865547250147,103.865547250147,339338,KALLANG BAHRU,ESSILOR BUILDING I,31586.7373695439,33304.2515790649
202 KALLANG BAHRU WORK PLUS STORE SPAZE SINGAPORE 339339,202,WORK PLUS STORE SPAZE,1.31578977022975,103.865439804417,103.865439804417,339339,KALLANG BAHRU,WORK PLUS STORE SPAZE,31574.7820910672,33118.8880556095
203 KALLANG BAHRU MILLION BUILDING SINGAPORE 339340,203,MILLION BUILDING,1.31772466007212,103.86573399144,103.86573399144,339340,KALLANG BAHRU,MILLION BUILDING,31607.5194882359,33332.8386908416
205 KALLANG BAHRU SINGAPORE 339341,205,NIL,1.31816998359849,103.866166311924,103.866166311924,339341,KALLANG BAHRU,205 KALLANG BAHRU SINGAPORE 339341,31655.6319012176,33382.0809168518
205A KALLANG BAHRU SINGAPORE 339342,205A,NIL,1.31843215074795,103.865583096414,103.865583096414,339342,KALLANG BAHRU,205A KALLANG BAHRU SINGAPORE 339342,31590.7253277386,33411.069170218
207 KALLANG BAHRU SINGAPORE 339343,207,NIL,1.31852045596392,103.866488578624,103.866488578624,339343,KALLANG BAHRU,207 KALLANG BAHRU SINGAPORE 339343,31691.4965259284,33420.8348324839
209 KALLANG BAHRU STAMFORD PRESS CENTRE SINGAPORE 339344,209,STAMFORD PRESS CENTRE,1.31811162898164,103.865348616708,103.865348616708,339344,KALLANG BAHRU,STAMFORD PRESS CENTRE,31564.6304817405,33375.6271773633
215 KALLANG BAHRU HILITE INDUSTRIAL BUILDING SINGAPORE 339346,215,HILITE INDUSTRIAL BUILDING,1.31872785814611,103.865768863242,103.865768863242,339346,KALLANG BAHRU,HILITE INDUSTRIAL BUILDING,31611.3989357091,33443.767249275
217 KALLANG BAHRU MULTRON BUILDING SINGAPORE 339347,217,MULTRON BUILDING,1.31902486854646,103.865950889136,103.865950889136,339347,KALLANG BAHRU,MULTRON BUILDING,31631.6562075634,33476.6094039362
219 KALLANG BAHRU CHUTEX BUILDING SINGAPORE 339348,219,CHUTEX BUILDING,1.31938332008578,103.866223784402,103.866223784402,339348,KALLANG BAHRU,CHUTEX BUILDING,31662.0262549222,33516.2455404904
221 KALLANG BAHRU LION BUILDING SINGAPORE 339349,221,LION BUILDING,1.31893473104795,103.866770083428,103.866770083428,339349,KALLANG BAHRU,LION BUILDING,31722.8246457754,33466.6436702963
250 KALLANG BAHRU SINGAPORE 339350,250,NIL,1.31991465769663,103.870700396394,103.870700396394,339350,KALLANG BAHRU,250 KALLANG BAHRU SINGAPORE 339350,32160.2283983892,33575.0051707644
535 KALLANG BAHRU GB POINT SINGAPORE 339351,535,GB POINT,1.32129654316361,103.870736238687,103.870736238687,339351,KALLANG BAHRU,GB POINT,32164.2149945246,33727.8070632312
252 KALLANG BAHRU SINGAPORE 339353,252,NIL,1.32022445876248,103.871201397567,103.871201397567,339353,KALLANG BAHRU,252 KALLANG BAHRU SINGAPORE 339353,32215.9843852995,33609.2622325905
1A KALLANG BAHRU TEMPORARY SITE OFFICE SINGAPORE 339354,1A,TEMPORARY SITE OFFICE,1.31273037006293,103.862003677726,103.862003677726,339354,KALLANG BAHRU,TEMPORARY SITE OFFICE,31192.3782311296,32780.5906107407
541 KALLANG BAHRU GEYLANG BAHRU MRT STATION (DT24) SINGAPORE 339355,541,GEYLANG BAHRU MRT STATION (DT24),1.32130110228321,103.871622627142,103.871622627142,339355,KALLANG BAHRU,GEYLANG BAHRU MRT STATION (DT24),32262.8612591857,33728.3126899004
11 KALLANG BAHRU SINGAPORE 339356,11,NIL,1.31381646382986,103.862953700177,103.862953700177,339356,KALLANG BAHRU,11 KALLANG BAHRU SINGAPORE 339356,31298.10526683,32900.6865242068
2 KALLANG AVENUE AGAPE METHODIST HOSPICE SINGAPORE 339407,2,AGAPE METHODIST HOSPICE,1.31215967710055,103.86294146611,103.86294146611,339407,KALLANG AVENUE,AGAPE METHODIST HOSPICE,31296.7459014133,32717.4875248037
19 KALLANG AVENUE SINGAPORE 339410,19,NIL,1.31140126798514,103.865286994426,103.865286994426,339410,KALLANG AVENUE,19 KALLANG AVENUE SINGAPORE 339410,31557.7820174769,32633.629742967
20 KALLANG AVENUE CARPE DIEM JUNIORS PTE. LTD. SINGAPORE 339411,20,CARPE DIEM JUNIORS PTE. LTD.,1.30979213426252,103.865023834958,103.865023834958,339411,KALLANG AVENUE,CARPE DIEM JUNIORS PTE. LTD.,31528.4971076027,32455.6996125598
21 KALLANG AVENUE SINGAPORE 339412,21,NIL,1.3118066872755,103.866250215849,103.866250215849,339412,KALLANG AVENUE,21 KALLANG AVENUE SINGAPORE 339412,31664.9788664654,32678.4603195451
22 KALLANG AVENUE HONG AIK INDUSTRIAL BUILDING SINGAPORE 339413,22,HONG AIK INDUSTRIAL BUILDING,1.30979377887095,103.866038506324,103.866038506324,339413,KALLANG AVENUE,HONG AIK INDUSTRIAL BUILDING,31641.420507771,32455.8829154689
23 KALLANG AVENUE SINGAPORE 339414,23,NIL,1.31149300151441,103.865970973896,103.865970973896,339414,KALLANG AVENUE,23 KALLANG AVENUE SINGAPORE 339414,31633.9023340996,32643.7741485126
24 KALLANG AVENUE MITUTOYO BUILDING SINGAPORE 339415,24,MITUTOYO BUILDING,1.30998384914967,103.866658619653,103.866658619653,339415,KALLANG AVENUE,MITUTOYO BUILDING,31710.433024046,32476.9008217547
25 KALLANG AVENUE SINGAPORE 339416,25,NIL,1.31074234173819,103.866101081563,103.866101081563,339416,KALLANG AVENUE,25 KALLANG AVENUE SINGAPORE 339416,31648.383173137,32560.7702264972
26 KALLANG AVENUE INTERNATIONAL PRESS BUILDING SINGAPORE 339417,26,INTERNATIONAL PRESS BUILDING,1.31022217298421,103.867373577063,103.867373577063,339417,KALLANG AVENUE,INTERNATIONAL PRESS BUILDING,31790.0007126741,32503.2545195501
85 KALLANG AVENUE KALLANG DORMITORY SINGAPORE 339418,85,KALLANG DORMITORY,1.31063395066224,103.866797212403,103.866797212403,339418,KALLANG AVENUE,KALLANG DORMITORY,31725.856135685,32548.7859210242
95 KALLANG AVENUE AIS INDUSTRIAL BUILDING SINGAPORE 339420,95,AIS INDUSTRIAL BUILDING,1.31083152124731,103.867240817798,103.867240817798,339420,KALLANG AVENUE,AIS INDUSTRIAL BUILDING,31775.2249424029,32570.6329279188
103 KALLANG AVENUE AIS INDUSTRIAL BUILDING SINGAPORE 339504,103,AIS INDUSTRIAL BUILDING,1.31140322503547,103.866918313266,103.866918313266,339504,KALLANG AVENUE,AIS INDUSTRIAL BUILDING,31739.3323803432,32633.848519953
50 KALLANG AVENUE SCHNEIDER ELECTRIC BUILDING SINGAPORE 339505,50,SCHNEIDER ELECTRIC BUILDING,1.31268054128235,103.866662038115,103.866662038115,339505,KALLANG AVENUE,SCHNEIDER ELECTRIC BUILDING,31710.809497227,32775.0872254055
101 KALLANG AVENUE VICTORIA WHOLESALE CENTRE SINGAPORE 339508,101,VICTORIA WHOLESALE CENTRE,1.31129117945512,103.867430687798,103.867430687798,339508,KALLANG AVENUE,VICTORIA WHOLESALE CENTRE,31796.3549915673,32621.459864486
8 KALLANG AVENUE APERIA SINGAPORE 339509,8,APERIA,1.31084282034755,103.863861632346,103.863861632346,339509,KALLANG AVENUE,APERIA,31399.1534473393,32571.8774868734
10 KALLANG AVENUE APERIA SINGAPORE 339510,10,APERIA,1.31047040225956,103.864287497404,103.864287497404,339510,KALLANG AVENUE,APERIA,31446.5487209829,32530.6979858316
12 KALLANG AVENUE APERIA SINGAPORE 339511,12,APERIA,1.30974242032355,103.864101647509,103.864101647509,339511,KALLANG AVENUE,APERIA,31425.866365565,32450.2012214419
1 JALAN LEMBAH KALLANG SINGAPORE 339557,1,NIL,1.3158301961374,103.862359072348,103.862359072348,339557,JALAN LEMBAH KALLANG,1 JALAN LEMBAH KALLANG SINGAPORE 339557,31231.9262878513,33123.3539452665
2 JALAN LEMBAH KALLANG SINGAPORE 339558,2,NIL,1.31521266331926,103.862038876495,103.862038876495,339558,JALAN LEMBAH KALLANG,2 JALAN LEMBAH KALLANG SINGAPORE 339558,31196.2923657121,33055.0699188244
3 JALAN LEMBAH KALLANG SINGAPORE 339559,3,NIL,1.31571927145837,103.862489437843,103.862489437843,339559,JALAN LEMBAH KALLANG,3 JALAN LEMBAH KALLANG SINGAPORE 339559,31246.4348523626,33111.088631833
4 JALAN LEMBAH KALLANG SINGAPORE 339560,4,NIL,1.31521266304551,103.862038876767,103.862038876767,339560,JALAN LEMBAH KALLANG,4 JALAN LEMBAH KALLANG SINGAPORE 339560,31196.2923959801,33055.0698885564
5 JALAN LEMBAH KALLANG SINGAPORE 339561,5,NIL,1.31556653197172,103.862588769348,103.862588769348,339561,JALAN LEMBAH KALLANG,5 JALAN LEMBAH KALLANG SINGAPORE 339561,31257.4896885911,33094.1996114738
6 JALAN LEMBAH KALLANG SINGAPORE 339562,6,NIL,1.31504926543704,103.862191672619,103.862191672619,339562,JALAN LEMBAH KALLANG,6 JALAN LEMBAH KALLANG SINGAPORE 339562,31213.2973124487,33037.002414519
7 JALAN LEMBAH KALLANG KIAN HUA BUILDING SINGAPORE 339563,7,KIAN HUA BUILDING,1.31542494730834,103.86267030115,103.86267030115,339563,JALAN LEMBAH KALLANG,KIAN HUA BUILDING,31266.5635760902,33078.5440114513
8 JALAN LEMBAH KALLANG MIN GHEE BUILDING SINGAPORE 339564,8,MIN GHEE BUILDING,1.31490545749875,103.86241608244,103.86241608244,339564,JALAN LEMBAH KALLANG,MIN GHEE BUILDING,31238.272152245,33021.1011595409
9 JALAN LEMBAH KALLANG SINGAPORE 339565,9,NIL,1.31534273153972,103.862816018195,103.862816018195,339565,JALAN LEMBAH KALLANG,9 JALAN LEMBAH KALLANG SINGAPORE 339565,31282.7805866739,33069.4532041512
11 JALAN LEMBAH KALLANG SINGAPORE 339567,11,NIL,1.31523398731571,103.862952915648,103.862952915648,339567,JALAN LEMBAH KALLANG,11 JALAN LEMBAH KALLANG SINGAPORE 339567,31298.01609735,33057.4290054757
12 JALAN LEMBAH KALLANG CONCORDE BUILDING SINGAPORE 339568,12,CONCORDE BUILDING,1.31470789689374,103.862639343882,103.862639343882,339568,JALAN LEMBAH KALLANG,CONCORDE BUILDING,31263.1192611512,32999.2562108692
14 JALAN LEMBAH KALLANG SINGAPORE 339569,14,NIL,1.31459950300017,103.862827182942,103.862827182942,339569,JALAN LEMBAH KALLANG,14 JALAN LEMBAH KALLANG SINGAPORE 339569,31284.0240862491,32987.2708157487
15 JALAN LEMBAH KALLANG SINGAPORE 339570,15,NIL,1.31513716268546,103.863075238737,103.863075238737,339570,JALAN LEMBAH KALLANG,15 JALAN LEMBAH KALLANG SINGAPORE 339570,31311.6296073142,33046.7227958832
16 JALAN LEMBAH KALLANG SINGAPORE 339571,16,NIL,1.31453938094057,103.863003152022,103.863003152022,339571,JALAN LEMBAH KALLANG,16 JALAN LEMBAH KALLANG SINGAPORE 339571,31303.6078349296,32980.6230584849
17 JALAN LEMBAH KALLANG SINGAPORE 339572,17,NIL,1.31504168689395,103.863206794774,103.863206794774,339572,JALAN LEMBAH KALLANG,17 JALAN LEMBAH KALLANG SINGAPORE 339572,31326.2706547901,33036.1657469142
18 JALAN LEMBAH KALLANG KALLANG DELIVERY BASE SINGAPORE 339573,18,KALLANG DELIVERY BASE,1.31427990873812,103.863135540772,103.863135540772,339573,JALAN LEMBAH KALLANG,KALLANG DELIVERY BASE,31318.3417748474,32951.9321275223
3 GEYLANG BAHRU LANE SINGAPORE 339626,3,NIL,1.32441813300654,103.870519344522,103.870519344522,339626,GEYLANG BAHRU LANE,3 GEYLANG BAHRU LANE SINGAPORE 339626,32140.0716465088,34072.9761576392
21 GEYLANG BAHRU LANE KALLANG BASIN SWIMMING COMPLEX SINGAPORE 339627,21,KALLANG BASIN SWIMMING COMPLEX,1.32255951151921,103.87249101616,103.87249101616,339627,GEYLANG BAHRU LANE,KALLANG BASIN SWIMMING COMPLEX,32359.5021791216,33867.4626623318
11 GEYLANG BAHRU LANE SINGAPORE 339630,11,NIL,1.32370763354213,103.871683051486,103.871683051486,339630,GEYLANG BAHRU LANE,11 GEYLANG BAHRU LANE SINGAPORE 339630,32269.5817806823,33994.4147281293
1 GEYLANG BAHRU LANE KOLAM AYER COMMUNITY CLUB SINGAPORE 339631,1,KOLAM AYER COMMUNITY CLUB,1.32425718908662,103.869745480841,103.869745480841,339631,GEYLANG BAHRU LANE,KOLAM AYER COMMUNITY CLUB,32053.948639039,34055.1785226781
74 GEYLANG BAHRU GEYLANG BAHRU INDUSTRIAL ESTATE SINGAPORE 339682,74,GEYLANG BAHRU INDUSTRIAL ESTATE,1.32110072172637,103.872210186205,103.872210186205,339682,GEYLANG BAHRU,GEYLANG BAHRU INDUSTRIAL ESTATE,32328.251121561,33706.1566468906
75 GEYLANG BAHRU GEYLANG BAHRU INDUSTRIAL ESTATE SINGAPORE 339683,75,GEYLANG BAHRU INDUSTRIAL ESTATE,1.32063849569726,103.872218885985,103.872218885985,339683,GEYLANG BAHRU,GEYLANG BAHRU INDUSTRIAL ESTATE,32329.2201207923,33655.0460690502
76 GEYLANG BAHRU GEYLANG BAHRU INDUSTRIAL ESTATE SINGAPORE 339684,76,GEYLANG BAHRU INDUSTRIAL ESTATE,1.32092031838453,103.872794426591,103.872794426591,339684,GEYLANG BAHRU,GEYLANG BAHRU INDUSTRIAL ESTATE,32393.2716237316,33686.209591601
77 GEYLANG BAHRU GEYLANG BAHRU INDUSTRIAL ESTATE SINGAPORE 339685,77,GEYLANG BAHRU INDUSTRIAL ESTATE,1.32072498793213,103.872923139381,103.872923139381,339685,GEYLANG BAHRU,GEYLANG BAHRU INDUSTRIAL ESTATE,32407.5964313131,33664.6111756563
78 GEYLANG BAHRU GEYLANG BAHRU INDUSTRIAL ESTATE SINGAPORE 339686,78,GEYLANG BAHRU INDUSTRIAL ESTATE,1.32043074181685,103.872318605684,103.872318605684,339686,GEYLANG BAHRU,GEYLANG BAHRU INDUSTRIAL ESTATE,32340.3183007734,33632.0738801286
79 GEYLANG BAHRU GEYLANG BAHRU INDUSTRIAL ESTATE SINGAPORE 339687,79,GEYLANG BAHRU INDUSTRIAL ESTATE,1.3199893476537,103.872484730316,103.872484730316,339687,GEYLANG BAHRU,GEYLANG BAHRU INDUSTRIAL ESTATE,32358.8071051436,33583.2670590635
80 GEYLANG BAHRU GEYLANG BAHRU INDUSTRIAL ESTATE SINGAPORE 339688,80,GEYLANG BAHRU INDUSTRIAL ESTATE,1.32033258520529,103.873183078726,103.873183078726,339688,GEYLANG BAHRU,GEYLANG BAHRU INDUSTRIAL ESTATE,32436.525813451,33621.2217485849
81 GEYLANG BAHRU GEYLANG BAHRU INDUSTRIAL ESTATE SINGAPORE 339689,81,GEYLANG BAHRU INDUSTRIAL ESTATE,1.32014939357136,103.873336150147,103.873336150147,339689,GEYLANG BAHRU,GEYLANG BAHRU INDUSTRIAL ESTATE,32453.5614821902,33600.9656269141
82 GEYLANG BAHRU GEYLANG BAHRU INDUSTRIAL ESTATE SINGAPORE 339690,82,GEYLANG BAHRU INDUSTRIAL ESTATE,1.3197813213759,103.872585887344,103.872585887344,339690,GEYLANG BAHRU,GEYLANG BAHRU INDUSTRIAL ESTATE,32370.0652514193,33560.2647534981
83 GEYLANG BAHRU GEYLANG BAHRU INDUSTRIAL ESTATE SINGAPORE 339691,83,GEYLANG BAHRU INDUSTRIAL ESTATE,1.31948643617964,103.872938647031,103.872938647031,339691,GEYLANG BAHRU,GEYLANG BAHRU INDUSTRIAL ESTATE,32409.3244607719,33527.6584772337
84 GEYLANG BAHRU GEYLANG BAHRU INDUSTRIAL ESTATE SINGAPORE 339692,84,GEYLANG BAHRU INDUSTRIAL ESTATE,1.31986524427505,103.87371009208,103.87371009208,339692,GEYLANG BAHRU,GEYLANG BAHRU INDUSTRIAL ESTATE,32495.178052919,33569.5465215091
85 GEYLANG BAHRU GEYLANG BAHRU INDUSTRIAL ESTATE SINGAPORE 339693,85,GEYLANG BAHRU INDUSTRIAL ESTATE,1.31956447391252,103.873714079256,103.873714079256,339693,GEYLANG BAHRU,GEYLANG BAHRU INDUSTRIAL ESTATE,32495.6223263834,33536.288878236
86 GEYLANG BAHRU GEYLANG BAHRU INDUSTRIAL ESTATE SINGAPORE 339694,86,GEYLANG BAHRU INDUSTRIAL ESTATE,1.31968378319396,103.874010408561,103.874010408561,339694,GEYLANG BAHRU,GEYLANG BAHRU INDUSTRIAL ESTATE,32528.6006567031,33549.4820264429
87 GEYLANG BAHRU GEYLANG BAHRU INDUSTRIAL ESTATE SINGAPORE 339695,87,GEYLANG BAHRU INDUSTRIAL ESTATE,1.32014748564483,103.874437446951,103.874437446951,339695,GEYLANG BAHRU,GEYLANG BAHRU INDUSTRIAL ESTATE,32576.1249930291,33600.7566567548
88 GEYLANG BAHRU GEYLANG BAHRU INDUSTRIAL ESTATE SINGAPORE 339696,88,GEYLANG BAHRU INDUSTRIAL ESTATE,1.32034906967536,103.874304192725,103.874304192725,339696,GEYLANG BAHRU,GEYLANG BAHRU INDUSTRIAL ESTATE,32561.2947403872,33623.0465447884
89 GEYLANG BAHRU GEYLANG BAHRU INDUSTRIAL ESTATE SINGAPORE 339697,89,GEYLANG BAHRU INDUSTRIAL ESTATE,1.32070966646451,103.87405676002,103.87405676002,339697,GEYLANG BAHRU,GEYLANG BAHRU INDUSTRIAL ESTATE,32533.7572617494,33662.9190440271
90 GEYLANG BAHRU GEYLANG BAHRU INDUSTRIAL ESTATE SINGAPORE 339698,90,GEYLANG BAHRU INDUSTRIAL ESTATE,1.32090959235044,103.873914454696,103.873914454696,339698,GEYLANG BAHRU,GEYLANG BAHRU INDUSTRIAL ESTATE,32517.919720877,33685.0255686138
91 GEYLANG BAHRU GEYLANG BAHRU INDUSTRIAL ESTATE SINGAPORE 339699,91,GEYLANG BAHRU INDUSTRIAL ESTATE,1.3213152983993,103.873294555454,103.873294555454,339699,GEYLANG BAHRU,GEYLANG BAHRU INDUSTRIAL ESTATE,32448.9303293414,33729.885353798
92 GEYLANG BAHRU GEYLANG BAHRU INDUSTRIAL ESTATE SINGAPORE 339700,92,GEYLANG BAHRU INDUSTRIAL ESTATE,1.32143673848369,103.87350543547,103.87350543547,339700,GEYLANG BAHRU,GEYLANG BAHRU INDUSTRIAL ESTATE,32472.3989737323,33743.31395665
1765 GEYLANG BAHRU KALLANG DISTRIPARK (BLK 1765) SINGAPORE 339701,1765,KALLANG DISTRIPARK (BLK 1765),1.31808216924808,103.871933182085,103.871933182085,339701,GEYLANG BAHRU,KALLANG DISTRIPARK (BLK 1765),32297.4284770424,33372.3800583389
1767 GEYLANG BAHRU KALLANG DISTRIPARK (BLK 1767) SINGAPORE 339702,1767,KALLANG DISTRIPARK (BLK 1767),1.31790672332436,103.871445887766,103.871445887766,339702,GEYLANG BAHRU,KALLANG DISTRIPARK (BLK 1767),32243.1976635642,33352.9793098867
1769 GEYLANG BAHRU KALLANG DISTRIPARK (BLK 1769) SINGAPORE 339703,1769,KALLANG DISTRIPARK (BLK 1769),1.31724647706039,103.871361104213,103.871361104213,339703,GEYLANG BAHRU,KALLANG DISTRIPARK (BLK 1769),32233.7631935757,33279.9725094084
1775 GEYLANG BAHRU KALLANG DISTRIPARK (BLK 1775) SINGAPORE 339704,1775,KALLANG DISTRIPARK (BLK 1775),1.31867658297599,103.870447077388,103.870447077388,339704,GEYLANG BAHRU,KALLANG DISTRIPARK (BLK 1775),32132.0385236302,33438.1047754176
1777 GEYLANG BAHRU KALLANG DISTRIPARK (BLK 1777) SINGAPORE 339705,1777,KALLANG DISTRIPARK (BLK 1777),1.31874950746802,103.869886648402,103.869886648402,339705,GEYLANG BAHRU,KALLANG DISTRIPARK (BLK 1777),32069.6681347741,33446.1674701162
1779 GEYLANG BAHRU KALLANG DISTRIPARK (BLK 1779) SINGAPORE 339706,1779,KALLANG DISTRIPARK (BLK 1779),1.31822319120279,103.87065022825,103.87065022825,339706,GEYLANG BAHRU,KALLANG DISTRIPARK (BLK 1779),32154.6479810355,33387.9713691622
1781 GEYLANG BAHRU KALLANG DISTRIPARK (BLK 1781) SINGAPORE 339707,1781,KALLANG DISTRIPARK (BLK 1781),1.31831805634612,103.869861544677,103.869861544677,339707,GEYLANG BAHRU,KALLANG DISTRIPARK (BLK 1781),32066.8750355048,33398.4597703442
1783 GEYLANG BAHRU KALLANG DISTRIPARK (BLK 1783) SINGAPORE 339708,1783,KALLANG DISTRIPARK (BLK 1783),1.31776778869333,103.869968037875,103.869968037875,339708,GEYLANG BAHRU,KALLANG DISTRIPARK (BLK 1783),32078.7275844449,33337.6141614374
1801 GEYLANG BAHRU KALLANG DISTRIPARK (BLK 1801) SINGAPORE 339709,1801,KALLANG DISTRIPARK (BLK 1801),1.3183721945178,103.871558204889,103.871558204889,339709,GEYLANG BAHRU,KALLANG DISTRIPARK (BLK 1801),32255.6966760997,33404.4489265513
1803 GEYLANG BAHRU KALLANG DISTRIPARK SINGAPORE 339710,1803,KALLANG DISTRIPARK,1.31726624345449,103.870449678876,103.870449678876,339710,GEYLANG BAHRU,KALLANG DISTRIPARK,32132.3303675288,33282.1566471141
1805 GEYLANG BAHRU KALLANG DISTRIPARK (BLK 1805) SINGAPORE 339711,1805,KALLANG DISTRIPARK (BLK 1805),1.31747543426305,103.869298098671,103.869298098671,339711,GEYLANG BAHRU,KALLANG DISTRIPARK (BLK 1805),32004.170336769,33305.286017675
1807 GEYLANG BAHRU KALLANG DISTRIPARK (BLK 1807) SINGAPORE 339712,1807,KALLANG DISTRIPARK (BLK 1807),1.31649622615671,103.870070019855,103.870070019855,339712,GEYLANG BAHRU,KALLANG DISTRIPARK (BLK 1807),32090.0792587902,33197.0114468578
1809 GEYLANG BAHRU KALLANG DISTRIPARK (BLK 1809) SINGAPORE 339713,1809,KALLANG DISTRIPARK (BLK 1809),1.31626395021618,103.869747213968,103.869747213968,339713,GEYLANG BAHRU,KALLANG DISTRIPARK (BLK 1809),32054.1544613279,33171.3270347193
1811 GEYLANG BAHRU KALLANG DISTRIPARK (BLK 1811) SINGAPORE 339714,1811,KALLANG DISTRIPARK (BLK 1811),1.31658982737525,103.869519046515,103.869519046515,339714,GEYLANG BAHRU,KALLANG DISTRIPARK (BLK 1811),32028.7611061204,33207.360494243
1813 GEYLANG BAHRU KALLANG DISTRIPARK (BLK 1813) SINGAPORE 339715,1813,KALLANG DISTRIPARK (BLK 1813),1.31688857479837,103.87029834603,103.87029834603,339715,GEYLANG BAHRU,KALLANG DISTRIPARK (BLK 1813),32115.4891100489,33240.395728372
1815 GEYLANG BAHRU KALLANG DISTRIPARK (BLK 1815) SINGAPORE 339716,1815,KALLANG DISTRIPARK (BLK 1815),1.31704189451866,103.869406649486,103.869406649486,339716,GEYLANG BAHRU,KALLANG DISTRIPARK (BLK 1815),32016.2516813977,33257.3475850653
3200 GEYLANG BAHRU KOLAM AYER PUMPING STATION (CENTRAL MONITORING BUILDING) SINGAPORE 339718,3200,KOLAM AYER PUMPING STATION (CENTRAL MONITORING BUILDING),1.32524120827033,103.869346863266,103.869346863266,339718,GEYLANG BAHRU,KOLAM AYER PUMPING STATION (CENTRAL MONITORING BUILDING),32009.5849158401,34163.9856889378
102A GEYLANG BAHRU TEMPORARY SITE OFFICE SINGAPORE 339719,102A,TEMPORARY SITE OFFICE,1.31957974375996,103.871619518528,103.871619518528,339719,GEYLANG BAHRU,TEMPORARY SITE OFFICE,32262.5182321267,33537.9736547451
45 BOON KENG ROAD BESTCARE MONTESSORI PTE LTD SINGAPORE 339771,45,BESTCARE MONTESSORI PTE LTD,1.31780291219961,103.862373287007,103.862373287007,339771,BOON KENG ROAD,BESTCARE MONTESSORI PTE LTD,31233.5057015093,33341.4867986143
69 BOON KENG ROAD SINGAPORE 339772,69,NIL,1.31714722350362,103.86249726523,103.86249726523,339772,BOON KENG ROAD,69 BOON KENG ROAD SINGAPORE 339772,31247.3041185867,33268.984262744
301 BOON KENG ROAD EXTRA SPACE BOON KENG SINGAPORE 339779,301,EXTRA SPACE BOON KENG,1.31535153594686,103.865158447571,103.865158447571,339779,BOON KENG ROAD,EXTRA SPACE BOON KENG,31543.4704067353,33070.4299519844
80 BOON KENG ROAD CONTINENTAL BUILDING SINGAPORE 339780,80,CONTINENTAL BUILDING,1.31566879519805,103.863353489024,103.863353489024,339780,BOON KENG ROAD,CONTINENTAL BUILDING,31342.5954799326,33105.5083658192
84 BOON KENG ROAD SINGAPORE 339781,84,NIL,1.31519680976143,103.8637644635,103.8637644635,339781,BOON KENG ROAD,84 BOON KENG ROAD SINGAPORE 339781,31388.3336117351,33053.3191883788
1 BENG WAN ROAD SINGAPORE 339833,1,NIL,1.32381319118249,103.865424402887,103.865424402887,339833,BENG WAN ROAD,1 BENG WAN ROAD SINGAPORE 339833,31573.056604119,34006.0768611841
2 BENG WAN ROAD SINGAPORE 339834,2,NIL,1.32359611785612,103.865286842737,103.865286842737,339834,BENG WAN ROAD,2 BENG WAN ROAD SINGAPORE 339834,31557.7478449233,33982.0738052726
3 BENG WAN ROAD SINGAPORE 339835,3,NIL,1.32391836624931,103.86552587121,103.86552587121,339835,BENG WAN ROAD,3 BENG WAN ROAD SINGAPORE 339835,31584.3488624124,34017.7067285683
4 BENG WAN ROAD SINGAPORE 339836,4,NIL,1.32345407587029,103.865228811469,103.865228811469,339836,BENG WAN ROAD,4 BENG WAN ROAD SINGAPORE 339836,31551.2897468451,33966.3674458414
5 BENG WAN ROAD SINGAPORE 339837,5,NIL,1.32401109273907,103.865608107827,103.865608107827,339837,BENG WAN ROAD,5 BENG WAN ROAD SINGAPORE 339837,31593.5008413093,34027.9600685872
6 BENG WAN ROAD SINGAPORE 339838,6,NIL,1.3233691601181,103.865099708435,103.865099708435,339838,BENG WAN ROAD,6 BENG WAN ROAD SINGAPORE 339838,31536.9219889939,33956.9777119327
7 BENG WAN ROAD SINGAPORE 339839,7,NIL,1.32410494050758,103.8657057197,103.8657057197,339839,BENG WAN ROAD,7 BENG WAN ROAD SINGAPORE 339839,31604.3639298612,34038.3374165371
8 BENG WAN ROAD SINGAPORE 339840,8,NIL,1.32325121947714,103.865021209548,103.865021209548,339840,BENG WAN ROAD,8 BENG WAN ROAD SINGAPORE 339840,31528.1860132655,33943.936327396
9 BENG WAN ROAD SINGAPORE 339841,9,NIL,1.32421140230703,103.865791979004,103.865791979004,339841,BENG WAN ROAD,9 BENG WAN ROAD SINGAPORE 339841,31613.9635722376,34050.1095434446
10 BENG WAN ROAD SINGAPORE 339842,10,NIL,1.32308212266419,103.864911219522,103.864911219522,339842,BENG WAN ROAD,10 BENG WAN ROAD SINGAPORE 339842,31515.9454590427,33925.2383107226
11 BENG WAN ROAD KIM KEAT CHRISTIAN CHURCH SINGAPORE 339843,11,KIM KEAT CHRISTIAN CHURCH,1.32440317153976,103.865902803581,103.865902803581,339843,BENG WAN ROAD,KIM KEAT CHRISTIAN CHURCH,31626.2969583664,34071.3145664055
14 BENG WAN ROAD SINGAPORE 339846,14,NIL,1.32285762964629,103.865167774,103.865167774,339846,BENG WAN ROAD,14 BENG WAN ROAD SINGAPORE 339846,31544.4977323711,33900.4153859373
15 BENG WAN ROAD SINGAPORE 339847,15,NIL,1.32425764434625,103.866097008004,103.866097008004,339847,BENG WAN ROAD,15 BENG WAN ROAD SINGAPORE 339847,31647.9101753561,34055.223198222
16 BENG WAN ROAD SINGAPORE 339848,16,NIL,1.32266891308078,103.865371757159,103.865371757159,339848,BENG WAN ROAD,16 BENG WAN ROAD SINGAPORE 339848,31567.1992952507,33879.5483655501
17 BENG WAN ROAD SINGAPORE 339849,17,NIL,1.32415690569497,103.86620121108,103.86620121108,339849,BENG WAN ROAD,17 BENG WAN ROAD SINGAPORE 339849,31659.5070809051,34044.0841867309
18 BENG WAN ROAD SINGAPORE 339850,18,NIL,1.32288554285526,103.865475201126,103.865475201126,339850,BENG WAN ROAD,18 BENG WAN ROAD SINGAPORE 339850,31578.7112688376,33903.5023267921
20 BENG WAN ROAD SINGAPORE 339851,20,NIL,1.32299994524315,103.865551196456,103.865551196456,339851,BENG WAN ROAD,20 BENG WAN ROAD SINGAPORE 339851,31587.1686277762,33916.1524673719
22 BENG WAN ROAD SINGAPORE 339852,22,NIL,1.3230968429004,103.865652412796,103.865652412796,339852,BENG WAN ROAD,22 BENG WAN ROAD SINGAPORE 339852,31598.4328579167,33926.8670611959
24 BENG WAN ROAD SINGAPORE 339853,24,NIL,1.32319763490622,103.865736221776,103.865736221776,339853,BENG WAN ROAD,24 BENG WAN ROAD SINGAPORE 339853,31607.7598160272,33938.0122473557
25 BENG WAN ROAD SINGAPORE 339854,25,NIL,1.32364021155279,103.866060122677,103.866060122677,339854,BENG WAN ROAD,25 BENG WAN ROAD SINGAPORE 339854,31643.806109176,33986.9505828097
27 BENG WAN ROAD SINGAPORE 339855,27,NIL,1.32352752142517,103.865980830457,103.865980830457,339855,BENG WAN ROAD,27 BENG WAN ROAD SINGAPORE 339855,31634.9818417383,33974.4897684678
29 BENG WAN ROAD SINGAPORE 339856,29,NIL,1.32341916502886,103.865901920968,103.865901920968,339856,BENG WAN ROAD,29 BENG WAN ROAD SINGAPORE 339856,31626.2001613546,33962.5081568453
50A KALLANG PLACE TEMPORARY LIVING QUARTERS SINGAPORE 339909,50A,TEMPORARY LIVING QUARTERS,1.31422842184474,103.86694360066,103.86694360066,339909,KALLANG PLACE,TEMPORARY LIVING QUARTERS,31742.1424296834,32946.2443496306
20 BENDEMEER ROAD BS BENDEMEER CENTRE SINGAPORE 339914,20,BS BENDEMEER CENTRE,1.31433793849979,103.862207215594,103.862207215594,339914,BENDEMEER ROAD,BS BENDEMEER CENTRE,31215.0280054891,32958.3475477435
38 BENDEMEER ROAD BENDEMEER INDUSTRIAL ESTATE SINGAPORE 339930,38,BENDEMEER INDUSTRIAL ESTATE,1.31501542616849,103.86182410937,103.86182410937,339930,BENDEMEER ROAD,BENDEMEER INDUSTRIAL ESTATE,31172.3911010297,33033.2601718158
46 BENDEMEER ROAD BENDEMEER INDUSTRIAL ESTATE SINGAPORE 339931,46,BENDEMEER INDUSTRIAL ESTATE,1.31498127722648,103.86143476163,103.86143476163,339931,BENDEMEER ROAD,BENDEMEER INDUSTRIAL ESTATE,31129.0604846515,33029.4836657569
48 BENDEMEER ROAD BENDEMEER INDUSTRIAL ESTATE SINGAPORE 339932,48,BENDEMEER INDUSTRIAL ESTATE,1.31506696389759,103.861502443081,103.861502443081,339932,BENDEMEER ROAD,BENDEMEER INDUSTRIAL ESTATE,31136.5926724002,33038.9585435037
50 BENDEMEER ROAD BENDEMEER INDUSTRIAL ESTATE SINGAPORE 339933,50,BENDEMEER INDUSTRIAL ESTATE,1.31521182262607,103.861615164485,103.861615164485,339933,BENDEMEER ROAD,BENDEMEER INDUSTRIAL ESTATE,31149.1372987879,33054.9764210228
52 BENDEMEER ROAD BENDEMEER INDUSTRIAL ESTATE SINGAPORE 339934,52,BENDEMEER INDUSTRIAL ESTATE,1.31529613654892,103.861680421293,103.861680421293,339934,BENDEMEER ROAD,BENDEMEER INDUSTRIAL ESTATE,31156.3996474603,33064.2995048314
54 BENDEMEER ROAD BENDEMEER INDUSTRIAL ESTATE SINGAPORE 339935,54,BENDEMEER INDUSTRIAL ESTATE,1.31543858863458,103.861790891024,103.861790891024,339935,BENDEMEER ROAD,BENDEMEER INDUSTRIAL ESTATE,31168.6936852112,33080.0512662381
56 BENDEMEER ROAD CHIP SOON BUILDING SINGAPORE 339936,56,CHIP SOON BUILDING,1.31549830019456,103.861909246504,103.861909246504,339936,BENDEMEER ROAD,CHIP SOON BUILDING,31181.8654339537,33086.6540150102
58 BENDEMEER ROAD GENOVA BUILDING SINGAPORE 339937,58,GENOVA BUILDING,1.31580059929603,103.86207859129,103.86207859129,339937,BENDEMEER ROAD,GENOVA BUILDING,31200.7114913352,33120.080916848
60 BENDEMEER ROAD BENDEMEER INDUSTRIAL ESTATE SINGAPORE 339938,60,BENDEMEER INDUSTRIAL ESTATE,1.31592058750755,103.862162322857,103.862162322857,339938,BENDEMEER ROAD,BENDEMEER INDUSTRIAL ESTATE,31210.0298533384,33133.3487059027
62 BENDEMEER ROAD I DEVELOPMENT BUILDING SINGAPORE 339939,62,I DEVELOPMENT BUILDING,1.3159896577168,103.862256107878,103.862256107878,339939,BENDEMEER ROAD,I DEVELOPMENT BUILDING,31220.4671318959,33140.9862565007
70 BENDEMEER ROAD CAELUM JUNIOR @ BENDEMEER PTE. LTD. SINGAPORE 339940,70,CAELUM JUNIOR @ BENDEMEER PTE. LTD.,1.31626605933927,103.862529469668,103.862529469668,339940,BENDEMEER ROAD,CAELUM JUNIOR @ BENDEMEER PTE. LTD.,31250.8893007217,33171.5496860072
72 BENDEMEER ROAD LUZERNE SINGAPORE 339941,72,LUZERNE,1.31600857201637,103.862867956564,103.862867956564,339941,BENDEMEER ROAD,LUZERNE,31288.5599554852,33143.078500608
990 BENDEMEER ROAD MICRON BUILDING SINGAPORE 339942,990,MICRON BUILDING,1.31833834301187,103.864646664164,103.864646664164,339942,BENDEMEER ROAD,MICRON BUILDING,31486.5096935378,33400.6950609423
994 BENDEMEER ROAD B CENTRAL SINGAPORE 339943,994,B CENTRAL,1.31976779421033,103.86508483849,103.86508483849,339943,BENDEMEER ROAD,B CENTRAL,31535.2722022738,33558.7570749614
996 BENDEMEER ROAD B CENTRAL SINGAPORE 339944,996,B CENTRAL,1.31909629565443,103.865465023328,103.865465023328,339944,BENDEMEER ROAD,B CENTRAL,31577.5839983197,33484.5067446399
998 BENDEMEER ROAD FOOD CENTRE SINGAPORE 339945,998,FOOD CENTRE,1.31958416875401,103.865942986886,103.865942986886,339945,BENDEMEER ROAD,FOOD CENTRE,31630.7759540612,33538.4539471101
1500 BENDEMEER ROAD DBS MINISTRY OF MANPOWER BENDEMEER SINGAPORE 339946,1500,DBS MINISTRY OF MANPOWER BENDEMEER,1.32629432430337,103.869050163283,103.869050163283,339946,BENDEMEER ROAD,DBS MINISTRY OF MANPOWER BENDEMEER,31976.5635141805,34280.433402326
91 BENDEMEER ROAD BENDEMEER PRIMARY SCHOOL SINGAPORE 339948,91,BENDEMEER PRIMARY SCHOOL,1.32197651790133,103.865444845317,103.865444845317,339948,BENDEMEER ROAD,BENDEMEER PRIMARY SCHOOL,31575.3342698943,33802.9869536012
80 BENDEMEER ROAD SINGAPORE 339949,80,NIL,1.31691578544271,103.863109192276,103.863109192276,339949,BENDEMEER ROAD,80 BENDEMEER ROAD SINGAPORE 339949,31315.4059620351,33243.3938326947
