ADDRESS,BLK_NO,BUILDING,LATITUDE,LONGITUDE,LONGTITUDE,POSTAL,ROAD_NAME,SEARCHVAL,X,Y
137D TAMPINES STREET 11 SINGAPORE 525137,137D,NIL,1.34598323713445,103.944863707701,103.944863707701,525137,TAMPINES STREET 11,137D TAMPINES STREET 11 SINGAPORE 525137,40413.7515957691,36457.7876587305
230B TAMPINES STREET 24 SINGAPORE 525230,230B,NIL,1.3553984846695,103.950733897054,103.950733897054,525230,TAMPINES STREET 24,230B TAMPINES STREET 24 SINGAPORE 525230,41066.9900142616,37498.910500437
450E TAMPINES STREET 42 SINGAPORE 525450,450E,NIL,1.35756791894077,103.953020775042,103.953020775042,525450,TAMPINES STREET 42,450E TAMPINES STREET 42 SINGAPORE 525450,41321.4820409054,37738.8084555157
491F TAMPINES STREET 45 SINGAPORE 525491,491F,NIL,1.36296253151948,103.954955444255,103.954955444255,525491,TAMPINES STREET 45,491F TAMPINES STREET 45 SINGAPORE 525491,41536.758807309,38335.3293035235
492E TAMPINES STREET 45 TAMPINES GREENEDGE SINGAPORE 525492,492E,TAMPINES GREENEDGE,1.36342933242555,103.955864853977,103.955864853977,525492,TAMPINES STREET 45,TAMPINES GREENEDGE,41637.9629890062,38386.9510168061
494E TAMPINES STREET 43 TAMPINES ALCOVES SINGAPORE 525494,494E,TAMPINES ALCOVES,1.36421531545345,103.953511202271,103.953511202271,525494,TAMPINES STREET 43,TAMPINES ALCOVES,41376.0244330084,38473.8480068874
495F TAMPINES STREET 43 SINGAPORE 525495,495F,NIL,1.36442076452696,103.95294031503,103.95294031503,525495,TAMPINES STREET 43,495F TAMPINES STREET 43 SINGAPORE 525495,41312.490179643,38496.562403392
496B TAMPINES STREET 43 SINGAPORE 525496,496B,NIL,1.36123685622591,103.950996094324,103.950996094324,525496,TAMPINES STREET 43,496B TAMPINES STREET 43 SINGAPORE 525496,41096.1382036535,38144.4906347618
497G TAMPINES STREET 45 SINGAPORE 525497,497G,NIL,1.36034648036577,103.959716831981,103.959716831981,525497,TAMPINES STREET 45,497G TAMPINES STREET 45 SINGAPORE 525497,42066.661518163,38046.0862718262
498G TAMPINES STREET 45 SINGAPORE 525498,498G,NIL,1.36227844944127,103.958121867302,103.958121867302,525498,TAMPINES STREET 45,498G TAMPINES STREET 45 SINGAPORE 525498,41889.1490859324,38259.7048370093
842E TAMPINES STREET 82 TAMPINES ARCADIA SINGAPORE 525842,842E,TAMPINES ARCADIA,1.35157120885478,103.938444966547,103.938444966547,525842,TAMPINES STREET 82,TAMPINES ARCADIA,39699.3884672895,37075.6463456117
856E TAMPINES STREET 82 HDB PUBLIC SHELTERS SINGAPORE 525856,856E,HDB PUBLIC SHELTERS,1.3527643658377,103.938706092437,103.938706092437,525856,TAMPINES STREET 82,HDB PUBLIC SHELTERS,39728.4431588799,37207.5810360853
858E TAMPINES WALK TAMPINES GREENSPRING SINGAPORE 525858,858E,TAMPINES GREENSPRING,1.35445354491042,103.940862799115,103.940862799115,525858,TAMPINES WALK,TAMPINES GREENSPRING,39968.4523185305,37394.3726938162
859E TAMPINES WALK TAMPINES GREENSPRING SINGAPORE 525859,859E,TAMPINES GREENSPRING,1.35512675496131,103.940862470601,103.940862470601,525859,TAMPINES WALK,TAMPINES GREENSPRING,39968.412455596,37468.8129557353
201G TAMPINES STREET 21 SINGAPORE 526201,201G,NIL,1.35248270641385,103.952927680532,103.952927680532,526201,TAMPINES STREET 21,201G TAMPINES STREET 21 SINGAPORE 526201,41311.1494290363,37176.5098611526
230C TAMPINES STREET 24 SINGAPORE 526230,230C,NIL,1.35542753409621,103.951447223791,103.951447223791,526230,TAMPINES STREET 24,230C TAMPINES STREET 24 SINGAPORE 526230,41146.3751264121,37502.1265039742
450F TAMPINES STREET 42 SINGAPORE 526450,450F,NIL,1.35792801646925,103.953020770178,103.953020770178,526450,TAMPINES STREET 42,450F TAMPINES STREET 42 SINGAPORE 526450,41321.4795286627,37778.626290774
491G TAMPINES STREET 45 SINGAPORE 526491,491G,NIL,1.3636112252445,103.954333196181,103.954333196181,526491,TAMPINES STREET 45,491G TAMPINES STREET 45 SINGAPORE 526491,41467.5061751194,38407.0552234668
492F TAMPINES STREET 45 TAMPINES GREENEDGE SINGAPORE 526492,492F,TAMPINES GREENEDGE,1.36370950405096,103.956145243274,103.956145243274,526492,TAMPINES STREET 45,TAMPINES GREENEDGE,41669.1654967209,38417.932628775
494F TAMPINES STREET 43 TAMPINES ALCOVES SINGAPORE 526494,494F,TAMPINES ALCOVES,1.36400945066996,103.953070572395,103.953070572395,526494,TAMPINES STREET 43,TAMPINES ALCOVES,41326.9885741109,38451.0820337385
496C TAMPINES STREET 43 SINGAPORE 526496,496C,NIL,1.36215244534095,103.950373999808,103.950373999808,526496,TAMPINES STREET 43,496C TAMPINES STREET 43 SINGAPORE 526496,41026.9013108155,38245.7286560647
497H TAMPINES STREET 45 SINGAPORE 526497,497H,NIL,1.35991572142856,103.960059381091,103.960059381091,526497,TAMPINES STREET 45,497H TAMPINES STREET 45 SINGAPORE 526497,42104.7858294658,37998.4570266679
498H TAMPINES STREET 45 SINGAPORE 526498,498H,NIL,1.36295791496804,103.957515257339,103.957515257339,526498,TAMPINES STREET 45,498H TAMPINES STREET 45 SINGAPORE 526498,41821.6364995902,38334.833362611
842F TAMPINES STREET 82 TAMPINES ARCADIA SINGAPORE 526842,842F,TAMPINES ARCADIA,1.35186480268899,103.937784349764,103.937784349764,526842,TAMPINES STREET 82,TAMPINES ARCADIA,39625.8677467164,37108.1073355544
856F TAMPINES STREET 82 TAMPINES ARCADIA SINGAPORE 526856,856F,TAMPINES ARCADIA,1.35291277412563,103.938357435494,103.938357435494,526856,TAMPINES STREET 82,TAMPINES ARCADIA,39689.6408144729,37223.9896127395
201E TAMPINES STREET 23 SINGAPORE 527201,201E,NIL,1.35292162536007,103.953858335355,103.953858335355,527201,TAMPINES STREET 23,201E TAMPINES STREET 23 SINGAPORE 527201,41414.7185996408,37225.0485078804
230D TAMPINES STREET 24 SINGAPORE 527230,230D,NIL,1.35609909806697,103.95157812569,103.95157812569,527230,TAMPINES STREET 24,230D TAMPINES STREET 24 SINGAPORE 527230,41160.9394142814,37576.385490939
450G TAMPINES STREET 42 SINGAPORE 527450,450G,NIL,1.35836063792521,103.95287369311,103.95287369311,527450,TAMPINES STREET 42,450G TAMPINES STREET 42 SINGAPORE 527450,41305.1091502057,37826.4626597445
491H TAMPINES STREET 45 SINGAPORE 527491,491H,NIL,1.3629698988553,103.954391828405,103.954391828405,527491,TAMPINES STREET 45,491H TAMPINES STREET 45 SINGAPORE 527491,41474.0348278675,38336.1407881677
492G TAMPINES STREET 45 TAMPINES GREENEDGE SINGAPORE 527492,492G,TAMPINES GREENEDGE,1.36424140790743,103.95508531832,103.95508531832,527492,TAMPINES STREET 45,TAMPINES GREENEDGE,41551.2051408459,38476.7419893462
494G TAMPINES STREET 45 TAMPINES GREENEDGE SINGAPORE 527494,494G,TAMPINES GREENEDGE,1.36313376810873,103.95545857172,103.95545857172,527494,TAMPINES STREET 45,TAMPINES GREENEDGE,41592.7501277924,38354.2666491438
497J TAMPINES STREET 45 SINGAPORE 527497,497J,NIL,1.35926416653664,103.959503982842,103.959503982842,527497,TAMPINES STREET 45,497J TAMPINES STREET 45 SINGAPORE 527497,42042.9800898461,37926.4079959989
498J TAMPINES STREET 45 SINGAPORE 527498,498J,NIL,1.36323538538961,103.956894060229,103.956894060229,527498,TAMPINES STREET 45,498J TAMPINES STREET 45 SINGAPORE 527498,41752.5028508455,38365.5111445598
842G TAMPINES STREET 82 TAMPINES ARCADIA SINGAPORE 527842,842G,TAMPINES ARCADIA,1.35207674741611,103.937111715862,103.937111715862,527842,TAMPINES STREET 82,TAMPINES ARCADIA,39551.0100590335,37131.5399307758
230E TAMPINES STREET 24 SINGAPORE 528230,230E,NIL,1.35609173314841,103.951045423001,103.951045423001,528230,TAMPINES STREET 24,230E TAMPINES STREET 24 SINGAPORE 528230,41101.6556333331,37575.56822511
11A TAMPINES INDUSTRIAL AVENUE 2 TEMPORARY WORKER DORMITORY SINGAPORE 528444,11A,TEMPORARY WORKER DORMITORY,1.3651634066923,103.92768919719,103.92768919719,528444,TAMPINES INDUSTRIAL AVENUE 2,TEMPORARY WORKER DORMITORY,38502.3320864476,38578.555162875
129 TAMPINES STREET 86 PARC CENTRAL RESIDENCES SINGAPORE 528446,129,PARC CENTRAL RESIDENCES,1.35631304761726,103.929955770491,103.929955770491,528446,TAMPINES STREET 86,PARC CENTRAL RESIDENCES,38754.6142778685,37599.9361918326
131 TAMPINES STREET 86 PARC CENTRAL RESIDENCES SINGAPORE 528447,131,PARC CENTRAL RESIDENCES,1.35666423209316,103.930147668461,103.930147668461,528447,TAMPINES STREET 86,PARC CENTRAL RESIDENCES,38775.9687944008,37638.7692885119
133 TAMPINES STREET 86 PARC CENTRAL RESIDENCES SINGAPORE 528448,133,PARC CENTRAL RESIDENCES,1.35697876056463,103.930324054434,103.930324054434,528448,TAMPINES STREET 86,PARC CENTRAL RESIDENCES,38795.5971580893,37673.5490784179
135 TAMPINES STREET 86 PARC CENTRAL RESIDENCES SINGAPORE 528449,135,PARC CENTRAL RESIDENCES,1.35733017107311,103.930469333432,103.930469333432,528449,TAMPINES STREET 86,PARC CENTRAL RESIDENCES,38811.7635000693,37712.406964574
137 TAMPINES STREET 86 PARC CENTRAL RESIDENCES SINGAPORE 528450,137,PARC CENTRAL RESIDENCES,1.35721263035708,103.93067893024,103.93067893024,528450,TAMPINES STREET 86,PARC CENTRAL RESIDENCES,38835.0897638649,37699.4108306728
139 TAMPINES STREET 86 PARC CENTRAL RESIDENCES SINGAPORE 528451,139,PARC CENTRAL RESIDENCES,1.35709719776858,103.930892050034,103.930892050034,528451,TAMPINES STREET 86,PARC CENTRAL RESIDENCES,38858.808088853,37686.6478207838
57 TAMPINES LANE TREASURE AT TAMPINES SINGAPORE 528457,57,TREASURE AT TAMPINES,1.34425932289795,103.949073592994,103.949073592994,528457,TAMPINES LANE,TREASURE AT TAMPINES,40882.2754061092,36267.1874714121
55 TAMPINES LANE TREASURE AT TAMPINES SINGAPORE 528458,55,TREASURE AT TAMPINES,1.34413769175238,103.948765338979,103.948765338979,528458,TAMPINES LANE,TREASURE AT TAMPINES,40847.9706722079,36253.7364702523
53 TAMPINES LANE TREASURE AT TAMPINES SINGAPORE 528459,53,TREASURE AT TAMPINES,1.34413921641526,103.948460473592,103.948460473592,528459,TAMPINES LANE,TREASURE AT TAMPINES,40814.0424114876,36253.9034587182
51 TAMPINES LANE TREASURE AT TAMPINES SINGAPORE 528460,51,TREASURE AT TAMPINES,1.34408962929136,103.948084008753,103.948084008753,528460,TAMPINES LANE,TREASURE AT TAMPINES,40772.1461645896,36248.4183855131
49 TAMPINES LANE TREASURE AT TAMPINES SINGAPORE 528461,49,TREASURE AT TAMPINES,1.34408948312915,103.947770725639,103.947770725639,528461,TAMPINES LANE,TREASURE AT TAMPINES,40737.2811097736,36248.4005879387
47 TAMPINES LANE TREASURE AT TAMPINES SINGAPORE 528462,47,TREASURE AT TAMPINES,1.34405616929722,103.947393989048,103.947393989048,528462,TAMPINES LANE,TREASURE AT TAMPINES,40695.3545343559,36244.714946365
45 TAMPINES LANE TREASURE AT TAMPINES SINGAPORE 528463,45,TREASURE AT TAMPINES,1.34405113417461,103.947080944771,103.947080944771,528463,TAMPINES LANE,TREASURE AT TAMPINES,40660.5160850976,36244.1565626021
43 TAMPINES LANE TREASURE AT TAMPINES SINGAPORE 528464,43,TREASURE AT TAMPINES,1.34405764913522,103.946744748003,103.946744748003,528464,TAMPINES LANE,TREASURE AT TAMPINES,40623.1009526532,36244.8752153385
41 TAMPINES LANE TREASURE AT TAMPINES SINGAPORE 528465,41,TREASURE AT TAMPINES,1.3440932211512,103.946352693105,103.946352693105,528465,TAMPINES LANE,TREASURE AT TAMPINES,40579.4692606404,36248.8065724038
39 TAMPINES LANE TREASURE AT TAMPINES SINGAPORE 528466,39,TREASURE AT TAMPINES,1.34421314553456,103.946057412655,103.946057412655,528466,TAMPINES LANE,TREASURE AT TAMPINES,40546.607098843,36262.0657048151
37 TAMPINES LANE TREASURE AT TAMPINES SINGAPORE 528467,37,TREASURE AT TAMPINES,1.34422252988766,103.945739036921,103.945739036921,528467,TAMPINES LANE,TREASURE AT TAMPINES,40511.1752457637,36263.1017476302
35 TAMPINES LANE TREASURE AT TAMPINES SINGAPORE 528468,35,TREASURE AT TAMPINES,1.34461028775896,103.946220242101,103.946220242101,528468,TAMPINES LANE,TREASURE AT TAMPINES,40564.7262403276,36305.9805840831
33 TAMPINES LANE TREASURE AT TAMPINES SINGAPORE 528469,33,TREASURE AT TAMPINES,1.34462844598269,103.946533433112,103.946533433112,528469,TAMPINES LANE,TREASURE AT TAMPINES,40599.5809434932,36307.9900452551
31 TAMPINES LANE TREASURE AT TAMPINES SINGAPORE 528470,31,TREASURE AT TAMPINES,1.34462022827075,103.946820368541,103.946820368541,528470,TAMPINES LANE,TREASURE AT TAMPINES,40631.5138176549,36307.0828532465
29 TAMPINES LANE TREASURE AT TAMPINES SINGAPORE 528471,29,TREASURE AT TAMPINES,1.3446291757256,103.947119140058,103.947119140058,528471,TAMPINES LANE,TREASURE AT TAMPINES,40664.7638333961,36308.0737664979
27 TAMPINES LANE TREASURE AT TAMPINES SINGAPORE 528472,27,TREASURE AT TAMPINES,1.34450418197669,103.947419977539,103.947419977539,528472,TAMPINES LANE,TREASURE AT TAMPINES,40698.244460905,36294.254131563
25 TAMPINES LANE TREASURE AT TAMPINES SINGAPORE 528473,25,TREASURE AT TAMPINES,1.34450356587417,103.947749845756,103.947749845756,528473,TAMPINES LANE,TREASURE AT TAMPINES,40734.9552573683,36294.1877236068
23 TAMPINES LANE TREASURE AT TAMPINES SINGAPORE 528474,23,TREASURE AT TAMPINES,1.34462688154768,103.948026535439,103.948026535439,528474,TAMPINES LANE,TREASURE AT TAMPINES,40765.7472101524,36307.8248123303
21 TAMPINES LANE TREASURE AT TAMPINES SINGAPORE 528475,21,TREASURE AT TAMPINES,1.34461863971815,103.948298817336,103.948298817336,528475,TAMPINES LANE,TREASURE AT TAMPINES,40796.049305887,36306.9148962051
19 TAMPINES LANE TREASURE AT TAMPINES SINGAPORE 528476,19,TREASURE AT TAMPINES,1.3446264493415,103.948574907098,103.948574907098,528476,TAMPINES LANE,TREASURE AT TAMPINES,40826.7750928579,36307.7798946425
17 TAMPINES LANE TREASURE AT TAMPINES SINGAPORE 528477,17,TREASURE AT TAMPINES,1.34463667711923,103.948873263901,103.948873263901,528477,TAMPINES LANE,TREASURE AT TAMPINES,40859.978949924,36308.9124015216
15 TAMPINES LANE TREASURE AT TAMPINES SINGAPORE 528478,15,TREASURE AT TAMPINES,1.34463114138442,103.949184173545,103.949184173545,528478,TAMPINES LANE,TREASURE AT TAMPINES,40894.5798863145,36308.3019265588
13 TAMPINES LANE TREASURE AT TAMPINES SINGAPORE 528479,13,TREASURE AT TAMPINES,1.3450821362542,103.948827229553,103.948827229553,528479,TAMPINES LANE,TREASURE AT TAMPINES,40854.853490633,36358.1688534841
11 TAMPINES LANE TREASURE AT TAMPINES SINGAPORE 528480,11,TREASURE AT TAMPINES,1.34507685676706,103.948539721499,103.948539721499,528480,TAMPINES LANE,TREASURE AT TAMPINES,40822.8569629015,36357.5835614838
9 TAMPINES LANE TREASURE AT TAMPINES SINGAPORE 528481,9,TREASURE AT TAMPINES,1.34508667196929,103.948251632393,103.948251632393,528481,TAMPINES LANE,TREASURE AT TAMPINES,40790.795691953,36358.6673671771
1 TAMPINES LANE TREASURE AT TAMPINES SINGAPORE 528482,1,TREASURE AT TAMPINES,1.34503342838494,103.946749425598,103.946749425598,528482,TAMPINES LANE,TREASURE AT TAMPINES,40623.6165072192,36352.7721325234
3 TAMPINES LANE TREASURE AT TAMPINES SINGAPORE 528483,3,TREASURE AT TAMPINES,1.3450859030904,103.947054665949,103.947054665949,528483,TAMPINES LANE,TREASURE AT TAMPINES,40657.5862048091,36358.5761092044
5 TAMPINES LANE TREASURE AT TAMPINES SINGAPORE 528485,5,TREASURE AT TAMPINES,1.3450859303368,103.947360506847,103.947360506847,528485,TAMPINES LANE,TREASURE AT TAMPINES,40691.6230065189,36358.580709938
7 TAMPINES LANE TREASURE AT TAMPINES SINGAPORE 528487,7,TREASURE AT TAMPINES,1.34508561453648,103.947950954374,103.947950954374,528487,TAMPINES LANE,TREASURE AT TAMPINES,40757.3334673783,36358.5488680191
491J TAMPINES STREET 45 TAMPINES GREENEDGE SINGAPORE 528491,491J,TAMPINES GREENEDGE,1.36425533144346,103.955688422088,103.955688422088,528491,TAMPINES STREET 45,TAMPINES GREENEDGE,41618.3235169668,38478.2849906199
492H TAMPINES STREET 45 TAMPINES GREENEDGE SINGAPORE 528492,492H,TAMPINES GREENEDGE,1.36361892148127,103.956606806499,103.956606806499,528492,TAMPINES STREET 45,TAMPINES GREENEDGE,41720.5326562598,38407.9190717209
494H TAMPINES STREET 45 TAMPINES GREENEDGE SINGAPORE 528494,494H,TAMPINES GREENEDGE,1.36368314068034,103.95499248871,103.95499248871,528494,TAMPINES STREET 45,TAMPINES GREENEDGE,41540.8774021212,38415.0109813791
497E TAMPINES STREET 45 MULTI STOREY CAR PARK SINGAPORE 528497,497E,MULTI STOREY CAR PARK,1.3587394016878,103.958483787796,103.958483787796,528497,TAMPINES STREET 45,MULTI STOREY CAR PARK,41929.4469714137,37868.3761291262
498L TAMPINES STREET 45 SINGAPORE 528498,498L,NIL,1.36240933130332,103.957197483189,103.957197483189,528498,TAMPINES STREET 45,498L TAMPINES STREET 45 SINGAPORE 528498,41786.275019573,38274.1718133111
1 TAMPINES NORTH DRIVE 3 BHCC SPACE SINGAPORE 528499,1,BHCC SPACE,1.37272375240491,103.9349421317,103.9349421317,528499,TAMPINES NORTH DRIVE 3,BHCC SPACE,39309.4631950064,39414.5739140213
6 TAMPINES INDUSTRIAL DRIVE SINGAPORE 528504,6,NIL,1.37598438481831,103.920450884845,103.920450884845,528504,TAMPINES INDUSTRIAL DRIVE,6 TAMPINES INDUSTRIAL DRIVE SINGAPORE 528504,37696.7494879365,39775.0548549611
5 TAMPINES INDUSTRIAL DRIVE SINGAPORE 528505,5,NIL,1.3786821823241,103.919958036798,103.919958036798,528505,TAMPINES INDUSTRIAL DRIVE,5 TAMPINES INDUSTRIAL DRIVE SINGAPORE 528505,37641.8907046001,40073.3619370628
59 TAMPINES STREET 86 THE TAPESTRY SINGAPORE 528509,59,THE TAPESTRY,1.35432802658399,103.928896233671,103.928896233671,528509,TAMPINES STREET 86,THE TAPESTRY,38636.708495168,37380.4377075974
61 TAMPINES STREET 86 THE TAPESTRY SINGAPORE 528510,61,THE TAPESTRY,1.35410990314313,103.929260795593,103.929260795593,528510,TAMPINES STREET 86,THE TAPESTRY,38677.28109287,37356.3202992436
63 TAMPINES STREET 86 THE TAPESTRY SINGAPORE 528511,63,THE TAPESTRY,1.35363968003849,103.929080980775,103.929080980775,528511,TAMPINES STREET 86,THE TAPESTRY,38657.2717763381,37304.3245644867
65 TAMPINES STREET 86 THE TAPESTRY SINGAPORE 528512,65,THE TAPESTRY,1.35339102396779,103.929017486717,103.929017486717,528512,TAMPINES STREET 86,THE TAPESTRY,38650.2066841144,37276.8291280773
119 TAMPINES STREET 86 PARC CENTRAL RESIDENCES SINGAPORE 528513,119,PARC CENTRAL RESIDENCES,1.35629068660571,103.930616424575,103.930616424575,528513,TAMPINES STREET 86,PARC CENTRAL RESIDENCES,38828.1376922922,37597.4665665068
121 TAMPINES STREET 86 PARC CENTRAL RESIDENCES SINGAPORE 528514,121,PARC CENTRAL RESIDENCES,1.35633822638856,103.930315295738,103.930315295738,528514,TAMPINES STREET 86,PARC CENTRAL RESIDENCES,38794.6252531325,37602.7219359837
123 TAMPINES STREET 86 PARC CENTRAL RESIDENCES SINGAPORE 528515,123,PARC CENTRAL RESIDENCES,1.35571384227688,103.93028303262,103.93028303262,528515,TAMPINES STREET 86,PARC CENTRAL RESIDENCES,38791.037498218,37533.6804835163
125 TAMPINES STREET 86 PARC CENTRAL RESIDENCES SINGAPORE 528516,125,PARC CENTRAL RESIDENCES,1.35584368291804,103.930051241977,103.930051241977,528516,TAMPINES STREET 86,PARC CENTRAL RESIDENCES,38765.2412458798,37548.0365881938
127 TAMPINES STREET 86 PARC CENTRAL RESIDENCES SINGAPORE 528517,127,PARC CENTRAL RESIDENCES,1.35597623813015,103.929812958776,103.929812958776,528517,TAMPINES STREET 86,PARC CENTRAL RESIDENCES,38738.7224362334,37562.6928301975
10 TAMPINES STREET 62 SINGAPORE 528519,10,NIL,1.36684255098154,103.942240694514,103.942240694514,528519,TAMPINES STREET 62,10 TAMPINES STREET 62 SINGAPORE 528519,40121.734806044,38764.2951595131
1 TAMPINES WALK DBS OUR TAMPINES HUB SINGAPORE 528523,1,DBS OUR TAMPINES HUB,1.35218046898785,103.940598001519,103.940598001519,528523,TAMPINES WALK,DBS OUR TAMPINES HUB,39938.9944271287,37143.0258133616
3 TAMPINES INDUSTRIAL DRIVE SINGAPORE 528528,3,NIL,1.37814288493637,103.920398668033,103.920398668033,528528,TAMPINES INDUSTRIAL DRIVE,3 TAMPINES INDUSTRIAL DRIVE SINGAPORE 528528,37690.929681099,40013.7308915369
10 TAMPINES INDUSTRIAL DRIVE SINGAPORE 528529,10,NIL,1.37702511132461,103.921268154753,103.921268154753,528529,TAMPINES INDUSTRIAL DRIVE,10 TAMPINES INDUSTRIAL DRIVE SINGAPORE 528529,37787.6973633505,39890.1365742441
14 TAMPINES INDUSTRIAL DRIVE CTM BUILDING SINGAPORE 528530,14,CTM BUILDING,1.37848869914663,103.921698213083,103.921698213083,528530,TAMPINES INDUSTRIAL DRIVE,CTM BUILDING,37835.5515601635,40051.9746403024
4 TAMPINES INDUSTRIAL DRIVE SINGAPORE 528531,4,NIL,1.37674598551896,103.920451938933,103.920451938933,528531,TAMPINES INDUSTRIAL DRIVE,4 TAMPINES INDUSTRIAL DRIVE SINGAPORE 528531,37696.8637193069,39859.2688909657
2 TAMPINES INDUSTRIAL DRIVE POWER PARTNERS BUILDING SINGAPORE 528532,2,POWER PARTNERS BUILDING,1.37731378336886,103.920474292613,103.920474292613,528532,TAMPINES INDUSTRIAL DRIVE,POWER PARTNERS BUILDING,37699.3491142541,39922.0532550346
107 TAMPINES STREET 86 THE ALPS RESIDENCES SINGAPORE 528533,107,THE ALPS RESIDENCES,1.35487857823309,103.929231871684,103.929231871684,528533,TAMPINES STREET 86,THE ALPS RESIDENCES,38674.0588238593,37441.3164599482
109 TAMPINES STREET 86 THE ALPS RESIDENCES SINGAPORE 528534,109,THE ALPS RESIDENCES,1.3552020214317,103.929319266569,103.929319266569,528534,TAMPINES STREET 86,THE ALPS RESIDENCES,38683.7834730083,37477.0815937947
111 TAMPINES STREET 86 THE ALPS RESIDENCES SINGAPORE 528535,111,THE ALPS RESIDENCES,1.35539387195662,103.929431175031,103.929431175031,528535,TAMPINES STREET 86,THE ALPS RESIDENCES,38696.2367808884,37498.2959695626
113 TAMPINES STREET 86 THE ALPS RESIDENCES SINGAPORE 528536,113,THE ALPS RESIDENCES,1.35562274355252,103.929526173434,103.929526173434,528536,TAMPINES STREET 86,THE ALPS RESIDENCES,38706.8080255417,37523.6038782522
115 TAMPINES STREET 86 THE ALPS RESIDENCES SINGAPORE 528537,115,THE ALPS RESIDENCES,1.35552152981059,103.92971929252,103.92971929252,528537,TAMPINES STREET 86,THE ALPS RESIDENCES,38728.3004430076,37512.4130177051
117 TAMPINES STREET 86 THE ALPS RESIDENCES SINGAPORE 528538,117,THE ALPS RESIDENCES,1.35542873942917,103.929903616182,103.929903616182,528538,TAMPINES STREET 86,THE ALPS RESIDENCES,38748.8139938805,37502.1535332836
51 TAMPINES STREET 86 THE TAPESTRY SINGAPORE 528539,51,THE TAPESTRY,1.35324276344947,103.928821304519,103.928821304519,528539,TAMPINES STREET 86,THE TAPESTRY,38628.3744479949,37260.4343536254
53 TAMPINES STREET 86 THE TAPESTRY SINGAPORE 528540,53,THE TAPESTRY,1.35305596283245,103.92821347133,103.92821347133,528540,TAMPINES STREET 86,THE TAPESTRY,38560.7302261926,37239.7762125935
55 TAMPINES STREET 86 THE TAPESTRY SINGAPORE 528541,55,THE TAPESTRY,1.3535309722072,103.928407787114,103.928407787114,528541,TAMPINES STREET 86,THE TAPESTRY,38582.353340812,37292.3012435827
57 TAMPINES STREET 86 THE TAPESTRY SINGAPORE 528542,57,THE TAPESTRY,1.35390463548978,103.928606478668,103.928606478668,528542,TAMPINES STREET 86,THE TAPESTRY,38604.4638607744,37333.6199470833
9 TAMPINES INDUSTRIAL DRIVE SINGAPORE 528543,9,NIL,1.37895138816498,103.920982074313,103.920982074313,528543,TAMPINES INDUSTRIAL DRIVE,9 TAMPINES INDUSTRIAL DRIVE SINGAPORE 528543,37755.8522966104,40103.1335561145
8 TAMPINES INDUSTRIAL DRIVE SINGAPORE 528544,8,NIL,1.37588827286163,103.92078805543,103.92078805543,528544,TAMPINES INDUSTRIAL DRIVE,8 TAMPINES INDUSTRIAL DRIVE SINGAPORE 528544,37734.2728284225,39764.4286436494
12 TAMPINES INDUSTRIAL DRIVE LIM WEN HENG INDUSTRIAL BUILDING SINGAPORE 528545,12,LIM WEN HENG INDUSTRIAL BUILDING,1.37787594207204,103.92154555657,103.92154555657,528545,TAMPINES INDUSTRIAL DRIVE,LIM WEN HENG INDUSTRIAL BUILDING,37818.5652887737,39984.2183664255
1 TAMPINES INDUSTRIAL DRIVE SINGAPORE 528546,1,NIL,1.37809843077563,103.920895953103,103.920895953103,528546,TAMPINES INDUSTRIAL DRIVE,1 TAMPINES INDUSTRIAL DRIVE SINGAPORE 528546,37746.2715414558,40008.8173989356
7 TAMPINES INDUSTRIAL DRIVE ZULIN BUILDING SINGAPORE 528547,7,ZULIN BUILDING,1.37926611893637,103.920299994011,103.920299994011,528547,TAMPINES INDUSTRIAL DRIVE,ZULIN BUILDING,37679.9439466773,40137.9321424384
5 TAMPINES NORTH DRIVE 5 REEBONZ BUILDING SINGAPORE 528548,5,REEBONZ BUILDING,1.36546055733847,103.933705049592,103.933705049592,528548,TAMPINES NORTH DRIVE 5,REEBONZ BUILDING,39171.8245030018,38611.4397229813
10 TAMPINES NORTH DRIVE 4 JTC SPACE @ TAMPINES NORTH SINGAPORE 528553,10,JTC SPACE @ TAMPINES NORTH,1.36560129736784,103.931732324612,103.931732324612,528553,TAMPINES NORTH DRIVE 4,JTC SPACE @ TAMPINES NORTH,38952.282735548,38626.992986951
1 TAMPINES NORTH DRIVE 1 T-SPACE SINGAPORE 528559,1,T-SPACE,1.37193141229354,103.933894128313,103.933894128313,528559,TAMPINES NORTH DRIVE 1,T-SPACE,39192.8367491737,39326.9559103008
31 TAMPINES STREET 61 TAMPINES CARE HOME SINGAPORE 528564,31,TAMPINES CARE HOME,1.36324722354678,103.937034735304,103.937034735304,528564,TAMPINES STREET 61,TAMPINES CARE HOME,39542.3900096826,38366.7158708479
51 TAMPINES STREET 61 ANGSANA PRIMARY SCHOOL (U/C) SINGAPORE 528565,51,ANGSANA PRIMARY SCHOOL (U/C),1.36388331297324,103.938938067601,103.938938067601,528565,TAMPINES STREET 61,ANGSANA PRIMARY SCHOOL (U/C),39754.2056926843,38437.0607232284
35 TAMPINES STREET 61 SINGAPORE 528566,35,NIL,1.36331367817604,103.937637763029,103.937637763029,528566,TAMPINES STREET 61,35 TAMPINES STREET 61 SINGAPORE 528566,39609.4996686252,38374.0669955164
23 TAMPINES STREET 86 THE SANTORINI SINGAPORE 528568,23,THE SANTORINI,1.35178365804951,103.927849913591,103.927849913591,528568,TAMPINES STREET 86,THE SANTORINI,38520.2757946989,37099.0894740932
25 TAMPINES STREET 86 THE SANTORINI SINGAPORE 528569,25,THE SANTORINI,1.35190778651282,103.927623961465,103.927623961465,528569,TAMPINES STREET 86,THE SANTORINI,38495.1293051671,37112.8140070215
27 TAMPINES STREET 86 THE SANTORINI SINGAPORE 528570,27,THE SANTORINI,1.35253900892513,103.927821977333,103.927821977333,528570,TAMPINES STREET 86,THE SANTORINI,38517.1635498097,37182.6123104207
29 TAMPINES STREET 86 THE SANTORINI SINGAPORE 528571,29,THE SANTORINI,1.35241232908977,103.928052101257,103.928052101257,528571,TAMPINES STREET 86,THE SANTORINI,38542.774319944,37168.6056798846
31 TAMPINES STREET 86 THE SANTORINI SINGAPORE 528572,31,THE SANTORINI,1.35230138417909,103.928442548471,103.928442548471,528572,TAMPINES STREET 86,THE SANTORINI,38586.2272189762,37156.3396400195
33 TAMPINES STREET 86 THE SANTORINI SINGAPORE 528573,33,THE SANTORINI,1.35210118601274,103.928402731983,103.928402731983,528573,TAMPINES STREET 86,THE SANTORINI,38581.7969547361,37134.2025447674
35 TAMPINES STREET 86 THE SANTORINI SINGAPORE 528574,35,THE SANTORINI,1.35196659297495,103.928141877106,103.928141877106,528574,TAMPINES STREET 86,THE SANTORINI,38552.7672947682,37119.3187783305
101 TAMPINES STREET 86 THE ALPS RESIDENCES SINGAPORE 528575,101,THE ALPS RESIDENCES,1.35505582637096,103.929921925596,103.929921925596,528575,TAMPINES STREET 86,THE ALPS RESIDENCES,38750.8532690154,37460.9187326338
103 TAMPINES STREET 86 THE ALPS RESIDENCES SINGAPORE 528576,103,THE ALPS RESIDENCES,1.35486391785794,103.9298095368,103.9298095368,528576,TAMPINES STREET 86,THE ALPS RESIDENCES,38738.3465078752,37439.6979400534
105 TAMPINES STREET 86 THE ALPS RESIDENCES SINGAPORE 528577,105,THE ALPS RESIDENCES,1.35463454968468,103.929715441894,103.929715441894,528577,TAMPINES STREET 86,THE ALPS RESIDENCES,38727.8758134646,37414.3351252414
1 TAMPINES STREET 86 Q BAY RESIDENCES SINGAPORE 528583,1,Q BAY RESIDENCES,1.35021013028761,103.927274573665,103.927274573665,528583,TAMPINES STREET 86,Q BAY RESIDENCES,38456.2535911677,36925.0940907653
3 TAMPINES STREET 86 Q BAY RESIDENCES SINGAPORE 528584,3,Q BAY RESIDENCES,1.35027065611043,103.926893506073,103.926893506073,528584,TAMPINES STREET 86,Q BAY RESIDENCES,38413.8447256982,36931.7851009779
5 TAMPINES STREET 86 Q BAY RESIDENCES SINGAPORE 528585,5,Q BAY RESIDENCES,1.3508027912218,103.926980083258,103.926980083258,528585,TAMPINES STREET 86,Q BAY RESIDENCES,38423.4775417838,36990.6263337359
7 TAMPINES STREET 86 Q BAY RESIDENCES SINGAPORE 528586,7,Q BAY RESIDENCES,1.35076453421515,103.927357343024,103.927357343024,528586,TAMPINES STREET 86,Q BAY RESIDENCES,38465.4625344099,36986.397684535
9 TAMPINES STREET 86 Q BAY RESIDENCES SINGAPORE 528587,9,Q BAY RESIDENCES,1.35079829155555,103.92761455099,103.92761455099,528587,TAMPINES STREET 86,Q BAY RESIDENCES,38494.0867850035,36990.1315127388
11 TAMPINES STREET 86 Q BAY RESIDENCES SINGAPORE 528588,11,Q BAY RESIDENCES,1.3512064478018,103.927691536666,103.927691536666,528588,TAMPINES STREET 86,Q BAY RESIDENCES,38502.6526849316,37035.2637400441
13 TAMPINES STREET 86 Q BAY RESIDENCES SINGAPORE 528589,13,Q BAY RESIDENCES,1.35055307340923,103.927483311197,103.927483311197,528589,TAMPINES STREET 86,Q BAY RESIDENCES,38479.482301252,36963.0159395263
15 TAMPINES STREET 86 Q BAY RESIDENCES SINGAPORE 528590,15,Q BAY RESIDENCES,1.3513673125848,103.92740771398,103.92740771398,528590,TAMPINES STREET 86,Q BAY RESIDENCES,38471.0656830203,37053.0501455832
17 TAMPINES STREET 86 Q BAY RESIDENCES SINGAPORE 528591,17,Q BAY RESIDENCES,1.35128440096019,103.927174717066,103.927174717066,528591,TAMPINES STREET 86,Q BAY RESIDENCES,38445.1360699451,37043.8811863475
21 TAMPINES STREET 86 THE SANTORINI SINGAPORE 528592,21,THE SANTORINI,1.35166623960192,103.92816568817,103.92816568817,528592,TAMPINES STREET 86,THE SANTORINI,38555.41849773,37086.1072937325
57 TAMPINES CENTRAL 7 CITYLIFE@TAMPINES SINGAPORE 528593,57,CITYLIFE@TAMPINES,1.35997538079725,103.941456764255,103.941456764255,528593,TAMPINES CENTRAL 7,CITYLIFE@TAMPINES,40034.5266913576,38004.9531716015
59 TAMPINES CENTRAL 7 CITYLIFE@TAMPINES SINGAPORE 528594,59,CITYLIFE@TAMPINES,1.35997494580726,103.94173033012,103.94173033012,528594,TAMPINES CENTRAL 7,CITYLIFE@TAMPINES,40064.9714400992,38004.9064378347
61 TAMPINES CENTRAL 7 CITYLIFE@TAMPINES SINGAPORE 528595,61,CITYLIFE@TAMPINES,1.35948337893924,103.941765090305,103.941765090305,528595,TAMPINES CENTRAL 7,CITYLIFE@TAMPINES,40068.842291465,37950.5515558906
63 TAMPINES CENTRAL 7 CITYLIFE@TAMPINES SINGAPORE 528596,63,CITYLIFE@TAMPINES,1.35947347212035,103.9414898783,103.9414898783,528596,TAMPINES CENTRAL 7,CITYLIFE@TAMPINES,40038.2143911533,37949.4547349662
65 TAMPINES CENTRAL 7 CITYLIFE@TAMPINES SINGAPORE 528597,65,CITYLIFE@TAMPINES,1.35947385278939,103.941224401913,103.941224401913,528597,TAMPINES CENTRAL 7,CITYLIFE@TAMPINES,40008.6699030511,37949.4955059402
67 TAMPINES CENTRAL 7 CITYLIFE@TAMPINES SINGAPORE 528598,67,CITYLIFE@TAMPINES,1.35948880224661,103.940788817577,103.940788817577,528598,TAMPINES CENTRAL 7,CITYLIFE@TAMPINES,39960.1942742644,37951.1463823076
69 TAMPINES CENTRAL 7 CITYLIFE@TAMPINES SINGAPORE 528599,69,CITYLIFE@TAMPINES,1.3597308362728,103.940663515997,103.940663515997,528599,TAMPINES CENTRAL 7,CITYLIFE@TAMPINES,39946.2484521065,37977.9086978827
10 TAMPINES INDUSTRIAL CRESCENT TAMPINES WAFER FAB PARK SINGAPORE 528603,10,TAMPINES WAFER FAB PARK,1.37446987718218,103.929175913563,103.929175913563,528603,TAMPINES INDUSTRIAL CRESCENT,TAMPINES WAFER FAB PARK,38667.7450132603,39607.6252934653
16 TAMPINES INDUSTRIAL CRESCENT TAMPINES WAFER FAB PARK SINGAPORE 528604,16,TAMPINES WAFER FAB PARK,1.37426333487571,103.930541365426,103.930541365426,528604,TAMPINES INDUSTRIAL CRESCENT,TAMPINES WAFER FAB PARK,38819.7041239887,39584.7930031642
18 TAMPINES INDUSTRIAL CRESCENT SPACE@TAMPINES SINGAPORE 528605,18,SPACE@TAMPINES,1.37600641873892,103.928895782444,103.928895782444,528605,TAMPINES INDUSTRIAL CRESCENT,SPACE@TAMPINES,38636.5630272385,39777.5272346754
11 TAMPINES INDUSTRIAL CRESCENT JTC NANOSPACE @ TAMPINES SINGAPORE 528606,11,JTC NANOSPACE @ TAMPINES,1.37563730902066,103.925384095133,103.925384095133,528606,TAMPINES INDUSTRIAL CRESCENT,JTC NANOSPACE @ TAMPINES,38245.7568052895,39736.6975407191
22 TAMPINES INDUSTRIAL CRESCENT SINGAPORE 528607,22,NIL,1.3763926957967,103.928007227478,103.928007227478,528607,TAMPINES INDUSTRIAL CRESCENT,22 TAMPINES INDUSTRIAL CRESCENT SINGAPORE 528607,38537.6760413023,39820.2359045241
21 TAMPINES CENTRAL 7 THE TAMPINES TRILLIANT SINGAPORE 528608,21,THE TAMPINES TRILLIANT,1.35925063125813,103.939645794274,103.939645794274,528608,TAMPINES CENTRAL 7,THE TAMPINES TRILLIANT,39832.990015626,37924.8049733136
23 TAMPINES CENTRAL 7 THE TAMPINES TRILLIANT SINGAPORE 528609,23,THE TAMPINES TRILLIANT,1.35961605947098,103.940191215462,103.940191215462,528609,TAMPINES CENTRAL 7,THE TAMPINES TRILLIANT,39893.6873719497,37965.2149108704
25 TAMPINES CENTRAL 7 THE TAMPINES TRILLIANT SINGAPORE 528610,25,THE TAMPINES TRILLIANT,1.35961608290552,103.939916680549,103.939916680549,528610,TAMPINES CENTRAL 7,THE TAMPINES TRILLIANT,39863.1347783823,37965.2161518577
27 TAMPINES CENTRAL 7 THE TAMPINES TRILLIANT SINGAPORE 528611,27,THE TAMPINES TRILLIANT,1.35961653861431,103.939652645617,103.939652645617,528611,TAMPINES CENTRAL 7,THE TAMPINES TRILLIANT,39833.7507105935,37965.2652465273
29 TAMPINES CENTRAL 7 THE TAMPINES TRILLIANT SINGAPORE 528612,29,THE TAMPINES TRILLIANT,1.35997680595206,103.939691159802,103.939691159802,528612,TAMPINES CENTRAL 7,THE TAMPINES TRILLIANT,39838.0351436883,38005.1020295452
31 TAMPINES CENTRAL 7 THE TAMPINES TRILLIANT SINGAPORE 528613,31,THE TAMPINES TRILLIANT,1.35998137104939,103.939954877596,103.939954877596,528613,TAMPINES CENTRAL 7,THE TAMPINES TRILLIANT,39867.3838887401,38005.6081102341
33 TAMPINES CENTRAL 7 THE TAMPINES TRILLIANT SINGAPORE 528614,33,THE TAMPINES TRILLIANT,1.36001415254771,103.940222573213,103.940222573213,528614,TAMPINES CENTRAL 7,THE TAMPINES TRILLIANT,39897.1751819821,38009.2342449501
51 TAMPINES CENTRAL 7 CITYLIFE@TAMPINES SINGAPORE 528615,51,CITYLIFE@TAMPINES,1.35997260601034,103.940700281178,103.940700281178,528615,TAMPINES CENTRAL 7,CITYLIFE@TAMPINES,39950.33880689,38004.642591821
53 TAMPINES CENTRAL 7 CITYLIFE@TAMPINES SINGAPORE 528616,53,CITYLIFE@TAMPINES,1.36004633991203,103.940865689216,103.940865689216,528616,TAMPINES CENTRAL 7,CITYLIFE@TAMPINES,39968.7464627959,38012.7965444904
55 TAMPINES CENTRAL 7 CITYLIFE@TAMPINES SINGAPORE 528617,55,CITYLIFE@TAMPINES,1.35997585183045,103.941184494634,103.941184494634,528617,TAMPINES CENTRAL 7,CITYLIFE@TAMPINES,40004.2261998253,38005.0039007422
17 TAMPINES INDUSTRIAL AVENUE 5 T5 @ TAMPINES SINGAPORE 528618,17,T5 @ TAMPINES,1.37274021545828,103.926855776012,103.926855776012,528618,TAMPINES INDUSTRIAL AVENUE 5,T5 @ TAMPINES,38409.5494263964,39416.3576063029
19 TAMPINES INDUSTRIAL AVENUE 5 T5 @ TAMPINES SINGAPORE 528619,19,T5 @ TAMPINES,1.37266535486126,103.927063444095,103.927063444095,528619,TAMPINES INDUSTRIAL AVENUE 5,T5 @ TAMPINES,38432.6606967039,39408.0807958879
21 TAMPINES INDUSTRIAL AVENUE 5 T5 @ TAMPINES SINGAPORE 528620,21,T5 @ TAMPINES,1.37257458336729,103.927317219611,103.927317219611,528620,TAMPINES INDUSTRIAL AVENUE 5,T5 @ TAMPINES,38460.9032377545,39398.0448405258
23 TAMPINES INDUSTRIAL AVENUE 5 T5 @ TAMPINES SINGAPORE 528621,23,T5 @ TAMPINES,1.37249928011137,103.92752476335,103.92752476335,528621,TAMPINES INDUSTRIAL AVENUE 5,T5 @ TAMPINES,38484.0006755935,39389.7190867811
25 TAMPINES INDUSTRIAL AVENUE 5 T5 @ TAMPINES SINGAPORE 528622,25,T5 @ TAMPINES,1.37200280820359,103.927346571842,103.927346571842,528622,TAMPINES INDUSTRIAL AVENUE 5,T5 @ TAMPINES,38464.1722708,39334.82089453
27 TAMPINES INDUSTRIAL AVENUE 5 T5 @ TAMPINES SINGAPORE 528623,27,T5 @ TAMPINES,1.37207754044069,103.927138903549,103.927138903549,528623,TAMPINES INDUSTRIAL AVENUE 5,T5 @ TAMPINES,38441.0609702244,39343.0835092608
29 TAMPINES INDUSTRIAL AVENUE 5 T5 @ TAMPINES SINGAPORE 528624,29,T5 @ TAMPINES,1.37215259728935,103.926931688099,103.926931688099,528624,TAMPINES INDUSTRIAL AVENUE 5,T5 @ TAMPINES,38418.0000658426,39351.3820218202
31 TAMPINES INDUSTRIAL AVENUE 5 T5 @ TAMPINES SINGAPORE 528625,31,T5 @ TAMPINES,1.37222744061158,103.926724419048,103.926724419048,528625,TAMPINES INDUSTRIAL AVENUE 5,T5 @ TAMPINES,38394.9331986671,39359.6569253523
33 TAMPINES INDUSTRIAL AVENUE 5 T5 @ TAMPINES SINGAPORE 528626,33,T5 @ TAMPINES,1.37231976290591,103.926466305807,103.926466305807,528626,TAMPINES INDUSTRIAL AVENUE 5,T5 @ TAMPINES,38366.207913544,39369.8643488418
35 TAMPINES INDUSTRIAL AVENUE 5 T5 @ TAMPINES SINGAPORE 528627,35,T5 @ TAMPINES,1.37239464012162,103.926259309248,103.926259309248,528627,TAMPINES INDUSTRIAL AVENUE 5,T5 @ TAMPINES,38343.1713748891,39378.1430056039
37 TAMPINES INDUSTRIAL AVENUE 5 T5 @ TAMPINES SINGAPORE 528628,37,T5 @ TAMPINES,1.3724989963618,103.925968818683,103.925968818683,528628,TAMPINES INDUSTRIAL AVENUE 5,T5 @ TAMPINES,38310.8428376438,39389.6809491217
39 TAMPINES INDUSTRIAL AVENUE 5 T5 @ TAMPINES SINGAPORE 528629,39,T5 @ TAMPINES,1.37217732353761,103.925805685791,103.925805685791,528629,TAMPINES INDUSTRIAL AVENUE 5,T5 @ TAMPINES,38292.6894933376,39354.1112556439
41 TAMPINES INDUSTRIAL AVENUE 5 T5 @ TAMPINES SINGAPORE 528630,41,T5 @ TAMPINES,1.37207855484347,103.926079656264,103.926079656264,528630,TAMPINES INDUSTRIAL AVENUE 5,T5 @ TAMPINES,38323.1795229837,39343.1910816748
43 TAMPINES INDUSTRIAL AVENUE 5 T5 @ TAMPINES SINGAPORE 528631,43,T5 @ TAMPINES,1.3719801159811,103.926353261729,103.926353261729,528631,TAMPINES INDUSTRIAL AVENUE 5,T5 @ TAMPINES,38353.6289329948,39332.307380626
45 TAMPINES INDUSTRIAL AVENUE 5 T5 @ TAMPINES SINGAPORE 528632,45,T5 @ TAMPINES,1.37188110879466,103.92662751609,103.92662751609,528632,TAMPINES INDUSTRIAL AVENUE 5,T5 @ TAMPINES,38384.1505624158,39321.3608432431
47 TAMPINES INDUSTRIAL AVENUE 5 T5 @ TAMPINES SINGAPORE 528633,47,T5 @ TAMPINES,1.3717826931108,103.926901848508,103.926901848508,528633,TAMPINES INDUSTRIAL AVENUE 5,T5 @ TAMPINES,38414.6808787482,39310.479714971
49 TAMPINES INDUSTRIAL AVENUE 5 T5 @ TAMPINES SINGAPORE 528634,49,T5 @ TAMPINES,1.37167727134679,103.927193636783,103.927193636783,528634,TAMPINES INDUSTRIAL AVENUE 5,T5 @ TAMPINES,38447.1538548116,39298.8239684626
51 TAMPINES INDUSTRIAL AVENUE 5 T5 @ TAMPINES SINGAPORE 528635,51,T5 @ TAMPINES,1.37127498583676,103.927049653689,103.927049653689,528635,TAMPINES INDUSTRIAL AVENUE 5,T5 @ TAMPINES,38431.1320121866,39254.3405959234
53 TAMPINES INDUSTRIAL AVENUE 5 T5 @ TAMPINES SINGAPORE 528636,53,T5 @ TAMPINES,1.3713800902873,103.926758816008,103.926758816008,528636,TAMPINES INDUSTRIAL AVENUE 5,T5 @ TAMPINES,38398.7648227261,39265.9612618405
55 TAMPINES INDUSTRIAL AVENUE 5 T5 @ TAMPINES SINGAPORE 528637,55,T5 @ TAMPINES,1.37147878432381,103.926484848907,103.926484848907,528637,TAMPINES INDUSTRIAL AVENUE 5,T5 @ TAMPINES,38368.2751562959,39276.8731726501
57 TAMPINES INDUSTRIAL AVENUE 5 T5 @ TAMPINES SINGAPORE 528638,57,T5 @ TAMPINES,1.37157809345216,103.926209727798,103.926209727798,528638,TAMPINES INDUSTRIAL AVENUE 5,T5 @ TAMPINES,38337.6570628108,39287.853095619
59 TAMPINES INDUSTRIAL AVENUE 5 T5 @ TAMPINES SINGAPORE 528639,59,T5 @ TAMPINES,1.3716769311369,103.925935786492,103.925935786492,528639,TAMPINES INDUSTRIAL AVENUE 5,T5 @ TAMPINES,38307.1702718399,39298.7808971219
61 TAMPINES INDUSTRIAL AVENUE 5 T5 @ TAMPINES SINGAPORE 528640,61,T5 @ TAMPINES,1.37177575946702,103.925662298821,103.925662298821,528640,TAMPINES INDUSTRIAL AVENUE 5,T5 @ TAMPINES,38276.7339678649,39309.7076695114
63 TAMPINES INDUSTRIAL AVENUE 5 T5 @ TAMPINES SINGAPORE 528641,63,T5 @ TAMPINES,1.37193139290086,103.925228721553,103.925228721553,528641,TAMPINES INDUSTRIAL AVENUE 5,T5 @ TAMPINES,38228.4813838508,39326.9149879869
65 TAMPINES INDUSTRIAL AVENUE 5 T5 @ TAMPINES SINGAPORE 528642,65,T5 @ TAMPINES,1.37230374279216,103.925360831639,103.925360831639,528642,TAMPINES INDUSTRIAL AVENUE 5,T5 @ TAMPINES,38243.1820592545,39368.088163022
67 TAMPINES INDUSTRIAL AVENUE 5 T5 @ TAMPINES SINGAPORE 528643,67,T5 @ TAMPINES,1.37251196002272,103.92543442245,103.92543442245,528643,TAMPINES INDUSTRIAL AVENUE 5,T5 @ TAMPINES,38251.370941177,39391.1121101957
69 TAMPINES INDUSTRIAL AVENUE 5 T5 @ TAMPINES SINGAPORE 528644,69,T5 @ TAMPINES,1.37275165165814,103.92551951702,103.92551951702,528644,TAMPINES INDUSTRIAL AVENUE 5,T5 @ TAMPINES,38260.839916667,39417.6163912099
71 TAMPINES INDUSTRIAL AVENUE 5 T5 @ TAMPINES SINGAPORE 528645,71,T5 @ TAMPINES,1.37296023456867,103.925593598797,103.925593598797,528645,TAMPINES INDUSTRIAL AVENUE 5,T5 @ TAMPINES,38269.0834323009,39440.6807764098
1000 TAMPINES ROAD CAMP SITE SINGAPORE 528683,1000,CAMP SITE,1.36827857968899,103.924163899802,103.924163899802,528683,TAMPINES ROAD,CAMP SITE,38109.9948796146,38923.0004589893
79 TAMPINES AVENUE 1 WATERVIEW SINGAPORE 528684,79,WATERVIEW,1.34811977321598,103.926078240097,103.926078240097,528684,TAMPINES AVENUE 1,WATERVIEW,38323.1237088218,36693.9476691596
81 TAMPINES AVENUE 1 WATERVIEW SINGAPORE 528685,81,WATERVIEW,1.34859310445471,103.92558950228,103.92558950228,528685,TAMPINES AVENUE 1,WATERVIEW,38268.7305681463,36746.2842214126
83 TAMPINES AVENUE 1 WATERVIEW SINGAPORE 528686,83,WATERVIEW,1.34880402007706,103.925767225328,103.925767225328,528686,TAMPINES AVENUE 1,WATERVIEW,38288.5083043352,36769.606974123
85 TAMPINES AVENUE 1 WATERVIEW SINGAPORE 528687,85,WATERVIEW,1.34897929841629,103.925960035497,103.925960035497,528687,TAMPINES AVENUE 1,WATERVIEW,38309.9652174562,36788.9891985673
87 TAMPINES AVENUE 1 WATERVIEW SINGAPORE 528688,87,WATERVIEW,1.34931276497811,103.926106606713,103.926106606713,528688,TAMPINES AVENUE 1,WATERVIEW,38326.2755745016,36825.8628973197
89 TAMPINES AVENUE 1 WATERVIEW SINGAPORE 528689,89,WATERVIEW,1.34954423894046,103.926227916187,103.926227916187,528689,TAMPINES AVENUE 1,WATERVIEW,38339.7750044363,36851.4586545341
91 TAMPINES AVENUE 1 WATERVIEW SINGAPORE 528690,91,WATERVIEW,1.34956805934735,103.926521314191,103.926521314191,528690,TAMPINES AVENUE 1,WATERVIEW,38372.4268642832,36854.0938457325
93 TAMPINES AVENUE 1 WATERVIEW SINGAPORE 528691,93,WATERVIEW,1.34944602000376,103.926743258406,103.926743258406,528691,TAMPINES AVENUE 1,WATERVIEW,38397.1273248075,36840.6002877876
95 TAMPINES AVENUE 1 WATERVIEW SINGAPORE 528692,95,WATERVIEW,1.34926983619192,103.926962212323,103.926962212323,528692,TAMPINES AVENUE 1,WATERVIEW,38421.4952309942,36821.1196923945
11A TAMPINES AVENUE 1 TEMPORARY SITE OFFICE SINGAPORE 528693,11A,TEMPORARY SITE OFFICE,1.34472780988503,103.936873350952,103.936873350952,528693,TAMPINES AVENUE 1,TEMPORARY SITE OFFICE,39524.5172495861,36318.9294999298
29B TAMPINES AVENUE 1 SINGAPORE INSTITUTE OF TECHNOLOGY@TP SINGAPORE 528694,29B,SINGAPORE INSTITUTE OF TECHNOLOGY@TP,1.34340418758534,103.93243247512,103.93243247512,528694,TAMPINES AVENUE 1,SINGAPORE INSTITUTE OF TECHNOLOGY@TP,39030.3016114496,36172.5493839588
1 TAMPINES STREET 73 UNITED WORLD COLLEGE OF SOUTH EAST ASIA (EAST CAMPUS) SINGAPORE 528704,1,UNITED WORLD COLLEGE OF SOUTH EAST ASIA (EAST CAMPUS),1.3582883775473,103.931386628373,103.931386628373,528704,TAMPINES STREET 73,UNITED WORLD COLLEGE OF SOUTH EAST ASIA (EAST CAMPUS),38913.8436977509,37818.3648239169
3 TAMPINES STREET 73 TAMPINES HOUSE (UWCSEA EAST CAMPUS) SINGAPORE 528705,3,TAMPINES HOUSE (UWCSEA EAST CAMPUS),1.36000351453167,103.932139536505,103.932139536505,528705,TAMPINES STREET 73,TAMPINES HOUSE (UWCSEA EAST CAMPUS),38997.6260215035,38008.0196210332
5 SIMEI LANE SINGAPORE 528710,5,NIL,1.3437195631364,103.958424286264,103.958424286264,528710,SIMEI LANE,5 SIMEI LANE SINGAPORE 528710,41922.9106305977,36207.5547611471
19B SIMEI STREET 4 DOUBLE BAY RESIDENCES SINGAPORE 528714,19B,DOUBLE BAY RESIDENCES,1.34071552719957,103.956574655748,103.956574655748,528714,SIMEI STREET 4,DOUBLE BAY RESIDENCES,41717.0831957636,35875.3725991733
19C SIMEI STREET 4 DOUBLE BAY RESIDENCES SINGAPORE 528715,19C,DOUBLE BAY RESIDENCES,1.34052918054906,103.9567769669,103.9567769669,528715,SIMEI STREET 4,DOUBLE BAY RESIDENCES,41739.5993369743,35854.7684259582
19D SIMEI STREET 4 DOUBLE BAY RESIDENCES SINGAPORE 528716,19D,DOUBLE BAY RESIDENCES,1.34031496161096,103.956850554838,103.956850554838,528716,SIMEI STREET 4,DOUBLE BAY RESIDENCES,41747.7900955128,35831.0815494042
21 SIMEI STREET 4 DOUBLE BAY RESIDENCES SINGAPORE 528717,21,DOUBLE BAY RESIDENCES,1.33998309358183,103.957253744387,103.957253744387,528717,SIMEI STREET 4,DOUBLE BAY RESIDENCES,41792.6627143212,35794.3874608669
21A SIMEI STREET 4 DOUBLE BAY RESIDENCES SINGAPORE 528718,21A,DOUBLE BAY RESIDENCES,1.33987508545312,103.957042824405,103.957042824405,528718,SIMEI STREET 4,DOUBLE BAY RESIDENCES,41769.1901350925,35782.4432604723
21B SIMEI STREET 4 DOUBLE BAY RESIDENCES SINGAPORE 528719,21B,DOUBLE BAY RESIDENCES,1.33977565193775,103.956805504786,103.956805504786,528719,SIMEI STREET 4,DOUBLE BAY RESIDENCES,41742.7795032198,35771.4470533282
21C SIMEI STREET 4 DOUBLE BAY RESIDENCES SINGAPORE 528720,21C,DOUBLE BAY RESIDENCES,1.33972448665286,103.956552948013,103.956552948013,528720,SIMEI STREET 4,DOUBLE BAY RESIDENCES,41714.6728654159,35765.7880300209
21D SIMEI STREET 4 DOUBLE BAY RESIDENCES SINGAPORE 528721,21D,DOUBLE BAY RESIDENCES,1.33991875932898,103.956299304978,103.956299304978,528721,SIMEI STREET 4,DOUBLE BAY RESIDENCES,41686.443975226,35787.2683402933
9 TAMPINES INDUSTRIAL AVENUE 4 SINGAPORE 528724,9,NIL,1.37117581202203,103.924749028782,103.924749028782,528724,TAMPINES INDUSTRIAL AVENUE 4,9 TAMPINES INDUSTRIAL AVENUE 4 SINGAPORE 528724,38175.1005558912,39243.3645472564
11 TAMPINES CONCOURSE SINGAPORE 528729,11,NIL,1.35633466094897,103.940893393025,103.940893393025,528729,TAMPINES CONCOURSE,11 TAMPINES CONCOURSE SINGAPORE 528729,39971.8478414798,37602.3774257917
10A TAMPINES CONCOURSE TAMPINES CONCOURSE BUS INTERCHANGE SINGAPORE 528730,10A,TAMPINES CONCOURSE BUS INTERCHANGE,1.3572716834905,103.941705491258,103.941705491258,528730,TAMPINES CONCOURSE,TAMPINES CONCOURSE BUS INTERCHANGE,40062.2205646671,37705.9928156082
9 TAMPINES GRANDE ASIA GREEN SINGAPORE 528735,9,ASIA GREEN,1.35581111597266,103.94145621695,103.94145621695,528735,TAMPINES GRANDE,ASIA GREEN,40034.4863744034,37544.4891805016
7 TAMPINES GRANDE HITACHI SQUARE SINGAPORE 528736,7,HITACHI SQUARE,1.35525230950458,103.941630242219,103.941630242219,528736,TAMPINES GRANDE,HITACHI SQUARE,40053.8561889753,37482.6999672018
81 TAMPINES LINK HIAP TIEN KENG LENG POH TIAN SINGAPORE 528739,81,HIAP TIEN KENG LENG POH TIAN,1.36836042090669,103.930371219011,103.930371219011,528739,TAMPINES LINK,HIAP TIEN KENG LENG POH TIAN,38800.7953513451,38932.0771008749
83 TAMPINES LINK GOLDEN PAGODA BUDDHIST TEMPLE SINGAPORE 528740,83,GOLDEN PAGODA BUDDHIST TEMPLE,1.36823951306094,103.930201745672,103.930201745672,528740,TAMPINES LINK,GOLDEN PAGODA BUDDHIST TEMPLE,38781.935522031,38918.7069454994
85 TAMPINES LINK TIAN KONG TEMPLE SINGAPORE 528741,85,TIAN KONG TEMPLE,1.36804672487009,103.930001161382,103.930001161382,528741,TAMPINES LINK,TIAN KONG TEMPLE,38759.6137315426,38897.3884781357
87 TAMPINES LINK KWANG HUA BUDDHIST MONASTERY SINGAPORE 528742,87,KWANG HUA BUDDHIST MONASTERY,1.36793461161665,103.929753645826,103.929753645826,528742,TAMPINES LINK,KWANG HUA BUDDHIST MONASTERY,38732.0686859088,38884.9904395919
89 TAMPINES LINK HEAN THUAN TOH TONG SINGAPORE 528743,89,HEAN THUAN TOH TONG,1.36779284983693,103.929533019084,103.929533019084,528743,TAMPINES LINK,HEAN THUAN TOH TONG,38707.5161752887,38869.3141362704
93 TAMPINES LINK HIANG TONG KENG TEMPLE SINGAPORE 528744,93,HIANG TONG KENG TEMPLE,1.36736795524806,103.928898603952,103.928898603952,528744,TAMPINES LINK,HIANG TONG KENG TEMPLE,38636.9151649605,38822.328570053
95 TAMPINES LINK TIEN DE GONG TEMPLE SINGAPORE 528745,95,TIEN DE GONG TEMPLE,1.36722511561437,103.928563518939,103.928563518939,528745,TAMPINES LINK,TIEN DE GONG TEMPLE,38599.6247971449,38806.5325871222
91 TAMPINES LINK SINGAPORE FUNERAL PARLOUR SINGAPORE 528746,91,SINGAPORE FUNERAL PARLOUR,1.36762569315621,103.929160069255,103.929160069255,528746,TAMPINES LINK,SINGAPORE FUNERAL PARLOUR,38666.0120198522,38850.8291153982
12 TAMPINES INDUSTRIAL AVENUE 5 TAMPINES WAFER FAB PARK SINGAPORE 528759,12,TAMPINES WAFER FAB PARK,1.37631250273254,103.922279596069,103.922279596069,528759,TAMPINES INDUSTRIAL AVENUE 5,TAMPINES WAFER FAB PARK,37900.2612706767,39811.3440184109
6 TAMPINES INDUSTRIAL AVENUE 5 TAMPINES WAFER FAB PARK SINGAPORE 528760,6,TAMPINES WAFER FAB PARK,1.37319042342606,103.929199558488,103.929199558488,528760,TAMPINES INDUSTRIAL AVENUE 5,TAMPINES WAFER FAB PARK,38670.3820810728,39466.1497107726
11 TAMPINES INDUSTRIAL AVENUE 5 T5 @ TAMPINES SINGAPORE 528761,11,T5 @ TAMPINES,1.3729382555853,103.92610443486,103.92610443486,528761,TAMPINES INDUSTRIAL AVENUE 5,T5 @ TAMPINES,38325.9333949462,39438.2526484877
13 TAMPINES INDUSTRIAL AVENUE 5 T5 @ TAMPINES SINGAPORE 528762,13,T5 @ TAMPINES,1.37290675841281,103.926395165724,103.926395165724,528762,TAMPINES INDUSTRIAL AVENUE 5,T5 @ TAMPINES,38358.2883561403,39434.7711039297
15 TAMPINES INDUSTRIAL AVENUE 5 T5 @ TAMPINES SINGAPORE 528763,15,T5 @ TAMPINES,1.37283165507678,103.92660224037,103.92660224037,528763,TAMPINES INDUSTRIAL AVENUE 5,T5 @ TAMPINES,38381.3335817074,39426.4674458113
60 TAMPINES NORTH DRIVE 2 DBS IKEA TAMPINES SINGAPORE 528764,60,DBS IKEA TAMPINES,1.37407266967532,103.932661439451,103.932661439451,528764,TAMPINES NORTH DRIVE 2,DBS IKEA TAMPINES,39055.6434808169,39563.7198880762
21 TAMPINES NORTH DRIVE 2 GIANT SINGAPORE 528765,21,GIANT,1.37222456162023,103.932046199992,103.932046199992,528765,TAMPINES NORTH DRIVE 2,GIANT,38987.1832341738,39359.3623573352
50 TAMPINES NORTH DRIVE 2 COURTS MEGASTORE SINGAPORE 528766,50,COURTS MEGASTORE,1.37352976407684,103.933847009972,103.933847009972,528766,TAMPINES NORTH DRIVE 2,COURTS MEGASTORE,39187.5856172144,39503.6935729515
11 TAMPINES CENTRAL 7 THE TAMPINES TRILLIANT SINGAPORE 528769,11,THE TAMPINES TRILLIANT,1.35892339007701,103.940498383792,103.940498383792,528769,TAMPINES CENTRAL 7,THE TAMPINES TRILLIANT,39927.875089827,37888.6244416572
13 TAMPINES CENTRAL 7 THE TAMPINES TRILLIANT SINGAPORE 528770,13,THE TAMPINES TRILLIANT,1.3587412980517,103.940284567799,103.940284567799,528770,TAMPINES CENTRAL 7,THE TAMPINES TRILLIANT,39904.0807013949,37868.4885444175
15 TAMPINES CENTRAL 7 THE TAMPINES TRILLIANT SINGAPORE 528771,15,THE TAMPINES TRILLIANT,1.35873496137606,103.939940919167,103.939940919167,528771,TAMPINES CENTRAL 7,THE TAMPINES TRILLIANT,39865.8365591448,37867.7861758545
17 TAMPINES CENTRAL 7 THE TAMPINES TRILLIANT SINGAPORE 528772,17,THE TAMPINES TRILLIANT,1.35889123454914,103.939708637167,103.939708637167,528772,TAMPINES CENTRAL 7,THE TAMPINES TRILLIANT,39839.9854612192,37885.0649570394
19 TAMPINES CENTRAL 7 THE TAMPINES TRILLIANT SINGAPORE 528773,19,THE TAMPINES TRILLIANT,1.35925068281713,103.939927469103,103.939927469103,528773,TAMPINES CENTRAL 7,THE TAMPINES TRILLIANT,39864.3372043027,37924.8120560218
30 TAMPINES INDUSTRIAL AVENUE 3 SINGAPORE 528775,30,NIL,1.36074503151075,103.926692813455,103.926692813455,528775,TAMPINES INDUSTRIAL AVENUE 3,30 TAMPINES INDUSTRIAL AVENUE 3 SINGAPORE 528775,38391.4652141649,38089.9887714889
1 TAMPINES INDUSTRIAL AVENUE 3 2ND SCDF DIVISION HQ SINGAPORE 528777,1,2ND SCDF DIVISION HQ,1.3580812477539,103.929394998736,103.929394998736,528777,TAMPINES INDUSTRIAL AVENUE 3,2ND SCDF DIVISION HQ,38692.1989713246,37795.452535335
10 TAMPINES PLACE UMC DORMITORY SINGAPORE 528778,10,UMC DORMITORY,1.3678864209441,103.930530935671,103.930530935671,528778,TAMPINES PLACE,UMC DORMITORY,38818.5720408624,38879.6652418766
31 SIMEI RISE SAVANNAH CONDOPARK SINGAPORE 528779,31,SAVANNAH CONDOPARK,1.34982870190689,103.961396601072,103.961396601072,528779,SIMEI RISE,SAVANNAH CONDOPARK,42253.6621460533,36883.0909373499
33 SIMEI RISE SAVANNAH CONDOPARK SINGAPORE 528780,33,SAVANNAH CONDOPARK,1.34978684928834,103.961650620033,103.961650620033,528780,SIMEI RISE,SAVANNAH CONDOPARK,42281.9319282901,36878.4645668417
35 SIMEI RISE SAVANNAH CONDOPARK SINGAPORE 528781,35,SAVANNAH CONDOPARK,1.34971580734914,103.9618917708,103.9618917708,528781,SIMEI RISE,SAVANNAH CONDOPARK,42308.7697927523,36870.6105093546
37 SIMEI RISE SAVANNAH CONDOPARK SINGAPORE 528782,37,SAVANNAH CONDOPARK,1.34956780173385,103.962179466223,103.962179466223,528782,SIMEI RISE,SAVANNAH CONDOPARK,42340.7880226281,36854.2464569062
39 SIMEI RISE SAVANNAH CONDOPARK SINGAPORE 528783,39,SAVANNAH CONDOPARK,1.34941755155204,103.962383866075,103.962383866075,528783,SIMEI RISE,SAVANNAH CONDOPARK,42363.5363798104,36837.6337227039
41 SIMEI RISE SAVANNAH CONDOPARK SINGAPORE 528784,41,SAVANNAH CONDOPARK,1.34923011673727,103.962557862175,103.962557862175,528784,SIMEI RISE,SAVANNAH CONDOPARK,42382.901351505,36816.9091131799
43 SIMEI RISE SAVANNAH CONDOPARK SINGAPORE 528785,43,SAVANNAH CONDOPARK,1.34901571829735,103.962689064375,103.962689064375,528785,SIMEI RISE,SAVANNAH CONDOPARK,42397.5039889095,36793.2027440444
45 SIMEI RISE SAVANNAH CONDOPARK SINGAPORE 528786,45,SAVANNAH CONDOPARK,1.34878303632247,103.962781903361,103.962781903361,528786,SIMEI RISE,SAVANNAH CONDOPARK,42407.8373272112,36767.4744433295
47 SIMEI RISE SAVANNAH CONDOPARK SINGAPORE 528787,47,SAVANNAH CONDOPARK,1.34852821729231,103.962845150167,103.962845150167,528787,SIMEI RISE,SAVANNAH CONDOPARK,42414.8775088834,36739.2981588952
49 SIMEI RISE SAVANNAH CONDOPARK SINGAPORE 528788,49,SAVANNAH CONDOPARK,1.34859398500989,103.96227123901,103.96227123901,528788,SIMEI RISE,SAVANNAH CONDOPARK,42351.0070387544,36746.5670454521
51 SIMEI RISE SAVANNAH CONDOPARK SINGAPORE 528789,51,SAVANNAH CONDOPARK,1.34860583094627,103.962016064345,103.962016064345,528789,SIMEI RISE,SAVANNAH CONDOPARK,42322.6087991958,36747.8754093163
53 SIMEI RISE SAVANNAH CONDOPARK SINGAPORE 528790,53,SAVANNAH CONDOPARK,1.34866089340231,103.961766390754,103.961766390754,528790,SIMEI RISE,SAVANNAH CONDOPARK,42294.8225177312,36753.9624824505
55 SIMEI RISE SAVANNAH CONDOPARK SINGAPORE 528791,55,SAVANNAH CONDOPARK,1.34876157791641,103.961532981529,103.961532981529,528791,SIMEI RISE,SAVANNAH CONDOPARK,42268.8460195493,36765.0943204295
57 SIMEI RISE SAVANNAH CONDOPARK SINGAPORE 528792,57,SAVANNAH CONDOPARK,1.34890403591424,103.961319219301,103.961319219301,528792,SIMEI RISE,SAVANNAH CONDOPARK,42245.055777831,36780.8453856725
59 SIMEI RISE SAVANNAH CONDOPARK SINGAPORE 528793,59,SAVANNAH CONDOPARK,1.34908331321543,103.961138883201,103.961138883201,528793,SIMEI RISE,SAVANNAH CONDOPARK,42224.9852897041,36800.6679487452
61 SIMEI RISE SAVANNAH CONDOPARK SINGAPORE 528794,61,SAVANNAH CONDOPARK,1.34935256451267,103.960960899463,103.960960899463,528794,SIMEI RISE,SAVANNAH CONDOPARK,42205.1760748131,36830.439416457
63 SIMEI RISE SAVANNAH CONDOPARK SINGAPORE 528795,63,SAVANNAH CONDOPARK,1.34959167491579,103.960859962796,103.960859962796,528795,SIMEI RISE,SAVANNAH CONDOPARK,42193.9415375646,36856.8785002343
65 SIMEI RISE SAVANNAH CONDOPARK SINGAPORE 528796,65,SAVANNAH CONDOPARK,1.34983799112041,103.960783503803,103.960783503803,528796,SIMEI RISE,SAVANNAH CONDOPARK,42185.4310583146,36884.1145097557
67 SIMEI RISE SAVANNAH CONDOPARK SINGAPORE 528797,67,SAVANNAH CONDOPARK,1.34940326206344,103.961578590161,103.961578590161,528797,SIMEI RISE,SAVANNAH CONDOPARK,42273.9180255812,36836.0489213448
10 TAMPINES INDUSTRIAL AVENUE 3 ADVANCED DISPLAY PARK SINGAPORE 528798,10,ADVANCED DISPLAY PARK,1.360392505443,103.929694654448,103.929694654448,528798,TAMPINES INDUSTRIAL AVENUE 3,ADVANCED DISPLAY PARK,38725.5370366303,38051.0213152319
3 TAMPINES GRANDE AIA TAMPINES SINGAPORE 528799,3,AIA TAMPINES,1.35463583876061,103.941897122674,103.941897122674,528799,TAMPINES GRANDE,AIA TAMPINES,40083.5600380115,37414.5349847376
2 SIMEI RISE CHANGI RISE CONDOMINIUM SINGAPORE 528800,2,CHANGI RISE CONDOMINIUM,1.34675636014805,103.959923954703,103.959923954703,528800,SIMEI RISE,CHANGI RISE CONDOMINIUM,42089.7903439011,36543.3576701377
4 SIMEI RISE CHANGI RISE CONDOMINIUM SINGAPORE 528801,4,CHANGI RISE CONDOMINIUM,1.34705637835513,103.959587723908,103.959587723908,528801,SIMEI RISE,CHANGI RISE CONDOMINIUM,42052.3697632188,36576.5302906446
6 SIMEI RISE CHANGI RISE CONDOMINIUM SINGAPORE 528802,6,CHANGI RISE CONDOMINIUM,1.34741680920075,103.959593560843,103.959593560843,528802,SIMEI RISE,CHANGI RISE CONDOMINIUM,42053.0172861945,36616.3850225769
8 SIMEI RISE CHANGI RISE CONDOMINIUM SINGAPORE 528803,8,CHANGI RISE CONDOMINIUM,1.34787363585899,103.959532730823,103.959532730823,528803,SIMEI RISE,CHANGI RISE CONDOMINIUM,42046.2449459098,36666.8983525634
10 SIMEI RISE CHANGI RISE CONDOMINIUM SINGAPORE 528804,10,CHANGI RISE CONDOMINIUM,1.34822539291263,103.959429036305,103.959429036305,528804,SIMEI RISE,CHANGI RISE CONDOMINIUM,42034.7028556792,36705.7933472674
12 SIMEI RISE CHANGI RISE CONDOMINIUM SINGAPORE 528805,12,CHANGI RISE CONDOMINIUM,1.34858766225445,103.959437979842,103.959437979842,528805,SIMEI RISE,CHANGI RISE CONDOMINIUM,42035.6960995644,36745.8513892461
14 SIMEI RISE CHANGI RISE CONDOMINIUM SINGAPORE 528806,14,CHANGI RISE CONDOMINIUM,1.34838619871138,103.959824377568,103.959824377568,528806,SIMEI RISE,CHANGI RISE CONDOMINIUM,42078.6991255553,36723.5767562762
16 SIMEI RISE CHANGI RISE CONDOMINIUM SINGAPORE 528807,16,CHANGI RISE CONDOMINIUM,1.34895052236472,103.95962943028,103.95962943028,528807,SIMEI RISE,CHANGI RISE CONDOMINIUM,42057.0003712438,36785.9758089129
18 SIMEI RISE CHANGI RISE CONDOMINIUM SINGAPORE 528808,18,CHANGI RISE CONDOMINIUM,1.34919954347296,103.959889829829,103.959889829829,528808,SIMEI RISE,CHANGI RISE CONDOMINIUM,42085.9785756394,36813.5128637999
20 SIMEI RISE CHANGI RISE CONDOMINIUM SINGAPORE 528809,20,CHANGI RISE CONDOMINIUM,1.34932761293396,103.960301976348,103.960301976348,528809,SIMEI RISE,CHANGI RISE CONDOMINIUM,42131.8452555696,36827.6765549034
22 SIMEI RISE CHANGI RISE CONDOMINIUM SINGAPORE 528810,22,CHANGI RISE CONDOMINIUM,1.34896937927537,103.960521630717,103.960521630717,528810,SIMEI RISE,CHANGI RISE CONDOMINIUM,42156.2924638735,36788.0660856012
24 SIMEI RISE CHANGI RISE CONDOMINIUM SINGAPORE 528811,24,CHANGI RISE CONDOMINIUM,1.34861038548704,103.960563721864,103.960563721864,528811,SIMEI RISE,CHANGI RISE CONDOMINIUM,42160.9788255244,36748.3705329951
10 TAMPINES AVENUE 12 SINGAPORE 528813,10,NIL,1.36736729872875,103.94486312441,103.94486312441,528813,TAMPINES AVENUE 12,10 TAMPINES AVENUE 12 SINGAPORE 528813,40413.5777062019,38822.3325956948
10 TAMPINES INDUSTRIAL AVENUE 5 TAMPINES WAFER FAB PARK SINGAPORE 528820,10,TAMPINES WAFER FAB PARK,1.37544512068537,103.923982747272,103.923982747272,528820,TAMPINES INDUSTRIAL AVENUE 5,TAMPINES WAFER FAB PARK,38089.8047421481,39715.4403357543
2 TAMPINES PLACE DBS TAMPINES DORM SINGAPORE 528821,2,DBS TAMPINES DORM,1.36663778913399,103.929439924949,103.929439924949,528821,TAMPINES PLACE,DBS TAMPINES DORM,38697.1610137718,38741.5928096659
7 TAMPINES INDUSTRIAL AVENUE 5 SINGAPORE 528822,7,NIL,1.37178675556224,103.927753953654,103.927753953654,528822,TAMPINES INDUSTRIAL AVENUE 5,7 TAMPINES INDUSTRIAL AVENUE 5 SINGAPORE 528822,38509.5098966425,39310.9326450806
2 TAMPINES STREET 73 PINEVALE SINGAPORE 528823,2,PINEVALE,1.35796409571587,103.933042954355,103.933042954355,528823,TAMPINES STREET 73,PINEVALE,39098.175355373,37782.5148791783
4 TAMPINES STREET 73 PINEVALE SINGAPORE 528824,4,PINEVALE,1.35798635073904,103.932692153935,103.932692153935,528824,TAMPINES STREET 73,PINEVALE,39059.1351651512,37784.9741225876
6 TAMPINES STREET 73 PINEVALE SINGAPORE 528825,6,PINEVALE,1.35828721523629,103.932401508844,103.932401508844,528825,TAMPINES STREET 73,PINEVALE,39026.7883157758,37818.2409067918
8 TAMPINES STREET 73 PINEVALE SINGAPORE 528826,8,PINEVALE,1.35877068805607,103.932659928356,103.932659928356,528826,TAMPINES STREET 73,PINEVALE,39055.5452612098,37871.702126516
10 TAMPINES STREET 73 PINEVALE SINGAPORE 528827,10,PINEVALE,1.35862622042125,103.933072580529,103.933072580529,528827,TAMPINES STREET 73,PINEVALE,39101.469389773,37855.7294996325
12 TAMPINES STREET 73 PINEVALE SINGAPORE 528828,12,PINEVALE,1.35845019253569,103.933253522348,103.933253522348,528828,TAMPINES STREET 73,PINEVALE,39121.6069517517,37836.26603592
14 TAMPINES STREET 73 PINEVALE SINGAPORE 528829,14,PINEVALE,1.35821734471436,103.933307493228,103.933307493228,528829,TAMPINES STREET 73,PINEVALE,39127.614359552,37810.5191203933
1 TAMPINES INDUSTRIAL AVENUE 5 SINGAPORE 528830,1,NIL,1.37084980450397,103.928800928159,103.928800928159,528830,TAMPINES INDUSTRIAL AVENUE 5,1 TAMPINES INDUSTRIAL AVENUE 5 SINGAPORE 528830,38626.0296781007,39207.3338421192
2 TAMPINES INDUSTRIAL AVENUE 5 TAMPINES WAFER FAB PARK SINGAPORE 528832,2,TAMPINES WAFER FAB PARK,1.37249900320754,103.930050585205,103.930050585205,528832,TAMPINES INDUSTRIAL AVENUE 5,TAMPINES WAFER FAB PARK,38765.0941434791,39389.6996850036
3 SIMEI STREET 6 DBS EASTPOINT BR 1 SINGAPORE 528833,3,DBS EASTPOINT BR 1,1.34269199750599,103.953050756306,103.953050756306,528833,SIMEI STREET 6,DBS EASTPOINT BR 1,41324.8995989468,36093.9015998915
9002 TAMPINES STREET 93 TAMPINES INDUSTRIAL PARK A SINGAPORE 528836,9002,TAMPINES INDUSTRIAL PARK A,1.340844054121,103.941586115141,103.941586115141,528836,TAMPINES STREET 93,TAMPINES INDUSTRIAL PARK A,40049.0161567703,35889.5056288112
9003 TAMPINES STREET 93 TAMPINES INDUSTRIAL PARK A SINGAPORE 528837,9003,TAMPINES INDUSTRIAL PARK A,1.33996603073475,103.941354808088,103.941354808088,528837,TAMPINES STREET 93,TAMPINES INDUSTRIAL PARK A,40023.2784124445,35792.4169848599
9004 TAMPINES STREET 93 TAMPINES INDUSTRIAL PARK A SINGAPORE 528838,9004,TAMPINES INDUSTRIAL PARK A,1.34061756543543,103.942126793068,103.942126793068,528838,TAMPINES STREET 93,TAMPINES INDUSTRIAL PARK A,40109.1889992049,35864.4642902538
9005 TAMPINES STREET 93 TAMPINES INDUSTRIAL PARK A SINGAPORE 528839,9005,TAMPINES INDUSTRIAL PARK A,1.33928067657535,103.941765560497,103.941765560497,528839,TAMPINES STREET 93,TAMPINES INDUSTRIAL PARK A,40068.9941762071,35716.6359117981
9006 TAMPINES STREET 93 TAMPINES INDUSTRIAL PARK A SINGAPORE 528840,9006,TAMPINES INDUSTRIAL PARK A,1.33970758915669,103.942242596978,103.942242596978,528840,TAMPINES STREET 93,TAMPINES INDUSTRIAL PARK A,40122.0812231172,35763.8441595696
9007 TAMPINES STREET 93 TAMPINES INDUSTRIAL PARK A SINGAPORE 528841,9007,TAMPINES INDUSTRIAL PARK A,1.33871119758635,103.941038540662,103.941038540662,528841,TAMPINES STREET 93,TAMPINES INDUSTRIAL PARK A,39988.0872806394,35653.6621609554
842H TAMPINES STREET 82 TAMPINES ARCADIA SINGAPORE 528842,842H,TAMPINES ARCADIA,1.35161667861579,103.937070511177,103.937070511177,528842,TAMPINES STREET 82,TAMPINES ARCADIA,39546.426608528,37080.6675922349
9008 TAMPINES STREET 93 TAMPINES INDUSTRIAL PARK A SINGAPORE 528843,9008,TAMPINES INDUSTRIAL PARK A,1.34171015240353,103.942585643036,103.942585643036,528843,TAMPINES STREET 93,TAMPINES INDUSTRIAL PARK A,40160.2487571007,35985.279461816
9010 TAMPINES STREET 93 TAMPINES INDUSTRIAL PARK A SINGAPORE 528844,9010,TAMPINES INDUSTRIAL PARK A,1.34140309441679,103.943272800978,103.943272800978,528844,TAMPINES STREET 93,TAMPINES INDUSTRIAL PARK A,40236.7236631531,35951.329922704
9012 TAMPINES STREET 93 TAMPINES INDUSTRIAL PARK A SINGAPORE 528845,9012,TAMPINES INDUSTRIAL PARK A,1.34087590102933,103.943710846592,103.943710846592,528845,TAMPINES STREET 93,TAMPINES INDUSTRIAL PARK A,40285.4761229185,35893.0376603659
9 TAMPINES STREET 92 TAMPINES 9 BUILDING SINGAPORE 528871,9,TAMPINES 9 BUILDING,1.34327464834779,103.944382794377,103.944382794377,528871,TAMPINES STREET 92,TAMPINES 9 BUILDING,40360.2447621925,36158.282751441
11 TAMPINES STREET 92 TAMPINES BIZ-HUB SINGAPORE 528872,11,TAMPINES BIZ-HUB,1.34258945646507,103.944897668425,103.944897668425,528872,TAMPINES STREET 92,TAMPINES BIZ-HUB,40417.54819977,36082.5202023853
16 TAMPINES STREET 92 EVORICH R&D BUILDING SINGAPORE 528873,16,EVORICH R&D BUILDING,1.34233182668898,103.943221124114,103.943221124114,528873,TAMPINES STREET 92,EVORICH R&D BUILDING,40230.9679639051,36054.0243183114
18 TAMPINES STREET 92 SINGAPORE 528874,18,NIL,1.34269829617697,103.943659347014,103.943659347014,528874,TAMPINES STREET 92,18 TAMPINES STREET 92 SINGAPORE 528874,40279.7356787352,36094.5489109904
20 TAMPINES STREET 92 SINGAPORE 528875,20,NIL,1.34205308278501,103.94384945564,103.94384945564,528875,TAMPINES STREET 92,20 TAMPINES STREET 92 SINGAPORE 528875,40300.8959656153,36023.2053362187
22 TAMPINES STREET 92 SINGAPORE 528876,22,NIL,1.34160653812618,103.944278172564,103.944278172564,528876,TAMPINES STREET 92,22 TAMPINES STREET 92 SINGAPORE 528876,40348.6098400559,35973.8307785839
25 TAMPINES STREET 92 SINGAPORE 528877,25,NIL,1.34048794678861,103.944346362172,103.944346362172,528877,TAMPINES STREET 92,25 TAMPINES STREET 92 SINGAPORE 528877,40356.2042285101,35850.1427818816
27 TAMPINES STREET 92 SINGAPORE 528878,27,NIL,1.34016392098362,103.944106489563,103.944106489563,528878,TAMPINES STREET 92,27 TAMPINES STREET 92 SINGAPORE 528878,40329.5105607221,35814.3123902604
29 TAMPINES STREET 92 SINGAPORE 528879,29,NIL,1.3399972616438,103.943813814901,103.943813814901,528879,TAMPINES STREET 92,29 TAMPINES STREET 92 SINGAPORE 528879,40296.9397888035,35795.8825479224
35 TAMPINES STREET 92 SINGAPORE 528880,35,NIL,1.33911260142134,103.942870618856,103.942870618856,528880,TAMPINES STREET 92,35 TAMPINES STREET 92 SINGAPORE 528880,40191.9763840651,35698.0564548168
41 TAMPINES STREET 92 SINGAPORE 528881,41,NIL,1.33814512653174,103.941713417859,103.941713417859,528881,TAMPINES STREET 92,41 TAMPINES STREET 92 SINGAPORE 528881,40063.1967979465,35591.0721173417
1 TAMPINES STREET 92 SAFRA CLUBHOUSE (TAMPINES) SINGAPORE 528882,1,SAFRA CLUBHOUSE (TAMPINES),1.34470946550556,103.941746452841,103.941746452841,528882,TAMPINES STREET 92,SAFRA CLUBHOUSE (TAMPINES),40066.8410934536,36316.9246092234
39 TAMPINES STREET 92 C K BUILDING SINGAPORE 528883,39,C K BUILDING,1.33850110182764,103.941904557765,103.941904557765,528883,TAMPINES STREET 92,C K BUILDING,40084.4669273403,35630.4350550734
37 TAMPINES STREET 92 STORHUB TAMPINES SINGAPORE 528885,37,STORHUB TAMPINES,1.33887022743578,103.942561753082,103.942561753082,528885,TAMPINES STREET 92,STORHUB TAMPINES,40157.6040617554,35671.2543973792
37A TAMPINES STREET 92 SINGAPORE 528886,37A,NIL,1.3386824397652,103.94225875628,103.94225875628,528886,TAMPINES STREET 92,37A TAMPINES STREET 92 SINGAPORE 528886,40123.8846198553,35650.4882601816
43 TAMPINES STREET 92 GIMMILL BUILDING SINGAPORE 528887,43,GIMMILL BUILDING,1.33789652624243,103.941412803223,103.941412803223,528887,TAMPINES STREET 92,GIMMILL BUILDING,40029.7427457273,35563.5816448815
7 TAMPINES STREET 92 SOKA KINDERGARTEN SINGAPORE 528888,7,SOKA KINDERGARTEN,1.34463290758197,103.943349420275,103.943349420275,528888,TAMPINES STREET 92,SOKA KINDERGARTEN,40245.2345056189,36308.4671897497
2 TAMPINES STREET 92 MIDDLETON INTERNATIONAL SCHOOL SINGAPORE 528889,2,MIDDLETON INTERNATIONAL SCHOOL,1.34269861905849,103.942492515132,103.942492515132,528889,TAMPINES STREET 92,MIDDLETON INTERNATIONAL SCHOOL,40149.8797328472,36094.5787854902
5 TAMPINES STREET 92 TAMPINES SOKA CENTRE SINGAPORE 528890,5,TAMPINES SOKA CENTRE,1.34443114066196,103.943056471286,103.943056471286,528890,TAMPINES STREET 92,TAMPINES SOKA CENTRE,40212.6334354486,36286.1553271599
21 TAMPINES STREET 92 HERSING KITCHEN SINGAPORE 528891,21,HERSING KITCHEN,1.34132214721417,103.945553526802,103.945553526802,528891,TAMPINES STREET 92,HERSING KITCHEN,40490.5446788659,35942.3906974643
23 TAMPINES STREET 92 HERSING CENTRE SINGAPORE 528892,23,HERSING CENTRE,1.34076228950405,103.944737644011,103.944737644011,528892,TAMPINES STREET 92,HERSING CENTRE,40399.7483855141,35880.480230622
6 TAMPINES STREET 92 YO:HA @ TAMPINES SINGAPORE 528893,6,YO:HA @ TAMPINES,1.34309110506824,103.94165460765,103.94165460765,528893,TAMPINES STREET 92,YO:HA @ TAMPINES,40056.6276466362,36137.9738121387
2 TAMPINES STREET 91 JUNYUAN PRIMARY SCHOOL SINGAPORE 528906,2,JUNYUAN PRIMARY SCHOOL,1.34769172206039,103.939695143887,103.939695143887,528906,TAMPINES STREET 91,JUNYUAN PRIMARY SCHOOL,39838.538106774,36646.6778260414
4 TAMPINES STREET 91 SINGAPORE 528907,4,NIL,1.34689398211513,103.939650003415,103.939650003415,528907,TAMPINES STREET 91,4 TAMPINES STREET 91 SINGAPORE 528907,39833.5183130139,36558.4674476087
11 TAMPINES STREET 84 JUNYUAN SECONDARY SCHOOL SINGAPORE 528933,11,JUNYUAN SECONDARY SCHOOL,1.35334124083263,103.933411373045,103.933411373045,528933,TAMPINES STREET 84,JUNYUAN SECONDARY SCHOOL,39139.1972812936,37271.3440851402
1 TAMPINES STREET 82 SINGAPORE 528985,1,NIL,1.34978359073264,103.93561470672,103.93561470672,528985,TAMPINES STREET 82,1 TAMPINES STREET 82 SINGAPORE 528985,39384.4202524796,36877.9669006541
2 TAMPINES STREET 82 SAINT HILDA'S SECONDARY SCHOOL SINGAPORE 528986,2,SAINT HILDA'S SECONDARY SCHOOL,1.35037576743342,103.936654688332,103.936654688332,528986,TAMPINES STREET 82,SAINT HILDA'S SECONDARY SCHOOL,39500.1559720868,36943.4517742302
10 TAMPINES STREET 81 SSA HEADQUARTERS SINGAPORE 529014,10,SSA HEADQUARTERS,1.34803458832345,103.93556714555,103.93556714555,529014,TAMPINES STREET 81,SSA HEADQUARTERS,39379.1353414506,36684.5706175361
21 TAMPINES STREET 71 NASCANS @ POI CHING SINGAPORE 529067,21,NASCANS @ POI CHING,1.35765121877679,103.935246486174,103.935246486174,529067,TAMPINES STREET 71,NASCANS @ POI CHING,39343.4048039075,37747.9287135638
21 TAMPINES STREET 45 DUNMAN SECONDARY SCHOOL SINGAPORE 529093,21,DUNMAN SECONDARY SCHOOL,1.3605475096799,103.956207278726,103.956207278726,529093,TAMPINES STREET 45,DUNMAN SECONDARY SCHOOL,41676.0871489691,38068.2949508596
498C TAMPINES STREET 45 MULTI STOREY CAR PARK SINGAPORE 529095,498C,MULTI STOREY CAR PARK,1.36078046169935,103.959013397396,103.959013397396,529095,TAMPINES STREET 45,MULTI STOREY CAR PARK,41988.374770605,38094.0697431974
498K TAMPINES STREET 45 MULTI STOREY CAR PARK SINGAPORE 529096,498K,MULTI STOREY CAR PARK,1.36285616139926,103.956862999812,103.956862999812,529096,TAMPINES STREET 45,MULTI STOREY CAR PARK,41749.0483355951,38323.5782128647
498N TAMPINES STREET 45 SINGAPORE 529097,498N,NIL,1.36269973012518,103.957806673373,103.957806673373,529097,TAMPINES STREET 45,498N TAMPINES STREET 45 SINGAPORE 529097,41854.0692192353,38306.2862045709
497L TAMPINES STREET 45 MULTI STOREY CAR PARK SINGAPORE 529098,497L,MULTI STOREY CAR PARK,1.3606764110784,103.959878848158,103.959878848158,529098,TAMPINES STREET 45,MULTI STOREY CAR PARK,42084.6901583765,38082.5693622474
11 TAMPINES STREET 44 ALL SAINTS HOME (TAMPINES) SINGAPORE 529123,11,ALL SAINTS HOME (TAMPINES),1.36120576978372,103.954116562731,103.954116562731,529123,TAMPINES STREET 44,ALL SAINTS HOME (TAMPINES),41443.4107110538,38141.0704131369
20 TAMPINES STREET 43 SINGAPORE 529151,20,NIL,1.36103454930396,103.952164422603,103.952164422603,529151,TAMPINES STREET 43,20 TAMPINES STREET 43 SINGAPORE 529151,41226.1608353276,38122.1268928479
1 TAMPINES STREET 42 COMMIT LEARNING SCHOOLHOUSE @ GONGSHANG PRIMARY SCHOOL SINGAPORE 529176,1,COMMIT LEARNING SCHOOLHOUSE @ GONGSHANG PRIMARY SCHOOL,1.35711606790292,103.949144797277,103.949144797277,529176,TAMPINES STREET 42,COMMIT LEARNING SCHOOLHOUSE @ GONGSHANG PRIMARY SCHOOL,40890.1319455709,37688.8239677399
1 TAMPINES STREET 41 SINGHEALTH POLYCLINICS (TAMPINES POLYCLINIC) SINGAPORE 529203,1,SINGHEALTH POLYCLINICS (TAMPINES POLYCLINIC),1.35730113647076,103.945905475983,103.945905475983,529203,TAMPINES STREET 41,SINGHEALTH POLYCLINICS (TAMPINES POLYCLINIC),40529.6311488347,37709.2709290478
2 TAMPINES STREET 41 TAMPINES NORTH COMMUNITY CLUB SINGAPORE 529204,2,TAMPINES NORTH COMMUNITY CLUB,1.35736479273941,103.946602676162,103.946602676162,529204,TAMPINES STREET 41,TAMPINES NORTH COMMUNITY CLUB,40607.2213090155,37716.3133505527
230F TAMPINES STREET 24 SINGAPORE 529230,230F,NIL,1.35625417362515,103.950752703057,103.950752703057,529230,TAMPINES STREET 24,230F TAMPINES STREET 24 SINGAPORE 529230,41069.078323531,37593.5285202172
30 TAMPINES STREET 34 EAST SPRING SECONDARY SCHOOL SINGAPORE 529231,30,EAST SPRING SECONDARY SCHOOL,1.35675829971051,103.961104820719,103.961104820719,529231,TAMPINES STREET 34,EAST SPRING SECONDARY SCHOOL,42221.1498216121,37649.3306960706
21 TAMPINES STREET 34 THE EDEN AT TAMPINES SINGAPORE 529232,21,THE EDEN AT TAMPINES,1.35598176439186,103.959457084875,103.959457084875,529232,TAMPINES STREET 34,THE EDEN AT TAMPINES,42037.7798081003,37563.4555531181
23 TAMPINES STREET 34 THE EDEN AT TAMPINES SINGAPORE 529233,23,THE EDEN AT TAMPINES,1.35561488724775,103.959596074901,103.959596074901,529233,TAMPINES STREET 34,THE EDEN AT TAMPINES,42053.2499561859,37522.8888576739
25 TAMPINES STREET 34 THE EDEN AT TAMPINES SINGAPORE 529234,25,THE EDEN AT TAMPINES,1.35542920496046,103.959968937928,103.959968937928,529234,TAMPINES STREET 34,THE EDEN AT TAMPINES,42094.7465143586,37502.3591739647
27 TAMPINES STREET 34 THE EDEN AT TAMPINES SINGAPORE 529235,27,THE EDEN AT TAMPINES,1.3550697954453,103.960404580411,103.960404580411,529235,TAMPINES STREET 34,THE EDEN AT TAMPINES,42143.2307392526,37462.6199446581
29 TAMPINES STREET 34 THE EDEN AT TAMPINES SINGAPORE 529236,29,THE EDEN AT TAMPINES,1.35507185348243,103.960002400801,103.960002400801,529236,TAMPINES STREET 34,THE EDEN AT TAMPINES,42098.4726242265,37462.8451687265
31 TAMPINES STREET 34 THE EDEN AT TAMPINES SINGAPORE 529237,31,THE EDEN AT TAMPINES,1.35508310539956,103.959598242484,103.959598242484,529237,TAMPINES STREET 34,THE EDEN AT TAMPINES,42053.4942490822,37464.0870035626
33 TAMPINES STREET 34 THE EDEN AT TAMPINES SINGAPORE 529238,33,THE EDEN AT TAMPINES,1.3553355323285,103.959235269278,103.959235269278,529238,TAMPINES STREET 34,THE EDEN AT TAMPINES,42013.097932118,37491.9970508125
35 TAMPINES STREET 34 THE EDEN AT TAMPINES SINGAPORE 529239,35,THE EDEN AT TAMPINES,1.35567310851589,103.958940933475,103.958940933475,529239,TAMPINES STREET 34,THE EDEN AT TAMPINES,41980.3397105755,37529.322892705
37 TAMPINES STREET 34 THE EDEN AT TAMPINES SINGAPORE 529240,37,THE EDEN AT TAMPINES,1.35596027765461,103.959161574046,103.959161574046,529240,TAMPINES STREET 34,THE EDEN AT TAMPINES,42004.8928870913,37561.0779424608
39 TAMPINES STREET 34 THE EDEN AT TAMPINES SINGAPORE 529241,39,THE EDEN AT TAMPINES,1.35564487647902,103.959215582978,103.959215582978,529241,TAMPINES STREET 34,THE EDEN AT TAMPINES,42010.9052891089,37526.2027176023
31 TAMPINES STREET 33 EAST SPRING PRIMARY SCHOOL SINGAPORE 529258,31,EAST SPRING PRIMARY SCHOOL,1.35304104609341,103.961797146297,103.961797146297,529258,TAMPINES STREET 33,EAST SPRING PRIMARY SCHOOL,42298.2196751516,37238.2988020405
20 TAMPINES STREET 33 LIVING HOPE METHODIST CHURCH SINGAPORE 529259,20,LIVING HOPE METHODIST CHURCH,1.35185012257688,103.960467332133,103.960467332133,529259,TAMPINES STREET 33,LIVING HOPE METHODIST CHURCH,42150.2329648733,37106.6044393573
1 TAMPINES STREET 32 NGEE ANN SECONDARY SCHOOL SINGAPORE 529283,1,NGEE ANN SECONDARY SCHOOL,1.35439823902076,103.956744685155,103.956744685155,529283,TAMPINES STREET 32,NGEE ANN SECONDARY SCHOOL,41735.9290412692,37388.3414348457
5 TAMPINES STREET 32 JOSIAH MONTESSORI KINDERGARTEN SINGAPORE 529284,5,JOSIAH MONTESSORI KINDERGARTEN,1.35436981591879,103.959906449844,103.959906449844,529284,TAMPINES STREET 32,JOSIAH MONTESSORI KINDERGARTEN,42087.7984078927,37385.2166892774
7 TAMPINES STREET 32 TAMPINES MART SINGAPORE 529285,7,TAMPINES MART,1.35436493799094,103.960042188281,103.960042188281,529285,TAMPINES STREET 32,TAMPINES MART,42102.9046137417,37384.6781007759
9 TAMPINES STREET 32 AL - AMIN PRE-SCHOOL SINGAPORE 529286,9,AL - AMIN PRE-SCHOOL,1.35436493607477,103.960042189097,103.960042189097,529286,TAMPINES STREET 32,AL - AMIN PRE-SCHOOL,42102.9047045456,37384.6778889
11 TAMPINES STREET 32 PLAYFACTO SCHOOL @ TAMPINES SINGAPORE 529287,11,PLAYFACTO SCHOOL @ TAMPINES,1.35454944260132,103.959900189012,103.959900189012,529287,TAMPINES STREET 32,PLAYFACTO SCHOOL @ TAMPINES,42087.1006097961,37405.0789034087
10 TAMPINES STREET 23 TAMPINES EAST COMMUNITY CLUB SINGAPORE 529341,10,TAMPINES EAST COMMUNITY CLUB,1.353220800141,103.954623904585,103.954623904585,529341,TAMPINES STREET 23,TAMPINES EAST COMMUNITY CLUB,41499.9163148487,37258.1340473983
3 TAMPINES STREET 22 ANGSANA PRIMARY SCHOOL SINGAPORE 529366,3,ANGSANA PRIMARY SCHOOL,1.34857143331006,103.951673027853,103.951673027853,529366,TAMPINES STREET 22,ANGSANA PRIMARY SCHOOL,41171.5415322781,36744.0134870075
1 TAMPINES STREET 22 NTUC HEALTH (TAMPINES) SINGAPORE 529367,1,NTUC HEALTH (TAMPINES),1.34964959130547,103.951340288397,103.951340288397,529367,TAMPINES STREET 22,NTUC HEALTH (TAMPINES),41134.5054760622,36863.2291469704
1 TAMPINES STREET 21 BIG HEART STUDENT CARE (CHONGZHENG PRIMARY SCHOOL) SINGAPORE 529392,1,BIG HEART STUDENT CARE (CHONGZHENG PRIMARY SCHOOL),1.35061130568554,103.951317297552,103.951317297552,529392,TAMPINES STREET 21,BIG HEART STUDENT CARE (CHONGZHENG PRIMARY SCHOOL),41131.9416870372,36969.5707135443
3 TAMPINES STREET 21 SHG STUDENT CARE (YUMIN PRIMARY SCHOOL) SINGAPORE 529393,3,SHG STUDENT CARE (YUMIN PRIMARY SCHOOL),1.35131569890862,103.950551091373,103.950551091373,529393,TAMPINES STREET 21,SHG STUDENT CARE (YUMIN PRIMARY SCHOOL),41046.6676057065,37047.4549574535
25 TAMPINES STREET 21 SINGAPORE 529394,25,NIL,1.35582160253707,103.949866525154,103.949866525154,529394,TAMPINES STREET 21,25 TAMPINES STREET 21 SINGAPORE 529394,40970.4589973753,37545.6921512466
230A TAMPINES STREET 21 MULTI STOREY CAR PARK SINGAPORE 529398,230A,MULTI STOREY CAR PARK,1.35576413174554,103.950241994522,103.950241994522,529398,TAMPINES STREET 21,MULTI STOREY CAR PARK,41012.2448266679,37539.3393252157
390 TAMPINES STREET 21 PASIR RIS SECONDARY SCHOOL SINGAPORE 529400,390,PASIR RIS SECONDARY SCHOOL,1.35463956600893,103.948614671461,103.948614671461,529400,TAMPINES STREET 21,PASIR RIS SECONDARY SCHOOL,40831.1479690019,37414.9816493746
250 TAMPINES STREET 12 AMP-MERCU STUDENT CARE CENTRE @ TAMPINES PRIMARY SCHOOL SINGAPORE 529426,250,AMP-MERCU STUDENT CARE CENTRE @ TAMPINES PRIMARY SCHOOL,1.3504863946694,103.943573098509,103.943573098509,529426,TAMPINES STREET 12,AMP-MERCU STUDENT CARE CENTRE @ TAMPINES PRIMARY SCHOOL,40270.0982013792,36955.7182075791
252 TAMPINES STREET 12 TAMPINES SECONDARY SCHOOL SINGAPORE 529427,252,TAMPINES SECONDARY SCHOOL,1.34943480128048,103.943989096075,103.943989096075,529427,TAMPINES STREET 12,TAMPINES SECONDARY SCHOOL,40316.3994387519,36839.4402673114
13 TAMPINES STREET 11 DBS TAMPINES CHANGKAT COMMUNITY CLUB SINGAPORE 529453,13,DBS TAMPINES CHANGKAT COMMUNITY CLUB,1.34581334986486,103.947687828264,103.947687828264,529453,TAMPINES STREET 11,DBS TAMPINES CHANGKAT COMMUNITY CLUB,40728.0465900851,36439.0169080924
15 TAMPINES STREET 11 SINGAPORE 529454,15,NIL,1.34657936110091,103.949682105232,103.949682105232,529454,TAMPINES STREET 11,15 TAMPINES STREET 11 SINGAPORE 529454,40949.9840684496,36523.7291853763
20 TAMPINES STREET 11 CHURCH OF HOLY TRINITY KINDERGARTEN SINGAPORE 529455,20,CHURCH OF HOLY TRINITY KINDERGARTEN,1.34884145099795,103.949335256865,103.949335256865,529455,TAMPINES STREET 11,CHURCH OF HOLY TRINITY KINDERGARTEN,40911.3716859091,36773.8582032397
10 TAMPINES STREET 96 UNITED MEDICARE CENTRE (TAMPINES) SINGAPORE 529462,10,UNITED MEDICARE CENTRE (TAMPINES),1.33884792280438,103.938100964719,103.938100964719,529462,TAMPINES STREET 96,UNITED MEDICARE CENTRE (TAMPINES),39661.1652704841,35668.7663993854
5 TAMPINES CENTRAL 6 DBS TELEPARK BRANCH SINGAPORE 529482,5,DBS TELEPARK BRANCH,1.35351077725973,103.94211744564,103.94211744564,529482,TAMPINES CENTRAL 6,DBS TELEPARK BRANCH,40108.0850955704,37290.1323004048
2 TAMPINES CENTRAL 6 INCOME AT TAMPINES POINT SINGAPORE 529483,2,INCOME AT TAMPINES POINT,1.35277432657663,103.942499062268,103.942499062268,529483,TAMPINES CENTRAL 6,INCOME AT TAMPINES POINT,40150.5584318461,37208.701102823
492J TAMPINES STREET 45 TAMPINES GREENEDGE SINGAPORE 529492,492J,TAMPINES GREENEDGE,1.36457024948978,103.954914348044,103.954914348044,529492,TAMPINES STREET 45,TAMPINES GREENEDGE,41532.17629511,38513.1027365774
494J TAMPINES STREET 45 TAMPINES GREENEDGE SINGAPORE 529494,494J,TAMPINES GREENEDGE,1.36394578780556,103.954621464542,103.954621464542,529494,TAMPINES STREET 45,TAMPINES GREENEDGE,41499.5852436423,38444.0511443373
497K TAMPINES STREET 45 MULTI STOREY CAR PARK SINGAPORE 529497,497K,MULTI STOREY CAR PARK,1.35985911155549,103.959600064431,103.959600064431,529497,TAMPINES STREET 45,MULTI STOREY CAR PARK,42053.6694401717,37992.19470191
498M TAMPINES STREET 45 SINGAPORE 529498,498M,NIL,1.3618904823044,103.957741457309,103.957741457309,529498,TAMPINES STREET 45,498M TAMPINES STREET 45 SINGAPORE 529498,41846.8160417611,38216.8031179607
1 TAMPINES CENTRAL 5 CPF TAMPINES BUILDING SINGAPORE 529508,1,CPF TAMPINES BUILDING,1.35314990019028,103.943744757637,103.943744757637,529508,TAMPINES CENTRAL 5,CPF TAMPINES BUILDING,40289.1885819258,37250.2364645507
2 TAMPINES CENTRAL 5 CENTURY SQUARE SINGAPORE 529509,2,CENTURY SQUARE,1.35236113143548,103.943784812431,103.943784812431,529509,TAMPINES CENTRAL 5,CENTURY SQUARE,40293.650203797,37163.0184825026
4 TAMPINES CENTRAL 5 GOLDEN VILLAGE (GV TAMPINES) SINGAPORE 529510,4,GOLDEN VILLAGE (GV TAMPINES),1.35250468330971,103.944682574769,103.944682574769,529510,TAMPINES CENTRAL 5,GOLDEN VILLAGE (GV TAMPINES),40393.5604594583,37178.8963100612
20A TAMPINES NORTH DRIVE 2 TEMPORARY BUS INTERCHANGE SINGAPORE 529511,20A,TEMPORARY BUS INTERCHANGE,1.36843622184598,103.939502581269,103.939502581269,529511,TAMPINES NORTH DRIVE 2,TEMPORARY BUS INTERCHANGE,39817.0072489679,38940.5018309262
10 TAMPINES CENTRAL 1 DBS TAMPINES 1 SINGAPORE 529536,10,DBS TAMPINES 1,1.35432321225804,103.945141172369,103.945141172369,529536,TAMPINES CENTRAL 1,DBS TAMPINES 1,40444.5880122203,37379.9826889988
12 TAMPINES CENTRAL 1 TAMPINES ONE SINGAPORE 529537,12,TAMPINES ONE,1.35425637962115,103.945071748027,103.945071748027,529537,TAMPINES CENTRAL 1,TAMPINES ONE,40436.8622001801,37372.5923067536
20 TAMPINES CENTRAL 1 SINGAPORE 529538,20,NIL,1.35369188683393,103.945042729998,103.945042729998,529538,TAMPINES CENTRAL 1,20 TAMPINES CENTRAL 1 SINGAPORE 529538,40433.6356936516,37310.1733075157
1 TAMPINES CENTRAL 1 UOB TAMPINES BRANCH SINGAPORE 529539,1,UOB TAMPINES BRANCH,1.35215248961094,103.942836203396,103.942836203396,529539,TAMPINES CENTRAL 1,UOB TAMPINES BRANCH,40188.0815907242,37139.9431100227
3 TAMPINES CENTRAL 1 CHILDFIRST@TAMPINES PTE. LTD. SINGAPORE 529540,3,CHILDFIRST@TAMPINES PTE. LTD.,1.35264347882967,103.942942106476,103.942942106476,529540,TAMPINES CENTRAL 1,CHILDFIRST@TAMPINES PTE. LTD.,40199.8649773216,37194.2348226849
5 TAMPINES CENTRAL 1 LEARNING KIDZ ACADEMY PTE. LTD. SINGAPORE 529541,5,LEARNING KIDZ ACADEMY PTE. LTD.,1.35316637447594,103.942688326666,103.942688326666,529541,TAMPINES CENTRAL 1,LEARNING KIDZ ACADEMY PTE. LTD.,40171.6195002757,37252.0527857188
11 TAMPINES CENTRAL 1 OCBC TAMPINES CENTRE ONE SINGAPORE 529542,11,OCBC TAMPINES CENTRE ONE,1.35461486609041,103.942178650231,103.942178650231,529542,TAMPINES CENTRAL 1,OCBC TAMPINES CENTRE ONE,40114.891003049,37412.2173349578
8 TAMPINES CENTRAL 1 EASTLINK MALL SINGAPORE 529543,8,EASTLINK MALL,1.35432969724504,103.944318613417,103.944318613417,529543,TAMPINES CENTRAL 1,EASTLINK MALL,40353.0463697687,37380.6955605503
15 TAMPINES CENTRAL 1 SINGAPORE 529544,15,NIL,1.35482057441915,103.943733773824,103.943733773824,529544,TAMPINES CENTRAL 1,15 TAMPINES CENTRAL 1 SINGAPORE 529544,40287.9577949038,37434.9713825211
1 TAMPINES INDUSTRIAL CRESCENT SINGAPORE 529555,1,NIL,1.37366813643682,103.927769727452,103.927769727452,529555,TAMPINES INDUSTRIAL CRESCENT,1 TAMPINES INDUSTRIAL CRESCENT SINGAPORE 529555,38511.257116003,39518.9665251244
3 TAMPINES INDUSTRIAL CRESCENT SINGAPORE 529556,3,NIL,1.37464020958138,103.928100875406,103.928100875406,529556,TAMPINES INDUSTRIAL CRESCENT,3 TAMPINES INDUSTRIAL CRESCENT SINGAPORE 529556,38548.105601524,39626.4550364036
2 TAMPINES AVENUE 9 SINGAPORE 529564,2,NIL,1.35728017255861,103.956185936394,103.956185936394,529564,TAMPINES AVENUE 9,2 TAMPINES AVENUE 9 SINGAPORE 529564,41673.7303626854,37707.0085183382
30 TAMPINES AVENUE 9 BIG HEART STUDENT CARE (TAMPINES NORTH PRIMARY SCHOOL) SINGAPORE 529565,30,BIG HEART STUDENT CARE (TAMPINES NORTH PRIMARY SCHOOL),1.36048786025607,103.948768900518,103.948768900518,529565,TAMPINES AVENUE 9,BIG HEART STUDENT CARE (TAMPINES NORTH PRIMARY SCHOOL),40848.2810703805,38061.6583322138
40 TAMPINES AVENUE 9 CITIBANK ESSO TAMPINES AVENUE 9 SINGAPORE 529568,40,CITIBANK ESSO TAMPINES AVENUE 9,1.36053918721229,103.947713076911,103.947713076911,529568,TAMPINES AVENUE 9,CITIBANK ESSO TAMPINES AVENUE 9,40730.7797284788,38067.3282217272
30 TAMPINES AVENUE 8 SPRINGFIELD SECONDARY SCHOOL SINGAPORE 529593,30,SPRINGFIELD SECONDARY SCHOOL,1.34957563160043,103.930218334123,103.930218334123,529593,TAMPINES AVENUE 8,SPRINGFIELD SECONDARY SCHOOL,38783.8643795615,36854.9472212661
1 TAMPINES AVENUE 8 CALTEX TAMPINES SINGAPORE 529594,1,CALTEX TAMPINES,1.34938077931495,103.928437816208,103.928437816208,529594,TAMPINES AVENUE 8,CALTEX TAMPINES,38585.7132080765,36833.3936019372
3 TAMPINES AVENUE 8 ARC AT TAMPINES SINGAPORE 529595,3,ARC AT TAMPINES,1.34972244708859,103.927836018905,103.927836018905,529595,TAMPINES AVENUE 8,ARC AT TAMPINES,38518.7383324662,36871.1709210742
5 TAMPINES AVENUE 8 ARC AT TAMPINES SINGAPORE 529596,5,ARC AT TAMPINES,1.35004385775605,103.927857503318,103.927857503318,529596,TAMPINES AVENUE 8,ARC AT TAMPINES,38521.1279292451,36906.711012464
7 TAMPINES AVENUE 8 ARC AT TAMPINES SINGAPORE 529597,7,ARC AT TAMPINES,1.35036377421548,103.928204610008,103.928204610008,529597,TAMPINES AVENUE 8,ARC AT TAMPINES,38559.7556879213,36942.0872935243
9 TAMPINES AVENUE 8 ARC AT TAMPINES SINGAPORE 529598,9,ARC AT TAMPINES,1.35052732645165,103.928272309692,103.928272309692,529598,TAMPINES AVENUE 8,ARC AT TAMPINES,38567.2892074604,36960.1723835282
11 TAMPINES AVENUE 8 ARC AT TAMPINES SINGAPORE 529599,11,ARC AT TAMPINES,1.35084873710848,103.928293794448,103.928293794448,529599,TAMPINES AVENUE 8,ARC AT TAMPINES,38569.6788345063,36995.7124749161
13 TAMPINES AVENUE 8 ARC AT TAMPINES SINGAPORE 529600,13,ARC AT TAMPINES,1.35053960126768,103.928533958996,103.928533958996,529600,TAMPINES AVENUE 8,ARC AT TAMPINES,38596.4078250322,36961.5308106374
15 TAMPINES AVENUE 8 ARC AT TAMPINES SINGAPORE 529601,15,ARC AT TAMPINES,1.35001719791303,103.928428014963,103.928428014963,529601,TAMPINES AVENUE 8,ARC AT TAMPINES,38584.6196863614,36903.765574431
17 TAMPINES AVENUE 8 ARC AT TAMPINES SINGAPORE 529602,17,ARC AT TAMPINES,1.35028058315976,103.928571195021,103.928571195021,529602,TAMPINES AVENUE 8,ARC AT TAMPINES,38600.5529043302,36932.8900337238
19 TAMPINES AVENUE 8 ARC AT TAMPINES SINGAPORE 529603,19,ARC AT TAMPINES,1.35062421089775,103.928797244614,103.928797244614,529603,TAMPINES AVENUE 8,ARC AT TAMPINES,38625.7082321132,36970.8876735158
21 TAMPINES AVENUE 8 ARC AT TAMPINES SINGAPORE 529604,21,ARC AT TAMPINES,1.35047987995738,103.929060243059,103.929060243059,529604,TAMPINES AVENUE 8,ARC AT TAMPINES,38654.9776750477,36954.9294239245
23 TAMPINES AVENUE 8 ARC AT TAMPINES SINGAPORE 529605,23,ARC AT TAMPINES,1.34995873651748,103.928672966177,103.928672966177,529605,TAMPINES AVENUE 8,ARC AT TAMPINES,38611.8803037526,36897.3022702597
9 TAMPINES AVENUE 7 DBS EXXONMOBIL TAMPINES AVENUE 7 SINGAPORE 529619,9,DBS EXXONMOBIL TAMPINES AVENUE 7,1.35752205094731,103.959010521961,103.959010521961,529619,TAMPINES AVENUE 7,DBS EXXONMOBIL TAMPINES AVENUE 7,41988.0735133635,37733.7704101615
31 TAMPINES AVENUE 7 SINGAPORE 529620,31,NIL,1.35630994075453,103.944528275517,103.944528275517,529620,TAMPINES AVENUE 7,31 TAMPINES AVENUE 7 SINGAPORE 529620,40376.369364622,37599.6622665804
30 TAMPINES AVENUE 7 SINGAPORE 529621,30,NIL,1.35702402709338,103.944138231918,103.944138231918,529621,TAMPINES AVENUE 7,30 TAMPINES AVENUE 7 SINGAPORE 529621,40332.9582959432,37678.6204488203
31A TAMPINES AVENUE 7 TEMPORARY SITE OFFICE SINGAPORE 529622,31A,TEMPORARY SITE OFFICE,1.35687471737229,103.942316634882,103.942316634882,529622,TAMPINES AVENUE 7,TEMPORARY SITE OFFICE,40130.2359022181,37662.1013032235
20 TAMPINES AVENUE 7 SINGAPORE 529623,20,NIL,1.3564470487275,103.954542098775,103.954542098775,529623,TAMPINES AVENUE 7,20 TAMPINES AVENUE 7 SINGAPORE 529623,41490.7943920596,37614.876498865
200 TAMPINES AVENUE 5 TAMPINES TELEPHONE EXCHANGE SINGAPORE 529647,200,TAMPINES TELEPHONE EXCHANGE,1.34743606069948,103.942843465511,103.942843465511,529647,TAMPINES AVENUE 5,TAMPINES TELEPHONE EXCHANGE,40188.9132641125,36618.4235712793
503 TAMPINES AVENUE 5 DARUL GHUFRAN MOSQUE KINDERGARTEN SINGAPORE 529651,503,DARUL GHUFRAN MOSQUE KINDERGARTEN,1.35528065111508,103.93993380532,103.93993380532,529651,TAMPINES AVENUE 5,DARUL GHUFRAN MOSQUE KINDERGARTEN,39865.0616987608,37485.8254694678
300 TAMPINES AVENUE 5 INCOME AT TAMPINES JUNCTION SINGAPORE 529653,300,INCOME AT TAMPINES JUNCTION,1.35228537970484,103.941961203288,103.941961203288,529653,TAMPINES AVENUE 5,INCOME AT TAMPINES JUNCTION,40090.7031308291,37154.6330705602
11 TAMPINES AVENUE 5 SINGAPORE 529654,11,NIL,1.34379011678899,103.945608892554,103.945608892554,529654,TAMPINES AVENUE 5,11 TAMPINES AVENUE 5 SINGAPORE 529654,40496.6937710978,36215.286959732
10 TAMPINES AVENUE 4 SPC TAMPINES SINGAPORE 529679,10,SPC TAMPINES,1.34862587970743,103.93856675098,103.93856675098,529679,TAMPINES AVENUE 4,SPC TAMPINES,39712.9558185786,36749.9669269919
31 TAMPINES AVENUE 4 OCBC OCBC TAMPINES CENTRE TWO SINGAPORE 529680,31,OCBC OCBC TAMPINES CENTRE TWO,1.35221579377494,103.94240127802,103.94240127802,529680,TAMPINES AVENUE 4,OCBC OCBC TAMPINES CENTRE TWO,40139.6789077781,37146.9407954477
70 TAMPINES AVENUE 4 KHENG CHIU HAPPY LODGE SINGAPORE 529681,70,KHENG CHIU HAPPY LODGE,1.35632292767125,103.946663768151,103.946663768151,529681,TAMPINES AVENUE 4,KHENG CHIU HAPPY LODGE,40614.025551755,37601.1093183458
6 TAMPINES AVENUE 4 TAMPINES NEIGHBOURHOOD POLICE CENTRE SINGAPORE 529682,6,TAMPINES NEIGHBOURHOOD POLICE CENTRE,1.34626377162625,103.938708002361,103.938708002361,529682,TAMPINES AVENUE 4,TAMPINES NEIGHBOURHOOD POLICE CENTRE,39728.6868464164,36488.7773219831
2 TAMPINES AVENUE 4 SINGAPORE 529683,2,NIL,1.34495328242502,103.939408365081,103.939408365081,529683,TAMPINES AVENUE 4,2 TAMPINES AVENUE 4 SINGAPORE 529683,39806.6359243477,36343.8732545059
5 TAMPINES AVENUE 3 TAMPINES WEST COMMUNITY CLUB SINGAPORE 529705,5,TAMPINES WEST COMMUNITY CLUB,1.34875076622761,103.935633400306,103.935633400306,529705,TAMPINES AVENUE 3,TAMPINES WEST COMMUNITY CLUB,39386.5054441458,36763.762347538
2 TAMPINES AVENUE 3 CHAPEL OF CHRIST THE REDEEMER SINGAPORE 529706,2,CHAPEL OF CHRIST THE REDEEMER,1.34967978969837,103.937016363397,103.937016363397,529706,TAMPINES AVENUE 3,CHAPEL OF CHRIST THE REDEEMER,39540.4096965808,36866.4956980404
1 TAMPINES AVENUE 3 JAMIYAH HOME FOR THE AGED (DARUL TAKRIM) SINGAPORE 529707,1,JAMIYAH HOME FOR THE AGED (DARUL TAKRIM),1.34838745731639,103.937633223789,103.937633223789,529707,TAMPINES AVENUE 3,JAMIYAH HOME FOR THE AGED (DARUL TAKRIM),39609.0655954713,36723.5988821723
9 TAMPINES AVENUE 2 SHELL TAMPINES AVENUE 2 SINGAPORE 529731,9,SHELL TAMPINES AVENUE 2,1.34920877476564,103.947630237068,103.947630237068,529731,TAMPINES AVENUE 2,SHELL TAMPINES AVENUE 2,40721.6196982982,36814.4660934098
21 TAMPINES AVENUE 1 DBS TEMASEK POLYTECHNIC SINGAPORE 529757,21,DBS TEMASEK POLYTECHNIC,1.34594607020383,103.932631490034,103.932631490034,529757,TAMPINES AVENUE 1,DBS TEMASEK POLYTECHNIC,39052.4384040218,36453.6190914772
41 TAMPINES AVENUE 1 GLOCAL CONNECT VILLAGE SINGAPORE 529761,41,GLOCAL CONNECT VILLAGE,1.34801911468352,103.929230619175,103.929230619175,529761,TAMPINES AVENUE 1,GLOCAL CONNECT VILLAGE,38673.9493748304,36682.8309349045
43 TAMPINES AVENUE 1 GLOCAL CONNECT VILLAGE SINGAPORE 529762,43,GLOCAL CONNECT VILLAGE,1.34801888284891,103.928523030908,103.928523030908,529762,TAMPINES AVENUE 1,GLOCAL CONNECT VILLAGE,38595.2025539204,36682.802210588
45 TAMPINES AVENUE 1 BRIGHT JUNIORS PTE. LTD. SINGAPORE 529763,45,BRIGHT JUNIORS PTE. LTD.,1.34739997132907,103.92817074814,103.92817074814,529763,TAMPINES AVENUE 1,BRIGHT JUNIORS PTE. LTD.,38556.0000062333,36614.3645135909
23A TAMPINES AVENUE 1 TEMASEK POLYTECHNIC (4 SCHOOL OF INFORMATICS & IT) SINGAPORE 529764,23A,TEMASEK POLYTECHNIC (4 SCHOOL OF INFORMATICS & IT),1.34499644226206,103.934075693105,103.934075693105,529764,TAMPINES AVENUE 1,TEMASEK POLYTECHNIC (4 SCHOOL OF INFORMATICS & IT),39213.1668760655,36348.6205153409
25A TAMPINES AVENUE 1 TEMASEK POLYTECHNIC (26 SCHOOL OF BUSINESS) SINGAPORE 529765,25A,TEMASEK POLYTECHNIC (26 SCHOOL OF BUSINESS),1.34414512457045,103.933351066694,103.933351066694,529765,TAMPINES AVENUE 1,TEMASEK POLYTECHNIC (26 SCHOOL OF BUSINESS),39132.5276402775,36254.4826971218
27A TAMPINES AVENUE 1 TEMASEK POLYTECHNIC (30 BISTRO LAB) SINGAPORE 529766,27A,TEMASEK POLYTECHNIC (30 BISTRO LAB),1.3439340118186,103.932037164369,103.932037164369,529766,TAMPINES AVENUE 1,TEMASEK POLYTECHNIC (30 BISTRO LAB),38986.3054021094,36231.1329453718
29A TAMPINES AVENUE 1 TEMASEK POLYTECHNIC (28 SCHOOL OF DESIGN) SINGAPORE 529767,29A,TEMASEK POLYTECHNIC (28 SCHOOL OF DESIGN),1.34521444590076,103.931639074244,103.931639074244,529767,TAMPINES AVENUE 1,TEMASEK POLYTECHNIC (28 SCHOOL OF DESIGN),38941.9965547659,36372.715222707
31A TAMPINES AVENUE 1 TEMASEK POLYTECHNIC (17 SCHOOL OF ENGINEERING) SINGAPORE 529768,31A,TEMASEK POLYTECHNIC (17 SCHOOL OF ENGINEERING),1.34612071791365,103.931311086976,103.931311086976,529768,TAMPINES AVENUE 1,TEMASEK POLYTECHNIC (17 SCHOOL OF ENGINEERING),38905.4910963038,36472.9248287268
33A TAMPINES AVENUE 1 TEMASEK POLYTECHNIC (25 SCHOOL OF ENGINEERING) SINGAPORE 529769,33A,TEMASEK POLYTECHNIC (25 SCHOOL OF ENGINEERING),1.34668096797526,103.930266639617,103.930266639617,529769,TAMPINES AVENUE 1,TEMASEK POLYTECHNIC (25 SCHOOL OF ENGINEERING),38789.2529887026,36534.8698616084
35A TAMPINES AVENUE 1 TEMASEK POLYTECHNIC SINGAPORE 529770,35A,TEMASEK POLYTECHNIC,1.34675551907395,103.929081571971,103.929081571971,529770,TAMPINES AVENUE 1,TEMASEK POLYTECHNIC,38657.3675442385,36543.1081408802
51 TAMPINES AVENUE 1 THE TROPICA SINGAPORE 529771,51,THE TROPICA,1.34887103413167,103.927857518694,103.927857518694,529771,TAMPINES AVENUE 1,THE TROPICA,38521.1346790055,36777.0259898789
53 TAMPINES AVENUE 1 THE TROPICA SINGAPORE 529772,53,THE TROPICA,1.34828713349093,103.928051188204,103.928051188204,529772,TAMPINES AVENUE 1,THE TROPICA,38542.6904776292,36712.46198944
55 TAMPINES AVENUE 1 THE TROPICA SINGAPORE 529773,55,THE TROPICA,1.34790595042399,103.927935976278,103.927935976278,529773,TAMPINES AVENUE 1,THE TROPICA,38529.870291518,36670.3121573739
57 TAMPINES AVENUE 1 THE TROPICA SINGAPORE 529774,57,THE TROPICA,1.34729956147146,103.927458323167,103.927458323167,529774,TAMPINES AVENUE 1,THE TROPICA,38476.7153232526,36603.258615274
59 TAMPINES AVENUE 1 THE TROPICA SINGAPORE 529775,59,THE TROPICA,1.34763166587132,103.927280396793,103.927280396793,529775,TAMPINES AVENUE 1,THE TROPICA,38456.9126462452,36639.9803082123
61 TAMPINES AVENUE 1 THE TROPICA SINGAPORE 529776,61,THE TROPICA,1.34763379566202,103.926880680404,103.926880680404,529776,TAMPINES AVENUE 1,THE TROPICA,38412.4285775442,36640.2140981182
63 TAMPINES AVENUE 1 THE TROPICA SINGAPORE 529777,63,THE TROPICA,1.34825218473014,103.927052077934,103.927052077934,529777,TAMPINES AVENUE 1,THE TROPICA,38431.5006156918,36708.593226565
65 TAMPINES AVENUE 1 THE TROPICA SINGAPORE 529778,65,THE TROPICA,1.34873049718364,103.927265815014,103.927265815014,529778,TAMPINES AVENUE 1,THE TROPICA,38455.2851670291,36761.4835618492
71 TAMPINES AVENUE 1 WATERVIEW SINGAPORE 529779,71,WATERVIEW,1.34856753039649,103.926675325727,103.926675325727,529779,TAMPINES AVENUE 1,WATERVIEW,38389.5708924038,36743.4609752316
73 TAMPINES AVENUE 1 WATERVIEW SINGAPORE 529780,73,WATERVIEW,1.34880158570362,103.926766346112,103.926766346112,529780,TAMPINES AVENUE 1,WATERVIEW,38399.699467795,36769.3420384619
75 TAMPINES AVENUE 1 WATERVIEW SINGAPORE 529781,75,WATERVIEW,1.3483537809376,103.92653905661,103.92653905661,529781,TAMPINES AVENUE 1,WATERVIEW,38374.4065417582,36719.8250396941
77 TAMPINES AVENUE 1 WATERVIEW SINGAPORE 529782,77,WATERVIEW,1.34793724474343,103.926272632348,103.926272632348,529782,TAMPINES AVENUE 1,WATERVIEW,38344.7582042031,36673.765401369
1 TAMPINES AVENUE SINGAPORE 529783,1,NIL,1.36708124054463,103.92830738029,103.92830738029,529783,TAMPINES AVENUE,1 TAMPINES AVENUE SINGAPORE 529783,38571.1202261597,38790.6224636249
3 TAMPINES AVENUE SINGAPORE 529784,3,NIL,1.36693803761957,103.928081656228,103.928081656228,529784,TAMPINES AVENUE,3 TAMPINES AVENUE SINGAPORE 529784,38546.0004329886,38774.7867993694
7 TAMPINES AVENUE KEW SIAN KING TEMPLE SINGAPORE 529786,7,KEW SIAN KING TEMPLE,1.36676451834012,103.927666921239,103.927666921239,529786,TAMPINES AVENUE,KEW SIAN KING TEMPLE,38499.8460861417,38755.5980781429
15 TAMPINES AVENUE SINGAPORE 529788,15,NIL,1.36657919300991,103.926572151727,103.926572151727,529788,TAMPINES AVENUE,15 TAMPINES AVENUE SINGAPORE 529788,38378.0119731743,38735.100962786
15A TAMPINES AVENUE SINGAPORE 529789,15A,NIL,1.36657919328363,103.926572151999,103.926572151999,529789,TAMPINES AVENUE,15A TAMPINES AVENUE SINGAPORE 529789,38378.0120034423,38735.100993054
15B TAMPINES AVENUE SINGAPORE 529790,15B,NIL,1.36655380838236,103.926496214922,103.926496214922,529790,TAMPINES AVENUE,15B TAMPINES AVENUE SINGAPORE 529790,38369.5612126561,38732.2937283684
15C TAMPINES AVENUE SINGAPORE 529791,15C,NIL,1.36655380810863,103.926496214922,103.926496214922,529791,TAMPINES AVENUE,15C TAMPINES AVENUE SINGAPORE 529791,38369.5612126561,38732.2936981004
17 TAMPINES AVENUE SINGAPORE 529792,17,NIL,1.36653134392421,103.926413416217,103.926413416217,529792,TAMPINES AVENUE,17 TAMPINES AVENUE SINGAPORE 529792,38360.3467909088,38729.8093625326
17A TAMPINES AVENUE SINGAPORE 529793,17A,NIL,1.36653134419792,103.926413416217,103.926413416217,529793,TAMPINES AVENUE,17A TAMPINES AVENUE SINGAPORE 529793,38360.3467909088,38729.8093928006
17B TAMPINES AVENUE SINGAPORE 529794,17B,NIL,1.36651857012869,103.926351993212,103.926351993212,529794,TAMPINES AVENUE,17B TAMPINES AVENUE SINGAPORE 529794,38353.5111905383,38728.3966346607
17C TAMPINES AVENUE SINGAPORE 529795,17C,NIL,1.36651856985496,103.926351993212,103.926351993212,529795,TAMPINES AVENUE,17C TAMPINES AVENUE SINGAPORE 529795,38353.5111905383,38728.3966043927
19 TAMPINES AVENUE SINGAPORE 529798,19,NIL,1.36649836549873,103.926271813204,103.926271813204,529798,TAMPINES AVENUE,19 TAMPINES AVENUE SINGAPORE 529798,38344.5881889388,38726.1621612981
19A TAMPINES AVENUE SINGAPORE 529799,19A,NIL,1.36649836577246,103.926271813204,103.926271813204,529799,TAMPINES AVENUE,19A TAMPINES AVENUE SINGAPORE 529799,38344.5881889388,38726.1621915661
19B TAMPINES AVENUE SINGAPORE 529800,19B,NIL,1.36648153938595,103.926209821609,103.926209821609,529800,TAMPINES AVENUE,19B TAMPINES AVENUE SINGAPORE 529800,38337.6893284814,38724.3013461959
19C TAMPINES AVENUE SINGAPORE 529801,19C,NIL,1.3664815388385,103.926209821337,103.926209821337,529801,TAMPINES AVENUE,19C TAMPINES AVENUE SINGAPORE 529801,38337.6892982135,38724.3012856599
21 TAMPINES AVENUE SINGAPORE 529802,21,NIL,1.36646122832224,103.92612827518,103.92612827518,529802,TAMPINES AVENUE,21 TAMPINES AVENUE SINGAPORE 529802,38328.614260532,38722.0550985876
21A TAMPINES AVENUE SINGAPORE 529803,21A,NIL,1.36646122832223,103.926128275452,103.926128275452,529803,TAMPINES AVENUE,21A TAMPINES AVENUE SINGAPORE 529803,38328.6142907999,38722.0550985876
21B TAMPINES AVENUE SINGAPORE 529804,21B,NIL,1.36644646508851,103.92606538369,103.92606538369,529804,TAMPINES AVENUE,21B TAMPINES AVENUE SINGAPORE 529804,38321.6152433166,38720.4223830104
21C TAMPINES AVENUE SINGAPORE 529805,21C,NIL,1.36644646536224,103.926065383418,103.926065383418,529805,TAMPINES AVENUE,21C TAMPINES AVENUE SINGAPORE 529805,38321.6152130486,38720.4224132784
23 TAMPINES AVENUE SINGAPORE 529806,23,NIL,1.36642522887312,103.925982053864,103.925982053864,529806,TAMPINES AVENUE,23 TAMPINES AVENUE SINGAPORE 529806,38312.3417081973,38718.0738296174
23A TAMPINES AVENUE SINGAPORE 529807,23A,NIL,1.36642522859937,103.925982053864,103.925982053864,529807,TAMPINES AVENUE,23A TAMPINES AVENUE SINGAPORE 529807,38312.3417081973,38718.0737993494
1 SIMEI STREET 4 SIMEI GREEN CONDOMINIUM SINGAPORE 529861,1,SIMEI GREEN CONDOMINIUM,1.34169538178112,103.958080755214,103.958080755214,529861,SIMEI STREET 4,SIMEI GREEN CONDOMINIUM,41884.6907027345,35983.7286514025
3 SIMEI STREET 4 SIMEI GREEN CONDOMINIUM SINGAPORE 529862,3,SIMEI GREEN CONDOMINIUM,1.34115993172971,103.958372763733,103.958372763733,529862,SIMEI STREET 4,SIMEI GREEN CONDOMINIUM,41917.1911923951,35924.5228407811
5 SIMEI STREET 4 SIMEI GREEN CONDOMINIUM SINGAPORE 529863,5,SIMEI GREEN CONDOMINIUM,1.34077009369773,103.958714437591,103.958714437591,529863,SIMEI STREET 4,SIMEI GREEN CONDOMINIUM,41955.2181013264,35881.4183867779
7 SIMEI STREET 4 SIMEI GREEN CONDOMINIUM SINGAPORE 529864,7,SIMEI GREEN CONDOMINIUM,1.34045561413094,103.958167772107,103.958167772107,529864,SIMEI STREET 4,SIMEI GREEN CONDOMINIUM,41894.3817544207,35846.6416539364
9 SIMEI STREET 4 SIMEI GREEN CONDOMINIUM SINGAPORE 529865,9,SIMEI GREEN CONDOMINIUM,1.34021029622703,103.957823457057,103.957823457057,529865,SIMEI STREET 4,SIMEI GREEN CONDOMINIUM,41856.064484722,35819.5136405826
11 SIMEI STREET 4 SIMEI GREEN CONDOMINIUM SINGAPORE 529866,11,SIMEI GREEN CONDOMINIUM,1.34075078640584,103.957634141173,103.957634141173,529866,SIMEI STREET 4,SIMEI GREEN CONDOMINIUM,41834.9925803533,35879.2773506809
13 SIMEI STREET 4 SIMEI GREEN CONDOMINIUM SINGAPORE 529867,13,SIMEI GREEN CONDOMINIUM,1.34101835118292,103.958152953209,103.958152953209,529867,SIMEI STREET 4,SIMEI GREEN CONDOMINIUM,41892.729394922,35908.8663024511
15 SIMEI STREET 4 SIMEI GREEN CONDOMINIUM SINGAPORE 529868,15,SIMEI GREEN CONDOMINIUM,1.34111322619373,103.957795806877,103.957795806877,529868,SIMEI STREET 4,SIMEI GREEN CONDOMINIUM,41852.9822354037,35919.3550971169
35 SIMEI STREET 4 MODENA SINGAPORE 529869,35,MODENA,1.34274226649806,103.954892442215,103.954892442215,529869,SIMEI STREET 4,MODENA,41529.8594020288,36099.4702127315
37 SIMEI STREET 4 MODENA SINGAPORE 529870,37,MODENA,1.34205685853415,103.954736264288,103.954736264288,529870,SIMEI STREET 4,MODENA,41512.482219629,36023.6802711505
39 SIMEI STREET 4 MODENA SINGAPORE 529871,39,MODENA,1.34263899267795,103.954609750422,103.954609750422,529871,SIMEI STREET 4,MODENA,41498.399374309,36088.0491339006
41 SIMEI STREET 4 MODENA SINGAPORE 529872,41,MODENA,1.3422046240059,103.954486744176,103.954486744176,529872,SIMEI STREET 4,MODENA,41484.7124644835,36040.018081259
25 SIMEI STREET 4 TROPICAL SPRING SINGAPORE 529874,25,TROPICAL SPRING,1.34121133684654,103.955406893353,103.955406893353,529874,SIMEI STREET 4,TROPICAL SPRING,41587.1207973771,35930.1903088558
27 SIMEI STREET 4 TROPICAL SPRING SINGAPORE 529875,27,TROPICAL SPRING,1.34121133684654,103.955406893353,103.955406893353,529875,SIMEI STREET 4,TROPICAL SPRING,41587.1207973771,35930.1903088558
29 SIMEI STREET 4 TROPICAL SPRING SINGAPORE 529876,29,TROPICAL SPRING,1.34121133684654,103.955406893353,103.955406893353,529876,SIMEI STREET 4,TROPICAL SPRING,41587.1207973771,35930.1903088558
31 SIMEI STREET 4 TROPICAL SPRING SINGAPORE 529877,31,TROPICAL SPRING,1.34121133684654,103.955406893353,103.955406893353,529877,SIMEI STREET 4,TROPICAL SPRING,41587.1207973771,35930.1903088558
33 SIMEI STREET 4 TROPICAL SPRING SINGAPORE 529878,33,TROPICAL SPRING,1.34121133684654,103.955406893353,103.955406893353,529878,SIMEI STREET 4,TROPICAL SPRING,41587.1207973771,35930.1903088558
33A SIMEI STREET 4 TROPICAL SPRING SINGAPORE 529879,33A,TROPICAL SPRING,1.34139834001891,103.955151180798,103.955151180798,529879,SIMEI STREET 4,TROPICAL SPRING,41558.6616586344,35950.8667922858
23 SIMEI STREET 4 TROPICAL SPRING SINGAPORE 529880,23,TROPICAL SPRING,1.34145315588587,103.955676936598,103.955676936598,529880,SIMEI STREET 4,TROPICAL SPRING,41617.1724255467,35956.9309828226
17 SIMEI STREET 4 DOUBLE BAY RESIDENCES SINGAPORE 529881,17,DOUBLE BAY RESIDENCES,1.34120980441122,103.956288849924,103.956288849924,529881,SIMEI STREET 4,DOUBLE BAY RESIDENCES,41685.2732701516,35930.0257720966
17A SIMEI STREET 4 DOUBLE BAY RESIDENCES SINGAPORE 529882,17A,DOUBLE BAY RESIDENCES,1.3411205048069,103.956092310133,103.956092310133,529882,SIMEI STREET 4,DOUBLE BAY RESIDENCES,41663.4009592216,35920.1503581218
17B SIMEI STREET 4 DOUBLE BAY RESIDENCES SINGAPORE 529883,17B,DOUBLE BAY RESIDENCES,1.34103993404482,103.955856050702,103.955856050702,529883,SIMEI STREET 4,DOUBLE BAY RESIDENCES,41637.1082211463,35911.2399177346
17C SIMEI STREET 4 DOUBLE BAY RESIDENCES SINGAPORE 529884,17C,DOUBLE BAY RESIDENCES,1.34085887211736,103.955765092351,103.955765092351,529884,SIMEI STREET 4,DOUBLE BAY RESIDENCES,41626.9865165865,35891.2184637412
19 SIMEI STREET 4 DOUBLE BAY RESIDENCES SINGAPORE 529885,19,DOUBLE BAY RESIDENCES,1.34054665688787,103.956015721063,103.956015721063,529885,SIMEI STREET 4,DOUBLE BAY RESIDENCES,41654.880582341,35856.6966175921
19A SIMEI STREET 4 DOUBLE BAY RESIDENCES SINGAPORE 529886,19A,DOUBLE BAY RESIDENCES,1.34070637520337,103.95623977162,103.95623977162,529886,SIMEI STREET 4,DOUBLE BAY RESIDENCES,41679.8141668765,35874.3587427903
30 SIMEI STREET 3 CITIBANK SIMEI SMRT STATION SINGAPORE 529888,30,CITIBANK SIMEI SMRT STATION,1.34320821107717,103.95328573703,103.95328573703,529888,SIMEI STREET 3,CITIBANK SIMEI SMRT STATION,41351.0476560602,36150.9832639527
2 SIMEI STREET 3 CHANGI GENERAL HOSPITAL SINGAPORE 529889,2,CHANGI GENERAL HOSPITAL,1.34069006688175,103.949352499034,103.949352499034,529889,SIMEI STREET 3,CHANGI GENERAL HOSPITAL,40913.3333842019,35872.5180558972
1 SIMEI STREET 3 EASTPOINT GREEN SINGAPORE 529890,1,EASTPOINT GREEN,1.33954520418255,103.951022111706,103.951022111706,529890,SIMEI STREET 3,EASTPOINT GREEN,41099.1497469619,35745.9335947614
3 SIMEI STREET 3 EASTPOINT GREEN SINGAPORE 529891,3,EASTPOINT GREEN,1.33897480949132,103.951514766597,103.951514766597,529891,SIMEI STREET 3,EASTPOINT GREEN,41153.9801086616,35682.864772182
5 SIMEI STREET 3 EASTPOINT GREEN SINGAPORE 529892,5,EASTPOINT GREEN,1.33853568002535,103.950343411512,103.950343411512,529892,SIMEI STREET 3,EASTPOINT GREEN,41023.622864427,35634.3017294575
7 SIMEI STREET 3 EASTPOINT GREEN SINGAPORE 529893,7,EASTPOINT GREEN,1.33893432119706,103.950329437019,103.950329437019,529893,SIMEI STREET 3,EASTPOINT GREEN,41022.0655463971,35678.3814481646
23 SIMEI STREET 3 CHANGKAT CHANGI SECONDARY SCHOOL SINGAPORE 529894,23,CHANGKAT CHANGI SECONDARY SCHOOL,1.34036113973242,103.952725093811,103.952725093811,529894,SIMEI STREET 3,CHANGKAT CHANGI SECONDARY SCHOOL,41288.6693975292,35836.1649361979
8 SIMEI STREET 3 SAINT ANDREW'S COMMUNITY CHAPEL SINGAPORE 529895,8,SAINT ANDREW'S COMMUNITY CHAPEL,1.34173365597121,103.948866250385,103.948866250385,529895,SIMEI STREET 3,SAINT ANDREW'S COMMUNITY CHAPEL,40859.2135936879,35987.9104760326
11 SIMEI STREET 3 CHANGKAT PRIMARY SCHOOL SINGAPORE 529896,11,CHANGKAT PRIMARY SCHOOL,1.34020800809178,103.952183401477,103.952183401477,529896,SIMEI STREET 3,CHANGKAT PRIMARY SCHOOL,41228.3855623985,35819.2294544838
10 SIMEI STREET 3 ANGLICAN CARE CENTRE (SIMEI) SINGAPORE 529897,10,ANGLICAN CARE CENTRE (SIMEI),1.34205526362447,103.949180968567,103.949180968567,529897,SIMEI STREET 3,ANGLICAN CARE CENTRE (SIMEI),40894.2367079146,36023.4739343058
6 SIMEI STREET 3 ORANGE VALLEY NURSING HOME (SIMEI) SINGAPORE 529898,6,ORANGE VALLEY NURSING HOME (SIMEI),1.34071717006045,103.948068519197,103.948068519197,529898,SIMEI STREET 3,ORANGE VALLEY NURSING HOME (SIMEI),40770.439837276,35875.5082602762
25 SIMEI STREET 3 MY MANHATTAN SINGAPORE 529899,25,MY MANHATTAN,1.34130342076985,103.953347730205,103.953347730205,529899,SIMEI STREET 3,MY MANHATTAN,41357.9571708478,35940.3611686211
27 SIMEI STREET 3 MY MANHATTAN SINGAPORE 529900,27,MY MANHATTAN,1.34140972952727,103.953549400762,103.953549400762,529900,SIMEI STREET 3,MY MANHATTAN,41380.4003964867,35952.1173745692
29 SIMEI STREET 3 MY MANHATTAN SINGAPORE 529901,29,MY MANHATTAN,1.34151949871916,103.953758026729,103.953758026729,529901,SIMEI STREET 3,MY MANHATTAN,41403.6176652722,35964.2562586349
31 SIMEI STREET 3 MY MANHATTAN SINGAPORE 529902,31,MY MANHATTAN,1.34162506271229,103.953974259116,103.953974259116,529902,SIMEI STREET 3,MY MANHATTAN,41427.681469027,35975.9301962014
33 SIMEI STREET 3 MY MANHATTAN SINGAPORE 529903,33,MY MANHATTAN,1.34190115576407,103.953657518928,103.953657518928,529903,SIMEI STREET 3,MY MANHATTAN,41392.4301342033,36006.4574857354
35 SIMEI STREET 3 MY MANHATTAN SINGAPORE 529904,35,MY MANHATTAN,1.34174041054666,103.953414624264,103.953414624264,529904,SIMEI STREET 3,MY MANHATTAN,41365.3994021481,35988.6817345265
6A SIMEI STREET 3 CHANGI GENERAL HOSPITAL SINGAPORE 529905,6A,CHANGI GENERAL HOSPITAL,1.3413426227918,103.948305190583,103.948305190583,529905,SIMEI STREET 3,CHANGI GENERAL HOSPITAL,40796.7756164242,35944.6689988673
2A SIMEI STREET 3 CGH MEDICAL CENTRE SINGAPORE 529906,2A,CGH MEDICAL CENTRE,1.33945829870291,103.949301394871,103.949301394871,529906,SIMEI STREET 3,CGH MEDICAL CENTRE,40907.6524771415,35736.3148835562
9 SIMEI STREET 2 CHANGI NEIGHBOURHOOD POLICE CENTRE SINGAPORE 529914,9,CHANGI NEIGHBOURHOOD POLICE CENTRE,1.34452666627361,103.954802679169,103.954802679169,529914,SIMEI STREET 2,CHANGI NEIGHBOURHOOD POLICE CENTRE,41519.8599195881,36296.7799645364
10 SIMEI STREET 2 CHANGI-SIMEI COMMUNITY BUILDING SINGAPORE 529915,10,CHANGI-SIMEI COMMUNITY BUILDING,1.34501867833145,103.95522980359,103.95522980359,529915,SIMEI STREET 2,CHANGI-SIMEI COMMUNITY BUILDING,41567.3915807661,36351.1866350006
12 SIMEI STREET 1 MELVILLE PARK SINGAPORE 529940,12,MELVILLE PARK,1.3480866119198,103.958788998558,103.958788998558,529940,SIMEI STREET 1,MELVILLE PARK,41963.4743900485,36690.4439381678
14 SIMEI STREET 1 MELVILLE PARK SINGAPORE 529941,14,MELVILLE PARK,1.34872821709463,103.958760510902,103.958760510902,529941,SIMEI STREET 1,MELVILLE PARK,41960.3003682038,36761.389367884
16 SIMEI STREET 1 MELVILLE PARK SINGAPORE 529942,16,MELVILLE PARK,1.349626010678,103.959043683031,103.959043683031,529942,SIMEI STREET 1,MELVILLE PARK,41991.8092181822,36860.6646617819
18 SIMEI STREET 1 MELVILLE PARK SINGAPORE 529943,18,MELVILLE PARK,1.34944506082371,103.958383842357,103.958383842357,529943,SIMEI STREET 1,MELVILLE PARK,41918.3771828003,36840.6523184516
20 SIMEI STREET 1 MELVILLE PARK SINGAPORE 529944,20,MELVILLE PARK,1.34926579341777,103.957713246825,103.957713246825,529944,SIMEI STREET 1,MELVILLE PARK,41843.748230272,36820.8259718809
22 SIMEI STREET 1 MELVILLE PARK SINGAPORE 529945,22,MELVILLE PARK,1.3486492061127,103.957957348621,103.957957348621,529945,SIMEI STREET 1,MELVILLE PARK,41870.9175896915,36752.6481255256
24 SIMEI STREET 1 MELVILLE PARK SINGAPORE 529946,24,MELVILLE PARK,1.3480195759655,103.958186165132,103.958186165132,529946,SIMEI STREET 1,MELVILLE PARK,41896.3859489625,36683.0279794782
26 SIMEI STREET 1 MELVILLE PARK SINGAPORE 529947,26,MELVILLE PARK,1.3474010356449,103.958423126425,103.958423126425,529947,SIMEI STREET 1,MELVILLE PARK,41922.7606830066,36614.6341407895
28 SIMEI STREET 1 MELVILLE PARK SINGAPORE 529948,28,MELVILLE PARK,1.34673118035584,103.958607457654,103.958607457654,529948,SIMEI STREET 1,MELVILLE PARK,41943.2785622012,36540.5658421237
30 SIMEI STREET 1 METTA BUILDING SINGAPORE 529949,30,METTA BUILDING,1.34686530740379,103.957332840124,103.957332840124,529949,SIMEI STREET 1,METTA BUILDING,41801.4266273985,36555.389708221
32 SIMEI STREET 1 METTA BUILDING SINGAPORE 529950,32,METTA BUILDING,1.34680909940251,103.957174216848,103.957174216848,529950,SIMEI STREET 1,METTA BUILDING,41783.7738852752,36549.1736026723
31 SIMEI ROAD MORIAH BIBLE-PRESBYTERIAN CHURCH SINGAPORE 529974,31,MORIAH BIBLE-PRESBYTERIAN CHURCH,1.34342096678266,103.957275078701,103.957275078701,529974,SIMEI ROAD,MORIAH BIBLE-PRESBYTERIAN CHURCH,41795.0177450618,36174.5309077799
