ADDRESS,BLK_NO,BUILDING,LATITUDE,LONGITUDE,LONGTITUDE,POSTAL,ROAD_NAME,SEARCHVAL,X,Y
12 ALEXANDRA VIEW ARTRA SINGAPORE 158736,12,ARTRA,1.29012765494819,103.816552347869,103.816552347869,158736,ALEXANDRA VIEW,ARTRA,26134.061591424,30281.2866777405
7 ALEXANDRA VIEW ECHELON SINGAPORE 158741,7,ECHELON,1.29082513015614,103.818331479192,103.818331479192,158741,ALEXANDRA VIEW,ECHELON,26332.0641773762,30358.4086527489
9 ALEXANDRA VIEW ECHELON SINGAPORE 158742,9,ECHELON,1.29060694545576,103.817866920135,103.817866920135,158742,ALEXANDRA VIEW,ECHELON,26280.3625868848,30334.2832233794
28 ALEXANDRA VIEW ALEX RESIDENCES SINGAPORE 158744,28,ALEX RESIDENCES,1.29056999681587,103.819000781728,103.819000781728,158744,ALEXANDRA VIEW,ALEX RESIDENCES,26406.5516573498,30330.1968942378
10 ALEXANDRA VIEW ARTRA SINGAPORE 158745,10,ARTRA,1.29003067053998,103.817185273903,103.817185273903,158745,ALEXANDRA VIEW,ARTRA,26204.5007891115,30270.5621862859
6 ALEXANDRA VIEW THE METROPOLITAN CONDOMINIUM SINGAPORE 158746,6,THE METROPOLITAN CONDOMINIUM,1.29055340203602,103.81563289788,103.81563289788,158746,ALEXANDRA VIEW,THE METROPOLITAN CONDOMINIUM,26031.7349820863,30328.3642888963
8 ALEXANDRA VIEW THE METROPOLITAN CONDOMINIUM SINGAPORE 158747,8,THE METROPOLITAN CONDOMINIUM,1.2904773422307,103.81601645096,103.81601645096,158747,ALEXANDRA VIEW,THE METROPOLITAN CONDOMINIUM,26074.4211022882,30319.9536939915
1 ALEXANDRA VIEW ASCENTIA SKY SINGAPORE 158748,1,ASCENTIA SKY,1.29094473172583,103.817000115258,103.817000115258,158748,ALEXANDRA VIEW,ASCENTIA SKY,26183.8948603524,30371.6344903782
3 ALEXANDRA VIEW ASCENTIA SKY SINGAPORE 158749,3,ASCENTIA SKY,1.29095103716645,103.817000265618,103.817000265618,158749,ALEXANDRA VIEW,ASCENTIA SKY,26183.9115985474,30372.331713384
5 ALEXANDRA VIEW ECHELON SINGAPORE 158750,5,ECHELON,1.29096399148778,103.817989855708,103.817989855708,158750,ALEXANDRA VIEW,ECHELON,26294.044502493,30373.7634495497
601 TIONG BAHRU ROAD MASJID JAMIYAH AR-RABITAH SINGAPORE 158787,601,MASJID JAMIYAH AR-RABITAH,1.28833936244056,103.82016174201,103.82016174201,158787,TIONG BAHRU ROAD,MASJID JAMIYAH AR-RABITAH,26535.7553281887,30083.544154305
603 TIONG BAHRU ROAD SHELL TIONG BAHRU SINGAPORE 158788,603,SHELL TIONG BAHRU,1.28835714822039,103.819490502849,103.819490502849,158788,TIONG BAHRU ROAD,SHELL TIONG BAHRU,26461.0520980265,30085.5112100318
900 TIONG BAHRU ROAD DELTA SPORTS CENTRE SINGAPORE 158790,900,DELTA SPORTS CENTRE,1.29052498417749,103.820588112164,103.820588112164,158790,TIONG BAHRU ROAD,DELTA SPORTS CENTRE,26583.2079293933,30325.2186886873
920 TIONG BAHRU ROAD CITIBANK REDHILL SMRT STATION SINGAPORE 158792,920,CITIBANK REDHILL SMRT STATION,1.28933202700544,103.817058256205,103.817058256205,158792,TIONG BAHRU ROAD,CITIBANK REDHILL SMRT STATION,26190.3643089235,30193.3098773398
950 TIONG BAHRU ROAD SINGAPORE 158793,950,NIL,1.29092283716498,103.815969762311,103.815969762311,158793,TIONG BAHRU ROAD,950 TIONG BAHRU ROAD SINGAPORE 158793,26069.225391007,30369.2142623998
98T REDHILL CLOSE SINGAPORE 158900,98T,NIL,1.28626159317106,103.816350254043,103.816350254043,158900,REDHILL CLOSE,98T REDHILL CLOSE SINGAPORE 158900,26111.5674247686,29853.7976572141
100 REDHILL CLOSE GAN ENG SENG PRIMARY SCHOOL SINGAPORE 158901,100,GAN ENG SENG PRIMARY SCHOOL,1.28595539341476,103.815228207863,103.815228207863,158901,REDHILL CLOSE,GAN ENG SENG PRIMARY SCHOOL,25986.6928323014,29819.9405262545
2 PRINCE CHARLES CRESCENT MY SAVIOURS' CHURCH SINGAPORE 159011,2,MY SAVIOURS' CHURCH,1.29219729013701,103.823710308611,103.823710308611,159011,PRINCE CHARLES CRESCENT,MY SAVIOURS' CHURCH,26930.6823847806,30510.1321272254
150 PRINCE CHARLES CRESCENT TANGLIN VIEW SINGAPORE 159012,150,TANGLIN VIEW,1.29182877953015,103.818366893396,103.818366893396,159012,PRINCE CHARLES CRESCENT,TANGLIN VIEW,26336.0061282357,30469.3870020173
152 PRINCE CHARLES CRESCENT TANGLIN VIEW SINGAPORE 159013,152,TANGLIN VIEW,1.29199744950701,103.817880738443,103.817880738443,159013,PRINCE CHARLES CRESCENT,TANGLIN VIEW,26281.9013809096,30488.037982244
154 PRINCE CHARLES CRESCENT TANGLIN VIEW SINGAPORE 159014,154,TANGLIN VIEW,1.29181620700774,103.81734532385,103.81734532385,159014,PRINCE CHARLES CRESCENT,TANGLIN VIEW,26222.31422396,30467.9974896889
156 PRINCE CHARLES CRESCENT TANGLIN VIEW SINGAPORE 159015,156,TANGLIN VIEW,1.29206564725304,103.817295219866,103.817295219866,159015,PRINCE CHARLES CRESCENT,TANGLIN VIEW,26216.738256,30495.5793411899
2A PRINCE CHARLES CRESCENT ALEXANDRA PRIMARY SCHOOL SINGAPORE 159016,2A,ALEXANDRA PRIMARY SCHOOL,1.29141244826495,103.824359324379,103.824359324379,159016,PRINCE CHARLES CRESCENT,ALEXANDRA PRIMARY SCHOOL,27002.9119337043,30423.3480972592
101 PRINCE CHARLES CRESCENT THE CREST SINGAPORE 159017,101,THE CREST,1.29269478978815,103.820411467009,103.820411467009,159017,PRINCE CHARLES CRESCENT,THE CREST,26563.5500544198,30565.1447021868
103 PRINCE CHARLES CRESCENT THE CREST SINGAPORE 159018,103,THE CREST,1.29275471634254,103.819855906219,103.819855906219,159018,PRINCE CHARLES CRESCENT,THE CREST,26501.7209781846,30571.771392934
105 PRINCE CHARLES CRESCENT THE CREST SINGAPORE 159019,105,THE CREST,1.29281920942183,103.819293138156,103.819293138156,159019,PRINCE CHARLES CRESCENT,THE CREST,26439.089800382,30578.9030444548
107 PRINCE CHARLES CRESCENT THE CREST SINGAPORE 159020,107,THE CREST,1.29320289543887,103.819333065974,103.819333065974,159020,PRINCE CHARLES CRESCENT,THE CREST,26443.5336549468,30621.329041604
109 PRINCE CHARLES CRESCENT THE CREST SINGAPORE 159021,109,THE CREST,1.29325614989623,103.819678277586,103.819678277586,159021,PRINCE CHARLES CRESCENT,THE CREST,26481.9527461436,30627.2174356915
111 PRINCE CHARLES CRESCENT THE CREST SINGAPORE 159022,111,THE CREST,1.29319908101259,103.820153971824,103.820153971824,159022,PRINCE CHARLES CRESCENT,THE CREST,26534.8933565477,30620.9067729618
113 PRINCE CHARLES CRESCENT THE CREST SINGAPORE 159023,113,THE CREST,1.2931174058252,103.820505532472,103.820505532472,159023,PRINCE CHARLES CRESCENT,THE CREST,26574.0189630203,30611.8753514439
115 PRINCE CHARLES CRESCENT THE CREST SINGAPORE 159024,115,THE CREST,1.2928990470735,103.819566520481,103.819566520481,159024,PRINCE CHARLES CRESCENT,THE CREST,26469.5149354702,30587.7309137806
91 PRINCE CHARLES CRESCENT PRINCIPAL GARDEN SINGAPORE 159025,91,PRINCIPAL GARDEN,1.29293899351003,103.821693138843,103.821693138843,159025,PRINCE CHARLES CRESCENT,PRINCIPAL GARDEN,26706.1891686749,30592.1468007304
93 PRINCE CHARLES CRESCENT PRINCIPAL GARDEN SINGAPORE 159026,93,PRINCIPAL GARDEN,1.2925474763305,103.821082612735,103.821082612735,159026,PRINCE CHARLES CRESCENT,PRINCIPAL GARDEN,26638.2426907867,30548.8551695142
95 PRINCE CHARLES CRESCENT PRINCIPAL GARDEN SINGAPORE 159027,95,PRINCIPAL GARDEN,1.29254676613378,103.8216905172,103.8216905172,159027,PRINCE CHARLES CRESCENT,PRINCIPAL GARDEN,26705.8972037043,30548.7763214167
97 PRINCE CHARLES CRESCENT PRINCIPAL GARDEN SINGAPORE 159028,97,PRINCIPAL GARDEN,1.29244958852582,103.822316158104,103.822316158104,159028,PRINCE CHARLES CRESCENT,PRINCIPAL GARDEN,26775.5255826432,30538.0306121055
99 PRINCE CHARLES CRESCENT PRINCIPAL GARDEN SINGAPORE 159029,99,PRINCIPAL GARDEN,1.29237506748178,103.822836693912,103.822836693912,159029,PRINCE CHARLES CRESCENT,PRINCIPAL GARDEN,26833.4566873992,30529.7902140748
2 LENGKOK BAHRU SINGAPORE 159047,2,NIL,1.2867006427442,103.810819756429,103.810819756429,159047,LENGKOK BAHRU,2 LENGKOK BAHRU SINGAPORE 159047,25496.0697314208,29902.3502574824
400 LENGKOK BAHRU LENG KEE COMMUNITY CLUB SINGAPORE 159049,400,LENG KEE COMMUNITY CLUB,1.28978712200723,103.814448344993,103.814448344993,159049,LENGKOK BAHRU,LENG KEE COMMUNITY CLUB,25899.9037475819,30243.6339416243
10 LENGKOK BAHRU BUKIT MERAH SECONDARY SCHOOL SINGAPORE 159050,10,BUKIT MERAH SECONDARY SCHOOL,1.28575153716321,103.813208356372,103.813208356372,159050,LENGKOK BAHRU,BUKIT MERAH SECONDARY SCHOOL,25761.9000539612,29797.4008365534
6 LENGKOK BAHRU PACIFIC HEALTHCARE NURSING HOME SINGAPORE 159051,6,PACIFIC HEALTHCARE NURSING HOME,1.28640854879968,103.810908959435,103.810908959435,159051,LENGKOK BAHRU,PACIFIC HEALTHCARE NURSING HOME,25505.9969944526,29870.0519276857
8 LENGKOK BAHRU FAMILY LINK @ LENGKOK BAHRU SINGAPORE 159052,8,FAMILY LINK @ LENGKOK BAHRU,1.28645001441592,103.81125136957,103.81125136957,159052,LENGKOK BAHRU,FAMILY LINK @ LENGKOK BAHRU,25544.1044162204,29874.6366494466
20 LENGKOK BAHRU SINGAPORE 159053,20,NIL,1.28686170538596,103.813904189286,103.813904189286,159053,LENGKOK BAHRU,20 LENGKOK BAHRU SINGAPORE 159053,25839.3413864654,29920.1569123045
1 LENG KEE ROAD SINGAPORE 159085,1,NIL,1.29006241522466,103.815149853855,103.815149853855,159085,LENG KEE ROAD,1 LENG KEE ROAD SINGAPORE 159085,25977.9759254027,30274.0738777574
2 LENG KEE ROAD CONSULATE OF THE PRINCIPALITY OF MONACO SINGAPORE 159086,2,CONSULATE OF THE PRINCIPALITY OF MONACO,1.29098966268468,103.814912496181,103.814912496181,159086,LENG KEE ROAD,CONSULATE OF THE PRINCIPALITY OF MONACO,25951.5607836004,30376.6043116972
3 LENG KEE ROAD SINGAPORE 159087,3,NIL,1.29022489810238,103.81435369525,103.81435369525,159087,LENG KEE ROAD,3 LENG KEE ROAD SINGAPORE 159087,25889.3703984441,30292.0410436969
4 LENG KEE ROAD SIS BUILDING SINGAPORE 159088,4,SIS BUILDING,1.29113135137321,103.814335906555,103.814335906555,159088,LENG KEE ROAD,SIS BUILDING,25887.3914171327,30392.2719886452
5 LENG KEE ROAD SINGAPORE 159089,5,NIL,1.29014320553117,103.814614852433,103.814614852433,159089,LENG KEE ROAD,5 LENG KEE ROAD SINGAPORE 159089,25918.4348968612,30283.007685028
9 LENG KEE ROAD SINGAPORE 159090,9,NIL,1.29020712933411,103.814036410634,103.814036410634,159090,LENG KEE ROAD,9 LENG KEE ROAD SINGAPORE 159090,25854.0593146198,30290.0765304808
11 LENG KEE ROAD SINGAPORE 159091,11,NIL,1.29028074286929,103.813631636251,103.813631636251,159091,LENG KEE ROAD,11 LENG KEE ROAD SINGAPORE 159091,25809.0114441849,30298.2166809496
17 LENG KEE ROAD AIK CHUAN BUILDING SINGAPORE 159092,17,AIK CHUAN BUILDING,1.29022938389071,103.813133472272,103.813133472272,159092,LENG KEE ROAD,AIK CHUAN BUILDING,25753.5700021619,30292.5381045248
19 LENG KEE ROAD STOREFRIENDLY LENG KEE SINGAPORE 159093,19,STOREFRIENDLY LENG KEE,1.29032593169593,103.81285975777,103.81285975777,159093,LENG KEE ROAD,STOREFRIENDLY LENG KEE,25723.1080006696,30303.2141066696
20 LENG KEE ROAD SINGAPORE 159094,20,NIL,1.29113829395663,103.813363736809,103.813363736809,159094,LENG KEE ROAD,20 LENG KEE ROAD SINGAPORE 159094,25779.1972683482,30393.0404927507
23 LENG KEE ROAD SINGAPORE 159095,23,NIL,1.29039354579097,103.812275684986,103.812275684986,159095,LENG KEE ROAD,23 LENG KEE ROAD SINGAPORE 159095,25658.1057500932,30310.6910553481
24 LENG KEE ROAD LENG KEE AUTOPOINT SINGAPORE 159096,24,LENG KEE AUTOPOINT,1.29112941282265,103.812465716684,103.812465716684,159096,LENG KEE ROAD,LENG KEE AUTOPOINT,25679.255322108,30392.0592652559
25 LENG KEE ROAD SINGAPORE 159097,25,NIL,1.29003150463864,103.811984455012,103.811984455012,159097,LENG KEE ROAD,25 LENG KEE ROAD SINGAPORE 159097,25625.6940061608,30270.6586806197
27 LENG KEE ROAD SINGAPORE 159098,27,NIL,1.29049372984014,103.811497108169,103.811497108169,159098,LENG KEE ROAD,27 LENG KEE ROAD SINGAPORE 159098,25571.4568969421,30321.7696216758
29 LENG KEE ROAD PORSCHE CENTRE SINGAPORE SINGAPORE 159099,29,PORSCHE CENTRE SINGAPORE,1.29057624510727,103.811256437565,103.811256437565,159099,LENG KEE ROAD,PORSCHE CENTRE SINGAPORE,25544.672394935,30330.8939659037
33 LENG KEE ROAD SINGAPORE 159102,33,NIL,1.29042040136583,103.810317944339,103.810317944339,159102,LENG KEE ROAD,33 LENG KEE ROAD SINGAPORE 159102,25440.2259673579,30313.6624935772
45 LENG KEE ROAD SINGAPORE 159103,45,NIL,1.29021595264513,103.809489376681,103.809489376681,159103,LENG KEE ROAD,45 LENG KEE ROAD SINGAPORE 159103,25348.0132534401,30291.0564564541
26 LENG KEE ROAD SINGAPORE 159104,26,NIL,1.29146213425539,103.811790085598,103.811790085598,159104,LENG KEE ROAD,26 LENG KEE ROAD SINGAPORE 159104,25604.0636877613,30428.8505140189
28 LENG KEE ROAD SINGAPORE 159105,28,NIL,1.29158477099275,103.811123921011,103.811123921011,159105,LENG KEE ROAD,28 LENG KEE ROAD SINGAPORE 159105,25529.9254095163,30442.4116906393
1 KUNG CHONG ROAD SINGAPORE 159139,1,NIL,1.28933014458153,103.812776506099,103.812776506099,159139,KUNG CHONG ROAD,1 KUNG CHONG ROAD SINGAPORE 159139,25713.8419114742,30193.1051749662
2 KUNG CHONG ROAD AA CENTRE SINGAPORE 159140,2,AA CENTRE,1.28985471418412,103.812912497405,103.812912497405,159140,KUNG CHONG ROAD,AA CENTRE,25728.9770535156,30251.1092558317
3 KUNG CHONG ROAD SINGAPORE 159141,3,NIL,1.28937459007603,103.812543891714,103.812543891714,159141,KUNG CHONG ROAD,3 KUNG CHONG ROAD SINGAPORE 159141,25687.9539471446,30198.0199388228
5 KUNG CHONG ROAD SRS BUILDING SINGAPORE 159142,5,SRS BUILDING,1.28935302464006,103.81238653259,103.81238653259,159142,KUNG CHONG ROAD,SRS BUILDING,25670.4411944458,30195.6354876012
6 KUNG CHONG ROAD SINGAPORE 159143,6,NIL,1.28999444417349,103.812539429906,103.812539429906,159143,KUNG CHONG ROAD,6 KUNG CHONG ROAD SINGAPORE 159143,25687.4579456951,30266.5602140147
7 KUNG CHONG ROAD SINGAPORE 159144,7,NIL,1.28961988940374,103.811993882758,103.811993882758,159144,KUNG CHONG ROAD,7 KUNG CHONG ROAD SINGAPORE 159144,25626.742852333,30225.1443805546
11 KUNG CHONG ROAD SINGAPORE 159147,11,NIL,1.28935865056885,103.811627160718,103.811627160718,159147,KUNG CHONG ROAD,11 KUNG CHONG ROAD SINGAPORE 159147,25585.9295636248,30196.2582816351
14 KUNG CHONG ROAD CONSULATE OF THE REPUBLIC OF GHANA SINGAPORE 159150,14,CONSULATE OF THE REPUBLIC OF GHANA,1.29008408427009,103.811177724877,103.811177724877,159150,KUNG CHONG ROAD,CONSULATE OF THE REPUBLIC OF GHANA,25535.9118718719,30276.4734327029
8 JERVOIS LANE SINGAPORE 159187,8,NIL,1.29435653645475,103.818921801108,103.818921801108,159187,JERVOIS LANE,8 JERVOIS LANE SINGAPORE 159187,26397.7641655132,30748.8929746915
10 JERVOIS LANE SRI MENANTI ESTATE SINGAPORE 159188,10,SRI MENANTI ESTATE,1.29438148666058,103.818777320805,103.818777320805,159188,JERVOIS LANE,SRI MENANTI ESTATE,26381.6847834503,30751.6519316752
12 JERVOIS LANE SINGAPORE 159189,12,NIL,1.2944271976559,103.818691248296,103.818691248296,159189,JERVOIS LANE,12 JERVOIS LANE SINGAPORE 159189,26372.1056930358,30756.7064730804
14 JERVOIS LANE SRI MENANTI ESTATE SINGAPORE 159190,14,SRI MENANTI ESTATE,1.29440482425994,103.818579653889,103.818579653889,159190,JERVOIS LANE,SRI MENANTI ESTATE,26359.6861944925,30754.232610235
16 JERVOIS LANE SRI MENANTI ESTATE SINGAPORE 159191,16,SRI MENANTI ESTATE,1.29440162470792,103.818505618002,103.818505618002,159191,JERVOIS LANE,SRI MENANTI ESTATE,26351.4466439653,30753.8788683098
16A JERVOIS LANE CLYDESVIEW SINGAPORE 159192,16A,CLYDESVIEW,1.2940922282272,103.818107585883,103.818107585883,159192,JERVOIS LANE,CLYDESVIEW,26307.1489352398,30719.6676624771
18 JERVOIS LANE SRI MENANTI ESTATE SINGAPORE 159193,18,SRI MENANTI ESTATE,1.29403086408555,103.818512970982,103.818512970982,159193,JERVOIS LANE,SRI MENANTI ESTATE,26352.264727029,30712.8820648156
20 JERVOIS LANE SRI MENANTI ESTATE SINGAPORE 159194,20,SRI MENANTI ESTATE,1.29403188826873,103.818584883867,103.818584883867,159194,JERVOIS LANE,SRI MENANTI ESTATE,26360.2680056756,30712.9952670746
22 JERVOIS LANE SRI MENANTI ESTATE SINGAPORE 159195,22,SRI MENANTI ESTATE,1.29402899018733,103.818761086429,103.818761086429,159195,JERVOIS LANE,SRI MENANTI ESTATE,26379.8778150911,30712.6746988595
1 JALAN KILANG TIMOR PACIFIC TECH CENTRE SINGAPORE 159303,1,PACIFIC TECH CENTRE,1.28511037209618,103.810831710111,103.810831710111,159303,JALAN KILANG TIMOR,PACIFIC TECH CENTRE,25497.398526174,29726.5063175857
8 JALAN KILANG TIMOR KEWALRAM HOUSE SINGAPORE 159305,8,KEWALRAM HOUSE,1.28452704186158,103.809715859336,103.809715859336,159305,JALAN KILANG TIMOR,KEWALRAM HOUSE,25373.2130146241,29662.0057891086
10 JALAN KILANG TIMOR STOREFRIENDLY BUKIT MERAH SINGAPORE 159306,10,STOREFRIENDLY BUKIT MERAH,1.28425087579543,103.810298306871,103.810298306871,159306,JALAN KILANG TIMOR,STOREFRIENDLY BUKIT MERAH,25438.0343231931,29631.4681781922
16 JALAN KILANG TIMOR SINGAPORE 159308,16,NIL,1.28435068297882,103.811068402259,103.811068402259,159308,JALAN KILANG TIMOR,16 JALAN KILANG TIMOR SINGAPORE 159308,25523.7396627562,29642.5035823751
18 JALAN KILANG TIMOR EM @ REDHILL SINGAPORE 159309,18,EM @ REDHILL,1.28411622563678,103.811690701535,103.811690701535,159309,JALAN KILANG TIMOR,EM @ REDHILL,25592.9961995147,29616.5779041387
1 JALAN KILANG BARAT BLOOMBERRY BABIES & KIDS PTE. LTD. SINGAPORE 159345,1,BLOOMBERRY BABIES & KIDS PTE. LTD.,1.28492939416037,103.808520956734,103.808520956734,159345,JALAN KILANG BARAT,BLOOMBERRY BABIES & KIDS PTE. LTD.,25240.2306886977,29706.4970918577
2 JALAN KILANG BARAT SINGAPORE 159346,2,NIL,1.28569801997855,103.807993331769,103.807993331769,159346,JALAN KILANG BARAT,2 JALAN KILANG BARAT SINGAPORE 159346,25181.511254306,29791.488349149
5 JALAN KILANG BARAT PETRO CENTRE SINGAPORE 159349,5,PETRO CENTRE,1.28454101621757,103.808511755119,103.808511755119,159349,JALAN KILANG BARAT,PETRO CENTRE,25239.2062082533,29663.5522712003
8 JALAN KILANG BARAT CENTRAL-LINK SINGAPORE 159351,8,CENTRAL-LINK,1.28523795631318,103.808013554272,103.808013554272,159351,JALAN KILANG BARAT,CENTRAL-LINK,25183.7613459481,29740.6168581117
12 JALAN KILANG BARAT BANDLAB TECHNOLOGIES BUILDING SINGAPORE 159354,12,BANDLAB TECHNOLOGIES BUILDING,1.28486929406367,103.807929529562,103.807929529562,159354,JALAN KILANG BARAT,BANDLAB TECHNOLOGIES BUILDING,25174.4096891629,29699.8521797843
14 JALAN KILANG BARAT SINGAPORE 159356,14,NIL,1.28471407426015,103.807896694004,103.807896694004,159356,JALAN KILANG BARAT,14 JALAN KILANG BARAT SINGAPORE 159356,25170.7551933443,29682.688810423
15 JALAN KILANG BARAT FRONTECH CENTRE SINGAPORE 159357,15,FRONTECH CENTRE,1.2845211926241,103.808922596406,103.808922596406,159357,JALAN KILANG BARAT,FRONTECH CENTRE,25284.9294179399,29661.359840069
16 JALAN KILANG BARAT CYBER CENTRE SINGAPORE 159358,16,CYBER CENTRE,1.28448302496704,103.807757496716,103.807757496716,159358,JALAN KILANG BARAT,CYBER CENTRE,25155.2634339184,29657.1407252811
18 JALAN KILANG BARAT CYBER CENTRE SINGAPORE 159360,18,CYBER CENTRE,1.28439420322934,103.807863116516,103.807863116516,159360,JALAN KILANG BARAT,CYBER CENTRE,25167.0179448584,29647.3191580493
19 JALAN KILANG BARAT SINGAPORE 159361,19,NIL,1.28482357783381,103.809125825159,103.809125825159,159361,JALAN KILANG BARAT,19 JALAN KILANG BARAT SINGAPORE 159361,25307.5474109165,29694.7958223019
28 JALAN KILANG BARAT KEWALRAM HOUSE SINGAPORE 159362,28,KEWALRAM HOUSE,1.2842557236897,103.809447830188,103.809447830188,159362,JALAN KILANG BARAT,KEWALRAM HOUSE,25343.3833113108,29632.0051019564
30 JALAN KILANG BARAT KEWALRAM HOUSE SINGAPORE 159363,30,KEWALRAM HOUSE,1.28439839012683,103.80945651585,103.80945651585,159363,JALAN KILANG BARAT,KEWALRAM HOUSE,25344.3501009783,29647.7804118525
32 JALAN KILANG BARAT KEWALRAM HOUSE SINGAPORE 159364,32,KEWALRAM HOUSE,1.28454090381957,103.809465076409,103.809465076409,159364,JALAN KILANG BARAT,KEWALRAM HOUSE,25345.3029673742,29663.5388322156
34 JALAN KILANG BARAT KEWALRAM HOUSE SINGAPORE 159365,34,KEWALRAM HOUSE,1.28468425349395,103.809473764514,103.809473764514,159365,JALAN KILANG BARAT,KEWALRAM HOUSE,25346.2700294536,29679.3896910008
36 JALAN KILANG BARAT KEWALRAM HOUSE SINGAPORE 159366,36,KEWALRAM HOUSE,1.2848298688686,103.809483774916,103.809483774916,159366,JALAN KILANG BARAT,KEWALRAM HOUSE,25347.3842544705,29695.4910778869
1 JALAN KILANG SINGAPORE 159402,1,NIL,1.28516824200105,103.810103677025,103.810103677025,159402,JALAN KILANG,1 JALAN KILANG SINGAPORE 159402,25416.3745540446,29732.9059984554
4 JALAN KILANG SINGAPORE 159404,4,NIL,1.28561426331547,103.810277452517,103.810277452517,159404,JALAN KILANG,4 JALAN KILANG SINGAPORE 159404,25435.7147665285,29782.2245603204
5 JALAN KILANG SINGAPORE 159405,5,NIL,1.28519142281515,103.809719001286,103.809719001286,159405,JALAN KILANG,5 JALAN KILANG SINGAPORE 159405,25373.5633665351,29735.4696058724
6 JALAN KILANG DADLANI INDUSTRIAL BUILDING SINGAPORE 159406,6,DADLANI INDUSTRIAL BUILDING,1.28564362682709,103.810056530553,103.810056530553,159406,JALAN KILANG,DADLANI INDUSTRIAL BUILDING,25411.1280228198,29785.4716490787
7 JALAN KILANG SINGAPORE 159407,7,NIL,1.28522300121544,103.809457169081,103.809457169081,159407,JALAN KILANG,7 JALAN KILANG SINGAPORE 159407,25344.4236521795,29738.9616534226
9 JALAN KILANG BORDEN CENTRE SINGAPORE 159409,9,BORDEN CENTRE,1.28528483632917,103.808959649403,103.808959649403,159409,JALAN KILANG,BORDEN CENTRE,25289.0539150089,29745.7995844278
10 JALAN KILANG BT MERAH ENTERPRISE CENTRE SINGAPORE 159410,10,BT MERAH ENTERPRISE CENTRE,1.28568695718617,103.809649751562,103.809649751562,159410,JALAN KILANG,BT MERAH ENTERPRISE CENTRE,25365.8569562733,29790.2633130439
13 JALAN KILANG K H KOH INDUSTRIAL BUILDING SINGAPORE 159413,13,K H KOH INDUSTRIAL BUILDING,1.28533126561574,103.808570411121,103.808570411121,159413,JALAN KILANG,K H KOH INDUSTRIAL BUILDING,25245.7349820724,29750.9339122381
16 JALAN KILANG HOI HUP BUILDING SINGAPORE 159416,16,HOI HUP BUILDING,1.28574161120671,103.809035782778,103.809035782778,159416,JALAN KILANG,HOI HUP BUILDING,25297.5274067828,29796.3073148374
20 JALAN KILANG ABM BUILDING SINGAPORE 159418,20,ABM BUILDING,1.28571006629256,103.808646731748,103.808646731748,159418,JALAN KILANG,ABM BUILDING,25254.2292376831,29792.8196561448
22 JALAN KILANG MOVA BUILDING SINGAPORE 159419,22,MOVA BUILDING,1.28581665203951,103.808520816265,103.808520816265,159419,JALAN KILANG,MOVA BUILDING,25240.2160087256,29804.6054944489
1001 JALAN BUKIT MERAH SINGAPORE 159455,1001,NIL,1.28491289885771,103.812794298108,103.812794298108,159455,JALAN BUKIT MERAH,1001 JALAN BUKIT MERAH SINGAPORE 159455,25715.8180778632,29704.6689056419
1002 JALAN BUKIT MERAH SINGAPORE 159456,1002,NIL,1.28418087307591,103.812599363917,103.812599363917,159456,JALAN BUKIT MERAH,1002 JALAN BUKIT MERAH SINGAPORE 159456,25694.1228649057,29623.725446349
2985 JALAN BUKIT MERAH SINGAPORE MANUFACTURING FEDERATION BUILDING SINGAPORE 159457,2985,SINGAPORE MANUFACTURING FEDERATION BUILDING,1.28221415795688,103.821706381547,103.821706381547,159457,JALAN BUKIT MERAH,SINGAPORE MANUFACTURING FEDERATION BUILDING,26707.6575593688,29406.2498320006
2991 JALAN BUKIT MERAH CITIBANK ESSO JALAN BUKIT MERAH SINGAPORE 159458,2991,CITIBANK ESSO JALAN BUKIT MERAH,1.28255240578869,103.821361102649,103.821361102649,159458,JALAN BUKIT MERAH,CITIBANK ESSO JALAN BUKIT MERAH,26669.231022249,29443.6517070681
3501 JALAN BUKIT MERAH RUBIKON SINGAPORE 159460,3501,RUBIKON,1.28343108164825,103.818222627369,103.818222627369,159460,JALAN BUKIT MERAH,RUBIKON,26319.9450583039,29540.8129941802
3615 JALAN BUKIT MERAH GATEWAY THEATRE SINGAPORE 159461,3615,GATEWAY THEATRE,1.28401120387593,103.816666036933,103.816666036933,159461,JALAN BUKIT MERAH,GATEWAY THEATRE,26146.709794852,29604.9609914515
3779 JALAN BUKIT MERAH BUKIT MERAH COMMUNITY HUB SINGAPORE 159462,3779,BUKIT MERAH COMMUNITY HUB,1.28416034358571,103.815551852822,103.815551852822,159462,JALAN BUKIT MERAH,BUKIT MERAH COMMUNITY HUB,26022.7104314016,29621.4529261328
3781 JALAN BUKIT MERAH CALTEX JALAN BUKIT MERAH SINGAPORE 159463,3781,CALTEX JALAN BUKIT MERAH,1.28436390190652,103.81501976919,103.81501976919,159463,JALAN BUKIT MERAH,CALTEX JALAN BUKIT MERAH,25963.494087521,29643.9617727585
3800 JALAN BUKIT MERAH DBS SPC JALAN BUKIT MERAH SINGAPORE 159464,3800,DBS SPC JALAN BUKIT MERAH,1.28417073662007,103.818576817684,103.818576817684,159464,JALAN BUKIT MERAH,DBS SPC JALAN BUKIT MERAH,26359.3639918063,29622.5999919102
4000 JALAN BUKIT MERAH BUKIT MERAH COMMUNITY CENTRE SINGAPORE 159465,4000,BUKIT MERAH COMMUNITY CENTRE,1.2852542713109,103.815828540612,103.815828540612,159465,JALAN BUKIT MERAH,BUKIT MERAH COMMUNITY CENTRE,26053.5043213358,29742.4135958925
4545 JALAN BUKIT MERAH NEA CENTRAL REGIONAL OFFICE SINGAPORE 159466,4545,NEA CENTRAL REGIONAL OFFICE,1.28606236919952,103.806782231859,103.806782231859,159466,JALAN BUKIT MERAH,NEA CENTRAL REGIONAL OFFICE,25046.7263488779,29831.7775779869
4575 JALAN BUKIT MERAH OG FACTORY SINGAPORE 159467,4575,OG FACTORY,1.28613863709415,103.805467954227,103.805467954227,159467,JALAN BUKIT MERAH,OG FACTORY,24900.4583152514,29840.2124478146
1001A JALAN BUKIT MERAH SINGAPORE 159469,1001A,NIL,1.28426986923589,103.812947984111,103.812947984111,159469,JALAN BUKIT MERAH,1001A JALAN BUKIT MERAH SINGAPORE 159469,25732.9214863498,29633.5658705365
4543 JALAN BUKIT MERAH SINGAPORE 159470,4543,NIL,1.28569747712305,103.806941977699,103.806941977699,159470,JALAN BUKIT MERAH,4543 JALAN BUKIT MERAH SINGAPORE 159470,25064.5043096505,29791.4295081887
3791 JALAN BUKIT MERAH E-CENTRE @ REDHILL SINGAPORE 159471,3791,E-CENTRE @ REDHILL,1.28505996768706,103.811613280913,103.811613280913,159471,JALAN BUKIT MERAH,E-CENTRE @ REDHILL,25584.3808114333,29720.9321051687
3 HOY FATT ROAD SINGAPORE 159504,3,NIL,1.29008398441425,103.813596723839,103.813596723839,159504,HOY FATT ROAD,3 HOY FATT ROAD SINGAPORE 159504,25805.125822044,30276.4601753261
5 HOY FATT ROAD MOE SCHOOL APPRAISAL BRANCH SINGAPORE 159505,5,MOE SCHOOL APPRAISAL BRANCH,1.28777770276355,103.809860973387,103.809860973387,159505,HOY FATT ROAD,MOE SCHOOL APPRAISAL BRANCH,25389.3663111022,30021.4469642714
12 HOY FATT ROAD ACE ASPIRE PTE. LTD. SINGAPORE 159506,12,ACE ASPIRE PTE. LTD.,1.28836513365487,103.811949390719,103.811949390719,159506,HOY FATT ROAD,ACE ASPIRE PTE. LTD.,25621.7901021577,30086.3999991044
14 HOY FATT ROAD BRYTON HOUSE SINGAPORE 159507,14,BRYTON HOUSE,1.28836511367633,103.8119498615,103.8119498615,159507,HOY FATT ROAD,BRYTON HOUSE,25621.8424960375,30086.3977895416
98 HENDERSON ROAD YO:HA @ HENDERSON SINGAPORE 159543,98,YO:HA @ HENDERSON,1.28567195026515,103.820583539439,103.820583539439,159543,HENDERSON ROAD,YO:HA @ HENDERSON,26582.6963399323,29788.5952444617
100 HENDERSON ROAD ECON CARE RESIDENCE (HENDERSON) SINGAPORE 159544,100,ECON CARE RESIDENCE (HENDERSON),1.28540116843423,103.819650732715,103.819650732715,159544,HENDERSON ROAD,ECON CARE RESIDENCE (HENDERSON),26478.8825737508,29758.6541247014
201 HENDERSON ROAD APEX @ HENDERSON SINGAPORE 159545,201,APEX @ HENDERSON,1.28269973352018,103.820349824025,103.820349824025,159545,HENDERSON ROAD,APEX @ HENDERSON,26556.6840952616,29459.9429952838
203 HENDERSON ROAD HENDERSON INDUSTRIAL PARK SINGAPORE 159546,203,HENDERSON INDUSTRIAL PARK,1.28176734720792,103.821201833605,103.821201833605,159546,HENDERSON ROAD,HENDERSON INDUSTRIAL PARK,26651.5052737482,29356.8440680746
203A HENDERSON ROAD HENDERSON INDUSTRIAL PARK SINGAPORE 159547,203A,HENDERSON INDUSTRIAL PARK,1.28176734748164,103.821201833877,103.821201833877,159547,HENDERSON ROAD,HENDERSON INDUSTRIAL PARK,26651.5053040162,29356.8440983426
203B HENDERSON ROAD HENDERSON INDUSTRIAL PARK SINGAPORE 159548,203B,HENDERSON INDUSTRIAL PARK,1.28176734748164,103.821201833877,103.821201833877,159548,HENDERSON ROAD,HENDERSON INDUSTRIAL PARK,26651.5053040162,29356.8440983426
205 HENDERSON ROAD HENDERSON INDUSTRIAL PARK SINGAPORE 159549,205,HENDERSON INDUSTRIAL PARK,1.28087698138876,103.820445705146,103.820445705146,159549,HENDERSON ROAD,HENDERSON INDUSTRIAL PARK,26567.3538622018,29258.3924265485
207 HENDERSON ROAD HENDERSON INDUSTRIAL PARK SINGAPORE 159550,207,HENDERSON INDUSTRIAL PARK,1.2812308033264,103.820304776692,103.820304776692,159550,HENDERSON ROAD,HENDERSON INDUSTRIAL PARK,26551.6698708106,29297.516307747
209 HENDERSON ROAD HENDERSON INDUSTRIAL PARK SINGAPORE 159551,209,HENDERSON INDUSTRIAL PARK,1.28152583782618,103.819958271659,103.819958271659,159551,HENDERSON ROAD,HENDERSON INDUSTRIAL PARK,26513.1068553524,29330.1398972962
211 HENDERSON ROAD 211 HENDERSON SINGAPORE 159552,211,211 HENDERSON,1.28196716941853,103.819557384371,103.819557384371,159552,HENDERSON ROAD,211 HENDERSON,26468.4916354772,29378.9403015487
213 HENDERSON ROAD HENDERSON INDUSTRIAL PARK SINGAPORE 159553,213,HENDERSON INDUSTRIAL PARK,1.2810501453068,103.818745227338,103.818745227338,159553,HENDERSON ROAD,HENDERSON INDUSTRIAL PARK,26378.1046258006,29277.5410124287
215 HENDERSON ROAD HENDERSON INDUSTRIAL PARK SINGAPORE 159554,215,HENDERSON INDUSTRIAL PARK,1.28075468643704,103.819194508053,103.819194508053,159554,HENDERSON ROAD,HENDERSON INDUSTRIAL PARK,26428.1057306984,29244.870416699
217 HENDERSON ROAD HENDERSON INDUSTRIAL PARK SINGAPORE 159555,217,HENDERSON INDUSTRIAL PARK,1.28052662233692,103.819466762349,103.819466762349,159555,HENDERSON ROAD,HENDERSON INDUSTRIAL PARK,26458.4052839233,29219.6521012411
219 HENDERSON ROAD HENDERSON INDUSTRIAL PARK SINGAPORE 159556,219,HENDERSON INDUSTRIAL PARK,1.28024897719218,103.819889014756,103.819889014756,159556,HENDERSON ROAD,HENDERSON INDUSTRIAL PARK,26505.3983868668,29188.9512853567
221 HENDERSON ROAD HENDERSON BUILDING SINGAPORE 159557,221,HENDERSON BUILDING,1.28038577219052,103.820676808675,103.820676808675,159557,HENDERSON ROAD,HENDERSON BUILDING,26593.0735365422,29204.076923253
221A HENDERSON ROAD HENDERSON BUILDING SINGAPORE 159558,221A,HENDERSON BUILDING,1.27978015924708,103.819984899976,103.819984899976,159558,HENDERSON ROAD,HENDERSON BUILDING,26516.0693645263,29137.1117636636
1 HENDERSON ROAD GAN ENG SENG SCHOOL SINGAPORE 159561,1,GAN ENG SENG SCHOOL,1.28907114458398,103.823733672546,103.823733672546,159561,HENDERSON ROAD,GAN ENG SENG SCHOOL,26933.2812846666,30164.4590708893
102 HENDERSON ROAD ECON CARE RESIDENCE (HENDERSON) SINGAPORE 159562,102,ECON CARE RESIDENCE (HENDERSON),1.2850820344864,103.819527090115,103.819527090115,159562,HENDERSON ROAD,ECON CARE RESIDENCE (HENDERSON),26465.1219916539,29723.3660142757
104 HENDERSON ROAD SINGAPORE 159563,104,NIL,1.28408880599015,103.819324172554,103.819324172554,159563,HENDERSON ROAD,104 HENDERSON ROAD SINGAPORE 159563,26442.5383528387,29613.5400579534
1 CHANG CHARN ROAD OC SINGAPORE 159630,1,OC,1.28867479195083,103.812181373034,103.812181373034,159630,CHANG CHARN ROAD,OC,25647.6080566403,30120.6402016655
2 CHANG CHARN ROAD SINGAPORE 159631,2,NIL,1.2890644838883,103.812598657348,103.812598657348,159631,CHANG CHARN ROAD,2 CHANG CHARN ROAD SINGAPORE 159631,25694.0486175418,30163.7299454287
4 CHANG CHARN ROAD SINGAPORE 159633,4,NIL,1.28908574900446,103.812452680393,103.812452680393,159633,CHANG CHARN ROAD,4 CHANG CHARN ROAD SINGAPORE 159633,25677.8026404977,30166.0814650841
7 CHANG CHARN ROAD INCHCAPE CERTIFIED PREOWNED CENTRE SINGAPORE 159636,7,INCHCAPE CERTIFIED PREOWNED CENTRE,1.28867345083941,103.811652673792,103.811652673792,159636,CHANG CHARN ROAD,INCHCAPE CERTIFIED PREOWNED CENTRE,25588.7683070134,30120.4924031012
8 CHANG CHARN ROAD LINK (THM) BUILDING SINGAPORE 159637,8,LINK (THM) BUILDING,1.28911333998336,103.812163587183,103.812163587183,159637,CHANG CHARN ROAD,LINK (THM) BUILDING,25645.6290450608,30169.1325989142
9 CHANG CHARN ROAD SINGAPORE 159638,9,NIL,1.28875590999833,103.811442251895,103.811442251895,159638,CHANG CHARN ROAD,9 CHANG CHARN ROAD SINGAPORE 159638,25565.3502101554,30129.6105121244
10 CHANG CHARN ROAD LINK (THM) BUILDING SINGAPORE 159639,10,LINK (THM) BUILDING,1.28908903653746,103.811993283948,103.811993283948,159639,CHANG CHARN ROAD,LINK (THM) BUILDING,25626.6757179452,30166.4454073198
11 CHANG CHARN ROAD SINGAPORE 159640,11,NIL,1.28840746132931,103.811381546497,103.811381546497,159640,CHANG CHARN ROAD,11 CHANG CHARN ROAD SINGAPORE 159640,25558.5938816341,30091.0809125192
195E BUKIT MERAH VIEW LEI YIN TEMPLE SINGAPORE 159681,195E,LEI YIN TEMPLE,1.28345359583622,103.821873101534,103.821873101534,159681,BUKIT MERAH VIEW,LEI YIN TEMPLE,26726.2127414271,29543.3003868144
500 BUKIT MERAH VIEW BUKIT MERAH WEST NEIGHBOURHOOD POLICE CENTRE SINGAPORE 159682,500,BUKIT MERAH WEST NEIGHBOURHOOD POLICE CENTRE,1.28560832622487,103.823400103779,103.823400103779,159682,BUKIT MERAH VIEW,BUKIT MERAH WEST NEIGHBOURHOOD POLICE CENTRE,26896.1564221857,29781.5586344115
1001 BUKIT MERAH LANE 3 ALEXANDRA VILLAGE INDUSTRIAL ESTATE SINGAPORE 159718,1001,ALEXANDRA VILLAGE INDUSTRIAL ESTATE,1.28442682805298,103.806245235732,103.806245235732,159718,BUKIT MERAH LANE 3,ALEXANDRA VILLAGE INDUSTRIAL ESTATE,24986.9612464523,29650.9284940362
1002 BUKIT MERAH LANE 3 ALEXANDRA VILLAGE INDUSTRIAL ESTATE SINGAPORE 159719,1002,ALEXANDRA VILLAGE INDUSTRIAL ESTATE,1.28448245694582,103.805366247323,103.805366247323,159719,BUKIT MERAH LANE 3,ALEXANDRA VILLAGE INDUSTRIAL ESTATE,24889.1371813016,29657.0807038695
1004 BUKIT MERAH LANE 3 ALEXANDRA VILLAGE INDUSTRIAL ESTATE SINGAPORE 159720,1004,ALEXANDRA VILLAGE INDUSTRIAL ESTATE,1.28535312323602,103.805836068793,103.805836068793,159720,BUKIT MERAH LANE 3,ALEXANDRA VILLAGE INDUSTRIAL ESTATE,24941.4254561206,29753.3539283406
1007 BUKIT MERAH LANE 3 ALEXANDRA VILLAGE INDUSTRIAL ESTATE SINGAPORE 159721,1007,ALEXANDRA VILLAGE INDUSTRIAL ESTATE,1.28555890353161,103.805077424263,103.805077424263,159721,BUKIT MERAH LANE 3,ALEXANDRA VILLAGE INDUSTRIAL ESTATE,24856.9948829599,29776.1089747474
1008 BUKIT MERAH LANE 3 ALEXANDRA VILLAGE INDUSTRIAL ESTATE SINGAPORE 159722,1008,ALEXANDRA VILLAGE INDUSTRIAL ESTATE,1.28542687045515,103.804600087037,103.804600087037,159722,BUKIT MERAH LANE 3,ALEXANDRA VILLAGE INDUSTRIAL ESTATE,24803.8710604506,29761.5100300368
1009 BUKIT MERAH LANE 3 ALEXANDRA VILLAGE INDUSTRIAL ESTATE SINGAPORE 159723,1009,ALEXANDRA VILLAGE INDUSTRIAL ESTATE,1.28525168514063,103.804380299549,103.804380299549,159723,BUKIT MERAH LANE 3,ALEXANDRA VILLAGE INDUSTRIAL ESTATE,24779.410322357,29742.1392166205
1010 BUKIT MERAH LANE 3 ALEXANDRA VILLAGE INDUSTRIAL ESTATE SINGAPORE 159724,1010,ALEXANDRA VILLAGE INDUSTRIAL ESTATE,1.28486247857501,103.804081778714,103.804081778714,159724,BUKIT MERAH LANE 3,ALEXANDRA VILLAGE INDUSTRIAL ESTATE,24746.1869424414,29699.1031379923
1 BUKIT MERAH LANE 2 CONSTRUCTION HOUSE SINGAPORE 159760,1,CONSTRUCTION HOUSE,1.28603846529923,103.805866840843,103.805866840843,159760,BUKIT MERAH LANE 2,CONSTRUCTION HOUSE,24944.8509443738,29829.1354856882
1005 BUKIT MERAH LANE 2 ALEXANDRA VILLAGE INDUSTRIAL ESTATE SINGAPORE 159761,1005,ALEXANDRA VILLAGE INDUSTRIAL ESTATE,1.2855515101791,103.805840938467,103.805840938467,159761,BUKIT MERAH LANE 2,ALEXANDRA VILLAGE INDUSTRIAL ESTATE,24941.9676465131,29775.2905284669
1006 BUKIT MERAH LANE 2 ALEXANDRA VILLAGE INDUSTRIAL ESTATE SINGAPORE 159762,1006,ALEXANDRA VILLAGE INDUSTRIAL ESTATE,1.28572193844991,103.805184704264,103.805184704264,159762,BUKIT MERAH LANE 2,ALEXANDRA VILLAGE INDUSTRIAL ESTATE,24868.934452353,29794.1364042405
1 BUKIT MERAH CENTRAL CHONG HUA TONG TOU TECK HWEE BUILDING SINGAPORE 159834,1,CHONG HUA TONG TOU TECK HWEE BUILDING,1.28455555462685,103.814559204373,103.814559204373,159834,BUKIT MERAH CENTRAL,CHONG HUA TONG TOU TECK HWEE BUILDING,25912.2371942466,29665.1541134343
2 BUKIT MERAH CENTRAL SINGAPORE 159835,2,NIL,1.28430450353848,103.813742914766,103.813742914766,159835,BUKIT MERAH CENTRAL,2 BUKIT MERAH CENTRAL SINGAPORE 159835,25821.3907165779,29637.3948612809
1003 BUKIT MERAH CENTRAL SINGAPORE 159836,1003,NIL,1.28347723784604,103.813718091863,103.813718091863,159836,BUKIT MERAH CENTRAL,1003 BUKIT MERAH CENTRAL SINGAPORE 159836,25818.6274312725,29545.9201110732
3500 BUKIT MERAH CENTRAL SINGAPORE 159837,3500,NIL,1.28205539635574,103.818078212813,103.818078212813,159837,BUKIT MERAH CENTRAL,3500 BUKIT MERAH CENTRAL SINGAPORE 159837,26303.8720022505,29388.6969136875
3500A BUKIT MERAH CENTRAL SINGAPORE 159838,3500A,NIL,1.28205539635574,103.818078212813,103.818078212813,159838,BUKIT MERAH CENTRAL,3500A BUKIT MERAH CENTRAL SINGAPORE 159838,26303.8720022505,29388.6969136875
3591 BUKIT MERAH CENTRAL BUKIT MERAH BUS INTERCHANGE SINGAPORE 159840,3591,BUKIT MERAH BUS INTERCHANGE,1.28204476688405,103.817211265363,103.817211265363,159840,BUKIT MERAH CENTRAL,BUKIT MERAH BUS INTERCHANGE,26207.3878402021,29387.5221527033
3752 BUKIT MERAH CENTRAL FOOD COURT SINGAPORE 159848,3752,FOOD COURT,1.28362443009385,103.81350464348,103.81350464348,159848,BUKIT MERAH CENTRAL,FOOD COURT,25794.8725122912,29562.1960534211
38C BELVEDERE CLOSE SINGAPORE 159883,38C,NIL,1.29281969947754,103.817371782498,103.817371782498,159883,BELVEDERE CLOSE,38C BELVEDERE CLOSE SINGAPORE 159883,26225.2595409201,30578.9584954008
2 ALEXANDRA ROAD DELTA HOUSE SINGAPORE 159919,2,DELTA HOUSE,1.29102364426497,103.825358722406,103.825358722406,159919,ALEXANDRA ROAD,DELTA HOUSE,27114.1362103391,30380.3557861354
110 ALEXANDRA ROAD SINGAPORE 159921,110,NIL,1.29148720237149,103.819826980945,103.819826980945,159921,ALEXANDRA ROAD,110 ALEXANDRA ROAD SINGAPORE 159921,26498.5011003455,30431.6162510309
143 ALEXANDRA ROAD APSN (TANGLIN SCHOOL) SINGAPORE 159924,143,APSN (TANGLIN SCHOOL),1.29041262387806,103.819794884313,103.819794884313,159924,ALEXANDRA ROAD,APSN (TANGLIN SCHOOL),26494.9283886189,30312.7949223593
229 ALEXANDRA ROAD CHURCH OF GOD (SINGAPORE) SINGAPORE 159927,229,CHURCH OF GOD (SINGAPORE),1.29120580174624,103.815841720211,103.815841720211,159927,ALEXANDRA ROAD,CHURCH OF GOD (SINGAPORE),26054.9756177561,30400.5031246729
237 ALEXANDRA ROAD CHILDHOOD BUILDER PRESCHOOL PTE. LTD. SINGAPORE 159929,237,CHILDHOOD BUILDER PRESCHOOL PTE. LTD.,1.29108771469562,103.813822595754,103.813822595754,159929,ALEXANDRA ROAD,CHILDHOOD BUILDER PRESCHOOL PTE. LTD.,25830.26429056,30387.4473023079
239 ALEXANDRA ROAD SINGAPORE 159930,239,NIL,1.2916059399734,103.813160054689,103.813160054689,159930,ALEXANDRA ROAD,239 ALEXANDRA ROAD SINGAPORE 159930,25756.5296056103,30444.7505582776
241 ALEXANDRA ROAD SINGAPORE 159931,241,NIL,1.29160594024712,103.813160054689,103.813160054689,159931,ALEXANDRA ROAD,241 ALEXANDRA ROAD SINGAPORE 159931,25756.5296056103,30444.7505885456
243 ALEXANDRA ROAD BS CENTRE SINGAPORE 159932,243,BS CENTRE,1.2916570862299,103.812494220062,103.812494220062,159932,ALEXANDRA ROAD,BS CENTRE,25682.4279818935,30450.4066455904
245 ALEXANDRA ROAD SINGAPORE 159933,245,NIL,1.2918636777948,103.812206873038,103.812206873038,159933,ALEXANDRA ROAD,245 ALEXANDRA ROAD SINGAPORE 159933,25650.4489187887,30473.2507404052
247 ALEXANDRA ROAD SINGAPORE 159934,247,NIL,1.29143739220606,103.811805121425,103.811805121425,159934,ALEXANDRA ROAD,247 ALEXANDRA ROAD SINGAPORE 159934,25605.7370229727,30426.1146515068
249 ALEXANDRA ROAD SINGAPORE 159935,249,NIL,1.29182539144285,103.811451188719,103.811451188719,159935,ALEXANDRA ROAD,249 ALEXANDRA ROAD SINGAPORE 159935,25566.3477218263,30469.0179444905
253 ALEXANDRA ROAD SINGAPORE 159936,253,NIL,1.29165431170726,103.81035275472,103.81035275472,159936,ALEXANDRA ROAD,253 ALEXANDRA ROAD SINGAPORE 159936,25444.1012983853,30450.1019075308
255 ALEXANDRA ROAD SINGAPORE 159937,255,NIL,1.29190130406537,103.809359656855,103.809359656855,159937,ALEXANDRA ROAD,255 ALEXANDRA ROAD SINGAPORE 159937,25333.5783006651,30477.4140712991
281 ALEXANDRA ROAD SINGAPORE 159938,281,NIL,1.29193409395361,103.808983769553,103.808983769553,159938,ALEXANDRA ROAD,281 ALEXANDRA ROAD SINGAPORE 159938,25291.745313854,30481.0402060151
293 ALEXANDRA ROAD LEA HIN HARDWARE FACTORY SINGAPORE 159940,293,LEA HIN HARDWARE FACTORY,1.29087017660788,103.808349027822,103.808349027822,159940,ALEXANDRA ROAD,LEA HIN HARDWARE FACTORY,25221.1028666561,30363.3983904012
303 ALEXANDRA ROAD SINGAPORE 159941,303,NIL,1.28969743007448,103.808269524112,103.808269524112,159941,ALEXANDRA ROAD,303 ALEXANDRA ROAD SINGAPORE 159941,25212.25350706,30233.7222060692
305 ALEXANDRA ROAD VANTAGE AUTOMOTIVE CENTRE SINGAPORE 159942,305,VANTAGE AUTOMOTIVE CENTRE,1.28942696651649,103.80729026368,103.80729026368,159942,ALEXANDRA ROAD,VANTAGE AUTOMOTIVE CENTRE,25103.2698481884,30203.8168327957
307 ALEXANDRA ROAD MITSUBISHI ELECTRIC BUILDING SINGAPORE 159943,307,MITSUBISHI ELECTRIC BUILDING,1.28907245733052,103.80688864716,103.80688864716,159943,ALEXANDRA ROAD,MITSUBISHI ELECTRIC BUILDING,25058.5729350252,30164.6174935158
315 ALEXANDRA ROAD SIME DARBY BUSINESS CENTRE SINGAPORE 159944,315,SIME DARBY BUSINESS CENTRE,1.288780602141,103.806371163704,103.806371163704,159944,ALEXANDRA ROAD,SIME DARBY BUSINESS CENTRE,25000.9810738303,30132.3462535646
332 ALEXANDRA ROAD PRINCESS HOUSE SINGAPORE 159945,332,PRINCESS HOUSE,1.292779352096,103.809267039891,103.809267039891,159945,ALEXANDRA ROAD,PRINCESS HOUSE,25323.27174953,30574.5041983798
354 ALEXANDRA ROAD ALEXIS SINGAPORE 159948,354,ALEXIS,1.29130379243474,103.807350978054,103.807350978054,159948,ALEXANDRA ROAD,ALEXIS,25110.0289613642,30411.3465087675
356 ALEXANDRA ROAD ALEXIS SINGAPORE 159949,356,ALEXIS,1.29113340546347,103.807354818647,103.807354818647,159949,ALEXANDRA ROAD,ALEXIS,25110.4561939547,30392.505990427
358 ALEXANDRA ROAD SHELL ALEXANDRA SINGAPORE 159950,358,SHELL ALEXANDRA,1.29066105090272,103.80684369091,103.80684369091,159950,ALEXANDRA ROAD,SHELL ALEXANDRA,25053.5715139313,30340.2760420125
360 ALEXANDRA ROAD CALTEX ALEXANDRA SINGAPORE 159951,360,CALTEX ALEXANDRA,1.29038433015908,103.806716653134,103.806716653134,159951,ALEXANDRA ROAD,CALTEX ALEXANDRA,25039.4329755213,30309.6778345928
368 ALEXANDRA ROAD ANCHORPOINT SHOPPING CENTRE SINGAPORE 159952,368,ANCHORPOINT SHOPPING CENTRE,1.28893477974497,103.805607779399,103.805607779399,159952,ALEXANDRA ROAD,ANCHORPOINT SHOPPING CENTRE,24916.023050786,30149.3953310214
370 ALEXANDRA ROAD ANCHORPOINT SHOPPING CENTRE SINGAPORE 159953,370,ANCHORPOINT SHOPPING CENTRE,1.28861469030586,103.805009964592,103.805009964592,159953,ALEXANDRA ROAD,ANCHORPOINT SHOPPING CENTRE,24849.4909352409,30114.0022209603
370A ALEXANDRA ROAD THE ANCHORAGE SINGAPORE 159954,370A,THE ANCHORAGE,1.28969004585591,103.805470415063,103.805470415063,159954,ALEXANDRA ROAD,THE ANCHORAGE,24900.7364780214,30232.9089356139
370B ALEXANDRA ROAD THE ANCHORAGE SINGAPORE 159955,370B,THE ANCHORAGE,1.28989375114892,103.805326444527,103.805326444527,159955,ALEXANDRA ROAD,THE ANCHORAGE,24884.7140300367,30255.4337940048
370C ALEXANDRA ROAD THE ANCHORAGE SINGAPORE 159956,370C,THE ANCHORAGE,1.29021709465435,103.8050787611,103.8050787611,159956,ALEXANDRA ROAD,THE ANCHORAGE,24857.1493707495,30291.1877589673
370D ALEXANDRA ROAD THE ANCHORAGE SINGAPORE 159957,370D,THE ANCHORAGE,1.29058353129387,103.804727551045,103.804727551045,159957,ALEXANDRA ROAD,THE ANCHORAGE,24818.0631429236,30331.7068731412
370E ALEXANDRA ROAD THE ANCHORAGE SINGAPORE 159958,370E,THE ANCHORAGE,1.28991217247594,103.80437145444,103.80437145444,159958,ALEXANDRA ROAD,THE ANCHORAGE,24778.4317887118,30257.4719189573
370F ALEXANDRA ROAD THE ANCHORAGE SINGAPORE 159959,370F,THE ANCHORAGE,1.28841029896892,103.804274746028,103.804274746028,159959,ALEXANDRA ROAD,THE ANCHORAGE,24767.6670711059,30091.4026006497
370G ALEXANDRA ROAD THE ANCHORAGE SINGAPORE 159960,370G,THE ANCHORAGE,1.28900346226494,103.804329262814,103.804329262814,159960,ALEXANDRA ROAD,THE ANCHORAGE,24773.7350754095,30156.9914750177
370H ALEXANDRA ROAD THE ANCHORAGE SINGAPORE 159961,370H,THE ANCHORAGE,1.28966647114145,103.804855186897,103.804855186897,159961,ALEXANDRA ROAD,THE ANCHORAGE,24832.2667877665,30230.3029227518
370J ALEXANDRA ROAD THE ANCHORAGE SINGAPORE 159962,370J,THE ANCHORAGE,1.28920740891321,103.804857292425,103.804857292425,159962,ALEXANDRA ROAD,THE ANCHORAGE,24832.5005474053,30179.5421822667
371 ALEXANDRA ROAD AIA ALEXANDRA SINGAPORE 159963,371,AIA ALEXANDRA,1.28473716579466,103.802575477864,103.802575477864,159963,ALEXANDRA ROAD,AIA ALEXANDRA,24578.5479870355,29685.2486646082
378 ALEXANDRA ROAD SINGAPORE 159964,378,NIL,1.28859804100324,103.799973882445,103.799973882445,159964,ALEXANDRA ROAD,378 ALEXANDRA ROAD SINGAPORE 159964,24289.0175608322,30112.1680114158
317 ALEXANDRA ROAD DBS IKEA BUILDING SINGAPORE 159965,317,DBS IKEA BUILDING,1.28796619500179,103.806034849631,103.806034849631,159965,ALEXANDRA ROAD,DBS IKEA BUILDING,24963.5512008779,30042.2937051076
31 ALEXANDRA ROAD ALESSANDREA SINGAPORE 159967,31,ALESSANDREA,1.29050566271653,103.822587341402,103.822587341402,159967,ALEXANDRA ROAD,ALESSANDREA,26805.7050325079,30323.0811939463
301 ALEXANDRA ROAD MERCEDES-BENZ CENTER SINGAPORE 159968,301,MERCEDES-BENZ CENTER,1.29020182294935,103.808147457235,103.808147457235,159968,ALEXANDRA ROAD,MERCEDES-BENZ CENTER,25198.6690543601,30289.4955062661
321 ALEXANDRA ROAD ALEXANDRA CENTRAL SINGAPORE 159971,321,ALEXANDRA CENTRAL,1.28747707652854,103.805253381137,103.805253381137,159971,ALEXANDRA ROAD,ALEXANDRA CENTRAL,24876.5797515567,29988.2104480509
323 ALEXANDRA ROAD ALEXANDRA CENTRAL SINGAPORE 159972,323,ALEXANDRA CENTRAL,1.28745612377699,103.805414652014,103.805414652014,159972,ALEXANDRA ROAD,ALEXANDRA CENTRAL,24894.5278183976,29985.8934036288
