ADDRESS,BLK_NO,BUILDING,LATITUDE,LONGITUDE,LONGTITUDE,POSTAL,ROAD_NAME,SEARCHVAL,X,Y
101 TELOK AYER STREET TELOK AYER CONSERVATION AREA SINGAPORE 068574,101,TELOK AYER CONSERVATION AREA,1.28178349754726,103.84846310716,103.84846310716,068574,TELOK AYER STREET,TELOK AYER CONSERVATION AREA,29685.46211443,29358.6316649243
103 TELOK AYER STREET TELOK AYER CONSERVATION AREA SINGAPORE 068575,103,TELOK AYER CONSERVATION AREA,1.28174338454862,103.848444258078,103.848444258078,068575,TELOK AYER STREET,TELOK AYER CONSERVATION AREA,29683.3643918186,29354.196164323
105 TELOK AYER STREET TELOK AYER CONSERVATION AREA SINGAPORE 068576,105,TELOK AYER CONSERVATION AREA,1.28170294089826,103.848422383334,103.848422383334,068576,TELOK AYER STREET,TELOK AYER CONSERVATION AREA,29680.9299378879,29349.7240999974
107 TELOK AYER STREET TELOK AYER CONSERVATION AREA SINGAPORE 068577,107,TELOK AYER CONSERVATION AREA,1.28166300530745,103.848398604535,103.848398604535,068577,TELOK AYER STREET,TELOK AYER CONSERVATION AREA,29678.2835778035,29345.3082130477
109 TELOK AYER STREET TELOK AYER CONSERVATION AREA SINGAPORE 068578,109,TELOK AYER CONSERVATION AREA,1.28162169064957,103.848374803699,103.848374803699,068578,TELOK AYER STREET,TELOK AYER CONSERVATION AREA,29675.6347660124,29340.739835998
110 TELOK AYER STREET TELOK AYER CONSERVATION AREA SINGAPORE 068579,110,TELOK AYER CONSERVATION AREA,1.28212396415987,103.848240551309,103.848240551309,068579,TELOK AYER STREET,TELOK AYER CONSERVATION AREA,29660.6932482626,29396.2785593215
111 TELOK AYER STREET TELOK AYER CONSERVATION AREA SINGAPORE 068580,111,TELOK AYER CONSERVATION AREA,1.28159916301309,103.848320990323,103.848320990323,068580,TELOK AYER STREET,TELOK AYER CONSERVATION AREA,29669.6457914142,29338.2488112058
112 TELOK AYER STREET TELOK AYER CONSERVATION AREA SINGAPORE 068581,112,TELOK AYER CONSERVATION AREA,1.28209682720089,103.848221507029,103.848221507029,068581,TELOK AYER STREET,TELOK AYER CONSERVATION AREA,29658.573793239,29393.2778822184
113 TELOK AYER STREET TELOK AYER CONSERVATION AREA SINGAPORE 068582,113,TELOK AYER CONSERVATION AREA,1.28155804188816,103.84829642852,103.84829642852,068582,TELOK AYER STREET,TELOK AYER CONSERVATION AREA,29666.9122898048,29333.7018336207
114 TELOK AYER STREET TELOK AYER CONSERVATION AREA SINGAPORE 068583,114,TELOK AYER CONSERVATION AREA,1.28207134719717,103.848194010761,103.848194010761,068583,TELOK AYER STREET,TELOK AYER CONSERVATION AREA,29655.5137000848,29390.4604172222
115 TELOK AYER STREET TELOK AYER CONSERVATION AREA SINGAPORE 068584,115,TELOK AYER CONSERVATION AREA,1.28151271486673,103.848269882947,103.848269882947,068584,TELOK AYER STREET,TELOK AYER CONSERVATION AREA,29663.9580135224,29328.6897884645
116 TELOK AYER STREET TELOK AYER CONSERVATION AREA SINGAPORE 068585,116,TELOK AYER CONSERVATION AREA,1.2820438612682,103.84816811611,103.84816811611,068585,TELOK AYER STREET,TELOK AYER CONSERVATION AREA,29652.6318550874,29387.4211484417
118 TELOK AYER STREET TELOK AYER CONSERVATION AREA SINGAPORE 068587,118,TELOK AYER CONSERVATION AREA,1.28200883888179,103.84814902827,103.84814902827,068587,TELOK AYER STREET,TELOK AYER CONSERVATION AREA,29650.5075571863,29383.5485415328
120 TELOK AYER STREET TELOK AYER CONSERVATION AREA SINGAPORE 068589,120,TELOK AYER CONSERVATION AREA,1.28197147692053,103.848126254959,103.848126254959,068589,TELOK AYER STREET,TELOK AYER CONSERVATION AREA,29647.9730978375,29379.4172341675
121 TELOK AYER STREET SINGAPORE 068590,121,NIL,1.28129867556401,103.848139912125,103.848139912125,068590,TELOK AYER STREET,121 TELOK AYER STREET SINGAPORE 068590,29649.4934586594,29305.0223439559
122 TELOK AYER STREET TELOK AYER CONSERVATION AREA SINGAPORE 068591,122,TELOK AYER CONSERVATION AREA,1.28193595006163,103.848104098213,103.848104098213,068591,TELOK AYER STREET,TELOK AYER CONSERVATION AREA,29645.5072560078,29375.4888433646
123 TELOK AYER STREET TELOK AYER CONSERVATION AREA SINGAPORE 068592,123,TELOK AYER CONSERVATION AREA,1.28116562260763,103.8480616546,103.8480616546,068592,TELOK AYER STREET,TELOK AYER CONSERVATION AREA,29640.7841187567,29290.3099851105
124 TELOK AYER STREET TELOK AYER CONSERVATION AREA SINGAPORE 068593,124,TELOK AYER CONSERVATION AREA,1.28190025020298,103.848081988518,103.848081988518,068593,TELOK AYER STREET,TELOK AYER CONSERVATION AREA,29643.0466505392,29371.5413231961
125 TELOK AYER STREET TELOK AYER CONSERVATION AREA SINGAPORE 068594,125,TELOK AYER CONSERVATION AREA,1.28111646853038,103.848033677638,103.848033677638,068594,TELOK AYER STREET,TELOK AYER CONSERVATION AREA,29637.6705420753,29284.8747632746
126 TELOK AYER STREET TELOK AYER CONSERVATION AREA SINGAPORE 068595,126,TELOK AYER CONSERVATION AREA,1.28186343023237,103.848059232073,103.848059232073,068595,TELOK AYER STREET,TELOK AYER CONSERVATION AREA,29640.5140678063,29367.4699464384
127 TELOK AYER STREET TELOK AYER CONSERVATION AREA SINGAPORE 068596,127,TELOK AYER CONSERVATION AREA,1.28106569642415,103.848004443898,103.848004443898,068596,TELOK AYER STREET,TELOK AYER CONSERVATION AREA,29634.4170970423,29279.2606273871
128 TELOK AYER STREET TELOK AYER CONSERVATION AREA SINGAPORE 068597,128,TELOK AYER CONSERVATION AREA,1.28182404758369,103.848034617791,103.848034617791,068597,TELOK AYER STREET,TELOK AYER CONSERVATION AREA,29637.774724476,29363.1152008176
130 TELOK AYER STREET TELOK AYER CONSERVATION AREA SINGAPORE 068598,130,TELOK AYER CONSERVATION AREA,1.28178170069654,103.848007110553,103.848007110553,068598,TELOK AYER STREET,TELOK AYER CONSERVATION AREA,29634.7134206025,29358.4326831996
132 TELOK AYER STREET TELOK AYER CONSERVATION AREA SINGAPORE 068599,132,TELOK AYER CONSERVATION AREA,1.28173944249899,103.84797953614,103.84797953614,068599,TELOK AYER STREET,TELOK AYER CONSERVATION AREA,29631.644640537,29353.7599724103
134 TELOK AYER STREET TELOK AYER CONSERVATION AREA SINGAPORE 068600,134,TELOK AYER CONSERVATION AREA,1.28169610852972,103.847952062894,103.847952062894,068600,TELOK AYER STREET,TELOK AYER CONSERVATION AREA,29628.5871201623,29348.9683084432
136 TELOK AYER STREET TELOK AYER CONSERVATION AREA SINGAPORE 068601,136,TELOK AYER CONSERVATION AREA,1.28165589181292,103.847927886481,103.847927886481,068601,TELOK AYER STREET,TELOK AYER CONSERVATION AREA,29625.8965082858,29344.5213362761
137 TELOK AYER STREET SINGAPORE 068602,137,NIL,1.28081311032725,103.848012161497,103.848012161497,068602,TELOK AYER STREET,137 TELOK AYER STREET SINGAPORE 068602,29635.2761629559,29251.3309664838
138 TELOK AYER STREET SINGAPORE 068603,138,NIL,1.28161553221479,103.847902383945,103.847902383945,068603,TELOK AYER STREET,138 TELOK AYER STREET SINGAPORE 068603,29623.0583097199,29340.0585642215
140 TELOK AYER STREET FORMER NAGORE DARGAH SINGAPORE 068604,140,FORMER NAGORE DARGAH,1.28148563503336,103.8477911224,103.8477911224,068604,TELOK AYER STREET,FORMER NAGORE DARGAH,29610.6758894576,29325.6951346919
145 TELOK AYER STREET TELOK AYER CONSERVATION AREA SINGAPORE 068605,145,TELOK AYER CONSERVATION AREA,1.28068601489148,103.84778997891,103.84778997891,068605,TELOK AYER STREET,TELOK AYER CONSERVATION AREA,29610.5491271419,29237.2772692312
147 TELOK AYER STREET TELOK AYER CONSERVATION AREA SINGAPORE 068606,147,TELOK AYER CONSERVATION AREA,1.28064989279758,103.847743486899,103.847743486899,068606,TELOK AYER STREET,TELOK AYER CONSERVATION AREA,29605.3749666652,29233.2830455638
149 TELOK AYER STREET TELOK AYER CONSERVATION AREA SINGAPORE 068607,149,TELOK AYER CONSERVATION AREA,1.28059532753749,103.847719868773,103.847719868773,068607,TELOK AYER STREET,TELOK AYER CONSERVATION AREA,29602.7464949591,29227.2494862266
150 TELOK AYER STREET FORMER KENG TECK WHAY BUILDING SINGAPORE 068608,150,FORMER KENG TECK WHAY BUILDING,1.2812453384752,103.847698670747,103.847698670747,068608,TELOK AYER STREET,FORMER KENG TECK WHAY BUILDING,29600.38692402,29299.1243246496
151 TELOK AYER STREET TELOK AYER CONSERVATION AREA SINGAPORE 068609,151,TELOK AYER CONSERVATION AREA,1.28054919762586,103.84769769458,103.84769769458,068609,TELOK AYER STREET,TELOK AYER CONSERVATION AREA,29600.2787159784,29222.1486650743
153 TELOK AYER STREET TELOK AYER CONSERVATION AREA SINGAPORE 068610,153,TELOK AYER CONSERVATION AREA,1.28048873989888,103.847689928157,103.847689928157,068610,TELOK AYER STREET,TELOK AYER CONSERVATION AREA,29599.4144137036,29215.4635571186
155 TELOK AYER STREET TELOK AYER CONSERVATION AREA SINGAPORE 068611,155,TELOK AYER CONSERVATION AREA,1.28042554456806,103.847633445207,103.847633445207,068611,TELOK AYER STREET,TELOK AYER CONSERVATION AREA,29593.1283588456,29208.4757087901
157 TELOK AYER STREET TELOK AYER CONSERVATION AREA SINGAPORE 068612,157,TELOK AYER CONSERVATION AREA,1.28042554456806,103.847633445479,103.847633445479,068612,TELOK AYER STREET,TELOK AYER CONSERVATION AREA,29593.1283891136,29208.4757087901
158 TELOK AYER STREET SINGAPORE 'YU HUANG GONG' TEMPLE OF HEAVENLY JADE EMPEROR SINGAPORE 068613,158,SINGAPORE 'YU HUANG GONG' TEMPLE OF HEAVENLY JADE EMPEROR,1.28132068979996,103.847451460985,103.847451460985,068613,TELOK AYER STREET,SINGAPORE 'YU HUANG GONG' TEMPLE OF HEAVENLY JADE EMPEROR,29572.8744467366,29307.456131991
159 TELOK AYER STREET TELOK AYER CONSERVATION AREA SINGAPORE 068614,159,TELOK AYER CONSERVATION AREA,1.28035320753948,103.847596327787,103.847596327787,068614,TELOK AYER STREET,TELOK AYER CONSERVATION AREA,29588.997535767,29200.477030877
161 TELOK AYER STREET TELOK AYER CONSERVATION AREA SINGAPORE 068615,161,TELOK AYER CONSERVATION AREA,1.28029089673509,103.847571462644,103.847571462644,068615,TELOK AYER STREET,TELOK AYER CONSERVATION AREA,29586.2302853558,29193.5870086718
163 TELOK AYER STREET TELOK AYER CONSERVATION AREA SINGAPORE 068616,163,TELOK AYER CONSERVATION AREA,1.28024320023925,103.847550837857,103.847550837857,068616,TELOK AYER STREET,TELOK AYER CONSERVATION AREA,29583.934943079,29188.3129638489
165 TELOK AYER STREET TELOK AYER CONSERVATION AREA SINGAPORE 068617,165,TELOK AYER CONSERVATION AREA,1.28019159651212,103.847524087484,103.847524087484,068617,TELOK AYER STREET,TELOK AYER CONSERVATION AREA,29580.957875004,29182.6068738252
167 TELOK AYER STREET TELOK AYER CONSERVATION AREA SINGAPORE 068618,167,TELOK AYER CONSERVATION AREA,1.28014621034176,103.847500019036,103.847500019036,068618,TELOK AYER STREET,TELOK AYER CONSERVATION AREA,29578.279279517,29177.5882907864
168 TELOK AYER STREET SINGAPORE 068619,168,NIL,1.28084152106543,103.847432984024,103.847432984024,068619,TELOK AYER STREET,168 TELOK AYER STREET SINGAPORE 068619,29570.8184031388,29254.4721172974
169 TELOK AYER STREET TELOK AYER CONSERVATION AREA SINGAPORE 068620,169,TELOK AYER CONSERVATION AREA,1.28009103655917,103.847478449389,103.847478449389,068620,TELOK AYER STREET,TELOK AYER CONSERVATION AREA,29575.8787862649,29171.4874457195
171 TELOK AYER STREET TELOK AYER CONSERVATION AREA SINGAPORE 068621,171,TELOK AYER CONSERVATION AREA,1.28004584200059,103.847454529166,103.847454529166,068621,TELOK AYER STREET,TELOK AYER CONSERVATION AREA,29573.216686829,29166.4900502674
173 TELOK AYER STREET TELOK AYER CONSERVATION AREA SINGAPORE 068622,173,TELOK AYER CONSERVATION AREA,1.27999301906976,103.847426998511,103.847426998511,068622,TELOK AYER STREET,TELOK AYER CONSERVATION AREA,29570.1527799089,29160.6491466463
175 TELOK AYER STREET SINGAPORE 068623,175,NIL,1.27993924072016,103.847415798248,103.847415798248,068623,TELOK AYER STREET,175 TELOK AYER STREET SINGAPORE 068623,29568.9063140713,29154.7026077621
176 TELOK AYER STREET TELOK AYER CONSERVATION AREA SINGAPORE 068624,176,TELOK AYER CONSERVATION AREA,1.28067172090427,103.847384813508,103.847384813508,068624,TELOK AYER STREET,TELOK AYER CONSERVATION AREA,29565.4575194707,29235.6964632459
177 TELOK AYER STREET TELOK AYER CONSERVATION AREA SINGAPORE 068625,177,TELOK AYER CONSERVATION AREA,1.27988794434469,103.847397915442,103.847397915442,068625,TELOK AYER STREET,TELOK AYER CONSERVATION AREA,29566.9161336059,29149.030508684
178 TELOK AYER STREET TELOK AYER CONSERVATION AREA SINGAPORE 068626,178,TELOK AYER CONSERVATION AREA,1.28063385387123,103.847366914452,103.847366914452,068626,TELOK AYER STREET,TELOK AYER CONSERVATION AREA,29563.4655229263,29231.5093114506
179 TELOK AYER STREET TELOK AYER CONSERVATION AREA SINGAPORE 068627,179,TELOK AYER CONSERVATION AREA,1.27983891098133,103.847368903937,103.847368903937,068627,TELOK AYER STREET,TELOK AYER CONSERVATION AREA,29563.6874175146,29143.6086350288
180 TELOK AYER STREET TELOK AYER CONSERVATION AREA SINGAPORE 068628,180,TELOK AYER CONSERVATION AREA,1.28058991957321,103.847343992089,103.847343992089,068628,TELOK AYER STREET,TELOK AYER CONSERVATION AREA,29560.9144767225,29226.6512697972
181 TELOK AYER STREET TELOK AYER CONSERVATION AREA SINGAPORE 068629,181,TELOK AYER CONSERVATION AREA,1.27978038072687,103.847339367752,103.847339367752,068629,TELOK AYER STREET,TELOK AYER CONSERVATION AREA,29560.4003144829,29137.1366439462
182 TELOK AYER STREET TELOK AYER CONSERVATION AREA SINGAPORE 068630,182,TELOK AYER CONSERVATION AREA,1.28053215995368,103.847350375441,103.847350375441,068630,TELOK AYER STREET,TELOK AYER CONSERVATION AREA,29561.6249268362,29220.2645133566
184 TELOK AYER STREET TELOK AYER CONSERVATION AREA SINGAPORE 068631,184,TELOK AYER CONSERVATION AREA,1.28048520012493,103.847320056855,103.847320056855,068631,TELOK AYER STREET,TELOK AYER CONSERVATION AREA,29558.2507428154,29215.0719196778
186 TELOK AYER STREET TELOK AYER CONSERVATION AREA SINGAPORE 068632,186,TELOK AYER CONSERVATION AREA,1.2804530197947,103.847270485911,103.847270485911,068632,TELOK AYER STREET,TELOK AYER CONSERVATION AREA,29552.7339184955,29211.5135549754
188 TELOK AYER STREET SINGAPORE 068633,188,NIL,1.28041307240628,103.847249564451,103.847249564451,068633,TELOK AYER STREET,188 TELOK AYER STREET SINGAPORE 068633,29550.4055538485,29207.0963665042
192 TELOK AYER STREET MASJID AL-ABRAR (KOOCHOO PALLY) SINGAPORE 068635,192,MASJID AL-ABRAR (KOOCHOO PALLY),1.28034045831521,103.847169281152,103.847169281152,068635,TELOK AYER STREET,MASJID AL-ABRAR (KOOCHOO PALLY),29541.4707174664,29199.0670271236
198 TELOK AYER STREET TELOK AYER CONSERVATION AREA SINGAPORE 068637,198,TELOK AYER CONSERVATION AREA,1.28021949918873,103.847180490536,103.847180490536,068637,TELOK AYER STREET,TELOK AYER CONSERVATION AREA,29542.7183032194,29185.6919986028
200 TELOK AYER STREET TELOK AYER CONSERVATION AREA SINGAPORE 068638,200,TELOK AYER CONSERVATION AREA,1.28017392438478,103.847161618611,103.847161618611,068638,TELOK AYER STREET,TELOK AYER CONSERVATION AREA,29540.6180380974,29180.6525609214
202 TELOK AYER STREET SINGAPORE 068639,202,NIL,1.28013540958213,103.847114493732,103.847114493732,068639,TELOK AYER STREET,202 TELOK AYER STREET SINGAPORE 068639,29535.3734440226,29176.3937648088
204 TELOK AYER STREET TELOK AYER CONSERVATION AREA SINGAPORE 068640,204,TELOK AYER CONSERVATION AREA,1.28009000531422,103.847095454005,103.847095454005,068640,TELOK AYER STREET,TELOK AYER CONSERVATION AREA,29533.2545035547,29171.3731840812
206 TELOK AYER STREET TELOK AYER CONSERVATION AREA SINGAPORE 068641,206,TELOK AYER CONSERVATION AREA,1.28004513291312,103.84707573055,103.84707573055,068641,TELOK AYER STREET,TELOK AYER CONSERVATION AREA,29531.0594693748,29166.4114140458
208 TELOK AYER STREET TELOK AYER CONSERVATION AREA SINGAPORE 068642,208,TELOK AYER CONSERVATION AREA,1.27998816223324,103.847074570569,103.847074570569,068642,TELOK AYER STREET,TELOK AYER CONSERVATION AREA,29530.9304066924,29160.111889936
210 TELOK AYER STREET TELOK AYER CONSERVATION AREA SINGAPORE 068643,210,TELOK AYER CONSERVATION AREA,1.2799469685075,103.847059037094,103.847059037094,068643,TELOK AYER STREET,TELOK AYER CONSERVATION AREA,29529.201681071,29155.5568913333
212 TELOK AYER STREET TELOK AYER CONSERVATION AREA SINGAPORE 068645,212,TELOK AYER CONSERVATION AREA,1.27989307560491,103.847021264349,103.847021264349,068645,TELOK AYER STREET,TELOK AYER CONSERVATION AREA,29524.9979121517,29149.597670164
235 TELOK AYER STREET TELOK AYER CHINESE METHODIST CHURCH SINGAPORE 068656,235,TELOK AYER CHINESE METHODIST CHURCH,1.27840783273275,103.846976553452,103.846976553452,068656,TELOK AYER STREET,TELOK AYER CHINESE METHODIST CHURCH,29520.0228242045,28985.3671621364
1 STANLEY STREET TELOK AYER CONSERVATION AREA SINGAPORE 068720,1,TELOK AYER CONSERVATION AREA,1.27978503685857,103.847598253998,103.847598253998,068720,STANLEY STREET,TELOK AYER CONSERVATION AREA,29589.2122568442,29137.6516536903
2 STANLEY STREET TELOK AYER CONSERVATION AREA SINGAPORE 068721,2,TELOK AYER CONSERVATION AREA,1.27983499686087,103.847617405265,103.847617405265,068721,STANLEY STREET,TELOK AYER CONSERVATION AREA,29591.3436071854,29143.1759844702
3 STANLEY STREET SINGAPORE 068722,3,NIL,1.27987745242391,103.847645135763,103.847645135763,068722,STANLEY STREET,3 STANLEY STREET SINGAPORE 068722,29594.4297610736,29147.8705184758
4 STANLEY STREET TELOK AYER CONSERVATION AREA SINGAPORE 068723,4,TELOK AYER CONSERVATION AREA,1.27992976865481,103.847675825615,103.847675825615,068723,STANLEY STREET,TELOK AYER CONSERVATION AREA,29597.8452608921,29153.655396061
5 STANLEY STREET TELOK AYER CONSERVATION AREA SINGAPORE 068724,5,TELOK AYER CONSERVATION AREA,1.27997314452038,103.847701289256,103.847701289256,068724,STANLEY STREET,TELOK AYER CONSERVATION AREA,29600.6791311353,29158.4516910277
6 STANLEY STREET TELOK AYER CONSERVATION AREA SINGAPORE 068725,6,TELOK AYER CONSERVATION AREA,1.28002504577409,103.84773147814,103.84773147814,068725,STANLEY STREET,TELOK AYER CONSERVATION AREA,29604.0388773279,29164.1906823497
7 STANLEY STREET TELOK AYER CONSERVATION AREA SINGAPORE 068726,7,TELOK AYER CONSERVATION AREA,1.28006790428666,103.847756407632,103.847756407632,068726,STANLEY STREET,TELOK AYER CONSERVATION AREA,29606.8133012513,29168.9297708273
8 STANLEY STREET TELOK AYER CONSERVATION AREA SINGAPORE 068727,8,TELOK AYER CONSERVATION AREA,1.28011999140913,103.847785760486,103.847785760486,068727,STANLEY STREET,TELOK AYER CONSERVATION AREA,29610.080003662,29174.6893141102
9 STANLEY STREET TELOK AYER CONSERVATION AREA SINGAPORE 068728,9,TELOK AYER CONSERVATION AREA,1.28016540578359,103.84780765536,103.84780765536,068728,STANLEY STREET,TELOK AYER CONSERVATION AREA,29612.5166974235,29179.7110147513
10 STANLEY STREET TELOK AYER CONSERVATION AREA SINGAPORE 068729,10,TELOK AYER CONSERVATION AREA,1.28022588827335,103.847841208286,103.847841208286,068729,STANLEY STREET,TELOK AYER CONSERVATION AREA,29616.2508283062,29186.3988770936
11 STANLEY STREET TELOK AYER CONSERVATION AREA SINGAPORE 068730,11,TELOK AYER CONSERVATION AREA,1.28026441764321,103.84787555932,103.84787555932,068730,STANLEY STREET,TELOK AYER CONSERVATION AREA,29620.0737957219,29190.6592774112
12 STANLEY STREET SINGAPORE 068731,12,NIL,1.28031449035995,103.847905417215,103.847905417215,068731,STANLEY STREET,12 STANLEY STREET SINGAPORE 068731,29623.3967057783,29196.1960786004
13 STANLEY STREET SINGAPORE 068732,13,NIL,1.28035986913207,103.847930089444,103.847930089444,068732,STANLEY STREET,13 STANLEY STREET SINGAPORE 068732,29626.1424961891,29201.2138444036
14 STANLEY STREET TELOK AYER CONSERVATION AREA SINGAPORE 068733,14,TELOK AYER CONSERVATION AREA,1.28041126316494,103.847958638903,103.847958638903,068733,STANLEY STREET,TELOK AYER CONSERVATION AREA,29629.3197869761,29206.8967491519
15 STANLEY STREET TELOK AYER CONSERVATION AREA SINGAPORE 068734,15,TELOK AYER CONSERVATION AREA,1.28045632523276,103.847982377733,103.847982377733,068734,STANLEY STREET,TELOK AYER CONSERVATION AREA,29631.9616976669,29211.879494898
16 STANLEY STREET TELOK AYER CONSERVATION AREA SINGAPORE 068735,16,TELOK AYER CONSERVATION AREA,1.28050722625441,103.848013941156,103.848013941156,068735,STANLEY STREET,TELOK AYER CONSERVATION AREA,29635.474418249,29217.5078870077
17 STANLEY STREET TELOK AYER CONSERVATION AREA SINGAPORE 068736,17,TELOK AYER CONSERVATION AREA,1.28055024625557,103.848040753503,103.848040753503,068736,STANLEY STREET,TELOK AYER CONSERVATION AREA,29638.4583874242,29222.2648335956
28 STANLEY STREET TELOK AYER CONSERVATION AREA SINGAPORE 068737,28,TELOK AYER CONSERVATION AREA,1.28093055388857,103.848239178579,103.848239178579,068737,STANLEY STREET,TELOK AYER CONSERVATION AREA,29660.5412424486,29264.3174146302
29 STANLEY STREET TELOK AYER CONSERVATION AREA SINGAPORE 068738,29,TELOK AYER CONSERVATION AREA,1.28097838254312,103.848268038619,103.848268038619,068738,STANLEY STREET,TELOK AYER CONSERVATION AREA,29663.753099273,29269.6060788892
30 STANLEY STREET TELOK AYER CONSERVATION AREA SINGAPORE 068739,30,TELOK AYER CONSERVATION AREA,1.28102475055531,103.848297344682,103.848297344682,068739,STANLEY STREET,TELOK AYER CONSERVATION AREA,29667.0145955896,29274.7332331873
31 STANLEY STREET SICCI BUILDING SINGAPORE 068740,31,SICCI BUILDING,1.28106235998987,103.848409494762,103.848409494762,068740,STANLEY STREET,SICCI BUILDING,29679.4959618915,29278.8919633459
1 SHENTON WAY ONE SHENTON SINGAPORE 068803,1,ONE SHENTON,1.27929478959373,103.850552555075,103.850552555075,068803,SHENTON WAY,ONE SHENTON,29918.0024372227,29083.4446611144
2 SHENTON WAY EMBASSY OF THE REPUBLIC OF TURKEY SINGAPORE 068804,2,EMBASSY OF THE REPUBLIC OF TURKEY,1.27938886508381,103.849846148733,103.849846148733,068804,SHENTON WAY,EMBASSY OF THE REPUBLIC OF TURKEY,29839.385042211,29093.846526131
3 SHENTON WAY SHENTON HOUSE SINGAPORE 068805,3,SHENTON HOUSE,1.2785189340387,103.850071542788,103.850071542788,068805,SHENTON WAY,SHENTON HOUSE,29864.4702088088,28997.6542079821
4 SHENTON WAY SGX CENTRE SINGAPORE 068807,4,SGX CENTRE,1.27927719519315,103.849796993929,103.849796993929,068807,SHENTON WAY,SGX CENTRE,29833.9145884421,29081.4986113701
5 SHENTON WAY UIC BUILDING SINGAPORE 068808,5,UIC BUILDING,1.27747360764714,103.849418557895,103.849418557895,068808,SHENTON WAY,UIC BUILDING,29791.7989591984,28882.0669528339
6 SHENTON WAY OAKWOOD PREMIER AMTD SINGAPORE SINGAPORE 068809,6,OAKWOOD PREMIER AMTD SINGAPORE,1.27731975064011,103.848596793501,103.848596793501,068809,SHENTON WAY,OAKWOOD PREMIER AMTD SINGAPORE,29700.3432475524,28865.0536824018
7 SHENTON WAY FORMER SINGAPORE CONFERENCE HALL AND TRADE UNION HOUSE SINGAPORE 068810,7,FORMER SINGAPORE CONFERENCE HALL AND TRADE UNION HOUSE,1.27601990655194,103.848835345266,103.848835345266,068810,SHENTON WAY,FORMER SINGAPORE CONFERENCE HALL AND TRADE UNION HOUSE,29726.8930213461,28721.323800819
8 SHENTON WAY AXA TOWER SINGAPORE 068811,8,AXA TOWER,1.27562588382827,103.847146261772,103.847146261772,068811,SHENTON WAY,AXA TOWER,29538.9116502469,28677.753734421
9 SHENTON WAY SINGAPORE CONFERENCE HALL SINGAPORE 068813,9,SINGAPORE CONFERENCE HALL,1.27617797587428,103.849016027406,103.849016027406,068813,SHENTON WAY,SINGAPORE CONFERENCE HALL,29747.0014049886,28738.8024112321
5A SHENTON WAY V ON SHENTON SINGAPORE 068814,5A,V ON SHENTON,1.27708340707631,103.849181343548,103.849181343548,068814,SHENTON WAY,V ON SHENTON,29765.3991632639,28838.9204263333
6A SHENTON WAY DOWNTOWN GALLERY SINGAPORE 068815,6A,DOWNTOWN GALLERY,1.27743927179096,103.848687622624,103.848687622624,068815,SHENTON WAY,DOWNTOWN GALLERY,29710.4517250033,28878.2697737403
35 ROBINSON ROAD SO SOFITEL SINGAPORE SINGAPORE 068876,35,SO SOFITEL SINGAPORE,1.27989122514925,103.849758445922,103.849758445922,068876,ROBINSON ROAD,SO SOFITEL SINGAPORE,29829.6240714816,29149.3948444054
36 ROBINSON ROAD CITY HOUSE SINGAPORE 068877,36,CITY HOUSE,1.28121591359952,103.849770962773,103.849770962773,068877,ROBINSON ROAD,CITY HOUSE,29831.0161565887,29295.8720600661
50 ROBINSON ROAD ROBINSON SUITES SINGAPORE 068882,50,ROBINSON SUITES,1.28093474456197,103.849822465734,103.849822465734,068882,ROBINSON ROAD,ROBINSON SUITES,29836.7482165415,29264.7818768397
60 ROBINSON ROAD BEA BUILDING SINGAPORE 068892,60,BEA BUILDING,1.28070209665431,103.849698710012,103.849698710012,068892,ROBINSON ROAD,BEA BUILDING,29822.9753759103,29239.0567845311
61 ROBINSON ROAD 61 ROBINSON SINGAPORE 068893,61,61 ROBINSON,1.27930716207372,103.849374179572,103.849374179572,068893,ROBINSON ROAD,61 ROBINSON,29786.8587399675,29084.8118962068
63 ROBINSON ROAD AFRO-ASIA SINGAPORE 068894,63,AFRO-ASIA,1.27892959280574,103.849154891716,103.849154891716,068894,ROBINSON ROAD,AFRO-ASIA,29762.4540279126,29043.0620858148
71 ROBINSON ROAD SINGAPORE 068895,71,NIL,1.27838397079891,103.848812961411,103.848812961411,068895,ROBINSON ROAD,71 ROBINSON ROAD SINGAPORE 068895,29724.4003015468,28982.7297916431
77 ROBINSON ROAD ROBINSON 77 SINGAPORE 068896,77,ROBINSON 77,1.27777076089964,103.84844955536,103.84844955536,068896,ROBINSON ROAD,ROBINSON 77,29683.9565243842,28914.9239690751
79 ROBINSON ROAD CAPITASKY SINGAPORE 068897,79,CAPITASKY,1.27698314545937,103.847950558612,103.847950558612,068897,ROBINSON ROAD,CAPITASKY,29628.422674207,28827.8332033604
80 ROBINSON ROAD SINGAPORE 068898,80,NIL,1.28013746997584,103.849316412731,103.849316412731,068898,ROBINSON ROAD,80 ROBINSON ROAD SINGAPORE 068898,29780.4291845988,29176.6230145171
96 ROBINSON ROAD SIF BUILDING SINGAPORE 068899,96,SIF BUILDING,1.27968299487502,103.849051238227,103.849051238227,068899,ROBINSON ROAD,SIF BUILDING,29750.9177188659,29126.3693232946
108 ROBINSON ROAD SINGAPORE 068900,108,NIL,1.27954844710103,103.848970997768,103.848970997768,068900,ROBINSON ROAD,108 ROBINSON ROAD SINGAPORE 068900,29741.9876950942,29111.4916709904
110 ROBINSON ROAD ERH BUILDING SINGAPORE 068901,110,ERH BUILDING,1.27944364572602,103.848873112675,103.848873112675,068901,ROBINSON ROAD,ERH BUILDING,29731.0939450748,29099.9032102078
112 ROBINSON ROAD ROBINSON 112 SINGAPORE 068902,112,ROBINSON 112,1.27925218893795,103.848823462449,103.848823462449,068902,ROBINSON ROAD,ROBINSON 112,29725.5684035746,29078.7328743581
138 ROBINSON ROAD OXLEY TOWER SINGAPORE 068906,138,OXLEY TOWER,1.27863812647492,103.848395634383,103.848395634383,068906,ROBINSON ROAD,OXLEY TOWER,29677.9549885727,29010.8327367529
140 ROBINSON ROAD TAHIR BUILDING SINGAPORE 068907,140,TAHIR BUILDING,1.27837150438228,103.84827315016,103.84827315016,068907,ROBINSON ROAD,TAHIR BUILDING,29664.3236507652,28981.3509639129
144 ROBINSON ROAD ROBINSON SQUARE SINGAPORE 068908,144,ROBINSON SQUARE,1.27828279692071,103.848113911985,103.848113911985,068908,ROBINSON ROAD,ROBINSON SQUARE,29646.6017765673,28971.5420486964
146 ROBINSON ROAD UOI BUILDING SINGAPORE 068909,146,UOI BUILDING,1.27820572475317,103.848048529892,103.848048529892,068909,ROBINSON ROAD,UOI BUILDING,29639.3253230136,28963.0197649337
39 ROBINSON ROAD ROBINSON POINT SINGAPORE 068911,39,ROBINSON POINT,1.27959202097072,103.849548290907,103.849548290907,068911,ROBINSON ROAD,ROBINSON POINT,29806.2357280515,29116.3102431949
168 ROBINSON ROAD CAPITAL TOWER SINGAPORE 068912,168,CAPITAL TOWER,1.27771180549363,103.847522669143,103.847522669143,068912,ROBINSON ROAD,CAPITAL TOWER,29580.8015408684,28908.4043967221
120 ROBINSON ROAD SINGAPORE 068913,120,NIL,1.27907635162327,103.848684034738,103.848684034738,068913,ROBINSON ROAD,120 ROBINSON ROAD SINGAPORE 068913,29710.0513401143,29059.2895993888
160 ROBINSON ROAD SINGAPORE BUSINESS FEDERATION CENTER (SBF CENTER) SINGAPORE 068914,160,SINGAPORE BUSINESS FEDERATION CENTER (SBF CENTER),1.27815692446258,103.847758637173,103.847758637173,068914,ROBINSON ROAD,SINGAPORE BUSINESS FEDERATION CENTER (SBF CENTER),29607.0626186328,28957.6234979928
22 MOHAMED ALI LANE SINGAPORE 068978,22,NIL,1.28258418141456,103.845954113164,103.845954113164,068978,MOHAMED ALI LANE,22 MOHAMED ALI LANE SINGAPORE 068978,29406.2311566547,29447.1656383704
23 MOHAMED ALI LANE SINGAPORE 068979,23,NIL,1.28260310883909,103.845922897673,103.845922897673,068979,MOHAMED ALI LANE,23 MOHAMED ALI LANE SINGAPORE 068979,29402.7571185557,29449.2585181035
2 MCCALLUM STREET TELOK AYER CONSERVATION AREA SINGAPORE 069043,2,TELOK AYER CONSERVATION AREA,1.27971954532794,103.84751498942,103.84751498942,069043,MCCALLUM STREET,TELOK AYER CONSERVATION AREA,29579.9456228251,29130.4098872449
3 MCCALLUM STREET TELOK AYER CONSERVATION AREA SINGAPORE 069044,3,TELOK AYER CONSERVATION AREA,1.27968475844532,103.847576349037,103.847576349037,069044,MCCALLUM STREET,TELOK AYER CONSERVATION AREA,29586.7744734352,29126.563371338
20 MCCALLUM STREET TOKIO MARINE CENTRE SINGAPORE 069046,20,TOKIO MARINE CENTRE,1.2795516918797,103.847917742092,103.847917742092,069046,MCCALLUM STREET,TOKIO MARINE CENTRE,29624.7688442841,29111.8497715052
21 MCCALLUM STREET THE CLIFT SINGAPORE 069047,21,THE CLIFT,1.27940014288617,103.847329579148,103.847329579148,069047,MCCALLUM STREET,THE CLIFT,29559.3111513574,29095.0919023212
5 MAXWELL ROAD BOARD OF ARCHITECTS (BOA) SINGAPORE 069110,5,BOARD OF ARCHITECTS (BOA),1.27882573535683,103.845990538381,103.845990538381,069110,MAXWELL ROAD,BOARD OF ARCHITECTS (BOA),29410.2870362047,29031.576112425
7 MAXWELL ROAD AMOY STREET FOOD CENTRE SINGAPORE 069111,7,AMOY STREET FOOD CENTRE,1.2793398636571,103.846652482254,103.846652482254,069111,MAXWELL ROAD,AMOY STREET FOOD CENTRE,29483.955767219,29088.4261356071
9 MAXWELL ROAD MND COMPLEX SINGAPORE 069112,9,MND COMPLEX,1.27935389427121,103.846195973221,103.846195973221,069112,MAXWELL ROAD,MND COMPLEX,29433.1499879742,29089.9773092363
20 MAXWELL ROAD MAXWELL HOUSE SINGAPORE 069113,20,MAXWELL HOUSE,1.27899924309962,103.844679920086,103.844679920086,069113,MAXWELL ROAD,MAXWELL HOUSE,29264.4256832078,29050.7610198855
30 MAXWELL ROAD SINGAPORE 069114,30,NIL,1.27772899534126,103.845284783286,103.845284783286,069114,MAXWELL ROAD,30 MAXWELL ROAD SINGAPORE 069114,29331.7427383745,28910.3038943075
32 MAXWELL ROAD MAXWELL CHAMBERS SINGAPORE 069115,32,MAXWELL CHAMBERS,1.2773451122349,103.846329050735,103.846329050735,069115,MAXWELL ROAD,MAXWELL CHAMBERS,29447.9615652701,28867.8566490337
38 MAXWELL ROAD AIR VIEW BUILDING SINGAPORE 069116,38,AIR VIEW BUILDING,1.27909643739385,103.845003837231,103.845003837231,069116,MAXWELL ROAD,AIR VIEW BUILDING,29300.4750031549,29061.5084242038
45 MAXWELL ROAD COMPETITION COMMISSION OF SINGAPORE (CCS) SINGAPORE 069118,45,COMPETITION COMMISSION OF SINGAPORE (CCS),1.2795512783646,103.845209377351,103.845209377351,069118,MAXWELL ROAD,COMPETITION COMMISSION OF SINGAPORE (CCS),29323.3497291692,29111.8024929147
120 MAXWELL ROAD CITIBANK TANJONG PAGAR SMRT STATION SINGAPORE 069119,120,CITIBANK TANJONG PAGAR SMRT STATION,1.27653178866522,103.845560901318,103.845560901318,069119,MAXWELL ROAD,CITIBANK TANJONG PAGAR SMRT STATION,29362.473095811,28777.9231142905
28 MAXWELL ROAD MAXWELL CHAMBERS SUITES SINGAPORE 069120,28,MAXWELL CHAMBERS SUITES,1.27829805482346,103.845576334397,103.845576334397,069120,MAXWELL ROAD,MAXWELL CHAMBERS SUITES,29364.189744507,28973.2277029771
151A MAXWELL ROAD TEMPORARY SITE OFFICE SINGAPORE 069121,151A,TEMPORARY SITE OFFICE,1.27679586542025,103.851236558923,103.851236558923,069121,MAXWELL ROAD,TEMPORARY SITE OFFICE,29994.1284744944,28807.1270573083
5 KADAYANALLUR STREET SINGAPORE 069183,5,NIL,1.28051562086669,103.845224290333,103.845224290333,069183,KADAYANALLUR STREET,5 KADAYANALLUR STREET SINGAPORE 069183,29325.0089292321,29218.4345110599
1 KADAYANALLUR STREET MAXWELL FOOD CENTRE SINGAPORE 069184,1,MAXWELL FOOD CENTRE,1.28033024426042,103.844733511515,103.844733511515,069184,KADAYANALLUR STREET,MAXWELL FOOD CENTRE,29270.3893235028,29197.9362757877
2 GEMMILL LANE SINGAPORE 069247,2,NIL,1.28260786701014,103.846906118397,103.846906118397,069247,GEMMILL LANE,2 GEMMILL LANE SINGAPORE 069247,29512.1815095386,29449.7852112893
4 GEMMILL LANE SINGAPORE 069248,4,NIL,1.282562220533,103.846929930455,103.846929930455,069248,GEMMILL LANE,4 GEMMILL LANE SINGAPORE 069248,29514.8316228529,29444.7378736641
6 GEMMILL LANE SINGAPORE 069249,6,NIL,1.2825029626147,103.84691497807,103.84691497807,069249,GEMMILL LANE,6 GEMMILL LANE SINGAPORE 069249,29513.1675799126,29438.1854302809
8 GEMMILL LANE SINGAPORE 069250,8,NIL,1.28246394515368,103.846934370383,103.846934370383,069250,GEMMILL LANE,8 GEMMILL LANE SINGAPORE 069250,29515.3258082233,29433.8710924182
10 GEMMILL LANE SINGAPORE 069251,10,NIL,1.2824248138127,103.846955044761,103.846955044761,069251,GEMMILL LANE,10 GEMMILL LANE SINGAPORE 069251,29517.6267198091,29429.5441630743
12 GEMMILL LANE SINGAPORE 069252,12,NIL,1.28238691783235,103.84697503514,103.84697503514,069252,GEMMILL LANE,12 GEMMILL LANE SINGAPORE 069252,29519.8515074169,29425.3538331408
14 GEMMILL LANE ALLAN VILLE SINGAPORE 069253,14,ALLAN VILLE,1.28231530636097,103.847007741278,103.847007741278,069253,GEMMILL LANE,ALLAN VILLE,29523.4914746024,29417.4354259204
16 GEMMILL LANE SINGAPORE 069254,16,NIL,1.28227194610064,103.84708236161,103.84708236161,069254,GEMMILL LANE,16 GEMMILL LANE SINGAPORE 069254,29531.7961315634,29412.6409167629
18 GEMMILL LANE SINGAPORE 069255,18,NIL,1.28223087658957,103.847128708812,103.847128708812,069255,GEMMILL LANE,18 GEMMILL LANE SINGAPORE 069255,29536.9542197399,29408.0996900946
20 GEMMILL LANE SINGAPORE 069256,20,NIL,1.28218928698677,103.847174707616,103.847174707616,069256,GEMMILL LANE,20 GEMMILL LANE SINGAPORE 069256,29542.0735346302,29403.5009542555
22 GEMMILL LANE SINGAPORE 069257,22,NIL,1.28215090984154,103.847233960329,103.847233960329,069257,GEMMILL LANE,22 GEMMILL LANE SINGAPORE 069257,29548.6678991709,29399.2574434746
5 GEMMILL LANE THE BOX SINGAPORE 069261,5,THE BOX,1.28248343188784,103.847246505632,103.847246505632,069261,GEMMILL LANE,THE BOX,29550.0638888478,29436.0260215197
7 ERSKINE ROAD TELOK AYER CONSERVATION AREA SINGAPORE 069320,7,TELOK AYER CONSERVATION AREA,1.28121372440737,103.845162755022,103.845162755022,069320,ERSKINE ROAD,TELOK AYER CONSERVATION AREA,29318.1601925567,29295.6271618102
33 ERSKINE ROAD THE SCARLET HOTEL SINGAPORE 069333,33,THE SCARLET HOTEL,1.28062788413857,103.845481178183,103.845481178183,069333,ERSKINE ROAD,THE SCARLET HOTEL,29353.5984019125,29230.8481376152
1 CLUB STREET SINGAPORE 069400,1,NIL,1.28268935714372,103.847244617099,103.847244617099,069400,CLUB STREET,1 CLUB STREET SINGAPORE 069400,29549.8535868973,29458.7961716503
3 CLUB STREET SINGAPORE 069401,3,NIL,1.28265578395482,103.847214222954,103.847214222954,069401,CLUB STREET,3 CLUB STREET SINGAPORE 069401,29546.470988377,29455.083803447
5 CLUB STREET SINGAPORE 069402,5,NIL,1.28262578625287,103.847186283355,103.847186283355,069402,CLUB STREET,5 CLUB STREET SINGAPORE 069402,29543.3615584094,29451.7667956464
7 CLUB STREET SINGAPORE 069403,7,NIL,1.28260032897856,103.84715497571,103.84715497571,069403,CLUB STREET,7 CLUB STREET SINGAPORE 069403,29539.877289732,29448.9518428929
9 CLUB STREET SINGAPORE 069404,9,NIL,1.28256750720869,103.847120343197,103.847120343197,069404,CLUB STREET,9 CLUB STREET SINGAPORE 069404,29536.0229949532,29445.3225603066
11 CLUB STREET SINGAPORE 069405,11,NIL,1.28253890075268,103.846811435899,103.846811435899,069405,CLUB STREET,11 CLUB STREET SINGAPORE 069405,29501.644165027,29442.1592230592
13 CLUB STREET SINGAPORE 069406,13,NIL,1.28253890047895,103.846811436171,103.846811436171,069406,CLUB STREET,13 CLUB STREET SINGAPORE 069406,29501.6441952949,29442.1591927912
21 CLUB STREET SINGAPORE 069410,21,NIL,1.28239536149012,103.846804252159,103.846804252159,069410,CLUB STREET,21 CLUB STREET SINGAPORE 069410,29500.8447573092,29426.2873885613
25 CLUB STREET TELOK AYER CONSERVATION AREA SINGAPORE 069412,25,TELOK AYER CONSERVATION AREA,1.28233242057887,103.846616751111,103.846616751111,069412,CLUB STREET,TELOK AYER CONSERVATION AREA,29479.9774645111,29419.3275986537
27 CLUB STREET TELOK AYER CONSERVATION AREA SINGAPORE 069413,27,TELOK AYER CONSERVATION AREA,1.28236174300161,103.846537008422,103.846537008422,069413,CLUB STREET,TELOK AYER CONSERVATION AREA,29471.1027403455,29422.5698748007
29 CLUB STREET TELOK AYER CONSERVATION AREA SINGAPORE 069414,29,TELOK AYER CONSERVATION AREA,1.28234123984669,103.846484965307,103.846484965307,069414,CLUB STREET,TELOK AYER CONSERVATION AREA,29465.310780053,29420.3027120177
33 CLUB STREET EMERALD GARDEN SINGAPORE 069415,33,EMERALD GARDEN,1.28154862924483,103.846472570061,103.846472570061,069415,CLUB STREET,EMERALD GARDEN,29463.9317404469,29332.6599188168
38 CLUB STREET TELOK AYER CONSERVATION AREA SINGAPORE 069418,38,TELOK AYER CONSERVATION AREA,1.28244150414679,103.845944429532,103.845944429532,069418,CLUB STREET,TELOK AYER CONSERVATION AREA,29405.1535256309,29431.3891177531
40 CLUB STREET TELOK AYER CONSERVATION AREA SINGAPORE 069419,40,TELOK AYER CONSERVATION AREA,1.28239580367912,103.845927948223,103.845927948223,069419,CLUB STREET,TELOK AYER CONSERVATION AREA,29403.3193160854,29426.3357870672
42 CLUB STREET TELOK AYER CONSERVATION AREA SINGAPORE 069420,42,TELOK AYER CONSERVATION AREA,1.28236926435815,103.845889412724,103.845889412724,069420,CLUB STREET,TELOK AYER CONSERVATION AREA,29399.030645472,29423.4011849742
44 CLUB STREET TELOK AYER CONSERVATION AREA SINGAPORE 069421,44,TELOK AYER CONSERVATION AREA,1.28233574695088,103.845867835039,103.845867835039,069421,CLUB STREET,TELOK AYER CONSERVATION AREA,29396.6292441804,29419.6949914396
45 CLUB STREET TELOK AYER CONSERVATION AREA SINGAPORE 069422,45,TELOK AYER CONSERVATION AREA,1.28223944638499,103.846126651686,103.846126651686,069422,CLUB STREET,TELOK AYER CONSERVATION AREA,29425.4334682049,29409.0467147678
46 CLUB STREET TELOK AYER CONSERVATION AREA SINGAPORE 069423,46,TELOK AYER CONSERVATION AREA,1.28230070813605,103.845846090901,103.845846090901,069423,CLUB STREET,TELOK AYER CONSERVATION AREA,29394.2093188819,29415.8205684517
47 CLUB STREET SINGAPORE 069424,47,NIL,1.28210182685607,103.846122258151,103.846122258151,069424,CLUB STREET,47 CLUB STREET SINGAPORE 069424,29424.9445797317,29393.8294556867
48 CLUB STREET TELOK AYER CONSERVATION AREA SINGAPORE 069425,48,TELOK AYER CONSERVATION AREA,1.28225842554796,103.845819480921,103.845819480921,069425,CLUB STREET,TELOK AYER CONSERVATION AREA,29391.2478690874,29411.1451638117
49 CLUB STREET TELOK AYER CONSERVATION AREA SINGAPORE 069426,49,TELOK AYER CONSERVATION AREA,1.28205795364722,103.846087868472,103.846087868472,069426,CLUB STREET,TELOK AYER CONSERVATION AREA,29421.1173142632,29388.9781637918
50 CLUB STREET TELOK AYER CONSERVATION AREA SINGAPORE 069427,50,TELOK AYER CONSERVATION AREA,1.28221109423271,103.845791839338,103.845791839338,069427,CLUB STREET,TELOK AYER CONSERVATION AREA,29388.1716128299,29405.9114964791
51 CLUB STREET LIBERTY HOUSE SINGAPORE 069428,51,LIBERTY HOUSE,1.28195469287894,103.846015585258,103.846015585258,069428,CLUB STREET,LIBERTY HOUSE,29413.0728408908,29377.5600814912
52 CLUB STREET TELOK AYER CONSERVATION AREA SINGAPORE 069429,52,TELOK AYER CONSERVATION AREA,1.28217089694713,103.845764213292,103.845764213292,069429,CLUB STREET,TELOK AYER CONSERVATION AREA,29385.0970818484,29401.4666733388
54 CLUB STREET TELOK AYER CONSERVATION AREA SINGAPORE 069431,54,TELOK AYER CONSERVATION AREA,1.28213284679654,103.845742020392,103.845742020392,069431,CLUB STREET,TELOK AYER CONSERVATION AREA,29382.6272143768,29397.2592722606
56 CLUB STREET TELOK AYER CONSERVATION AREA SINGAPORE 069432,56,TELOK AYER CONSERVATION AREA,1.28209706999625,103.845720293389,103.845720293389,069432,CLUB STREET,TELOK AYER CONSERVATION AREA,29380.2091959612,29393.3032467887
58 CLUB STREET TELOK AYER CONSERVATION AREA SINGAPORE 069433,58,TELOK AYER CONSERVATION AREA,1.28206248858436,103.845699292278,103.845699292278,069433,CLUB STREET,TELOK AYER CONSERVATION AREA,29377.871962795,29389.4794016033
59 CLUB STREET SINGAPORE 069434,59,NIL,1.28183563695404,103.846150005065,103.846150005065,069434,CLUB STREET,59 CLUB STREET SINGAPORE 069434,29428.0327313067,29364.3955667969
60 CLUB STREET SINGAPORE 069435,60,NIL,1.28202298136523,103.845674434345,103.845674434345,069435,CLUB STREET,60 CLUB STREET SINGAPORE 069435,29375.1054993514,29385.110884048
61 CLUB STREET TELOK AYER CONSERVATION AREA SINGAPORE 069436,61,TELOK AYER CONSERVATION AREA,1.28178430687849,103.846190926703,103.846190926703,069436,CLUB STREET,TELOK AYER CONSERVATION AREA,29432.5870034769,29358.7197750267
63 CLUB STREET TELOK AYER CONSERVATION AREA SINGAPORE 069437,63,TELOK AYER CONSERVATION AREA,1.28174542319457,103.846226824853,103.846226824853,069437,CLUB STREET,TELOK AYER CONSERVATION AREA,29436.5821957197,29354.4202382062
64 CLUB STREET TELOK AYER CONSERVATION AREA SINGAPORE 069438,64,TELOK AYER CONSERVATION AREA,1.28149217186583,103.845974798167,103.845974798167,069438,CLUB STREET,TELOK AYER CONSERVATION AREA,29408.5338237844,29326.4168747626
65 CLUB STREET TELOK AYER CONSERVATION AREA SINGAPORE 069439,65,TELOK AYER CONSERVATION AREA,1.28170485630724,103.846266375,103.846266375,069439,CLUB STREET,TELOK AYER CONSERVATION AREA,29440.9838264473,29349.9345835559
66 CLUB STREET TELOK AYER CONSERVATION AREA SINGAPORE 069440,66,TELOK AYER CONSERVATION AREA,1.28146014629911,103.846009289452,103.846009289452,069440,CLUB STREET,TELOK AYER CONSERVATION AREA,29412.3724397467,29322.8756720088
68 CLUB STREET TELOK AYER CONSERVATION AREA SINGAPORE 069442,68,TELOK AYER CONSERVATION AREA,1.28143422393628,103.846033187554,103.846033187554,069442,CLUB STREET,TELOK AYER CONSERVATION AREA,29415.032117744,29320.0093242191
70 CLUB STREET TELOK AYER CONSERVATION AREA SINGAPORE 069443,70,TELOK AYER CONSERVATION AREA,1.28140472031876,103.846058151215,103.846058151215,069443,CLUB STREET,TELOK AYER CONSERVATION AREA,29417.8103857022,29316.746980397
76 CLUB STREET TELOK AYER CONSERVATION AREA SINGAPORE 069446,76,TELOK AYER CONSERVATION AREA,1.28115055988004,103.846250283051,103.846250283051,069446,CLUB STREET,TELOK AYER CONSERVATION AREA,29439.1932330672,29288.6433391236
80 CLUB STREET TELOK AYER CONSERVATION AREA SINGAPORE 069448,80,TELOK AYER CONSERVATION AREA,1.2819830813439,103.845648548093,103.845648548093,069448,CLUB STREET,TELOK AYER CONSERVATION AREA,29372.2245926606,29380.698931938
81 CLUB STREET TELOK AYER CONSERVATION AREA SINGAPORE 069449,81,TELOK AYER CONSERVATION AREA,1.28180467094843,103.845810938608,103.845810938608,069449,CLUB STREET,TELOK AYER CONSERVATION AREA,29390.2974241301,29360.9713195302
82 CLUB STREET TELOK AYER CONSERVATION AREA SINGAPORE 069450,82,TELOK AYER CONSERVATION AREA,1.28194778822996,103.845626622556,103.845626622556,069450,CLUB STREET,TELOK AYER CONSERVATION AREA,29369.7844786178,29376.7963899933
83 CLUB STREET TELOK AYER CONSERVATION AREA SINGAPORE 069451,83,TELOK AYER CONSERVATION AREA,1.28169478616394,103.845838770348,103.845838770348,069451,CLUB STREET,TELOK AYER CONSERVATION AREA,29393.3949285122,29348.8208428267
84 CLUB STREET TELOK AYER CONSERVATION AREA SINGAPORE 069452,84,TELOK AYER CONSERVATION AREA,1.28191160986384,103.845604564295,103.845604564295,069452,CLUB STREET,TELOK AYER CONSERVATION AREA,29367.3295937981,29372.7959613893
85 CLUB STREET SINGAPORE 069453,85,NIL,1.28164940522818,103.84580464965,103.84580464965,069453,CLUB STREET,85 CLUB STREET SINGAPORE 069453,29389.5975980787,29343.8028348777
86 CLUB STREET TELOK AYER CONSERVATION AREA SINGAPORE 069454,86,TELOK AYER CONSERVATION AREA,1.28187465574041,103.845582033348,103.845582033348,069454,CLUB STREET,TELOK AYER CONSERVATION AREA,29364.8221032228,29368.7097533196
87 CLUB STREET TELOK AYER CONSERVATION AREA SINGAPORE 069455,87,TELOK AYER CONSERVATION AREA,1.28160562425123,103.845772633461,103.845772633461,069455,CLUB STREET,TELOK AYER CONSERVATION AREA,29386.0344813038,29338.9617432952
88 CLUB STREET TELOK AYER CONSERVATION AREA SINGAPORE 069456,88,TELOK AYER CONSERVATION AREA,1.28183135130523,103.845555151946,103.845555151946,069456,CLUB STREET,TELOK AYER CONSERVATION AREA,29361.8304459807,29363.9213582948
89 CLUB STREET TELOK AYER CONSERVATION AREA SINGAPORE 069457,89,TELOK AYER CONSERVATION AREA,1.28161589480172,103.845698522094,103.845698522094,069457,CLUB STREET,TELOK AYER CONSERVATION AREA,29377.7864860091,29340.0973677766
90 CLUB STREET TELOK AYER CONSERVATION AREA SINGAPORE 069458,90,TELOK AYER CONSERVATION AREA,1.28178385630118,103.845526123599,103.845526123599,069458,CLUB STREET,TELOK AYER CONSERVATION AREA,29358.5998532744,29358.6695907097
91 CLUB STREET TELOK AYER CONSERVATION AREA SINGAPORE 069459,91,TELOK AYER CONSERVATION AREA,1.28158126519125,103.845681888818,103.845681888818,069459,CLUB STREET,TELOK AYER CONSERVATION AREA,29375.9353566607,29336.2681954242
92 CLUB STREET TELOK AYER CONSERVATION AREA SINGAPORE 069460,92,TELOK AYER CONSERVATION AREA,1.28173790760539,103.845499022435,103.845499022435,069460,CLUB STREET,TELOK AYER CONSERVATION AREA,29355.5837395005,29353.5888069626
93 CLUB STREET TELOK AYER CONSERVATION AREA SINGAPORE 069461,93,TELOK AYER CONSERVATION AREA,1.28154677627478,103.84566621913,103.84566621913,069461,CLUB STREET,TELOK AYER CONSERVATION AREA,29374.1914667785,29332.4545808155
94 CLUB STREET TELOK AYER CONSERVATION AREA SINGAPORE 069462,94,TELOK AYER CONSERVATION AREA,1.28169152559954,103.845469901082,103.845469901082,069462,CLUB STREET,TELOK AYER CONSERVATION AREA,29352.3427951438,29348.4601089973
95 CLUB STREET TELOK AYER CONSERVATION AREA SINGAPORE 069463,95,TELOK AYER CONSERVATION AREA,1.28152329016148,103.845628962461,103.845628962461,069463,CLUB STREET,TELOK AYER CONSERVATION AREA,29370.0451162253,29329.8575878125
96 CLUB STREET SINGAPORE 069464,96,NIL,1.28164794387453,103.845442388986,103.845442388986,069464,CLUB STREET,96 CLUB STREET SINGAPORE 069464,29349.2809464475,29343.641052505
97 CLUB STREET TELOK AYER CONSERVATION AREA SINGAPORE 069465,97,TELOK AYER CONSERVATION AREA,1.28152329016151,103.845628962189,103.845628962189,069465,CLUB STREET,TELOK AYER CONSERVATION AREA,29370.0450859573,29329.8575878125
98 CLUB STREET SINGAPORE 069467,98,NIL,1.28158604881763,103.845424297012,103.845424297012,069467,CLUB STREET,98 CLUB STREET SINGAPORE 069467,29347.2674899027,29336.797007367
31 CLUB STREET EMERALD GARDEN SINGAPORE 069468,31,EMERALD GARDEN,1.2823369082896,103.846326282461,103.846326282461,069468,CLUB STREET,EMERALD GARDEN,29447.6506828088,29419.8236606382
36 CLUB STREET SINGAPORE 069469,36,NIL,1.28255085834467,103.846099952073,103.846099952073,069469,CLUB STREET,36 CLUB STREET SINGAPORE 069469,29422.4618483679,29443.4810259081
72 CLUB STREET TELOK AYER CONSERVATION AREA SINGAPORE 069471,72,TELOK AYER CONSERVATION AREA,1.2813466172082,103.84611105715,103.84611105715,069471,CLUB STREET,TELOK AYER CONSERVATION AREA,29423.6984165739,29310.3222679049
8 CLUB STREET SINGAPORE 069472,8,NIL,1.28292680798254,103.846518781738,103.846518781738,069472,CLUB STREET,8 CLUB STREET SINGAPORE 069472,29469.073937933,29485.0518314447
90 CECIL STREET RHB BANK BUILDING SINGAPORE 069531,90,RHB BANK BUILDING,1.28135909021061,103.849076888902,103.849076888902,069531,CECIL STREET,RHB BANK BUILDING,29753.7712935675,29311.7033051979
100 CECIL STREET THE GLOBE SINGAPORE 069532,100,THE GLOBE,1.28113033413972,103.848963445514,103.848963445514,069532,CECIL STREET,THE GLOBE,29741.1461240752,29286.4085630812
101 CECIL STREET AGAPE LITTLE UNI. @ CECIL PTE. LTD. SINGAPORE 069533,101,AGAPE LITTLE UNI. @ CECIL PTE. LTD.,1.28096623481924,103.849392501855,103.849392501855,069533,CECIL STREET,AGAPE LITTLE UNI. @ CECIL PTE. LTD.,29788.8967135791,29268.2636030074
105 CECIL STREET GENIUS HIVE PRE-SCHOOL PTE. LTD. SINGAPORE 069534,105,GENIUS HIVE PRE-SCHOOL PTE. LTD.,1.28054975235403,103.849195746277,103.849195746277,069534,CECIL STREET,GENIUS HIVE PRE-SCHOOL PTE. LTD.,29766.9997039745,29222.2109868526
133 CECIL STREET KECK SENG TOWER SINGAPORE 069535,133,KECK SENG TOWER,1.28022346789655,103.849001802657,103.849001802657,069535,CECIL STREET,KECK SENG TOWER,29745.415574518,29186.1320042815
135 CECIL STREET PHILIPPINE AIRLINES BUILDING SINGAPORE 069536,135,PHILIPPINE AIRLINES BUILDING,1.2798712417767,103.848712033536,103.848712033536,069536,CECIL STREET,PHILIPPINE AIRLINES BUILDING,29713.1668539466,29147.1844643578
137 CECIL STREET CECIL BUILDING SINGAPORE 069537,137,CECIL BUILDING,1.27967894092681,103.84859453785,103.84859453785,069537,CECIL STREET,CECIL BUILDING,29700.0906612286,29125.9207517765
138 CECIL STREET CECIL COURT SINGAPORE 069538,138,CECIL COURT,1.28081024275668,103.848653243425,103.848653243425,069538,CECIL STREET,CECIL COURT,29706.6233698865,29251.0143028386
139 CECIL STREET YSY BUILDING SINGAPORE 069539,139,YSY BUILDING,1.27942210260905,103.848518673225,103.848518673225,069539,CECIL STREET,YSY BUILDING,29691.6477098502,29097.5208474789
140 CECIL STREET CONSULATE OF THE UNITED REPUBLIC OF TANZANIA SINGAPORE 069540,140,CONSULATE OF THE UNITED REPUBLIC OF TANZANIA,1.28047232867075,103.84846598588,103.84846598588,069540,CECIL STREET,CONSULATE OF THE UNITED REPUBLIC OF TANZANIA,29685.7833485417,29213.6493849792
141 CECIL STREET DA LITTLE PRESCHOOL AT CECIL PRIVATE LIMITED SINGAPORE 069541,141,DA LITTLE PRESCHOOL AT CECIL PRIVATE LIMITED,1.27925617613756,103.848411737205,103.848411737205,069541,CECIL STREET,DA LITTLE PRESCHOOL AT CECIL PRIVATE LIMITED,29679.7467018692,29079.1734853964
143 CECIL STREET GB BUILDING SINGAPORE 069542,143,GB BUILDING,1.27874353231128,103.848066365158,103.848066365158,069542,CECIL STREET,GB BUILDING,29641.309903902,29022.4877568297
150 CECIL STREET WING ON LIFE BLDG SINGAPORE 069543,150,WING ON LIFE BLDG,1.28027388281058,103.848342935718,103.848342935718,069543,CECIL STREET,WING ON LIFE BLDG,29672.0889927922,29191.7061864305
156 CECIL STREET FAR EASTERN BANK BUILDING SINGAPORE 069544,156,FAR EASTERN BANK BUILDING,1.28000591832163,103.848175458712,103.848175458712,069544,CECIL STREET,FAR EASTERN BANK BUILDING,29653.4503316348,29162.0759491306
158 CECIL STREET SINGAPORE 069545,158,NIL,1.27978878392412,103.848043260257,103.848043260257,069545,CECIL STREET,158 CECIL STREET SINGAPORE 069545,29638.7378517175,29138.0662645306
180 CECIL STREET BANGKOK BANK BUILDING SINGAPORE 069546,180,BANGKOK BANK BUILDING,1.27917797479926,103.847686114387,103.847686114387,069546,CECIL STREET,BANGKOK BANK BUILDING,29598.9907830032,29070.5259224474
182 CECIL STREET FRASERS TOWER SINGAPORE 069547,182,FRASERS TOWER,1.2790292141921,103.847412918299,103.847412918299,069547,CECIL STREET,FRASERS TOWER,29568.5863512158,29054.076574821
1 BOON TAT STREET TELOK AYER CONSERVATION AREA SINGAPORE 069611,1,TELOK AYER CONSERVATION AREA,1.2818057378068,103.847756128245,103.847756128245,069611,BOON TAT STREET,TELOK AYER CONSERVATION AREA,29606.7811263846,29361.0904240459
3 BOON TAT STREET TELOK AYER CONSERVATION AREA SINGAPORE 069612,3,TELOK AYER CONSERVATION AREA,1.28180573753308,103.847756127973,103.847756127973,069612,BOON TAT STREET,TELOK AYER CONSERVATION AREA,29606.7810961166,29361.0903937779
5 BOON TAT STREET TELOK AYER CONSERVATION AREA SINGAPORE 069613,5,TELOK AYER CONSERVATION AREA,1.28177471590875,103.847805829412,103.847805829412,069613,BOON TAT STREET,TELOK AYER CONSERVATION AREA,29612.3124793367,29357.6602139883
7 BOON TAT STREET TELOK AYER CONSERVATION AREA SINGAPORE 069614,7,TELOK AYER CONSERVATION AREA,1.2814894215702,103.84817372365,103.84817372365,069614,BOON TAT STREET,TELOK AYER CONSERVATION AREA,29653.2562835915,29326.1140738539
9 BOON TAT STREET TELOK AYER CONSERVATION AREA SINGAPORE 069615,9,TELOK AYER CONSERVATION AREA,1.28146688517429,103.848213113404,103.848213113404,069615,BOON TAT STREET,TELOK AYER CONSERVATION AREA,29657.6400562087,29323.6221410222
11 BOON TAT STREET TELOK AYER CONSERVATION AREA SINGAPORE 069616,11,TELOK AYER CONSERVATION AREA,1.28144452888628,103.848253833633,103.848253833633,069616,BOON TAT STREET,TELOK AYER CONSERVATION AREA,29662.171899803,29321.1501245238
15 BOON TAT STREET TELOK AYER CONSERVATION AREA SINGAPORE 069617,15,TELOK AYER CONSERVATION AREA,1.28142087920861,103.848294637349,103.848294637349,069617,BOON TAT STREET,TELOK AYER CONSERVATION AREA,29666.7130356682,29318.5350918025
17 BOON TAT STREET TELOK AYER CONSERVATION AREA SINGAPORE 069618,17,TELOK AYER CONSERVATION AREA,1.28145934697231,103.848376990746,103.848376990746,069618,BOON TAT STREET,TELOK AYER CONSERVATION AREA,29675.878271942,29322.7887120917
19 BOON TAT STREET TELOK AYER CONSERVATION AREA SINGAPORE 069619,19,TELOK AYER CONSERVATION AREA,1.28139626548713,103.848466655722,103.848466655722,069619,BOON TAT STREET,TELOK AYER CONSERVATION AREA,29685.8572932258,29315.8135460466
21 BOON TAT STREET TELOK AYER CONSERVATION AREA SINGAPORE 069620,21,TELOK AYER CONSERVATION AREA,1.28137023537776,103.848515167851,103.848515167851,069620,BOON TAT STREET,TELOK AYER CONSERVATION AREA,29691.2563145533,29312.9353029393
23 BOON TAT STREET TELOK AYER CONSERVATION AREA SINGAPORE 069621,23,TELOK AYER CONSERVATION AREA,1.28134338462438,103.848562258662,103.848562258662,069621,BOON TAT STREET,TELOK AYER CONSERVATION AREA,29696.4971553981,29309.9663164169
25 BOON TAT STREET TELOK AYER CONSERVATION AREA SINGAPORE 069622,25,TELOK AYER CONSERVATION AREA,1.28131631077741,103.84860939897,103.84860939897,069622,BOON TAT STREET,TELOK AYER CONSERVATION AREA,29701.743505016,29306.9726614878
27 BOON TAT STREET SINGAPORE 069623,27,NIL,1.28128948630309,103.848656090528,103.848656090528,069623,BOON TAT STREET,27 BOON TAT STREET SINGAPORE 069623,29706.9399124598,29304.0065806918
29 BOON TAT STREET TELOK AYER CONSERVATION AREA SINGAPORE 069624,29,TELOK AYER CONSERVATION AREA,1.28126132464001,103.848703122039,103.848703122039,069624,BOON TAT STREET,TELOK AYER CONSERVATION AREA,29712.1741548842,29300.8926407937
31 BOON TAT STREET EAGLES CENTER SINGAPORE 069625,31,EAGLES CENTER,1.28122604917694,103.848754344012,103.848754344012,069625,BOON TAT STREET,EAGLES CENTER,29717.8747664019,29296.9920965359
5 ANN SIANG ROAD TELOK AYER CONSERVATION AREA SINGAPORE 069688,5,TELOK AYER CONSERVATION AREA,1.28134247419849,103.845679513109,103.845679513109,069688,ANN SIANG ROAD,TELOK AYER CONSERVATION AREA,29375.6710868943,29309.8639198281
7 ANN SIANG ROAD TELOK AYER CONSERVATION AREA SINGAPORE 069689,7,TELOK AYER CONSERVATION AREA,1.28131239950476,103.845719392391,103.845719392391,069689,ANN SIANG ROAD,TELOK AYER CONSERVATION AREA,29380.1093418831,29306.5384369921
9 ANN SIANG ROAD SINGAPORE 069690,9,NIL,1.28128080559581,103.845758519399,103.845758519399,069690,ANN SIANG ROAD,9 ANN SIANG ROAD SINGAPORE 069690,29384.463875629,29303.0449668486
11 ANN SIANG ROAD TELOK AYER CONSERVATION AREA SINGAPORE 069691,11,TELOK AYER CONSERVATION AREA,1.28124555137579,103.845787924295,103.845787924295,069691,ANN SIANG ROAD,TELOK AYER CONSERVATION AREA,29387.7364197606,29299.1467532255
12 ANN SIANG ROAD SINGAPORE 069692,12,NIL,1.2812462923494,103.845452099401,103.845452099401,069692,ANN SIANG ROAD,12 ANN SIANG ROAD SINGAPORE 069692,29350.3618464135,29299.2285070494
13 ANN SIANG ROAD TELOK AYER CONSERVATION AREA SINGAPORE 069693,13,TELOK AYER CONSERVATION AREA,1.28121598969258,103.845820355966,103.845820355966,069693,ANN SIANG ROAD,TELOK AYER CONSERVATION AREA,29391.3458162826,29295.8779925909
14 ANN SIANG ROAD SINGAPORE 069694,14,NIL,1.28117535230488,103.845497139928,103.845497139928,069694,ANN SIANG ROAD,14 ANN SIANG ROAD SINGAPORE 069694,29355.3745271973,29291.3843471929
15 ANN SIANG ROAD TELOK AYER CONSERVATION AREA SINGAPORE 069695,15,TELOK AYER CONSERVATION AREA,1.2811812232698,103.845848609616,103.845848609616,069695,ANN SIANG ROAD,TELOK AYER CONSERVATION AREA,29394.4902360393,29292.0337165166
16 ANN SIANG ROAD TELOK AYER CONSERVATION AREA SINGAPORE 069696,16,TELOK AYER CONSERVATION AREA,1.28112935547188,103.845518893188,103.845518893188,069696,ANN SIANG ROAD,TELOK AYER CONSERVATION AREA,29357.7955118753,29286.2982665487
17 ANN SIANG ROAD SINGAPORE 069697,17,NIL,1.28114500717136,103.845873861532,103.845873861532,069697,ANN SIANG ROAD,17 ANN SIANG ROAD SINGAPORE 069697,29397.3005880592,29288.0291411988
18 ANN SIANG ROAD TELOK AYER CONSERVATION AREA SINGAPORE 069698,18,TELOK AYER CONSERVATION AREA,1.28108472918143,103.845548677983,103.845548677983,069698,ANN SIANG ROAD,TELOK AYER CONSERVATION AREA,29361.1103403801,29281.3637377005
19 ANN SIANG ROAD TELOK AYER CONSERVATION AREA SINGAPORE 069699,19,TELOK AYER CONSERVATION AREA,1.28110805746985,103.845898767226,103.845898767226,069699,ANN SIANG ROAD,TELOK AYER CONSERVATION AREA,29400.072408936,29283.943447683
20 ANN SIANG ROAD TELOK AYER CONSERVATION AREA SINGAPORE 069700,20,TELOK AYER CONSERVATION AREA,1.28103576177953,103.845574099006,103.845574099006,069700,ANN SIANG ROAD,TELOK AYER CONSERVATION AREA,29363.9395190859,29275.9491888955
21 ANN SIANG ROAD TELOK AYER CONSERVATION AREA SINGAPORE 069701,21,TELOK AYER CONSERVATION AREA,1.2810704557321,103.845924472506,103.845924472506,069701,ANN SIANG ROAD,TELOK AYER CONSERVATION AREA,29402.9332176847,29279.7856558319
22 ANN SIANG ROAD TELOK AYER CONSERVATION AREA SINGAPORE 069702,22,TELOK AYER CONSERVATION AREA,1.2809857180557,103.845600234487,103.845600234487,069702,ANN SIANG ROAD,TELOK AYER CONSERVATION AREA,29366.8482117848,29270.4156263806
23 ANN SIANG ROAD TELOK AYER CONSERVATION AREA SINGAPORE 069703,23,TELOK AYER CONSERVATION AREA,1.28103289014168,103.845947179051,103.845947179051,069703,ANN SIANG ROAD,TELOK AYER CONSERVATION AREA,29405.4602916455,29275.6318593547
24 ANN SIANG ROAD TELOK AYER CONSERVATION AREA SINGAPORE 069704,24,TELOK AYER CONSERVATION AREA,1.28093605700182,103.845628133963,103.845628133963,069704,ANN SIANG ROAD,TELOK AYER CONSERVATION AREA,29369.9532226268,29264.9243785068
25 ANN SIANG ROAD TELOK AYER CONSERVATION AREA SINGAPORE 069705,25,TELOK AYER CONSERVATION AREA,1.28099709121178,103.845972351279,103.845972351279,069705,ANN SIANG ROAD,TELOK AYER CONSERVATION AREA,29408.2617751462,29271.6734124441
26 ANN SIANG ROAD TELOK AYER CONSERVATION AREA SINGAPORE 069706,26,TELOK AYER CONSERVATION AREA,1.28088495118932,103.845655081809,103.845655081809,069706,ANN SIANG ROAD,TELOK AYER CONSERVATION AREA,29372.952325793,29259.2733762152
27 ANN SIANG ROAD TELOK AYER CONSERVATION AREA SINGAPORE 069707,27,TELOK AYER CONSERVATION AREA,1.28095934988226,103.845995474751,103.845995474751,069707,ANN SIANG ROAD,TELOK AYER CONSERVATION AREA,29410.835249926,29267.5001839213
28 ANN SIANG ROAD ANN SIANG HOUSE SINGAPORE 069708,28,ANN SIANG HOUSE,1.2807288956688,103.845721505784,103.845721505784,069708,ANN SIANG ROAD,ANN SIANG HOUSE,29380.3448570641,29242.0175986979
29 ANN SIANG ROAD TELOK AYER CONSERVATION AREA SINGAPORE 069709,29,TELOK AYER CONSERVATION AREA,1.28092226659953,103.846020041567,103.846020041567,069709,ANN SIANG ROAD,TELOK AYER CONSERVATION AREA,29413.5693568951,29263.3997196313
31 ANN SIANG ROAD TELOK AYER CONSERVATION AREA SINGAPORE 069711,31,TELOK AYER CONSERVATION AREA,1.28088561554604,103.846043598834,103.846043598834,069711,ANN SIANG ROAD,TELOK AYER CONSERVATION AREA,29416.1911091087,29259.3470484875
33 ANN SIANG ROAD TELOK AYER CONSERVATION AREA SINGAPORE 069713,33,TELOK AYER CONSERVATION AREA,1.28084881886658,103.84606711612,103.84606711612,069713,ANN SIANG ROAD,TELOK AYER CONSERVATION AREA,29418.8084119288,29255.2782747764
35 ANN SIANG ROAD TELOK AYER CONSERVATION AREA SINGAPORE 069714,35,TELOK AYER CONSERVATION AREA,1.28081204462031,103.846093164626,103.846093164626,069714,ANN SIANG ROAD,TELOK AYER CONSERVATION AREA,29421.707418873,29251.21198304
37 ANN SIANG ROAD TELOK AYER CONSERVATION AREA SINGAPORE 069715,37,TELOK AYER CONSERVATION AREA,1.28077390446134,103.846116150203,103.846116150203,069715,ANN SIANG ROAD,TELOK AYER CONSERVATION AREA,29424.265547785,29246.994654065
39 ANN SIANG ROAD SINGAPORE 069716,39,NIL,1.28073797085825,103.846140299821,103.846140299821,069716,ANN SIANG ROAD,39 ANN SIANG ROAD SINGAPORE 069716,29426.9532236671,29243.0213153064
41 ANN SIANG ROAD TELOK AYER CONSERVATION AREA SINGAPORE 069717,41,TELOK AYER CONSERVATION AREA,1.28070097190145,103.846161377538,103.846161377538,069717,ANN SIANG ROAD,TELOK AYER CONSERVATION AREA,29429.2990226736,29238.9301735554
43 ANN SIANG ROAD TELOK AYER CONSERVATION AREA SINGAPORE 069718,43,TELOK AYER CONSERVATION AREA,1.28065590826678,103.846173584932,103.846173584932,069718,ANN SIANG ROAD,TELOK AYER CONSERVATION AREA,29430.6576313907,29233.9472764675
45 ANN SIANG ROAD SINGAPORE 069719,45,NIL,1.28055061347239,103.846193615497,103.846193615497,069719,ANN SIANG ROAD,45 ANN SIANG ROAD SINGAPORE 069719,29432.8869289272,29222.3043333143
47 ANN SIANG ROAD ANN SIANG 47 SINGAPORE 069720,47,ANN SIANG 47,1.28037506459092,103.845986793885,103.845986793885,069720,ANN SIANG ROAD,ANN SIANG 47,29409.8694591019,29202.8929305337
1 ANN SIANG HILL TELOK AYER CONSERVATION AREA SINGAPORE 069784,1,TELOK AYER CONSERVATION AREA,1.28161053371093,103.845361945944,103.845361945944,069784,ANN SIANG HILL,TELOK AYER CONSERVATION AREA,29340.3283124911,29339.5043877065
3 ANN SIANG HILL SINGAPORE 069785,3,NIL,1.28158252888432,103.845424371243,103.845424371243,069785,ANN SIANG HILL,3 ANN SIANG HILL SINGAPORE 069785,29347.2757530622,29336.4077913649
4 ANN SIANG HILL TELOK AYER CONSERVATION AREA SINGAPORE 069786,4,TELOK AYER CONSERVATION AREA,1.28140838685602,103.845291755118,103.845291755118,069786,ANN SIANG HILL,TELOK AYER CONSERVATION AREA,29332.516751254,29317.1519962866
6 ANN SIANG HILL TELOK AYER CONSERVATION AREA SINGAPORE 069787,6,TELOK AYER CONSERVATION AREA,1.28138254107125,103.845331341787,103.845331341787,069787,ANN SIANG HILL,TELOK AYER CONSERVATION AREA,29336.9224378914,29314.2941235323
8 ANN SIANG HILL TELOK AYER CONSERVATION AREA SINGAPORE 069788,8,TELOK AYER CONSERVATION AREA,1.28135775435356,103.845372058221,103.845372058221,069788,ANN SIANG HILL,TELOK AYER CONSERVATION AREA,29341.4538577339,29311.5533576068
10 ANN SIANG HILL TELOK AYER CONSERVATION AREA SINGAPORE 069789,10,TELOK AYER CONSERVATION AREA,1.28133316690424,103.845414593859,103.845414593859,069789,ANN SIANG HILL,TELOK AYER CONSERVATION AREA,29346.1877401192,29308.8346267734
7 ANN SIANG HILL SINGAPORE 069791,7,NIL,1.2814923548201,103.845787802828,103.845787802828,069791,ANN SIANG HILL,7 ANN SIANG HILL SINGAPORE 069791,29387.7227688991,29326.4370029718
19 AMOY STREET SINGAPORE 069854,19,NIL,1.28211454560249,103.847949140235,103.847949140235,069854,AMOY STREET,19 AMOY STREET SINGAPORE 069854,29628.261587997,29395.2369169295
20 AMOY STREET TELOK AYER CONSERVATION AREA SINGAPORE 069855,20,TELOK AYER CONSERVATION AREA,1.2820763835161,103.847926664727,103.847926664727,069855,AMOY STREET,TELOK AYER CONSERVATION AREA,29625.7602720913,29391.0171362478
21 AMOY STREET TELOK AYER CONSERVATION AREA SINGAPORE 069856,21,TELOK AYER CONSERVATION AREA,1.28203827891443,103.847904018967,103.847904018967,069856,AMOY STREET,TELOK AYER CONSERVATION AREA,29623.2400084268,29386.8037118427
22 AMOY STREET TELOK AYER CONSERVATION AREA SINGAPORE 069857,22,TELOK AYER CONSERVATION AREA,1.28199438048195,103.847880925786,103.847880925786,069857,AMOY STREET,TELOK AYER CONSERVATION AREA,29620.6699539293,29381.9496352933
23 AMOY STREET TELOK AYER CONSERVATION AREA SINGAPORE 069858,23,TELOK AYER CONSERVATION AREA,1.28194957740094,103.847850940076,103.847850940076,069858,AMOY STREET,TELOK AYER CONSERVATION AREA,29617.3328179205,29376.9955230579
38 AMOY STREET TELOK AYER CONSERVATION AREA SINGAPORE 069864,38,TELOK AYER CONSERVATION AREA,1.28069206630865,103.847098033309,103.847098033309,069864,AMOY STREET,TELOK AYER CONSERVATION AREA,29533.541201896,29237.9459797964
39 AMOY STREET TELOK AYER CONSERVATION AREA SINGAPORE 069865,39,TELOK AYER CONSERVATION AREA,1.28065032295386,103.847077601386,103.847077601386,069865,AMOY STREET,TELOK AYER CONSERVATION AREA,29531.2673196197,29233.3302030843
40 AMOY STREET TELOK AYER CONSERVATION AREA SINGAPORE 069866,40,TELOK AYER CONSERVATION AREA,1.28060286846941,103.847050419424,103.847050419424,069866,AMOY STREET,TELOK AYER CONSERVATION AREA,29528.2422162546,29228.0829151589
41 AMOY STREET TELOK AYER CONSERVATION AREA SINGAPORE 069867,41,TELOK AYER CONSERVATION AREA,1.28056345677313,103.847029797952,103.847029797952,069867,AMOY STREET,TELOK AYER CONSERVATION AREA,29525.9472371936,29223.7249611299
42 AMOY STREET TELOK AYER CONSERVATION AREA SINGAPORE 069868,42,TELOK AYER CONSERVATION AREA,1.28051988573256,103.847003730543,103.847003730543,069868,AMOY STREET,TELOK AYER CONSERVATION AREA,29523.0461720256,29218.9070850909
43 AMOY STREET TELOK AYER CONSERVATION AREA SINGAPORE 069869,43,TELOK AYER CONSERVATION AREA,1.28048214124113,103.847002242127,103.847002242127,069869,AMOY STREET,TELOK AYER CONSERVATION AREA,29522.8805456189,29214.7334933523
44 AMOY STREET TELOK AYER CONSERVATION AREA SINGAPORE 069870,44,TELOK AYER CONSERVATION AREA,1.28041592894467,103.846971658005,103.846971658005,069870,AMOY STREET,TELOK AYER CONSERVATION AREA,29519.4768200461,29207.4120615739
45 AMOY STREET TELOK AYER CONSERVATION AREA SINGAPORE 069871,45,TELOK AYER CONSERVATION AREA,1.28041592921838,103.846971657733,103.846971657733,069871,AMOY STREET,TELOK AYER CONSERVATION AREA,29519.4767897781,29207.4120918419
46 AMOY STREET TELOK AYER CONSERVATION AREA SINGAPORE 069872,46,TELOK AYER CONSERVATION AREA,1.28041592921838,103.846971657733,103.846971657733,069872,AMOY STREET,TELOK AYER CONSERVATION AREA,29519.4767897781,29207.4120918419
47 AMOY STREET TELOK AYER CONSERVATION AREA SINGAPORE 069873,47,TELOK AYER CONSERVATION AREA,1.28035604432096,103.846929733883,103.846929733883,069873,AMOY STREET,TELOK AYER CONSERVATION AREA,29514.811040624,29200.7903045081
48 AMOY STREET TELOK AYER CONSERVATION AREA SINGAPORE 069874,48,TELOK AYER CONSERVATION AREA,1.28030058966429,103.846911759407,103.846911759407,069874,AMOY STREET,TELOK AYER CONSERVATION AREA,29512.8106598482,29194.6584044918
49 AMOY STREET TELOK AYER CONSERVATION AREA SINGAPORE 069875,49,TELOK AYER CONSERVATION AREA,1.28024799024692,103.846906879185,103.846906879185,069875,AMOY STREET,TELOK AYER CONSERVATION AREA,29512.2675614161,29188.8422298115
50 AMOY STREET TELOK AYER CONSERVATION AREA SINGAPORE 069876,50,TELOK AYER CONSERVATION AREA,1.28020718577734,103.846889706009,103.846889706009,069876,AMOY STREET,TELOK AYER CONSERVATION AREA,29510.3563501202,29184.3302722834
51 AMOY STREET BRITISH EDUCATION CENTRE SINGAPORE 069877,51,BRITISH EDUCATION CENTRE,1.28018816083591,103.846828460044,103.846828460044,069877,AMOY STREET,BRITISH EDUCATION CENTRE,29503.5401817951,29182.2265566103
52 AMOY STREET TELOK AYER CONSERVATION AREA SINGAPORE 069878,52,TELOK AYER CONSERVATION AREA,1.28012714153489,103.846847975973,103.846847975973,069878,AMOY STREET,TELOK AYER CONSERVATION AREA,29505.7121820385,29175.4793690201
53 AMOY STREET TELOK AYER CONSERVATION AREA SINGAPORE 069879,53,TELOK AYER CONSERVATION AREA,1.28008393443127,103.846845669719,103.846845669719,069879,AMOY STREET,TELOK AYER CONSERVATION AREA,29505.4555398049,29170.7017493993
54 AMOY STREET TELOK AYER CONSERVATION AREA SINGAPORE 069880,54,TELOK AYER CONSERVATION AREA,1.28004490400311,103.846832613627,103.846832613627,069880,AMOY STREET,TELOK AYER CONSERVATION AREA,29504.0025252467,29166.3859586716
55 AMOY STREET TELOK AYER CONSERVATION AREA SINGAPORE 069881,55,TELOK AYER CONSERVATION AREA,1.28000663674795,103.84676671689,103.84676671689,069881,AMOY STREET,TELOK AYER CONSERVATION AREA,29496.6687743999,29162.1545248162
56 AMOY STREET TELOK AYER CONSERVATION AREA SINGAPORE 069882,56,TELOK AYER CONSERVATION AREA,1.27999102364461,103.8468032189,103.8468032189,069882,AMOY STREET,TELOK AYER CONSERVATION AREA,29500.7311615665,29160.4281298295
57 AMOY STREET TELOK AYER CONSERVATION AREA SINGAPORE 069883,57,TELOK AYER CONSERVATION AREA,1.27997823741124,103.846834151809,103.846834151809,069883,AMOY STREET,TELOK AYER CONSERVATION AREA,29504.1737512304,29159.0143123101
58 AMOY STREET TELOK AYER CONSERVATION AREA SINGAPORE 069884,58,TELOK AYER CONSERVATION AREA,1.279965072053,103.846865886481,103.846865886481,069884,AMOY STREET,TELOK AYER CONSERVATION AREA,29507.7055709101,29157.5585736334
66 AMOY STREET XIAN ZU GONG TEMPLE SINGAPORE 069886,66,XIAN ZU GONG TEMPLE,1.2799627799161,103.846533009615,103.846533009615,069886,AMOY STREET,XIAN ZU GONG TEMPLE,29470.6590722399,29157.3049279284
68 AMOY STREET TELOK AYER CONSERVATION AREA SINGAPORE 069887,68,TELOK AYER CONSERVATION AREA,1.28008620782344,103.846524701311,103.846524701311,069887,AMOY STREET,TELOK AYER CONSERVATION AREA,29469.7343550688,29170.9529433958
69 AMOY STREET TELOK AYER CONSERVATION AREA SINGAPORE 069888,69,TELOK AYER CONSERVATION AREA,1.28013108931663,103.846533898183,103.846533898183,069888,AMOY STREET,TELOK AYER CONSERVATION AREA,29470.7578669386,29175.9157122727
70 AMOY STREET TELOK AYER CONSERVATION AREA SINGAPORE 069889,70,TELOK AYER CONSERVATION AREA,1.28017784397648,103.846540855942,103.846540855942,069889,AMOY STREET,TELOK AYER CONSERVATION AREA,29471.5321824979,29181.0856049638
71 AMOY STREET TELOK AYER CONSERVATION AREA SINGAPORE 069890,71,TELOK AYER CONSERVATION AREA,1.2802269669502,103.846552490499,103.846552490499,069890,AMOY STREET,TELOK AYER CONSERVATION AREA,29472.8269863054,29186.5173762497
72 AMOY STREET TELOK AYER CONSERVATION AREA SINGAPORE 069891,72,TELOK AYER CONSERVATION AREA,1.28027906623029,103.8465627247,103.8465627247,069891,AMOY STREET,TELOK AYER CONSERVATION AREA,29473.965940265,29192.2782513238
73 AMOY STREET TELOK AYER CONSERVATION AREA SINGAPORE 069892,73,TELOK AYER CONSERVATION AREA,1.28033038618626,103.846574136526,103.846574136526,069892,AMOY STREET,TELOK AYER CONSERVATION AREA,29475.2359545939,29197.9529534467
74 AMOY STREET TELOK AYER CONSERVATION AREA SINGAPORE 069893,74,TELOK AYER CONSERVATION AREA,1.28038062433863,103.846587590564,103.846587590564,069893,AMOY STREET,TELOK AYER CONSERVATION AREA,29476.7332512122,29203.508036498
75 AMOY STREET TELOK AYER CONSERVATION AREA SINGAPORE 069894,75,TELOK AYER CONSERVATION AREA,1.28042959508508,103.846605249515,103.846605249515,069894,AMOY STREET,TELOK AYER CONSERVATION AREA,29478.698521127,29208.9229787849
76 AMOY STREET TELOK AYER CONSERVATION AREA SINGAPORE 069895,76,TELOK AYER CONSERVATION AREA,1.28048638504217,103.846617752784,103.846617752784,069895,AMOY STREET,TELOK AYER CONSERVATION AREA,29480.0900008744,29215.2025260273
77 AMOY STREET TELOK AYER CONSERVATION AREA SINGAPORE 069896,77,TELOK AYER CONSERVATION AREA,1.28054598371253,103.846641977132,103.846641977132,069896,AMOY STREET,TELOK AYER CONSERVATION AREA,29482.785939916,29221.7926530503
78 AMOY STREET TELOK AYER CONSERVATION AREA SINGAPORE 069897,78,TELOK AYER CONSERVATION AREA,1.28060277553098,103.846664899549,103.846664899549,069897,AMOY STREET,TELOK AYER CONSERVATION AREA,29485.3369861199,29228.0724121686
80 AMOY STREET TELOK AYER CONSERVATION AREA SINGAPORE 069899,80,TELOK AYER CONSERVATION AREA,1.2806596114074,103.846690263436,103.846690263436,069899,AMOY STREET,TELOK AYER CONSERVATION AREA,29488.1597480131,29234.3570444305
81 AMOY STREET SINGAPORE 069900,81,NIL,1.28072337277829,103.846706260191,103.846706260191,069900,AMOY STREET,81 AMOY STREET SINGAPORE 069900,29489.9400200117,29241.407456683
82 AMOY STREET TELOK AYER CONSERVATION AREA SINGAPORE 069901,82,TELOK AYER CONSERVATION AREA,1.28078047608052,103.846733691865,103.846733691865,069901,AMOY STREET,TELOK AYER CONSERVATION AREA,29492.9929093849,29247.7216607649
83 AMOY STREET TELOK AYER CONSERVATION AREA SINGAPORE 069902,83,TELOK AYER CONSERVATION AREA,1.28083733438176,103.846762942743,103.846762942743,069902,AMOY STREET,TELOK AYER CONSERVATION AREA,29496.2482613018,29254.0087750033
84 AMOY STREET TELOK AYER CONSERVATION AREA SINGAPORE 069903,84,TELOK AYER CONSERVATION AREA,1.28089328688774,103.846794521948,103.846794521948,069903,AMOY STREET,TELOK AYER CONSERVATION AREA,29499.7627374278,29260.1957324836
85 AMOY STREET TELOK AYER CONSERVATION AREA SINGAPORE 069904,85,TELOK AYER CONSERVATION AREA,1.28094443618525,103.846828867602,103.846828867602,069904,AMOY STREET,TELOK AYER CONSERVATION AREA,29503.5850994829,29265.8515776526
86 AMOY STREET TELOK AYER CONSERVATION AREA SINGAPORE 069905,86,TELOK AYER CONSERVATION AREA,1.28099552966127,103.84685934558,103.84685934558,069905,AMOY STREET,TELOK AYER CONSERVATION AREA,29506.9770205421,29271.5012481529
87 AMOY STREET TELOK AYER CONSERVATION AREA SINGAPORE 069906,87,TELOK AYER CONSERVATION AREA,1.28104698720197,103.846889792012,103.846889792012,069906,AMOY STREET,TELOK AYER CONSERVATION AREA,29510.3654305153,29277.1911750715
88 AMOY STREET TELOK AYER CONSERVATION AREA SINGAPORE 069907,88,TELOK AYER CONSERVATION AREA,1.28110043121447,103.846921808808,103.846921808808,069907,AMOY STREET,TELOK AYER CONSERVATION AREA,29513.9286078271,29283.1007567495
89 AMOY STREET TELOK AYER CONSERVATION AREA SINGAPORE 069908,89,TELOK AYER CONSERVATION AREA,1.28115612174174,103.846956014971,103.846956014971,069908,AMOY STREET,TELOK AYER CONSERVATION AREA,29517.7354424074,29289.2587477677
90 AMOY STREET SINGAPORE 069909,90,NIL,1.28120272678251,103.846992678332,103.846992678332,069909,AMOY STREET,90 AMOY STREET SINGAPORE 069909,29521.8157482203,29294.4121141396
92 AMOY STREET TELOK AYER CONSERVATION AREA SINGAPORE 069911,92,TELOK AYER CONSERVATION AREA,1.2812782793499,103.847031916038,103.847031916038,069911,AMOY STREET,TELOK AYER CONSERVATION AREA,29526.1825404987,29302.7663500588
93 AMOY STREET TELOK AYER CONSERVATION AREA SINGAPORE 069913,93,TELOK AYER CONSERVATION AREA,1.28131669218578,103.847054080394,103.847054080394,069913,AMOY STREET,TELOK AYER CONSERVATION AREA,29528.649229832,29307.0138562135
94 AMOY STREET TELOK AYER CONSERVATION AREA SINGAPORE 069914,94,TELOK AYER CONSERVATION AREA,1.28135297508697,103.84707954128,103.84707954128,069914,AMOY STREET,TELOK AYER CONSERVATION AREA,29531.4827973954,29311.0258471873
95 AMOY STREET TELOK AYER CONSERVATION AREA SINGAPORE 069915,95,TELOK AYER CONSERVATION AREA,1.28139010766165,103.84710381013,103.84710381013,069915,AMOY STREET,TELOK AYER CONSERVATION AREA,29534.1837003864,29315.1317899823
96 AMOY STREET TELOK AYER CONSERVATION AREA SINGAPORE 069916,96,TELOK AYER CONSERVATION AREA,1.28142952069479,103.847130128011,103.847130128011,069916,AMOY STREET,TELOK AYER CONSERVATION AREA,29537.1126423674,29319.4898953494
97 AMOY STREET TELOK AYER CONSERVATION AREA SINGAPORE 069917,97,TELOK AYER CONSERVATION AREA,1.28147208960588,103.847154566873,103.847154566873,069917,AMOY STREET,TELOK AYER CONSERVATION AREA,29539.8324628482,29324.1969603021
98 AMOY STREET TELOK AYER CONSERVATION AREA SINGAPORE 069918,98,TELOK AYER CONSERVATION AREA,1.28151770134174,103.84717739542,103.84717739542,069918,AMOY STREET,TELOK AYER CONSERVATION AREA,29542.3730665967,29329.2404841594
100 AMOY STREET TELOK AYER CONSERVATION AREA SINGAPORE 069920,100,TELOK AYER CONSERVATION AREA,1.28155949555229,103.847208361003,103.847208361003,069920,AMOY STREET,TELOK AYER CONSERVATION AREA,29545.8192581516,29333.8618907183
102 AMOY STREET TELOK AYER CONSERVATION AREA SINGAPORE 069922,102,TELOK AYER CONSERVATION AREA,1.28168763505227,103.847282032792,103.847282032792,069922,AMOY STREET,TELOK AYER CONSERVATION AREA,29554.0182495806,29348.0309392568
103 AMOY STREET TELOK AYER CONSERVATION AREA SINGAPORE 069923,103,TELOK AYER CONSERVATION AREA,1.2817092035505,103.847335804272,103.847335804272,069923,AMOY STREET,TELOK AYER CONSERVATION AREA,29560.0025629094,29350.4159050323
104 AMOY STREET TELOK AYER CONSERVATION AREA SINGAPORE 069924,104,TELOK AYER CONSERVATION AREA,1.28176961943832,103.84733603659,103.84733603659,069924,AMOY STREET,TELOK AYER CONSERVATION AREA,29560.0283814995,29357.0963819865
105 AMOY STREET ENG CHOON HWAY KUAN (SINGAPORE) BUILDING SINGAPORE 069925,105,ENG CHOON HWAY KUAN (SINGAPORE) BUILDING,1.28180497732933,103.847422499699,103.847422499699,069925,AMOY STREET,ENG CHOON HWAY KUAN (SINGAPORE) BUILDING,29569.6509972746,29361.0061277114
107 AMOY STREET TELOK AYER CONSERVATION AREA SINGAPORE 069927,107,TELOK AYER CONSERVATION AREA,1.28190296701026,103.847404006851,103.847404006851,069927,AMOY STREET,TELOK AYER CONSERVATION AREA,29567.5928349178,29371.8413091823
108 AMOY STREET TELOK AYER CONSERVATION AREA SINGAPORE 069928,108,TELOK AYER CONSERVATION AREA,1.28194703405918,103.847428465311,103.847428465311,069928,AMOY STREET,TELOK AYER CONSERVATION AREA,29570.3148346934,29376.7140308097
109 AMOY STREET TELOK AYER CONSERVATION AREA SINGAPORE 069929,109,TELOK AYER CONSERVATION AREA,1.28199540829793,103.847452743752,103.847452743752,069929,AMOY STREET,TELOK AYER CONSERVATION AREA,29573.0167970639,29382.0630191602
110 AMOY STREET TELOK AYER CONSERVATION AREA SINGAPORE 069930,110,TELOK AYER CONSERVATION AREA,1.2820856933898,103.847501436043,103.847501436043,069930,AMOY STREET,TELOK AYER CONSERVATION AREA,29578.4357952615,29392.0463082306
112 AMOY STREET TELOK AYER CONSERVATION AREA SINGAPORE 069932,112,TELOK AYER CONSERVATION AREA,1.28212806985927,103.847526481136,103.847526481136,069932,AMOY STREET,TELOK AYER CONSERVATION AREA,29581.2230830779,29396.7320947889
115 AMOY STREET TELOK AYER CONSERVATION AREA SINGAPORE 069935,115,TELOK AYER CONSERVATION AREA,1.28221657543081,103.847571667462,103.847571667462,069935,AMOY STREET,TELOK AYER CONSERVATION AREA,29586.2518966962,29406.5186116956
