ADDRESS,BLK_NO,BUILDING,LATITUDE,LONGITUDE,LONGTITUDE,POSTAL,ROAD_NAME,SEARCHVAL,X,Y
79E TOA PAYOH CENTRAL CENTRAL HORIZON SINGAPORE 315079,79E,CENTRAL HORIZON,1.33472713626235,103.849822984337,103.849822984337,315079,TOA PAYOH CENTRAL,CENTRAL HORIZON,29836.7668616194,35212.8680006806
2 BRADDELL RISE RAFFLES GIRLS' SCHOOL (SECONDARY) SINGAPORE 318871,2,RAFFLES GIRLS' SCHOOL (SECONDARY),1.3428994546147,103.84319823516,103.84319823516,318871,BRADDELL RISE,RAFFLES GIRLS' SCHOOL (SECONDARY),29099.4982548542,36116.5172016975
19 TOA PAYOH WEST SINGAPORE 318876,19,NIL,1.33462731435958,103.84019653899,103.84019653899,318876,TOA PAYOH WEST,19 TOA PAYOH WEST SINGAPORE 318876,28765.444683983,35201.8251203056
5 TOA PAYOH WEST SINGAPORE 318877,5,NIL,1.33482087585201,103.841763926532,103.841763926532,318877,TOA PAYOH WEST,5 TOA PAYOH WEST SINGAPORE 318877,28939.8783779824,35223.2287012395
20A TOA PAYOH WEST TEMPORARY SITE OFFICE SINGAPORE 318878,20A,TEMPORARY SITE OFFICE,1.33510802439591,103.839474913251,103.839474913251,318878,TOA PAYOH WEST,TEMPORARY SITE OFFICE,28685.1351876101,35254.9793621395
1 TOA PAYOH NORTH BEATTY SECONDARY SCHOOL SINGAPORE 318990,1,BEATTY SECONDARY SCHOOL,1.34179051106272,103.852064858056,103.852064858056,318990,TOA PAYOH NORTH,BEATTY SECONDARY SCHOOL,30086.2578909211,35993.9016601946
970 TOA PAYOH NORTH SINGAPORE 318992,970,NIL,1.34275019820697,103.851054937617,103.851054937617,318992,TOA PAYOH NORTH,970 TOA PAYOH NORTH SINGAPORE 318992,29973.8639080562,36100.0181237739
998 TOA PAYOH NORTH SINGAPORE 318993,998,NIL,1.34318410384285,103.850306353877,103.850306353877,318993,TOA PAYOH NORTH,998 TOA PAYOH NORTH SINGAPORE 318993,29890.5543399407,36147.9966009278
1000 TOA PAYOH NORTH BERITA HARIAN SINGAPORE 318994,1000,BERITA HARIAN,1.34336805203725,103.848402340851,103.848402340851,318994,TOA PAYOH NORTH,BERITA HARIAN,29678.6582954424,36168.3352633901
1004 TOA PAYOH NORTH SINGAPORE 318995,1004,NIL,1.34361382256618,103.846917053704,103.846917053704,318995,TOA PAYOH NORTH,1004 TOA PAYOH NORTH SINGAPORE 318995,29513.3618700998,36195.5103434585
1008 TOA PAYOH NORTH SINGAPORE 318996,1008,NIL,1.34325226770196,103.846158376123,103.846158376123,318996,TOA PAYOH NORTH,1008 TOA PAYOH NORTH SINGAPORE 318996,29428.929541396,36155.5309982374
1008A TOA PAYOH NORTH TOA PAYOH FOOD CENTRE II SINGAPORE 318998,1008A,TOA PAYOH FOOD CENTRE II,1.343291838616,103.846449455824,103.846449455824,318998,TOA PAYOH NORTH,TOA PAYOH FOOD CENTRE II,29461.323518022,36159.906719571
978 TOA PAYOH NORTH SINGAPORE 319001,978,NIL,1.34313731285966,103.85139383899,103.85139383899,319001,TOA PAYOH NORTH,978 TOA PAYOH NORTH SINGAPORE 319001,30011.5796318464,36142.8235603664
988 TOA PAYOH NORTH SINGAPORE 319002,988,NIL,1.34274380369091,103.850027891378,103.850027891378,319002,TOA PAYOH NORTH,988 TOA PAYOH NORTH SINGAPORE 319002,29859.564828027,36099.3102464378
1 TOA PAYOH INDUSTRIAL PARK TOA PAYOH INDUSTRIAL PARK SINGAPORE 319053,1,TOA PAYOH INDUSTRIAL PARK,1.33546715642349,103.860465271202,103.860465271202,319053,TOA PAYOH INDUSTRIAL PARK,TOA PAYOH INDUSTRIAL PARK,31021.1407151399,35294.7061513048
2 TOA PAYOH INDUSTRIAL PARK TOA PAYOH INDUSTRIAL PARK SINGAPORE 319054,2,TOA PAYOH INDUSTRIAL PARK,1.33546746888364,103.86137469043,103.86137469043,319054,TOA PAYOH INDUSTRIAL PARK,TOA PAYOH INDUSTRIAL PARK,31122.3494975697,35294.7418372575
3 TOA PAYOH INDUSTRIAL PARK TOA PAYOH INDUSTRIAL PARK SINGAPORE 319055,3,TOA PAYOH INDUSTRIAL PARK,1.33576357706536,103.860469085915,103.860469085915,319055,TOA PAYOH INDUSTRIAL PARK,TOA PAYOH INDUSTRIAL PARK,31021.5648906631,35327.4828363154
4 TOA PAYOH INDUSTRIAL PARK TOA PAYOH INDUSTRIAL PARK SINGAPORE 319056,4,TOA PAYOH INDUSTRIAL PARK,1.33576200710913,103.861374295869,103.861374295869,319056,TOA PAYOH INDUSTRIAL PARK,TOA PAYOH INDUSTRIAL PARK,31122.3052155096,35327.3103693444
5 TOA PAYOH INDUSTRIAL PARK TOA PAYOH INDUSTRIAL PARK SINGAPORE 319057,5,TOA PAYOH INDUSTRIAL PARK,1.33612753396755,103.860467185265,103.860467185265,319057,TOA PAYOH INDUSTRIAL PARK,TOA PAYOH INDUSTRIAL PARK,31021.3529239735,35367.7273290735
6 TOA PAYOH INDUSTRIAL PARK TOA PAYOH INDUSTRIAL PARK SINGAPORE 319058,6,TOA PAYOH INDUSTRIAL PARK,1.33612851207059,103.861430280437,103.861430280437,319058,TOA PAYOH INDUSTRIAL PARK,TOA PAYOH INDUSTRIAL PARK,31128.5352443308,35367.8366872985
7 TOA PAYOH INDUSTRIAL PARK TOA PAYOH INDUSTRIAL PARK SINGAPORE 319059,7,TOA PAYOH INDUSTRIAL PARK,1.33636776222871,103.860466142699,103.860466142699,319059,TOA PAYOH INDUSTRIAL PARK,TOA PAYOH INDUSTRIAL PARK,31021.2366041122,35394.2905418519
8 TOA PAYOH INDUSTRIAL PARK TOA PAYOH INDUSTRIAL PARK SINGAPORE 319060,8,TOA PAYOH INDUSTRIAL PARK,1.33636596919925,103.861417010465,103.861417010465,319060,TOA PAYOH INDUSTRIAL PARK,TOA PAYOH INDUSTRIAL PARK,31127.0581364566,35394.0934670102
9 TOA PAYOH INDUSTRIAL PARK TOA PAYOH INDUSTRIAL PARK SINGAPORE 319061,9,TOA PAYOH INDUSTRIAL PARK,1.33674506157381,103.860127995999,103.860127995999,319061,TOA PAYOH INDUSTRIAL PARK,TOA PAYOH INDUSTRIAL PARK,30983.6039962042,35436.0099631902
10 TOA PAYOH INDUSTRIAL PARK TOA PAYOH INDUSTRIAL PARK SINGAPORE 319062,10,TOA PAYOH INDUSTRIAL PARK,1.33678698689952,103.861264263518,103.861264263518,319062,TOA PAYOH INDUSTRIAL PARK,TOA PAYOH INDUSTRIAL PARK,31110.0584866181,35440.6472604387
11 TOA PAYOH INDUSTRIAL PARK TOA PAYOH INDUSTRIAL PARK SINGAPORE 319063,11,TOA PAYOH INDUSTRIAL PARK,1.33709462821075,103.860385530082,103.860385530082,319063,TOA PAYOH INDUSTRIAL PARK,TOA PAYOH INDUSTRIAL PARK,31012.2643867703,35474.6635707244
12 TOA PAYOH INDUSTRIAL PARK TOA PAYOH INDUSTRIAL PARK SINGAPORE 319064,12,TOA PAYOH INDUSTRIAL PARK,1.3371213942972,103.861265476228,103.861265476228,319064,TOA PAYOH INDUSTRIAL PARK,TOA PAYOH INDUSTRIAL PARK,31110.1930278055,35477.6243243553
1002 TOA PAYOH INDUSTRIAL PARK TOA PAYOH INDUSTRIAL PARK SINGAPORE 319074,1002,TOA PAYOH INDUSTRIAL PARK,1.334943636366,103.861041557556,103.861041557556,319074,TOA PAYOH INDUSTRIAL PARK,TOA PAYOH INDUSTRIAL PARK,31085.2759695901,35236.8186929803
1003 TOA PAYOH INDUSTRIAL PARK TOA PAYOH INDUSTRIAL PARK SINGAPORE 319075,1003,TOA PAYOH INDUSTRIAL PARK,1.33450403610714,103.860310210049,103.860310210049,319075,TOA PAYOH INDUSTRIAL PARK,TOA PAYOH INDUSTRIAL PARK,31003.8852100344,35188.2090375628
1004 TOA PAYOH INDUSTRIAL PARK TOA PAYOH INDUSTRIAL PARK SINGAPORE 319076,1004,TOA PAYOH INDUSTRIAL PARK,1.33450441158036,103.861316365596,103.861316365596,319076,TOA PAYOH INDUSTRIAL PARK,TOA PAYOH INDUSTRIAL PARK,31115.8597694496,35188.2518062238
590 TOA PAYOH EAST SINGAPORE 319134,590,NIL,1.33336861261225,103.859860912316,103.859860912316,319134,TOA PAYOH EAST,590 TOA PAYOH EAST SINGAPORE 319134,30953.8844380844,35062.6591663789
6 TOA PAYOH CENTRAL TOA PAYOH PUBLIC LIBRARY SINGAPORE 319191,6,TOA PAYOH PUBLIC LIBRARY,1.33352077104302,103.850491803007,103.850491803007,319191,TOA PAYOH CENTRAL,TOA PAYOH PUBLIC LIBRARY,29911.2002829742,35079.4748171438
91 TOA PAYOH CENTRAL CHURCH OF THE RISEN CHRIST SINGAPORE 319193,91,CHURCH OF THE RISEN CHRIST,1.33485272410103,103.850730467775,103.850730467775,319193,TOA PAYOH CENTRAL,CHURCH OF THE RISEN CHRIST,29937.7601360064,35226.7555569708
93 TOA PAYOH CENTRAL HOME NURSING FOUNDATION SINGAPORE 319194,93,HOME NURSING FOUNDATION,1.33465572055474,103.85044386708,103.85044386708,319194,TOA PAYOH CENTRAL,HOME NURSING FOUNDATION,29905.8646428045,35204.9716890883
7 LORONG 8 TOA PAYOH FIRST TOA PAYOH PRIMARY SCHOOL SINGAPORE 319252,7,FIRST TOA PAYOH PRIMARY SCHOOL,1.34073138516358,103.855753390523,103.855753390523,319252,LORONG 8 TOA PAYOH,FIRST TOA PAYOH PRIMARY SCHOOL,30496.7527098469,35876.7923794854
9 LORONG 8 TOA PAYOH GOOD SHEPHERD PLACE SINGAPORE 319253,9,GOOD SHEPHERD PLACE,1.34063221212167,103.857041627449,103.857041627449,319253,LORONG 8 TOA PAYOH,GOOD SHEPHERD PLACE,30640.1197085744,35865.8276813123
17 LORONG 8 TOA PAYOH AUTO WORLD SINGAPORE 319254,17,AUTO WORLD,1.3404121312621,103.858635499945,103.858635499945,319254,LORONG 8 TOA PAYOH,AUTO WORLD,30817.5008080238,35841.4940384831
19 LORONG 8 TOA PAYOH STI MOTOR CENTRE SINGAPORE 319255,19,STI MOTOR CENTRE,1.34007772593232,103.859244442681,103.859244442681,319255,LORONG 8 TOA PAYOH,STI MOTOR CENTRE,30885.2699760636,35804.517912874
21 LORONG 8 TOA PAYOH SINGAPORE 319256,21,NIL,1.33987656572036,103.859571511004,103.859571511004,319256,LORONG 8 TOA PAYOH,21 LORONG 8 TOA PAYOH SINGAPORE 319256,30921.6694057779,35782.275031019
23 LORONG 8 TOA PAYOH TOYOGO BUILDING SINGAPORE 319257,23,TOYOGO BUILDING,1.33953563648253,103.859862663373,103.859862663373,319257,LORONG 8 TOA PAYOH,TOYOGO BUILDING,30954.0719482433,35744.5771653391
1999 LORONG 8 TOA PAYOH TOA PAYOH SOUTH COMMUNITY CLUB (PENDING RELOCATION) SINGAPORE 319258,1999,TOA PAYOH SOUTH COMMUNITY CLUB (PENDING RELOCATION),1.33484780319915,103.859409470527,103.859409470527,319258,LORONG 8 TOA PAYOH,TOA PAYOH SOUTH COMMUNITY CLUB (PENDING RELOCATION),30903.6419460159,35226.2199649978
2001 LORONG 8 TOA PAYOH SRI VAIRAVIMADA KALIAMMAN TEMPLE SINGAPORE 319259,2001,SRI VAIRAVIMADA KALIAMMAN TEMPLE,1.33501056620533,103.859093794947,103.859093794947,319259,LORONG 8 TOA PAYOH,SRI VAIRAVIMADA KALIAMMAN TEMPLE,30868.5103816036,35244.2170962412
2003 LORONG 8 TOA PAYOH NATIONAL HEALTHCARE GROUP POLYCLINICS (TOA PAYOH POLYCLINIC) SINGAPORE 319260,2003,NATIONAL HEALTHCARE GROUP POLYCLINICS (TOA PAYOH POLYCLINIC),1.33449729734044,103.858989057136,103.858989057136,319260,LORONG 8 TOA PAYOH,NATIONAL HEALTHCARE GROUP POLYCLINICS (TOA PAYOH POLYCLINIC),30856.8547561653,35187.4623264037
13 LORONG 8 TOA PAYOH BRADDELL TECH SINGAPORE 319261,13,BRADDELL TECH,1.34068636573345,103.857794165581,103.857794165581,319261,LORONG 8 TOA PAYOH,BRADDELL TECH,30723.8690402256,35871.8165348377
15 LORONG 8 TOA PAYOH BRADDELL TECH SINGAPORE 319262,15,BRADDELL TECH,1.34054443689536,103.858224492232,103.858224492232,319262,LORONG 8 TOA PAYOH,BRADDELL TECH,30771.7599218348,35856.1232511774
25 LORONG 8 TOA PAYOH SINGAPORE 319263,25,NIL,1.33872868474795,103.860760262953,103.860760262953,319263,LORONG 8 TOA PAYOH,25 LORONG 8 TOA PAYOH SINGAPORE 319263,31053.9661618732,35655.3496615831
7A LORONG 8 TOA PAYOH AGAPE VILLAGE SINGAPORE 319264,7A,AGAPE VILLAGE,1.34008801234715,103.856949383802,103.856949383802,319264,LORONG 8 TOA PAYOH,AGAPE VILLAGE,30629.8545640409,35805.6527503878
31 LORONG 8 TOA PAYOH SINGAPORE 319265,31,NIL,1.33807447332507,103.860217843128,103.860217843128,319265,LORONG 8 TOA PAYOH,31 LORONG 8 TOA PAYOH SINGAPORE 319265,30993.6014204221,35583.009634519
8A LORONG 7 TOA PAYOH SINGAPORE 319317,8A,NIL,1.33693611042438,103.856549037346,103.856549037346,319317,LORONG 7 TOA PAYOH,8A LORONG 7 TOA PAYOH SINGAPORE 319317,30585.303603095,35457.1311135665
177 LORONG 7 TOA PAYOH CHEE TIAN KENG TEMPLE SINGAPORE 319318,177,CHEE TIAN KENG TEMPLE,1.33860894643291,103.856475963426,103.856475963426,319318,LORONG 7 TOA PAYOH,CHEE TIAN KENG TEMPLE,30577.1695062229,35642.1046945881
801 LORONG 7 TOA PAYOH WBL BUILDING SINGAPORE 319319,801,WBL BUILDING,1.33498790068347,103.858478969964,103.858478969964,319319,LORONG 7 TOA PAYOH,WBL BUILDING,30800.0868500238,35241.7101504896
16 LORONG 7 TOA PAYOH ACE @ WORK SCHOOLCARE PTE LTD (PEI CHUN PUBLIC SCHOOL) SINGAPORE 319320,16,ACE @ WORK SCHOOLCARE PTE LTD (PEI CHUN PUBLIC SCHOOL),1.33677864390672,103.855341310212,103.855341310212,319320,LORONG 7 TOA PAYOH,ACE @ WORK SCHOOLCARE PTE LTD (PEI CHUN PUBLIC SCHOOL),30450.8965329072,35439.718033338
2 LORONG 6 TOA PAYOH SINGAPORE 319377,2,NIL,1.33845604099011,103.851377646341,103.851377646341,319377,LORONG 6 TOA PAYOH,2 LORONG 6 TOA PAYOH SINGAPORE 319377,30009.7813806664,35625.1924284175
3 LORONG 6 TOA PAYOH MADRASAH AL-ARABIAH AL-ISLAMIAH SINGAPORE 319378,3,MADRASAH AL-ARABIAH AL-ISLAMIAH,1.33742638812912,103.854668166824,103.854668166824,319378,LORONG 6 TOA PAYOH,MADRASAH AL-ARABIAH AL-ISLAMIAH,30375.9821835598,35511.3416172285
160 LORONG 6 TOA PAYOH TOA PAYOH EAST COMMUNITY CLUB (PENDING RELOCATION) SINGAPORE 319380,160,TOA PAYOH EAST COMMUNITY CLUB (PENDING RELOCATION),1.33627489786901,103.854700248891,103.854700248891,319380,LORONG 6 TOA PAYOH,TOA PAYOH EAST COMMUNITY CLUB (PENDING RELOCATION),30379.5536845662,35384.0157418326
180 LORONG 6 TOA PAYOH SPC TOA PAYOH LORONG 6 SINGAPORE 319381,180,SPC TOA PAYOH LORONG 6,1.33575766181031,103.855464758609,103.855464758609,319381,LORONG 6 TOA PAYOH,SPC TOA PAYOH LORONG 6,30464.6360484883,35326.8231758792
201 LORONG 6 TOA PAYOH POH CHUNG TIAN CHOR SIAN TONG SINGAPORE 319385,201,POH CHUNG TIAN CHOR SIAN TONG,1.33194551669476,103.856132809402,103.856132809402,319385,LORONG 6 TOA PAYOH,POH CHUNG TIAN CHOR SIAN TONG,30538.9869593186,34905.2963427827
293 LORONG 6 TOA PAYOH DBS SAFRA TOA PAYOH SINGAPORE 319387,293,DBS SAFRA TOA PAYOH,1.32980734095166,103.854404351883,103.854404351883,319387,LORONG 6 TOA PAYOH,DBS SAFRA TOA PAYOH,30346.6295944741,34668.8660997953
297 LORONG 6 TOA PAYOH TOA PAYOH SPORTS HALL SINGAPORE 319389,297,TOA PAYOH SPORTS HALL,1.33041404935825,103.851280023328,103.851280023328,319389,LORONG 6 TOA PAYOH,TOA PAYOH SPORTS HALL,29998.9234679388,34735.9500612188
299 LORONG 6 TOA PAYOH TOA PAYOH SPORTS HALL SINGAPORE 319390,299,TOA PAYOH SPORTS HALL,1.33028857436685,103.851567502968,103.851567502968,319390,LORONG 6 TOA PAYOH,TOA PAYOH SPORTS HALL,30030.9170899438,34722.0759136472
301 LORONG 6 TOA PAYOH TOA PAYOH SPORTS CENTRE SINGAPORE 319392,301,TOA PAYOH SPORTS CENTRE,1.33045992412023,103.850574273679,103.850574273679,319392,LORONG 6 TOA PAYOH,TOA PAYOH SPORTS CENTRE,29920.3807743108,34741.0220975187
303 LORONG 6 TOA PAYOH SINGAPORE 319393,303,NIL,1.33023240108314,103.849164313542,103.849164313542,319393,LORONG 6 TOA PAYOH,303 LORONG 6 TOA PAYOH SINGAPORE 319393,29763.4669157192,34715.862713825
450 LORONG 6 TOA PAYOH ERA APAC CENTRE SINGAPORE 319394,450,ERA APAC CENTRE,1.33168255024332,103.84944931493,103.84944931493,319394,LORONG 6 TOA PAYOH,ERA APAC CENTRE,29795.1835856736,34876.2129874136
510 LORONG 6 TOA PAYOH CITIBANK TOA PAYOH SMRT STATION SINGAPORE 319398,510,CITIBANK TOA PAYOH SMRT STATION,1.33275514947892,103.847580056778,103.847580056778,319398,LORONG 6 TOA PAYOH,CITIBANK TOA PAYOH SMRT STATION,29587.1538523436,34994.814237576
170 LORONG 6 TOA PAYOH UNITED MEDICARE CENTRE SINGAPORE 319400,170,UNITED MEDICARE CENTRE,1.33565994547323,103.85494406645,103.85494406645,319400,LORONG 6 TOA PAYOH,UNITED MEDICARE CENTRE,30406.6885990212,35316.0176873002
430 LORONG 6 TOA PAYOH ORANGETEE BUILDING SINGAPORE 319402,430,ORANGETEE BUILDING,1.33139783309745,103.849389455225,103.849389455225,319402,LORONG 6 TOA PAYOH,ORANGETEE BUILDING,29788.5220262092,34844.730379777
745 LORONG 5 TOA PAYOH THE ACTUARY SINGAPORE 319455,745,THE ACTUARY,1.33319429117022,103.852865551585,103.852865551585,319455,LORONG 5 TOA PAYOH,THE ACTUARY,30175.3739782292,35043.3763117231
743 LORONG 5 TOA PAYOH DBS HERSING BUILDING SINGAPORE 319457,743,DBS HERSING BUILDING,1.33311892982008,103.852372328079,103.852372328079,319457,LORONG 5 TOA PAYOH,DBS HERSING BUILDING,30120.48341351,35035.0428093746
1 LORONG 5 TOA PAYOH GEM RESIDENCES SINGAPORE 319458,1,GEM RESIDENCES,1.33874811788053,103.850881932323,103.850881932323,319458,LORONG 5 TOA PAYOH,GEM RESIDENCES,29954.6134704119,35657.4883973133
3 LORONG 5 TOA PAYOH GEM RESIDENCES SINGAPORE 319459,3,GEM RESIDENCES,1.33933820986766,103.851224736347,103.851224736347,319459,LORONG 5 TOA PAYOH,GEM RESIDENCES,29992.7634186968,35722.7380281203
2 LORONG 4 TOA PAYOH POLICE SECURITY COMMAND SINGAPORE 319513,2,POLICE SECURITY COMMAND,1.33963408895572,103.850093366691,103.850093366691,319513,LORONG 4 TOA PAYOH,POLICE SECURITY COMMAND,29866.8538730619,35755.4539350197
600 LORONG 4 TOA PAYOH 600 @ TOA PAYOH SINGAPORE 319515,600,600 @ TOA PAYOH,1.33404171129955,103.850955458676,103.850955458676,319515,LORONG 4 TOA PAYOH,600 @ TOA PAYOH,29962.7999006277,35137.0780893676
615 LORONG 4 TOA PAYOH STORHUB TOA PAYOH SINGAPORE 319516,615,STORHUB TOA PAYOH,1.3330556145033,103.851955225333,103.851955225333,319516,LORONG 4 TOA PAYOH,STORHUB TOA PAYOH,30074.0642823409,35028.0413707215
623 LORONG 4 TOA PAYOH SINGAPORE 319518,623,NIL,1.3336339271582,103.853388933029,103.853388933029,319518,LORONG 4 TOA PAYOH,623 LORONG 4 TOA PAYOH SINGAPORE 319518,30233.6204753751,35091.9894782286
625 LORONG 4 TOA PAYOH GENMAG BUILDING SINGAPORE 319519,625,GENMAG BUILDING,1.33250430494138,103.853275278607,103.853275278607,319519,LORONG 4 TOA PAYOH,GENMAG BUILDING,30220.9729378428,34967.0815304425
629 LORONG 4 TOA PAYOH SINGAPORE 319521,629,NIL,1.33227023966855,103.852394204393,103.852394204393,319521,LORONG 4 TOA PAYOH,629 LORONG 4 TOA PAYOH SINGAPORE 319521,30122.9187452113,34941.1990143489
640 LORONG 4 TOA PAYOH CHUNG HWA FREE CLINIC SINGAPORE 319522,640,CHUNG HWA FREE CLINIC,1.33226714462989,103.851448927182,103.851448927182,319522,LORONG 4 TOA PAYOH,CHUNG HWA FREE CLINIC,30017.7192199314,34940.8559872899
11 LORONG 3 TOA PAYOH JACKSON SQUARE SINGAPORE 319579,11,JACKSON SQUARE,1.33732690171928,103.848499676321,103.848499676321,319579,LORONG 3 TOA PAYOH,JACKSON SQUARE,29689.4948087046,35500.3358151335
15 LORONG 3 TOA PAYOH KHENG CHENG SCHOOL SINGAPORE 319580,15,KHENG CHENG SCHOOL,1.33740763550641,103.847761130585,103.847761130585,319580,LORONG 3 TOA PAYOH,KHENG CHENG SCHOOL,29607.3024621364,35509.2624488901
21 LORONG 3 TOA PAYOH TREVISTA SINGAPORE 319581,21,TREVISTA,1.33742074109903,103.846538493576,103.846538493576,319581,LORONG 3 TOA PAYOH,TREVISTA,29471.2359497417,35510.7108324487
23 LORONG 3 TOA PAYOH TREVISTA SINGAPORE 319582,23,TREVISTA,1.33783870484494,103.846559772458,103.846559772458,319582,LORONG 3 TOA PAYOH,TREVISTA,29473.6038141074,35556.9271378573
25 LORONG 3 TOA PAYOH TREVISTA SINGAPORE 319583,25,TREVISTA,1.33809505753531,103.846775797512,103.846775797512,319583,LORONG 3 TOA PAYOH,TREVISTA,29497.6449471423,35585.2734375559
1 LORONG 2 TOA PAYOH BRADDELL HOUSE SINGAPORE 319637,1,BRADDELL HOUSE,1.34028238667975,103.847467596809,103.847467596809,319637,LORONG 2 TOA PAYOH,BRADDELL HOUSE,29574.6334403427,35827.1375403218
397 LORONG 2 TOA PAYOH SINGAPORE FEDERATION OF CHINESE CLAN ASSOCIATION BUILDING SINGAPORE 319639,397,SINGAPORE FEDERATION OF CHINESE CLAN ASSOCIATION BUILDING,1.3366162476055,103.846517156885,103.846517156885,319639,LORONG 2 TOA PAYOH,SINGAPORE FEDERATION OF CHINESE CLAN ASSOCIATION BUILDING,29468.8618804384,35421.7540455386
399 LORONG 2 TOA PAYOH DBS EXXONMOBIL TOA PAYOH LORONG 2 SINGAPORE 319640,399,DBS EXXONMOBIL TOA PAYOH LORONG 2,1.33628706847821,103.846513782907,103.846513782907,319640,LORONG 2 TOA PAYOH,DBS EXXONMOBIL TOA PAYOH LORONG 2,29468.4865877088,35385.355100112
480 LORONG 2 TOA PAYOH TOA PAYOH CHINESE METHODIST CHURCH SINGAPORE 319641,480,TOA PAYOH CHINESE METHODIST CHURCH,1.33401926631981,103.846468752144,103.846468752144,319641,LORONG 2 TOA PAYOH,TOA PAYOH CHINESE METHODIST CHURCH,29463.4764797036,35134.5931181721
200 LORONG 2 TOA PAYOH TOA PAYOH WEST COMMUNITY CLUB SINGAPORE 319642,200,TOA PAYOH WEST COMMUNITY CLUB,1.33539495096726,103.845022951036,103.845022951036,319642,LORONG 2 TOA PAYOH,TOA PAYOH WEST COMMUNITY CLUB,29302.5732403221,35286.7084722351
248 LORONG 1 TOA PAYOH SHELL TOA PAYOH SINGAPORE 319755,248,SHELL TOA PAYOH,1.34108764768428,103.848878819176,103.848878819176,319755,LORONG 1 TOA PAYOH,SHELL TOA PAYOH,29731.6867435351,35916.1801369656
377 LORONG 1 TOA PAYOH BRADDELL MRT STATION SINGAPORE 319756,377,BRADDELL MRT STATION,1.34010520696434,103.846755921048,103.846755921048,319756,LORONG 1 TOA PAYOH,BRADDELL MRT STATION,29495.4316916373,35807.5454679448
379 LORONG 1 TOA PAYOH SINGAPORE 319757,379,NIL,1.34060466171674,103.8472309307,103.8472309307,319757,LORONG 1 TOA PAYOH,379 LORONG 1 TOA PAYOH SINGAPORE 319757,29548.2948462712,35862.7729153242
381 LORONG 1 TOA PAYOH ONEPEOPLE.SG SINGAPORE 319758,381,ONEPEOPLE.SG,1.34029994349276,103.845242878134,103.845242878134,319758,LORONG 1 TOA PAYOH,ONEPEOPLE.SG,29327.0461764121,35829.0775667373
622 LORONG 1 TOA PAYOH SINGAPORE 319763,622,NIL,1.33452048243981,103.842598451486,103.842598451486,319763,LORONG 1 TOA PAYOH,622 LORONG 1 TOA PAYOH SINGAPORE 319763,29032.7523565404,35190.0130699277
626 LORONG 1 TOA PAYOH CHIJ SECONDARY (TOA PAYOH) SINGAPORE 319764,626,CHIJ SECONDARY (TOA PAYOH),1.33246212981448,103.842719447087,103.842719447087,319764,LORONG 1 TOA PAYOH,CHIJ SECONDARY (TOA PAYOH),29046.2187641039,34962.411029214
628 LORONG 1 TOA PAYOH CHIJ PRIMARY (TOA PAYOH) SINGAPORE 319765,628,CHIJ PRIMARY (TOA PAYOH),1.33281815279665,103.841918376501,103.841918376501,319765,LORONG 1 TOA PAYOH,CHIJ PRIMARY (TOA PAYOH),28957.0678080786,35001.7779017854
911 LORONG 1 TOA PAYOH OLEANDER TOWERS SINGAPORE 319771,911,OLEANDER TOWERS,1.33335004690133,103.844102860065,103.844102860065,319771,LORONG 1 TOA PAYOH,OLEANDER TOWERS,29200.1778015895,35060.5929830056
913 LORONG 1 TOA PAYOH OLEANDER TOWERS SINGAPORE 319772,913,OLEANDER TOWERS,1.33318447410615,103.844341716537,103.844341716537,319772,LORONG 1 TOA PAYOH,OLEANDER TOWERS,29226.7601134656,35042.2849087659
700 LORONG 1 TOA PAYOH TRELLIS TOWERS SINGAPORE 319773,700,TRELLIS TOWERS,1.33050893129238,103.843673071862,103.843673071862,319773,LORONG 1 TOA PAYOH,TRELLIS TOWERS,29152.3481823793,34746.4367673937
184E JALAN TOA PAYOH LIAN SHAN SHUANG LIN MONASTERY SINGAPORE 319941,184E,LIAN SHAN SHUANG LIN MONASTERY,1.33034496642962,103.857342627465,103.857342627465,319941,JALAN TOA PAYOH,LIAN SHAN SHUANG LIN MONASTERY,30673.6288787918,34728.3169600144
184 JALAN TOA PAYOH FORMER SIONG LIM TEMPLE SINGAPORE 319944,184,FORMER SIONG LIM TEMPLE,1.32997318901518,103.856570957186,103.856570957186,319944,JALAN TOA PAYOH,FORMER SIONG LIM TEMPLE,30587.7503155591,34687.2068937253
