ADDRESS,BLK_NO,BUILDING,LATITUDE,LONGITUDE,LONGTITUDE,POSTAL,ROAD_NAME,SEARCHVAL,X,Y
337 KANG CHING ROAD MULTI STOREY CAR PARK SINGAPORE 615337,337,MULTI STOREY CAR PARK,1.33852236574477,103.722406139591,103.722406139591,615337,KANG CHING ROAD,MULTI STOREY CAR PARK,15656.6224745363,35632.7980462946
2 YUNG HO WALK SAINT ANDREW’S NURSING HOME (TAMAN JURONG) SINGAPORE 618274,2,SAINT ANDREW’S NURSING HOME (TAMAN JURONG),1.32656348074429,103.725965093706,103.725965093706,618274,YUNG HO WALK,SAINT ANDREW’S NURSING HOME (TAMAN JURONG),16052.6391482744,34310.4258565865
6 BUROH LANE SINGAPORE 618284,6,NIL,1.31403667469129,103.726245696961,103.726245696961,618284,BUROH LANE,6 BUROH LANE SINGAPORE 618284,16083.8078466514,32925.2721782681
3 BUROH LANE JTC POULTRY PROCESSING HUB @ BUROH SINGAPORE 618285,3,JTC POULTRY PROCESSING HUB @ BUROH,1.31447631418847,103.722743268038,103.722743268038,618285,BUROH LANE,JTC POULTRY PROCESSING HUB @ BUROH,15694.0225335248,32973.9023251124
5 BUROH LANE SEJ FOOD HUB SINGAPORE 618289,5,SEJ FOOD HUB,1.31621440527154,103.722518737355,103.722518737355,618289,BUROH LANE,SEJ FOOD HUB,15669.0429113861,33166.0929739028
7 BUROH LANE COMMONWEALTH CAPITAL BUILDING SINGAPORE 618291,7,COMMONWEALTH CAPITAL BUILDING,1.31607943906799,103.723380132471,103.723380132471,618291,BUROH LANE,COMMONWEALTH CAPITAL BUILDING,15764.9073667359,33151.1648346018
1 BUROH LANE SINGAPORE 618292,1,NIL,1.31428305645025,103.723912934217,103.723912934217,618292,BUROH LANE,1 BUROH LANE SINGAPORE 618292,15824.1944468943,32952.5271052793
7A BUROH LANE SINGAPORE 618293,7A,NIL,1.31581607849338,103.723940447119,103.723940447119,618293,BUROH LANE,7A BUROH LANE SINGAPORE 618293,15827.2638020515,33122.0409806687
60 PULAU DAMAR LAUT SINGAPORE 618294,60,NIL,1.30389030990415,103.7172131634,103.7172131634,618294,PULAU DAMAR LAUT,60 PULAU DAMAR LAUT SINGAPORE 618294,15078.5196038159,31803.3819461316
62 PULAU DAMAR LAUT SINGAPORE 618295,62,NIL,1.30319302806137,103.71775795129,103.71775795129,618295,PULAU DAMAR LAUT,62 PULAU DAMAR LAUT SINGAPORE 618295,15139.1461027898,31726.2771633379
64 PULAU DAMAR LAUT SINGAPORE 618296,64,NIL,1.30287048211471,103.718169707559,103.718169707559,618296,PULAU DAMAR LAUT,64 PULAU DAMAR LAUT SINGAPORE 618296,15184.9692876264,31690.6095226649
58 PULAU DAMAR LAUT SINGAPORE 618297,58,NIL,1.30464961051703,103.716373604316,103.716373604316,618297,PULAU DAMAR LAUT,58 PULAU DAMAR LAUT SINGAPORE 618297,14985.0880587297,31887.345998859
150 PULAU DAMAR LAUT SINGAPORE 618298,150,NIL,1.30192983874287,103.712828263682,103.712828263682,618298,PULAU DAMAR LAUT,150 PULAU DAMAR LAUT SINGAPORE 618298,14590.50893261,31586.6255898792
15 TUKANG INNOVATION DRIVE SINGAPORE 618299,15,NIL,1.32312834907008,103.714630102995,103.714630102995,618299,TUKANG INNOVATION DRIVE,15 TUKANG INNOVATION DRIVE SINGAPORE 618299,14791.1490101274,33930.6434159148
17 TUKANG INNOVATION DRIVE SINGAPORE 618300,17,NIL,1.32280193269803,103.713315490833,103.713315490833,618300,TUKANG INNOVATION DRIVE,17 TUKANG INNOVATION DRIVE SINGAPORE 618300,14644.8437468801,33894.5569268838
19 TUKANG INNOVATION DRIVE GREENHUB SINGAPORE 618301,19,GREENHUB,1.3225521604386,103.711750850862,103.711750850862,618301,TUKANG INNOVATION DRIVE,GREENHUB,14470.7131867381,33866.946805086
10 TUKANG INNOVATION DRIVE SINGAPORE 618302,10,NIL,1.32477572499779,103.715763633532,103.715763633532,618302,TUKANG INNOVATION DRIVE,10 TUKANG INNOVATION DRIVE SINGAPORE 618302,14917.3085390395,34112.7961721942
12 TUKANG INNOVATION DRIVE SINGAPORE 618303,12,NIL,1.3243491614683,103.714711049801,103.714711049801,618303,TUKANG INNOVATION DRIVE,12 TUKANG INNOVATION DRIVE SINGAPORE 618303,14800.1640566653,34065.6344463136
5 TUKANG INNOVATION GROVE SINGAPORE 618304,5,NIL,1.3241039113569,103.712388263662,103.712388263662,618304,TUKANG INNOVATION GROVE,5 TUKANG INNOVATION GROVE SINGAPORE 618304,14541.6594034201,34038.5283772461
2 TUKANG INNOVATION GROVE DBS JTC MEDTECH SINGAPORE 618305,2,DBS JTC MEDTECH,1.32514489340158,103.710221988704,103.710221988704,618305,TUKANG INNOVATION GROVE,DBS JTC MEDTECH,14300.5799073298,34153.6469629351
9 BUROH LANE SINGAPORE 618309,9,NIL,1.31513059212903,103.725596025293,103.725596025293,618309,BUROH LANE,9 BUROH LANE SINGAPORE 618309,16011.5107093193,33046.2352694683
161 CORPORATION WALK LAKESIDE PRIMARY SCHOOL SINGAPORE 618310,161,LAKESIDE PRIMARY SCHOOL,1.33837570310394,103.718050539055,103.718050539055,618310,CORPORATION WALK,LAKESIDE PRIMARY SCHOOL,15171.8889481956,35616.6031616069
30 PULAU DAMAR LAUT SINGAPORE 618311,30,NIL,1.30094020156324,103.717802410183,103.717802410183,618311,PULAU DAMAR LAUT,30 PULAU DAMAR LAUT SINGAPORE 618311,15144.0825687898,31477.170476893
120 PULAU DAMAR LAUT SINGAPORE 618312,120,NIL,1.30145902649631,103.718592281655,103.718592281655,618312,PULAU DAMAR LAUT,120 PULAU DAMAR LAUT SINGAPORE 618312,15231.9909332795,31534.5355703533
11 BUROH LANE SINGAPORE 618313,11,NIL,1.31503396798418,103.726370759695,103.726370759695,618313,BUROH LANE,11 BUROH LANE SINGAPORE 618313,16097.7308770167,33035.5473417379
70 PULAU DAMAR LAUT SINGAPORE 618314,70,NIL,1.3023789359167,103.717612597773,103.717612597773,618314,PULAU DAMAR LAUT,70 PULAU DAMAR LAUT SINGAPORE 618314,15122.9654137855,31636.259604672
1 CORPORATION RISE LAKESIDE GROVE SINGAPORE 618315,1,LAKESIDE GROVE,1.33923570721256,103.718265334246,103.718265334246,618315,CORPORATION RISE,LAKESIDE GROVE,15195.7978706779,35711.6970848944
2 CORPORATION RISE LAKESIDE GROVE SINGAPORE 618316,2,LAKESIDE GROVE,1.33953431445675,103.718051515718,103.718051515718,618316,CORPORATION RISE,LAKESIDE GROVE,15172.0036638537,35744.7167310119
3 CORPORATION RISE LAKESIDE GROVE SINGAPORE 618317,3,LAKESIDE GROVE,1.33921119353251,103.718222094058,103.718222094058,618317,CORPORATION RISE,LAKESIDE GROVE,15190.985563946,35708.9867080245
4 CORPORATION RISE LAKESIDE GROVE SINGAPORE 618318,4,LAKESIDE GROVE,1.33950695479323,103.71800860747,103.71800860747,618318,CORPORATION RISE,LAKESIDE GROVE,15167.2282840628,35741.6916579157
5 CORPORATION RISE LAKESIDE GROVE SINGAPORE 618319,5,LAKESIDE GROVE,1.33917961793795,103.718175327498,103.718175327498,618319,CORPORATION RISE,LAKESIDE GROVE,15185.7807722706,35705.4954777118
6 CORPORATION RISE LAKESIDE GROVE SINGAPORE 618320,6,LAKESIDE GROVE,1.33944169701534,103.717939547045,103.717939547045,618320,CORPORATION RISE,LAKESIDE GROVE,15159.5422441531,35734.4761338122
7 CORPORATION RISE LAKESIDE GROVE SINGAPORE 618321,7,LAKESIDE GROVE,1.3391532805907,103.718130801226,103.718130801226,618321,CORPORATION RISE,LAKESIDE GROVE,15180.8253282439,35702.5834555328
8 CORPORATION RISE LAKESIDE GROVE SINGAPORE 618322,8,LAKESIDE GROVE,1.33941304405912,103.717898630263,103.717898630263,618322,CORPORATION RISE,LAKESIDE GROVE,15154.9884865386,35731.3080444932
9 CORPORATION RISE LAKESIDE GROVE SINGAPORE 618323,9,LAKESIDE GROVE,1.3391217528997,103.718084076551,103.718084076551,618323,CORPORATION RISE,LAKESIDE GROVE,15175.6251978371,35699.0975221172
10 CORPORATION RISE LAKESIDE GROVE SINGAPORE 618324,10,LAKESIDE GROVE,1.33938385423415,103.717850273897,103.717850273897,618324,CORPORATION RISE,LAKESIDE GROVE,15149.6067784978,35728.0806299262
11 CORPORATION RISE LAKESIDE GROVE SINGAPORE 618325,11,LAKESIDE GROVE,1.33909537832255,103.718039533148,103.718039533148,618325,CORPORATION RISE,LAKESIDE GROVE,15170.6678469284,35696.1813834943
12 CORPORATION RISE LAKESIDE GROVE SINGAPORE 618326,12,LAKESIDE GROVE,1.33935513522023,103.717807525911,103.717807525911,618326,CORPORATION RISE,LAKESIDE GROVE,15144.8492265493,35724.9052460212
13 CORPORATION RISE LAKESIDE GROVE SINGAPORE 618327,13,LAKESIDE GROVE,1.33906389743989,103.717992844102,103.717992844102,618327,CORPORATION RISE,LAKESIDE GROVE,15165.4716816274,35692.700625902
14 CORPORATION RISE LAKESIDE GROVE SINGAPORE 618328,14,LAKESIDE GROVE,1.33932597522763,103.717759110256,103.717759110256,618328,CORPORATION RISE,LAKESIDE GROVE,15139.460920088,35721.6811306644
15 CORPORATION RISE LAKESIDE GROVE SINGAPORE 618329,15,LAKESIDE GROVE,1.33903561250625,103.717948787354,103.717948787354,618329,CORPORATION RISE,LAKESIDE GROVE,15160.5684801415,35689.5732470211
16 CORPORATION RISE LAKESIDE GROVE SINGAPORE 618330,16,LAKESIDE GROVE,1.33929721159112,103.7177163038,103.7177163038,618330,CORPORATION RISE,LAKESIDE GROVE,15134.696860523,35718.5008130781
17 CORPORATION RISE LAKESIDE GROVE SINGAPORE 618331,17,LAKESIDE GROVE,1.33898512322784,103.717870128522,103.717870128522,618331,CORPORATION RISE,LAKESIDE GROVE,15151.8143133549,35683.9908017125
18 CORPORATION RISE LAKESIDE GROVE SINGAPORE 618332,18,LAKESIDE GROVE,1.33926800560903,103.717667870743,103.717667870743,618332,CORPORATION RISE,LAKESIDE GROVE,15129.3066169107,35715.2716127001
19 CORPORATION RISE LAKESIDE GROVE SINGAPORE 618333,19,LAKESIDE GROVE,1.33896001471209,103.717826699348,103.717826699348,618333,CORPORATION RISE,LAKESIDE GROVE,15146.9809703743,35681.2146525122
20 CORPORATION RISE LAKESIDE GROVE SINGAPORE 618334,20,LAKESIDE GROVE,1.33923929617367,103.717625139351,103.717625139351,618334,CORPORATION RISE,LAKESIDE GROVE,15124.5509113092,35712.0972881764
21 CORPORATION RISE LAKESIDE GROVE SINGAPORE 618335,21,LAKESIDE GROVE,1.33892888282192,103.71777974457,103.71777974457,618335,CORPORATION RISE,LAKESIDE GROVE,15141.7552332543,35677.772486601
22 CORPORATION RISE LAKESIDE GROVE SINGAPORE 618336,22,LAKESIDE GROVE,1.33921014630456,103.717576695687,103.717576695687,618336,CORPORATION RISE,LAKESIDE GROVE,15119.1594872456,35708.8742927331
23 CORPORATION RISE LAKESIDE GROVE SINGAPORE 618337,23,LAKESIDE GROVE,1.33890203305706,103.717735552045,103.717735552045,618337,CORPORATION RISE,LAKESIDE GROVE,15136.8369280435,35674.8038027585
24 CORPORATION RISE LAKESIDE GROVE SINGAPORE 618338,24,LAKESIDE GROVE,1.33918225689148,103.717532315546,103.717532315546,618338,CORPORATION RISE,LAKESIDE GROVE,15114.2202971261,35705.7906510886
25 CORPORATION RISE LAKESIDE GROVE SINGAPORE 618339,25,LAKESIDE GROVE,1.33887087872001,103.717688613046,103.717688613046,618339,CORPORATION RISE,LAKESIDE GROVE,15131.6129464656,35671.3591548707
26 CORPORATION RISE LAKESIDE GROVE SINGAPORE 618340,26,LAKESIDE GROVE,1.33913248531077,103.717453332218,103.717453332218,618340,CORPORATION RISE,LAKESIDE GROVE,15105.430020635,35700.2875684332
27 CORPORATION RISE LAKESIDE GROVE SINGAPORE 618341,27,LAKESIDE GROVE,1.3388440598862,103.717644437112,103.717644437112,618341,CORPORATION RISE,LAKESIDE GROVE,15126.6964876028,35668.3938913103
28 CORPORATION RISE LAKESIDE GROVE SINGAPORE 618342,28,LAKESIDE GROVE,1.33910374257747,103.717412718704,103.717412718704,618342,CORPORATION RISE,LAKESIDE GROVE,15100.9100118224,35697.1095512137
29 CORPORATION RISE LAKESIDE GROVE SINGAPORE 618343,29,LAKESIDE GROVE,1.33881328559877,103.717599828924,103.717599828924,618343,CORPORATION RISE,LAKESIDE GROVE,15121.731902645,35664.9912553839
30 CORPORATION RISE LAKESIDE GROVE SINGAPORE 618344,30,LAKESIDE GROVE,1.33907473257504,103.717364133339,103.717364133339,618344,CORPORATION RISE,LAKESIDE GROVE,15095.5028181393,35693.9020227119
31 CORPORATION RISE LAKESIDE GROVE SINGAPORE 618345,31,LAKESIDE GROVE,1.33876226632733,103.717520389835,103.717520389835,618345,CORPORATION RISE,LAKESIDE GROVE,15112.8908970132,35659.350211259
32 CORPORATION RISE LAKESIDE GROVE SINGAPORE 618346,32,LAKESIDE GROVE,1.33904577787281,103.71732144521,103.71732144521,618346,CORPORATION RISE,LAKESIDE GROVE,15090.7519251471,35690.7005780749
33 CORPORATION RISE LAKESIDE GROVE SINGAPORE 618347,33,LAKESIDE GROVE,1.3387378481685,103.717477161897,103.717477161897,618347,CORPORATION RISE,LAKESIDE GROVE,15108.0799523415,35656.6503979154
34 CORPORATION RISE LAKESIDE GROVE SINGAPORE 618348,34,LAKESIDE GROVE,1.33901674706597,103.717272878887,103.717272878887,618348,CORPORATION RISE,LAKESIDE GROVE,15085.3468502229,35687.4907492045
35 CORPORATION RISE LAKESIDE GROVE SINGAPORE 618349,35,LAKESIDE GROVE,1.33870638397205,103.71743043506,103.71743043506,618349,CORPORATION RISE,LAKESIDE GROVE,15102.8795797909,35653.1714866702
36 CORPORATION RISE LAKESIDE GROVE SINGAPORE 618350,36,LAKESIDE GROVE,1.338987853682,103.717230267455,103.717230267455,618350,CORPORATION RISE,LAKESIDE GROVE,15080.6044928022,35684.2960845958
37 CORPORATION RISE LAKESIDE GROVE SINGAPORE 618351,37,LAKESIDE GROVE,1.33868005291634,103.717386075254,103.717386075254,618351,CORPORATION RISE,LAKESIDE GROVE,15097.9426597711,35650.2601606566
38 CORPORATION RISE LAKESIDE GROVE SINGAPORE 618352,38,LAKESIDE GROVE,1.33895891649289,103.717181762052,103.717181762052,618352,CORPORATION RISE,LAKESIDE GROVE,15075.2061979063,35681.0966073759
39 CORPORATION RISE LAKESIDE GROVE SINGAPORE 618353,39,LAKESIDE GROVE,1.33864845732729,103.717339358216,103.717339358216,618353,CORPORATION RISE,LAKESIDE GROVE,15092.7433768678,35646.7667207811
40 CORPORATION RISE LAKESIDE GROVE SINGAPORE 618354,40,LAKESIDE GROVE,1.33892995549468,103.71713913077,103.71713913077,618354,CORPORATION RISE,LAKESIDE GROVE,15070.4616309227,35677.8944665752
41 CORPORATION RISE LAKESIDE GROVE SINGAPORE 618355,41,LAKESIDE GROVE,1.33862206522112,103.717294859436,103.717294859436,618355,CORPORATION RISE,LAKESIDE GROVE,15087.7909899084,35643.8486450054
42 CORPORATION RISE LAKESIDE GROVE SINGAPORE 618356,42,LAKESIDE GROVE,1.33890100324451,103.717090538067,103.717090538067,618356,CORPORATION RISE,LAKESIDE GROVE,15065.0536200032,35674.693324618
43 CORPORATION RISE LAKESIDE GROVE SINGAPORE 618357,43,LAKESIDE GROVE,1.33859038587605,103.71724830287,103.71724830287,618357,CORPORATION RISE,LAKESIDE GROVE,15082.6095651155,35640.3459431268
44 CORPORATION RISE LAKESIDE GROVE SINGAPORE 618358,44,LAKESIDE GROVE,1.33887292083779,103.717046066018,103.717046066018,618358,CORPORATION RISE,LAKESIDE GROVE,15060.1041993061,35671.5883440431
45 CORPORATION RISE LAKESIDE GROVE SINGAPORE 618359,45,LAKESIDE GROVE,1.3385621365189,103.717204317124,103.717204317124,618359,CORPORATION RISE,LAKESIDE GROVE,15077.7142635724,35637.2224990819
46 CORPORATION RISE LAKESIDE GROVE SINGAPORE 618360,46,LAKESIDE GROVE,1.33906826245017,103.716952679318,103.716952679318,618360,CORPORATION RISE,LAKESIDE GROVE,15049.7122621881,35693.1887576748
47 CORPORATION RISE LAKESIDE GROVE SINGAPORE 618361,47,LAKESIDE GROVE,1.33936598484852,103.716778569345,103.716778569345,618361,CORPORATION RISE,LAKESIDE GROVE,15030.337211255,35726.1103657931
48 CORPORATION RISE LAKESIDE GROVE SINGAPORE 618362,48,LAKESIDE GROVE,1.33909643327819,103.716997232412,103.716997232412,618362,CORPORATION RISE,LAKESIDE GROVE,15054.6707027452,35696.3035148084
49 CORPORATION RISE LAKESIDE GROVE SINGAPORE 618363,49,LAKESIDE GROVE,1.33939506717762,103.716822474283,103.716822474283,618363,CORPORATION RISE,LAKESIDE GROVE,15035.223523207,35729.3259153124
50 CORPORATION RISE LAKESIDE GROVE SINGAPORE 618364,50,LAKESIDE GROVE,1.33912847504809,103.717043746811,103.717043746811,618364,CORPORATION RISE,LAKESIDE GROVE,15059.8474360006,35699.8462914974
51 CORPORATION RISE LAKESIDE GROVE SINGAPORE 618365,51,LAKESIDE GROVE,1.33942304360169,103.716871566113,103.716871566113,618365,CORPORATION RISE,LAKESIDE GROVE,15040.6870758757,35732.4191519078
52 CORPORATION RISE LAKESIDE GROVE SINGAPORE 618366,52,LAKESIDE GROVE,1.3391544004523,103.717088385142,103.717088385142,618366,CORPORATION RISE,LAKESIDE GROVE,15064.8153504357,35702.7127603609
53 CORPORATION RISE LAKESIDE GROVE SINGAPORE 618367,53,LAKESIDE GROVE,1.33945257668899,103.716913851147,103.716913851147,618367,CORPORATION RISE,LAKESIDE GROVE,15045.393111716,35735.6845527943
54 CORPORATION RISE LAKESIDE GROVE SINGAPORE 618368,54,LAKESIDE GROVE,1.33917490441274,103.717140850902,103.717140850902,618368,CORPORATION RISE,LAKESIDE GROVE,15070.6543471748,35704.9797112681
55 CORPORATION RISE LAKESIDE GROVE SINGAPORE 618369,55,LAKESIDE GROVE,1.33948059417304,103.716962980782,103.716962980782,618369,CORPORATION RISE,LAKESIDE GROVE,15050.8608716344,35738.7823295891
56 CORPORATION RISE LAKESIDE GROVE SINGAPORE 618370,56,LAKESIDE GROVE,1.33921236543229,103.717179512582,103.717179512582,618370,CORPORATION RISE,LAKESIDE GROVE,15074.9571832037,35709.1217637677
57 CORPORATION RISE LAKESIDE GROVE SINGAPORE 618371,57,LAKESIDE GROVE,1.33951016914274,103.717005323204,103.717005323204,618371,CORPORATION RISE,LAKESIDE GROVE,15055.5732940193,35742.0523614772
58 CORPORATION RISE LAKESIDE GROVE SINGAPORE 618372,58,LAKESIDE GROVE,1.33924440911727,103.717226069685,103.717226069685,618372,CORPORATION RISE,LAKESIDE GROVE,15080.1386685325,35712.6647523344
59 CORPORATION RISE LAKESIDE GROVE SINGAPORE 618373,59,LAKESIDE GROVE,1.33953815405206,103.717054475688,103.717054475688,618373,CORPORATION RISE,LAKESIDE GROVE,15061.0435964484,35745.1465363801
60 CORPORATION RISE LAKESIDE GROVE SINGAPORE 618374,60,LAKESIDE GROVE,1.33927033917139,103.71727069687,103.71727069687,618374,CORPORATION RISE,LAKESIDE GROVE,15085.1053419812,35715.5317357518
61 CORPORATION RISE LAKESIDE GROVE SINGAPORE 618375,61,LAKESIDE GROVE,1.33956769589489,103.717096737881,103.717096737881,618375,CORPORATION RISE,LAKESIDE GROVE,15065.747089779,35748.4129058439
62 CORPORATION RISE LAKESIDE GROVE SINGAPORE 618376,62,LAKESIDE GROVE,1.33930232646188,103.717317169393,103.717317169393,618376,CORPORATION RISE,LAKESIDE GROVE,15090.2774139661,35719.0684891138
63 CORPORATION RISE LAKESIDE GROVE SINGAPORE 618377,63,LAKESIDE GROVE,1.3395957084471,103.717145839507,103.717145839507,618377,CORPORATION RISE,LAKESIDE GROVE,15071.2117320951,35751.5101378132
64 CORPORATION RISE LAKESIDE GROVE SINGAPORE 618378,64,LAKESIDE GROVE,1.33932661460817,103.717360541219,103.717360541219,618378,CORPORATION RISE,LAKESIDE GROVE,15095.1043704022,35721.7539251652
65 CORPORATION RISE LAKESIDE GROVE SINGAPORE 618379,65,LAKESIDE GROVE,1.33962472022625,103.717185660205,103.717185660205,618379,CORPORATION RISE,LAKESIDE GROVE,15075.6435097344,35754.7179084606
66 CORPORATION RISE LAKESIDE GROVE SINGAPORE 618380,66,LAKESIDE GROVE,1.33937732505283,103.717438657177,103.717438657177,618380,CORPORATION RISE,LAKESIDE GROVE,15103.7981222933,35727.3608270045
67 CORPORATION RISE LAKESIDE GROVE SINGAPORE 618381,67,LAKESIDE GROVE,1.33967573756169,103.717264422638,103.717264422638,618381,CORPORATION RISE,LAKESIDE GROVE,15084.4092086237,35760.3587407097
68 CORPORATION RISE LAKESIDE GROVE SINGAPORE 618382,68,LAKESIDE GROVE,1.3394053434062,103.717483257615,103.717483257615,618382,CORPORATION RISE,LAKESIDE GROVE,15108.7618294787,35730.4587248694
69 CORPORATION RISE LAKESIDE GROVE SINGAPORE 618383,69,LAKESIDE GROVE,1.3397038210619,103.717308920813,103.717308920813,618383,CORPORATION RISE,LAKESIDE GROVE,15089.3615350472,35763.4638423547
70 CORPORATION RISE LAKESIDE GROVE SINGAPORE 618384,70,LAKESIDE GROVE,1.33943776674356,103.71752962215,103.71752962215,618384,CORPORATION RISE,LAKESIDE GROVE,15113.921885075,35734.0436951295
71 CORPORATION RISE LAKESIDE GROVE SINGAPORE 618385,71,LAKESIDE GROVE,1.33973306975093,103.717357296212,103.717357296212,618385,CORPORATION RISE,LAKESIDE GROVE,15094.7453618469,35766.6977645401
72 CORPORATION RISE LAKESIDE GROVE SINGAPORE 618386,72,LAKESIDE GROVE,1.33946365573058,103.717574202291,103.717574202291,618386,CORPORATION RISE,LAKESIDE GROVE,15118.8833221616,35736.9061383493
73 CORPORATION RISE LAKESIDE GROVE SINGAPORE 618387,73,LAKESIDE GROVE,1.33976204607572,103.717399929957,103.717399929957,618387,CORPORATION RISE,LAKESIDE GROVE,15099.4902012423,35769.9016003478
74 CORPORATION RISE LAKESIDE GROVE SINGAPORE 618388,74,LAKESIDE GROVE,1.339496004882,103.717620504549,103.717620504549,618388,CORPORATION RISE,LAKESIDE GROVE,15124.0364463897,35740.4829059858
75 CORPORATION RISE LAKESIDE GROVE SINGAPORE 618389,75,LAKESIDE GROVE,1.33979132131549,103.717448313517,103.717448313517,618389,CORPORATION RISE,LAKESIDE GROVE,15104.8749360815,35773.1384585258
76 CORPORATION RISE LAKESIDE GROVE SINGAPORE 618390,76,LAKESIDE GROVE,1.33952195299457,103.717665103184,103.717665103184,618390,CORPORATION RISE,LAKESIDE GROVE,15128.9999416992,35743.3518870901
77 CORPORATION RISE LAKESIDE GROVE SINGAPORE 618391,77,LAKESIDE GROVE,1.33982047282153,103.717490819699,103.717490819699,618391,CORPORATION RISE,LAKESIDE GROVE,15109.6055797925,35776.3616658449
78 CORPORATION RISE LAKESIDE GROVE SINGAPORE 618392,78,LAKESIDE GROVE,1.33955436729788,103.717711514232,103.717711514232,618392,CORPORATION RISE,LAKESIDE GROVE,15134.1651731208,35746.9358585067
79 CORPORATION RISE LAKESIDE GROVE SINGAPORE 618393,79,LAKESIDE GROVE,1.33985272207415,103.717537365113,103.717537365113,618393,CORPORATION RISE,LAKESIDE GROVE,15114.785763598,35779.9273856655
80 CORPORATION RISE LAKESIDE GROVE SINGAPORE 618394,80,LAKESIDE GROVE,1.33958030555748,103.71775617352,103.71775617352,618394,CORPORATION RISE,LAKESIDE GROVE,15139.1354181916,35749.8037499636
81 CORPORATION RISE LAKESIDE GROVE SINGAPORE 618395,81,LAKESIDE GROVE,1.33989009707079,103.717574640283,103.717574640283,618395,CORPORATION RISE,LAKESIDE GROVE,15118.9342934461,35784.05993402
82 CORPORATION RISE LAKESIDE GROVE SINGAPORE 618396,82,LAKESIDE GROVE,1.33961264348004,103.717802418396,103.717802418396,618396,CORPORATION RISE,LAKESIDE GROVE,15144.2821558742,35753.3792766128
83 CORPORATION RISE LAKESIDE GROVE SINGAPORE 618397,83,LAKESIDE GROVE,1.33991812631789,103.71762386567,103.71762386567,618397,CORPORATION RISE,LAKESIDE GROVE,15124.4127076957,35787.1590123363
84 CORPORATION RISE LAKESIDE GROVE SINGAPORE 618398,84,LAKESIDE GROVE,1.33963908511399,103.717846699618,103.717846699618,618398,CORPORATION RISE,LAKESIDE GROVE,15149.2103284476,35756.3028308917
85 CORPORATION RISE LAKESIDE GROVE SINGAPORE 618399,85,LAKESIDE GROVE,1.33994940192444,103.717665115503,103.717665115503,618399,CORPORATION RISE,LAKESIDE GROVE,15129.0035435893,35790.6170992069
86 CORPORATION RISE LAKESIDE GROVE SINGAPORE 618400,86,LAKESIDE GROVE,1.33967916272088,103.71792556321,103.71792556321,618400,CORPORATION RISE,LAKESIDE GROVE,15157.9872264899,35760.7340031713
87 CORPORATION RISE LAKESIDE GROVE SINGAPORE 618401,87,LAKESIDE GROVE,1.34002025831601,103.71768718569,103.71768718569,618401,CORPORATION RISE,LAKESIDE GROVE,15131.4600931481,35798.4519365244
89 CORPORATION RISE LAKESIDE GROVE SINGAPORE 618402,89,LAKESIDE GROVE,1.34004910861182,103.717727565047,103.717727565047,618402,CORPORATION RISE,LAKESIDE GROVE,15135.9540412268,35801.6418490615
110 PULAU DAMAR LAUT SINGAPORE 618403,110,NIL,1.30074087369876,103.719447784446,103.719447784446,618403,PULAU DAMAR LAUT,110 PULAU DAMAR LAUT SINGAPORE 618403,15327.1972718593,31455.1214614753
1 CORPORATION WALK LAKESIDE GROVE SINGAPORE 618404,1,LAKESIDE GROVE,1.33959134743181,103.718231309062,103.718231309062,618404,CORPORATION WALK,LAKESIDE GROVE,15192.0130711896,35751.0222179163
2 CORPORATION WALK LAKESIDE GROVE SINGAPORE 618405,2,LAKESIDE GROVE,1.33978507450682,103.718517982584,103.718517982584,618405,CORPORATION WALK,LAKESIDE GROVE,15223.9178263946,35772.4421132933
3 CORPORATION WALK LAKESIDE GROVE SINGAPORE 618406,3,LAKESIDE GROVE,1.3396347932136,103.718204017042,103.718204017042,618406,CORPORATION WALK,LAKESIDE GROVE,15188.975981703,35755.8263825588
4 CORPORATION WALK LAKESIDE GROVE SINGAPORE 618407,4,LAKESIDE GROVE,1.33982811984224,103.718491128465,103.718491128465,618407,CORPORATION WALK,LAKESIDE GROVE,15220.9294683617,35777.2019958757
5 CORPORATION WALK LAKESIDE GROVE SINGAPORE 618408,5,LAKESIDE GROVE,1.33968313264171,103.718173760534,103.718173760534,618408,CORPORATION WALK,LAKESIDE GROVE,15185.6090014623,35761.1716782153
6 CORPORATION WALK LAKESIDE GROVE SINGAPORE 618409,6,LAKESIDE GROVE,1.33987651401098,103.718460667704,103.718460667704,618409,CORPORATION WALK,LAKESIDE GROVE,15217.5397568652,35782.5533451289
7 CORPORATION WALK LAKESIDE GROVE SINGAPORE 618410,7,LAKESIDE GROVE,1.33972659676437,103.71814650278,103.71814650278,618410,CORPORATION WALK,LAKESIDE GROVE,15182.5757257426,35765.9778708145
8 CORPORATION WALK LAKESIDE GROVE SINGAPORE 618411,8,LAKESIDE GROVE,1.33991982430188,103.718433461635,103.718433461635,618411,CORPORATION WALK,LAKESIDE GROVE,15214.5122320624,35787.3425271213
9 CORPORATION WALK LAKESIDE GROVE SINGAPORE 618412,9,LAKESIDE GROVE,1.33977493701261,103.718116243551,103.718116243551,618412,CORPORATION WALK,LAKESIDE GROVE,15179.2084428221,35771.3232572749
10 CORPORATION WALK LAKESIDE GROVE SINGAPORE 618413,10,LAKESIDE GROVE,1.33996821545866,103.718403002232,103.718403002232,618413,CORPORATION WALK,LAKESIDE GROVE,15211.1226719059,35792.6935434267
11 CORPORATION WALK LAKESIDE GROVE SINGAPORE 618414,11,LAKESIDE GROVE,1.33981839867127,103.718088995313,103.718088995313,618414,CORPORATION WALK,LAKESIDE GROVE,15176.1762264809,35776.1291774623
12 CORPORATION WALK LAKESIDE GROVE SINGAPORE 618415,12,LAKESIDE GROVE,1.34001152739062,103.718375785825,103.718375785825,618415,CORPORATION WALK,LAKESIDE GROVE,15208.0939969188,35797.482907027
13 CORPORATION WALK LAKESIDE GROVE SINGAPORE 618416,13,LAKESIDE GROVE,1.33986674192974,103.718058739073,103.718058739073,618416,CORPORATION WALK,LAKESIDE GROVE,15172.8092765082,35781.4748968706
14 CORPORATION WALK LAKESIDE GROVE SINGAPORE 618417,14,LAKESIDE GROVE,1.34005991717725,103.718345315269,103.718345315269,618417,CORPORATION WALK,LAKESIDE GROVE,15204.7031957749,35802.8337719925
15 CORPORATION WALK LAKESIDE GROVE SINGAPORE 618418,15,LAKESIDE GROVE,1.3399101641681,103.718031448952,103.718031448952,618418,CORPORATION WALK,LAKESIDE GROVE,15169.7723988984,35786.2764584664
16 CORPORATION WALK LAKESIDE GROVE SINGAPORE 618419,16,LAKESIDE GROVE,1.34010323868991,103.718318118714,103.718318118714,618419,CORPORATION WALK,LAKESIDE GROVE,15201.6767303506,35807.6241949704
17 CORPORATION WALK LAKESIDE GROVE SINGAPORE 618420,17,LAKESIDE GROVE,1.33998924502741,103.717982235412,103.717982235412,618420,CORPORATION WALK,LAKESIDE GROVE,15164.2958612638,35795.0210908391
18 CORPORATION WALK LAKESIDE GROVE SINGAPORE 618421,18,LAKESIDE GROVE,1.34015162382195,103.718287644347,103.718287644347,618421,CORPORATION WALK,LAKESIDE GROVE,15198.285505455,35812.9745453801
19 CORPORATION WALK LAKESIDE GROVE SINGAPORE 618422,19,LAKESIDE GROVE,1.34003269491126,103.717954938215,103.717954938215,618422,CORPORATION WALK,LAKESIDE GROVE,15161.2581966864,35799.8257095013
20 CORPORATION WALK LAKESIDE GROVE SINGAPORE 618423,20,LAKESIDE GROVE,1.34019494013257,103.718260441535,103.718260441535,618423,CORPORATION WALK,LAKESIDE GROVE,15195.258343868,35817.7643932682
21 CORPORATION WALK LAKESIDE GROVE SINGAPORE 618424,21,LAKESIDE GROVE,1.34022839928407,103.717764130244,103.717764130244,618424,CORPORATION WALK,LAKESIDE GROVE,15140.0242980691,35821.4667427689
22 CORPORATION WALK LAKESIDE GROVE SINGAPORE 618425,22,LAKESIDE GROVE,1.34024034494869,103.718231718282,103.718231718282,618425,CORPORATION WALK,LAKESIDE GROVE,15192.0619842513,35822.7851858716
23 CORPORATION WALK LAKESIDE GROVE SINGAPORE 618426,23,LAKESIDE GROVE,1.34026050037882,103.717803553731,103.717803553731,618426,CORPORATION WALK,LAKESIDE GROVE,15144.4118844531,35825.0161178783
24 CORPORATION WALK LAKESIDE GROVE SINGAPORE 618427,24,LAKESIDE GROVE,1.3402765139942,103.718393250874,103.718393250874,618427,CORPORATION WALK,LAKESIDE GROVE,15210.0390478205,35826.7837378606
25 CORPORATION WALK LAKESIDE GROVE SINGAPORE 618428,25,LAKESIDE GROVE,1.34029509298298,103.717848707078,103.717848707078,618428,CORPORATION WALK,LAKESIDE GROVE,15149.4371567173,35828.8409619089
26 CORPORATION WALK LAKESIDE GROVE SINGAPORE 618429,26,LAKESIDE GROVE,1.34030397549105,103.718436377259,103.718436377259,618429,CORPORATION WALK,LAKESIDE GROVE,15214.8387025343,35829.8200706467
27 CORPORATION WALK LAKESIDE GROVE SINGAPORE 618430,27,LAKESIDE GROVE,1.34032643974646,103.717889737705,103.717889737705,618430,CORPORATION WALK,LAKESIDE GROVE,15154.0035966169,35832.3069184572
28 CORPORATION WALK LAKESIDE GROVE SINGAPORE 618431,28,LAKESIDE GROVE,1.34035556885468,103.718517935894,103.718517935894,618431,CORPORATION WALK,LAKESIDE GROVE,15223.9155865638,35835.5245867334
29 CORPORATION WALK LAKESIDE GROVE SINGAPORE 618432,29,LAKESIDE GROVE,1.34036012836662,103.717932394092,103.717932394092,618432,CORPORATION WALK,LAKESIDE GROVE,15158.7509785229,35836.0318176057
30 CORPORATION WALK LAKESIDE GROVE SINGAPORE 618433,30,LAKESIDE GROVE,1.34038294522007,103.718561089483,103.718561089483,618433,CORPORATION WALK,LAKESIDE GROVE,15228.718268076,35838.5515061766
31 CORPORATION WALK LAKESIDE GROVE SINGAPORE 618434,31,LAKESIDE GROVE,1.34039455700989,103.717977692957,103.717977692957,618434,CORPORATION WALK,LAKESIDE GROVE,15163.7924441593,35839.8385311123
32 CORPORATION WALK LAKESIDE GROVE SINGAPORE 618435,32,LAKESIDE GROVE,1.34047572605207,103.718760147971,103.718760147971,618435,CORPORATION WALK,LAKESIDE GROVE,15250.8718593782,35848.8097193427
33 CORPORATION WALK LAKESIDE GROVE SINGAPORE 618436,33,LAKESIDE GROVE,1.34042647360797,103.718017157255,103.718017157255,618436,CORPORATION WALK,LAKESIDE GROVE,15168.18457074,35843.3675056025
34 CORPORATION WALK LAKESIDE GROVE SINGAPORE 618437,34,LAKESIDE GROVE,1.34042551926056,103.71876811755,103.71876811755,618437,CORPORATION WALK,LAKESIDE GROVE,15251.7585296938,35843.2580565736
35 CORPORATION WALK LAKESIDE GROVE SINGAPORE 618438,35,LAKESIDE GROVE,1.34048664923938,103.718091330264,103.718091330264,618438,CORPORATION WALK,LAKESIDE GROVE,15176.4395579398,35850.0210440513
36 CORPORATION WALK LAKESIDE GROVE SINGAPORE 618439,36,LAKESIDE GROVE,1.34036897698706,103.718777220743,103.718777220743,618439,CORPORATION WALK,LAKESIDE GROVE,15252.7713266965,35837.0058413204
37 CORPORATION WALK LAKESIDE GROVE SINGAPORE 618440,37,LAKESIDE GROVE,1.34051637384371,103.718131987823,103.718131987823,618440,CORPORATION WALK,LAKESIDE GROVE,15180.9644701649,35853.3076325264
38 CORPORATION WALK LAKESIDE GROVE SINGAPORE 618441,38,LAKESIDE GROVE,1.34031840422471,103.718785392143,103.718785392143,618441,CORPORATION WALK,LAKESIDE GROVE,15253.6804558551,35831.413710257
39 CORPORATION WALK LAKESIDE GROVE SINGAPORE 618442,39,LAKESIDE GROVE,1.34055182839525,103.718176498462,103.718176498462,618442,CORPORATION WALK,LAKESIDE GROVE,15185.9182191845,35857.2277904376
40 CORPORATION WALK LAKESIDE GROVE SINGAPORE 618443,40,LAKESIDE GROVE,1.34026186277238,103.71879449887,103.71879449887,618443,CORPORATION WALK,LAKESIDE GROVE,15254.6936463425,35825.1615858078
41 CORPORATION WALK LAKESIDE GROVE SINGAPORE 618444,41,LAKESIDE GROVE,1.34058342807244,103.718217315041,103.718217315041,618444,CORPORATION WALK,LAKESIDE GROVE,15190.460838181,35860.7217146028
42 CORPORATION WALK LAKESIDE GROVE SINGAPORE 618445,42,LAKESIDE GROVE,1.34021127331195,103.718802664287,103.718802664287,618445,CORPORATION WALK,LAKESIDE GROVE,15255.6021096054,35819.5676083975
43 CORPORATION WALK LAKESIDE GROVE SINGAPORE 618446,43,LAKESIDE GROVE,1.34061940078861,103.718261628476,103.718261628476,618446,CORPORATION WALK,LAKESIDE GROVE,15195.3926429115,35864.6991698071
44 CORPORATION WALK LAKESIDE GROVE SINGAPORE 618447,44,LAKESIDE GROVE,1.34015473487107,103.71881178298,103.71881178298,618447,CORPORATION WALK,LAKESIDE GROVE,15256.6166318841,35813.3158168979
45 CORPORATION WALK LAKESIDE GROVE SINGAPORE 618448,45,LAKESIDE GROVE,1.34065007391284,103.71830312803,103.71830312803,618448,CORPORATION WALK,LAKESIDE GROVE,15200.011264815,35868.0906368475
46 CORPORATION WALK LAKESIDE GROVE SINGAPORE 618449,46,LAKESIDE GROVE,1.34010416128654,103.718819940508,103.718819940508,618449,CORPORATION WALK,LAKESIDE GROVE,15257.5242173756,35807.7235950287
47 CORPORATION WALK LAKESIDE GROVE SINGAPORE 618450,47,LAKESIDE GROVE,1.34068429867738,103.718343860722,103.718343860722,618450,CORPORATION WALK,LAKESIDE GROVE,15204.5445612725,35871.8748309743
48 CORPORATION WALK LAKESIDE GROVE SINGAPORE 618451,48,LAKESIDE GROVE,1.34004762394039,103.7188290592,103.7188290592,618451,CORPORATION WALK,LAKESIDE GROVE,15258.5387396542,35801.4719246011
49 CORPORATION WALK LAKESIDE GROVE SINGAPORE 618452,49,LAKESIDE GROVE,1.34074430859853,103.718433442246,103.718433442246,618452,CORPORATION WALK,LAKESIDE GROVE,15214.5143508213,35878.5099664889
50 CORPORATION WALK LAKESIDE GROVE SINGAPORE 618453,50,LAKESIDE GROVE,1.33999748586784,103.718837300747,103.718837300747,618453,CORPORATION WALK,LAKESIDE GROVE,15259.4556779526,35795.927859094
51 CORPORATION WALK LAKESIDE GROVE SINGAPORE 618454,51,LAKESIDE GROVE,1.34074255628531,103.718488189603,103.718488189603,618454,CORPORATION WALK,LAKESIDE GROVE,15220.6071446035,35878.3159184456
53 CORPORATION WALK LAKESIDE GROVE SINGAPORE 618455,53,LAKESIDE GROVE,1.34074793343104,103.718539279648,103.718539279648,618455,CORPORATION WALK,LAKESIDE GROVE,15226.2929550763,35878.9102303069
55 CORPORATION WALK LAKESIDE GROVE SINGAPORE 618456,55,LAKESIDE GROVE,1.34074670981695,103.71859666351,103.71859666351,618456,CORPORATION WALK,LAKESIDE GROVE,15232.6791666932,35878.77462974
57 CORPORATION WALK LAKESIDE GROVE SINGAPORE 618457,57,LAKESIDE GROVE,1.3407504864477,103.718647760429,103.718647760429,618457,CORPORATION WALK,LAKESIDE GROVE,15238.3657338656,35879.191964699
59 CORPORATION WALK LAKESIDE GROVE SINGAPORE 618458,59,LAKESIDE GROVE,1.34075424531706,103.718699541639,103.718699541639,618458,CORPORATION WALK,LAKESIDE GROVE,15244.1284552859,35879.6073322389
61 CORPORATION WALK LAKESIDE GROVE SINGAPORE 618459,61,LAKESIDE GROVE,1.34075723627055,103.718795802004,103.718795802004,618459,CORPORATION WALK,LAKESIDE GROVE,15254.8412330309,35879.9375559408
63 CORPORATION WALK LAKESIDE GROVE SINGAPORE 618460,63,LAKESIDE GROVE,1.34075952953881,103.718846839974,103.718846839974,618460,CORPORATION WALK,LAKESIDE GROVE,15260.5212320518,35880.1908686981
65 CORPORATION WALK LAKESIDE GROVE SINGAPORE 618461,65,LAKESIDE GROVE,1.34075916708173,103.71890427248,103.71890427248,618461,CORPORATION WALK,LAKESIDE GROVE,15266.9128616368,35880.1504912078
67 CORPORATION WALK LAKESIDE GROVE SINGAPORE 618462,67,LAKESIDE GROVE,1.34076109178399,103.718958581243,103.718958581243,618462,CORPORATION WALK,LAKESIDE GROVE,15272.9568634294,35880.3630329892
69 CORPORATION WALK LAKESIDE GROVE SINGAPORE 618463,69,LAKESIDE GROVE,1.34076409103072,103.719010175642,103.719010175642,618463,CORPORATION WALK,LAKESIDE GROVE,15278.6987907449,35880.6944068745
71 CORPORATION WALK LAKESIDE GROVE SINGAPORE 618464,71,LAKESIDE GROVE,1.34076449473514,103.719067363335,103.719067363335,618464,CORPORATION WALK,LAKESIDE GROVE,15285.0631791446,35880.7387494706
73 CORPORATION WALK LAKESIDE GROVE SINGAPORE 618465,73,LAKESIDE GROVE,1.34076866411949,103.719117553744,103.719117553744,618465,CORPORATION WALK,LAKESIDE GROVE,15290.6488631284,35881.199518986
75 CORPORATION WALK LAKESIDE GROVE SINGAPORE 618466,75,LAKESIDE GROVE,1.34049679228862,103.719105140879,103.719105140879,618466,CORPORATION WALK,LAKESIDE GROVE,15289.2660400243,35851.1373272911
77 CORPORATION WALK LAKESIDE GROVE SINGAPORE 618467,77,LAKESIDE GROVE,1.34044322464132,103.719113787824,103.719113787824,618467,CORPORATION WALK,LAKESIDE GROVE,15290.2280776184,35845.2140342165
79 CORPORATION WALK LAKESIDE GROVE SINGAPORE 618468,79,LAKESIDE GROVE,1.34039270361478,103.719122002731,103.719122002731,618468,CORPORATION WALK,LAKESIDE GROVE,15291.1420496553,35839.6276238021
81 CORPORATION WALK LAKESIDE GROVE SINGAPORE 618469,81,LAKESIDE GROVE,1.34033619473698,103.719131157046,103.719131157046,618469,CORPORATION WALK,LAKESIDE GROVE,15292.1605370389,35833.3791012447
83 CORPORATION WALK LAKESIDE GROVE SINGAPORE 618470,83,LAKESIDE GROVE,1.34028562690098,103.719139349924,103.719139349924,618470,CORPORATION WALK,LAKESIDE GROVE,15293.0720573682,35827.7875150032
85 CORPORATION WALK LAKESIDE GROVE SINGAPORE 618471,85,LAKESIDE GROVE,1.34022908627031,103.719148510223,103.719148510223,618471,CORPORATION WALK,LAKESIDE GROVE,15294.0912106484,35821.5354813598
87 CORPORATION WALK LAKESIDE GROVE SINGAPORE 618472,87,LAKESIDE GROVE,1.34017851925534,103.719156702557,103.719156702557,618472,CORPORATION WALK,LAKESIDE GROVE,15295.0026704418,35815.9439859223
89 CORPORATION WALK LAKESIDE GROVE SINGAPORE 618473,89,LAKESIDE GROVE,1.34012198245694,103.719165866934,103.719165866934,618473,CORPORATION WALK,LAKESIDE GROVE,15296.0222777417,35809.6923760306
91 CORPORATION WALK LAKESIDE GROVE SINGAPORE 618474,91,LAKESIDE GROVE,1.34007140859865,103.71917406253,103.71917406253,618474,CORPORATION WALK,LAKESIDE GROVE,15296.9341007508,35804.1001238953
93 CORPORATION WALK LAKESIDE GROVE SINGAPORE 618475,93,LAKESIDE GROVE,1.34001784505802,103.719182738845,103.719182738845,618475,CORPORATION WALK,LAKESIDE GROVE,15297.8994072881,35798.1772848405
95 CORPORATION WALK LAKESIDE GROVE SINGAPORE 618476,95,LAKESIDE GROVE,1.33982494909903,103.719117426937,103.719117426937,618476,CORPORATION WALK,LAKESIDE GROVE,15290.6298851026,35776.8481328785
97 CORPORATION WALK LAKESIDE GROVE SINGAPORE 618477,97,LAKESIDE GROVE,1.33979593379476,103.719071858557,103.719071858557,618477,CORPORATION WALK,LAKESIDE GROVE,15285.5584541624,35773.6399990171
99 CORPORATION WALK LAKESIDE GROVE SINGAPORE 618478,99,LAKESIDE GROVE,1.33976855333674,103.719028790915,103.719028790915,618478,CORPORATION WALK,LAKESIDE GROVE,15280.7653373331,35770.6126255523
101 CORPORATION WALK LAKESIDE GROVE SINGAPORE 618479,101,LAKESIDE GROVE,1.33973792699575,103.718980660878,103.718980660878,618479,CORPORATION WALK,LAKESIDE GROVE,15275.4088122547,35767.226364607
103 CORPORATION WALK LAKESIDE GROVE SINGAPORE 618480,103,LAKESIDE GROVE,1.33971054051473,103.718937604934,103.718937604934,618480,CORPORATION WALK,LAKESIDE GROVE,15270.6169969486,35764.1983252484
105 CORPORATION WALK LAKESIDE GROVE SINGAPORE 618481,105,LAKESIDE GROVE,1.33967992785884,103.718889477346,103.718889477346,618481,CORPORATION WALK,LAKESIDE GROVE,15265.260744282,35760.8135777004
107 CORPORATION WALK LAKESIDE GROVE SINGAPORE 618482,107,LAKESIDE GROVE,1.33965253343877,103.718846435547,103.718846435547,618482,CORPORATION WALK,LAKESIDE GROVE,15260.4705029111,35757.7846605703
109 CORPORATION WALK LAKESIDE GROVE SINGAPORE 618483,109,LAKESIDE GROVE,1.33960264366526,103.718767885165,103.718767885165,618483,CORPORATION WALK,LAKESIDE GROVE,15251.7284130491,35752.268502146
111 CORPORATION WALK LAKESIDE GROVE SINGAPORE 618484,111,LAKESIDE GROVE,1.33957525718192,103.718724852616,103.718724852616,618484,CORPORATION WALK,LAKESIDE GROVE,15246.9392007897,35749.2404627856
113 CORPORATION WALK LAKESIDE GROVE SINGAPORE 618485,113,LAKESIDE GROVE,1.33954463685736,103.71867671633,103.71867671633,618485,CORPORATION WALK,LAKESIDE GROVE,15241.5819795476,35745.8548677359
115 CORPORATION WALK LAKESIDE GROVE SINGAPORE 618486,115,LAKESIDE GROVE,1.33951725776177,103.718633649786,103.718633649786,618486,CORPORATION WALK,LAKESIDE GROVE,15236.7889837902,35742.8276456129
117 CORPORATION WALK LAKESIDE GROVE SINGAPORE 618487,117,LAKESIDE GROVE,1.33948664099408,103.718585512959,103.718585512959,618487,CORPORATION WALK,LAKESIDE GROVE,15231.4317020122,35739.4424440451
119 CORPORATION WALK LAKESIDE GROVE SINGAPORE 618488,119,LAKESIDE GROVE,1.33945927640532,103.718542456479,103.718542456479,618488,CORPORATION WALK,LAKESIDE GROVE,15226.6398261702,35736.4168261252
121 CORPORATION WALK LAKESIDE GROVE SINGAPORE 618489,121,LAKESIDE GROVE,1.33942865580439,103.718494333525,103.718494333525,618489,CORPORATION WALK,LAKESIDE GROVE,15221.2840880593,35733.0312008057
123 CORPORATION WALK LAKESIDE GROVE SINGAPORE 618490,123,LAKESIDE GROVE,1.33940126274573,103.718451270521,103.718451270521,618490,CORPORATION WALK,LAKESIDE GROVE,15216.4914857857,35730.0024350155
80 PULAU DAMAR LAUT SINGAPORE 618491,80,NIL,1.30184453272595,103.71765936228,103.71765936228,618491,PULAU DAMAR LAUT,80 PULAU DAMAR LAUT SINGAPORE 618491,15128.1671786634,31577.1676924713
2 BUROH LANE SINGAPORE 618492,2,NIL,1.31400013896851,103.725257990196,103.725257990196,618492,BUROH LANE,2 BUROH LANE SINGAPORE 618492,15973.8851841204,32921.2369717509
40 PULAU DAMAR LAUT SINGAPORE 618493,40,NIL,1.3008837060495,103.718759610613,103.718759610613,618493,PULAU DAMAR LAUT,40 PULAU DAMAR LAUT SINGAPORE 618493,15250.6102834633,31470.9186248574
2 CORPORATION ROAD CORPORATION PLACE SINGAPORE 618494,2,CORPORATION PLACE,1.32454068043523,103.720165889611,103.720165889611,618494,CORPORATION ROAD,CORPORATION PLACE,15407.2351433467,34086.7832918968
1 YUNG SHENG ROAD T-NET CLUB @ TAMAN JURONG SINGAPORE 618495,1,T-NET CLUB @ TAMAN JURONG,1.33527780016609,103.721722963016,103.721722963016,618495,YUNG SHENG ROAD,T-NET CLUB @ TAMAN JURONG,15580.5757696498,35274.0333605688
101 YUNG SHENG ROAD SINGAPORE 618497,101,NIL,1.33441342907315,103.722221199754,103.722221199754,618497,YUNG SHENG ROAD,101 YUNG SHENG ROAD SINGAPORE 618497,15636.0200568633,35178.4529399779
3 YUNG SHENG ROAD DBS TAMAN JURONG MARKET & FOOD CENTRE SINGAPORE 618499,3,DBS TAMAN JURONG MARKET & FOOD CENTRE,1.33468266452814,103.721619258973,103.721619258973,618499,YUNG SHENG ROAD,DBS TAMAN JURONG MARKET & FOOD CENTRE,15569.0315909274,35208.2267080583
8 YUNG HO ROAD SINGAPORE 618590,8,NIL,1.32504231149764,103.721592440378,103.721592440378,618590,YUNG HO ROAD,8 YUNG HO ROAD SINGAPORE 618590,15565.9987086914,34142.2439843565
18 YUNG HO ROAD KENTUCKY FRIED CHICKEN RESTRNT SINGAPORE 618591,18,KENTUCKY FRIED CHICKEN RESTRNT,1.32624827027726,103.723819499685,103.723819499685,618591,YUNG HO ROAD,KENTUCKY FRIED CHICKEN RESTRNT,15813.8543285653,34275.5818985552
19 YUNG HO ROAD SINGAPORE 618592,19,NIL,1.32685268181585,103.724125632458,103.724125632458,618592,YUNG HO ROAD,19 YUNG HO ROAD SINGAPORE 618592,15847.9268162278,34342.4132433869
21 YUNG HO ROAD AGAPE METHODIST CHURCH SINGAPORE 618593,21,AGAPE METHODIST CHURCH,1.32695779286094,103.724749318075,103.724749318075,618593,YUNG HO ROAD,AGAPE METHODIST CHURCH,15917.3373262202,34354.0328499246
2 YUNG HO ROAD CISCO RECALL CENTRE SINGAPORE 618594,2,CISCO RECALL CENTRE,1.32617346445638,103.720657009347,103.720657009347,618594,YUNG HO ROAD,CISCO RECALL CENTRE,15461.9001510516,34267.3260335848
505 YUNG AN ROAD SINGAPORE 618616,505,NIL,1.33584294018235,103.72174825729,103.72174825729,618616,YUNG AN ROAD,505 YUNG AN ROAD SINGAPORE 618616,15583.3935978618,35336.5236409083
550 YUNG AN ROAD ASSYAKIRIN MOSQUE KINDERGARTEN SINGAPORE 618617,550,ASSYAKIRIN MOSQUE KINDERGARTEN,1.33544840128089,103.719566221744,103.719566221744,618617,YUNG AN ROAD,ASSYAKIRIN MOSQUE KINDERGARTEN,15340.5535947662,35292.9085962866
1 YUAN CHING ROAD DBS JURONG SUPERBOWL SINGAPORE 618640,1,DBS JURONG SUPERBOWL,1.32591170514749,103.724550191028,103.724550191028,618640,YUAN CHING ROAD,DBS JURONG SUPERBOWL,15895.1713855807,34238.3625999652
3 YUAN CHING ROAD SINGAPORE 618642,3,NIL,1.32547408835086,103.725247683743,103.725247683743,618642,YUAN CHING ROAD,3 YUAN CHING ROAD SINGAPORE 618642,15972.7932968754,34189.9696935788
9A YUAN CHING ROAD PARK VIEW MANSION SINGAPORE 618643,9A,PARK VIEW MANSION,1.33316112133803,103.725430550743,103.725430550743,618643,YUAN CHING ROAD,PARK VIEW MANSION,15993.1817199038,35039.9630214665
9B YUAN CHING ROAD PARK VIEW MANSION SINGAPORE 618644,9B,PARK VIEW MANSION,1.33377897559438,103.725459869901,103.725459869901,618644,YUAN CHING ROAD,PARK VIEW MANSION,15996.447635347,35108.2821587715
9C YUAN CHING ROAD PARK VIEW MANSION SINGAPORE 618645,9C,PARK VIEW MANSION,1.33431670403972,103.725490382169,103.725490382169,618645,YUAN CHING ROAD,PARK VIEW MANSION,15999.8459429508,35167.7413729522
9D YUAN CHING ROAD PARK VIEW MANSION SINGAPORE 618646,9D,PARK VIEW MANSION,1.33504830548194,103.725516755516,103.725516755516,618646,YUAN CHING ROAD,PARK VIEW MANSION,16002.7845706856,35248.6381287463
9E YUAN CHING ROAD LAKESIDE APARTMENTS SINGAPORE 618647,9E,LAKESIDE APARTMENTS,1.33582982162768,103.725583666442,103.725583666442,618647,YUAN CHING ROAD,LAKESIDE APARTMENTS,16010.2348532695,35335.0540092271
9F YUAN CHING ROAD LAKESIDE APARTMENTS SINGAPORE 618648,9F,LAKESIDE APARTMENTS,1.33634554370874,103.725591329984,103.725591329984,618648,YUAN CHING ROAD,LAKESIDE APARTMENTS,16011.0902264901,35392.0799801983
9G YUAN CHING ROAD LAKESIDE TOWER SINGAPORE 618649,9G,LAKESIDE TOWER,1.33728050799228,103.725473335024,103.725473335024,618649,YUAN CHING ROAD,LAKESIDE TOWER,15997.9631532915,35495.4643042255
9H YUAN CHING ROAD LAKESIDE TOWER SINGAPORE 618650,9H,LAKESIDE TOWER,1.3379422685731,103.725167477483,103.725167477483,618650,YUAN CHING ROAD,LAKESIDE TOWER,15963.927622837,35568.6400303207
31 YUAN CHING ROAD JURONG SECONDARY SCHOOL SINGAPORE 618652,31,JURONG SECONDARY SCHOOL,1.33014735400654,103.72409968506,103.72409968506,618652,YUAN CHING ROAD,JURONG SECONDARY SCHOOL,15845.055232076,34706.7219946198
103 YUAN CHING ROAD YUAN CHING SECONDARY SCHOOL SINGAPORE 618654,103,YUAN CHING SECONDARY SCHOOL,1.34189187145685,103.720630790899,103.720630790899,618654,YUAN CHING ROAD,YUAN CHING SECONDARY SCHOOL,15459.0618919497,36005.3904787749
50 YUAN CHING ROAD SINGAPORE 618661,50,NIL,1.33389572367011,103.72756144563,103.72756144563,618661,YUAN CHING ROAD,50 YUAN CHING ROAD SINGAPORE 618661,16230.3319776878,35121.1814351231
100 YUAN CHING ROAD PASSION WAVE @ JURONG LAKE GARDENS SINGAPORE 618662,100,PASSION WAVE @ JURONG LAKE GARDENS,1.33941832450394,103.727337240691,103.727337240691,618662,YUAN CHING ROAD,PASSION WAVE @ JURONG LAKE GARDENS,16205.4066260448,35731.8444839679
102 YUAN CHING ROAD SINGAPORE 618663,102,NIL,1.34083828325568,103.725098139838,103.725098139838,618663,YUAN CHING ROAD,102 YUAN CHING ROAD SINGAPORE 618663,15956.2252079481,35888.8674283735
30 YUAN CHING ROAD SINGAPORE 618664,30,NIL,1.33050511477372,103.725643851116,103.725643851116,618664,YUAN CHING ROAD,30 YUAN CHING ROAD SINGAPORE 618664,16016.9070367962,34746.2738651056
104 YUAN CHING ROAD SINGAPORE 618665,104,NIL,1.33897025128908,103.724707490284,103.724707490284,618665,YUAN CHING ROAD,104 YUAN CHING ROAD SINGAPORE 618665,15912.7408907488,35682.3115642425
1 THIRD CHIN BEE ROAD SINGAPORE 618679,1,NIL,1.33126520637081,103.716029533403,103.716029533403,618679,THIRD CHIN BEE ROAD,1 THIRD CHIN BEE ROAD SINGAPORE 618679,14946.9346296256,34830.3698559739
2 THIRD CHIN BEE ROAD SINGAPORE 618680,2,NIL,1.33091132415119,103.717058908971,103.717058908971,618680,THIRD CHIN BEE ROAD,2 THIRD CHIN BEE ROAD SINGAPORE 618680,15061.4918652875,34791.2338675838
4 THIRD CHIN BEE ROAD SINGAPORE 618681,4,NIL,1.33129618615623,103.717042890969,103.717042890969,618681,THIRD CHIN BEE ROAD,4 THIRD CHIN BEE ROAD SINGAPORE 618681,15059.7112300731,34833.7901078667
6 THIRD CHIN BEE ROAD SINGAPORE 618682,6,NIL,1.33168857502363,103.716889551951,103.716889551951,618682,THIRD CHIN BEE ROAD,6 THIRD CHIN BEE ROAD SINGAPORE 618682,15042.6481990768,34877.1793533284
7 THIRD CHIN BEE ROAD SINGAPORE 618683,7,NIL,1.33150199859285,103.715967850952,103.715967850952,618683,THIRD CHIN BEE ROAD,7 THIRD CHIN BEE ROAD SINGAPORE 618683,14940.0712432461,34856.553508237
8 THIRD CHIN BEE ROAD SINGAPORE 618684,8,NIL,1.33208079808776,103.716651975082,103.716651975082,618684,THIRD CHIN BEE ROAD,8 THIRD CHIN BEE ROAD SINGAPORE 618684,15016.2103562867,34920.5507104136
9 THIRD CHIN BEE ROAD SINGAPORE 618685,9,NIL,1.33192972908627,103.715805760937,103.715805760937,618685,THIRD CHIN BEE ROAD,9 THIRD CHIN BEE ROAD SINGAPORE 618685,14922.034521481,34903.8507136125
10 THIRD CHIN BEE ROAD SINGAPORE 618686,10,NIL,1.3324534495002,103.71651694864,103.71651694864,618686,THIRD CHIN BEE ROAD,10 THIRD CHIN BEE ROAD SINGAPORE 618686,15001.185238366,34961.7573921066
11 THIRD CHIN BEE ROAD SINGAPORE 618687,11,NIL,1.33230771007491,103.715683465794,103.715683465794,618687,THIRD CHIN BEE ROAD,11 THIRD CHIN BEE ROAD SINGAPORE 618687,14908.426308414,34945.6466524135
12 THIRD CHIN BEE ROAD SINGAPORE 618688,12,NIL,1.33292046136701,103.716416293912,103.716416293912,618688,THIRD CHIN BEE ROAD,12 THIRD CHIN BEE ROAD SINGAPORE 618688,14989.9858422466,35013.397811003
13 THIRD CHIN BEE ROAD SINGAPORE 618689,13,NIL,1.33259394812697,103.715603279325,103.715603279325,618689,THIRD CHIN BEE ROAD,13 THIRD CHIN BEE ROAD SINGAPORE 618689,14899.5038819052,34977.2978829853
14 THIRD CHIN BEE ROAD SINGAPORE 618690,14,NIL,1.33330803907065,103.716291938137,103.716291938137,618690,THIRD CHIN BEE ROAD,14 THIRD CHIN BEE ROAD SINGAPORE 618690,14976.1483492022,35056.2549150437
16 THIRD CHIN BEE ROAD SINGAPORE 618691,16,NIL,1.33371441619261,103.716174122145,103.716174122145,618691,THIRD CHIN BEE ROAD,16 THIRD CHIN BEE ROAD SINGAPORE 618691,14963.0387708982,35101.1907334011
18 THIRD CHIN BEE ROAD SINGAPORE 618692,18,NIL,1.33409919116544,103.716021993186,103.716021993186,618692,THIRD CHIN BEE ROAD,18 THIRD CHIN BEE ROAD SINGAPORE 618692,14946.1104021613,35143.7380748969
20 THIRD CHIN BEE ROAD SINGAPORE 618693,20,NIL,1.33469296769508,103.716299670754,103.716299670754,618693,THIRD CHIN BEE ROAD,20 THIRD CHIN BEE ROAD SINGAPORE 618693,14977.0161928311,35209.3935085628
21 THIRD CHIN BEE ROAD SINGAPORE 618694,21,NIL,1.33302571145103,103.715503126257,103.715503126257,618694,THIRD CHIN BEE ROAD,21 THIRD CHIN BEE ROAD SINGAPORE 618694,14888.3601486078,35025.0406936184
22 THIRD CHIN BEE ROAD SINGAPORE 618695,22,NIL,1.33518933309012,103.715814412597,103.715814412597,618695,THIRD CHIN BEE ROAD,22 THIRD CHIN BEE ROAD SINGAPORE 618695,14923.0145685254,35264.2817426473
24 THIRD CHIN BEE ROAD SINGAPORE 618696,24,NIL,1.33537241206272,103.715767740384,103.715767740384,618696,THIRD CHIN BEE ROAD,24 THIRD CHIN BEE ROAD SINGAPORE 618696,14917.8213997558,35284.5259690005
1 TAO CHING ROAD CALVARY BIBLE-PRESBYTERIAN CHURCH SINGAPORE 618720,1,CALVARY BIBLE-PRESBYTERIAN CHURCH,1.33324588683756,103.723611980672,103.723611980672,618720,TAO CHING ROAD,CALVARY BIBLE-PRESBYTERIAN CHURCH,15790.7939084703,35049.3449159693
2 TAO CHING ROAD LAKE LIFE SINGAPORE 618721,2,LAKE LIFE,1.33215538990119,103.723817615498,103.723817615498,618721,TAO CHING ROAD,LAKE LIFE,15813.6735984338,34928.762111716
4 TAO CHING ROAD LAKE LIFE SINGAPORE 618722,4,LAKE LIFE,1.33207504412021,103.724588967649,103.724588967649,618722,TAO CHING ROAD,LAKE LIFE,15899.5168389305,34919.8740696367
6 TAO CHING ROAD LAKE LIFE SINGAPORE 618723,6,LAKE LIFE,1.33248780319506,103.724192340857,103.724192340857,618723,TAO CHING ROAD,LAKE LIFE,15855.3783397991,34965.5168875605
8 TAO CHING ROAD LAKE LIFE SINGAPORE 618724,8,LAKE LIFE,1.33248624960907,103.72439782499,103.72439782499,618724,TAO CHING ROAD,LAKE LIFE,15878.2466187328,34965.3440876417
10 TAO CHING ROAD LAKE LIFE SINGAPORE 618725,10,LAKE LIFE,1.33177820937104,103.724395111591,103.724395111591,618725,TAO CHING ROAD,LAKE LIFE,15877.9411845095,34887.0524972063
12 TAO CHING ROAD LAKE LIFE SINGAPORE 618726,12,LAKE LIFE,1.33179151215892,103.724203131073,103.724203131073,618726,TAO CHING ROAD,LAKE LIFE,15856.5757715032,34888.5243989863
2 TAH CHING ROAD JURONG CHRISTIAN CHURCH SINGAPORE 618744,2,JURONG CHRISTIAN CHURCH,1.33634486065955,103.722146681386,103.722146681386,618744,TAH CHING ROAD,JURONG CHRISTIAN CHURCH,15627.7365874909,35392.0215327218
1 SECOND CHIN BEE ROAD SINGAPORE 618768,1,NIL,1.33010783895693,103.714292203429,103.714292203429,618768,SECOND CHIN BEE ROAD,1 SECOND CHIN BEE ROAD SINGAPORE 618768,14753.5812059725,34702.4030862898
2 SECOND CHIN BEE ROAD SINGAPORE 618769,2,NIL,1.33058409789049,103.715436238107,103.715436238107,618769,SECOND CHIN BEE ROAD,2 SECOND CHIN BEE ROAD SINGAPORE 618769,14880.9032676034,34755.0593592562
3 SECOND CHIN BEE ROAD SINGAPORE 618770,3,NIL,1.33057991920902,103.714407201131,103.714407201131,618770,SECOND CHIN BEE ROAD,3 SECOND CHIN BEE ROAD SINGAPORE 618770,14766.3818086982,34754.6027969886
4 SECOND CHIN BEE ROAD SINGAPORE 618771,4,NIL,1.33206413659808,103.71481193962,103.71481193962,618771,SECOND CHIN BEE ROAD,4 SECOND CHIN BEE ROAD SINGAPORE 618771,14811.4330086112,34918.7181353401
5 SECOND CHIN BEE ROAD SINGAPORE 618772,5,NIL,1.33087575918829,103.713854189962,103.713854189962,618772,SECOND CHIN BEE ROAD,5 SECOND CHIN BEE ROAD SINGAPORE 618772,14704.8388254456,34787.3183104061
6 SECOND CHIN BEE ROAD SINGAPORE 618773,6,NIL,1.33248610875842,103.714802392192,103.714802392192,618773,SECOND CHIN BEE ROAD,6 SECOND CHIN BEE ROAD SINGAPORE 618773,14810.3727211412,34965.3778061755
7 SECOND CHIN BEE ROAD SINGAPORE 618774,7,NIL,1.33135503561786,103.71416631828,103.71416631828,618774,SECOND CHIN BEE ROAD,7 SECOND CHIN BEE ROAD SINGAPORE 618774,14739.5781167895,34840.3126767501
8 SECOND CHIN BEE ROAD SINGAPORE 618775,8,NIL,1.33302825065891,103.71501096116,103.71501096116,618775,SECOND CHIN BEE ROAD,8 SECOND CHIN BEE ROAD SINGAPORE 618775,14833.5872052731,35025.3240927514
9 SECOND CHIN BEE ROAD SINGAPORE 618776,9,NIL,1.33170214263453,103.713844369442,103.713844369442,618776,SECOND CHIN BEE ROAD,9 SECOND CHIN BEE ROAD SINGAPORE 618776,14703.7503282158,34878.6958095822
11 SECOND CHIN BEE ROAD SINGAPORE 618777,11,NIL,1.3323745118906,103.71415336712,103.71415336712,618777,SECOND CHIN BEE ROAD,11 SECOND CHIN BEE ROAD SINGAPORE 618777,14738.14223391,34953.0414537825
15 SECOND CHIN BEE ROAD SINGAPORE 618778,15,NIL,1.33250278170364,103.713585617146,103.713585617146,618778,SECOND CHIN BEE ROAD,15 SECOND CHIN BEE ROAD SINGAPORE 618778,14674.9581205798,34967.2279669475
17 SECOND CHIN BEE ROAD SINGAPORE 618779,17,NIL,1.33293959109623,103.713690957856,103.713690957856,618779,SECOND CHIN BEE ROAD,17 SECOND CHIN BEE ROAD SINGAPORE 618779,14686.6838164004,35015.5276479442
21 SECOND CHIN BEE ROAD SINGAPORE 618780,21,NIL,1.33331636456401,103.713402142761,103.713402142761,618780,SECOND CHIN BEE ROAD,21 SECOND CHIN BEE ROAD SINGAPORE 618780,14654.5436670864,35057.1909827068
2A SECOND CHIN BEE ROAD SINGAPORE 618781,2A,NIL,1.33146746573798,103.71499166425,103.71499166425,618781,SECOND CHIN BEE ROAD,2A SECOND CHIN BEE ROAD SINGAPORE 618781,14831.4313681331,34852.7402265761
29 QUALITY ROAD SINGAPORE 618802,29,NIL,1.33025684186369,103.710621563058,103.710621563058,618802,QUALITY ROAD,29 QUALITY ROAD SINGAPORE 618802,14345.0766583169,34718.8991071489
30 QUALITY ROAD SINGAPORE 618803,30,NIL,1.32915765781534,103.709863432475,103.709863432475,618803,QUALITY ROAD,30 QUALITY ROAD SINGAPORE 618803,14260.69826716,34597.3608939908
32 QUALITY ROAD SINGAPORE 618804,32,NIL,1.33001604399933,103.708857256581,103.708857256581,618804,QUALITY ROAD,32 QUALITY ROAD SINGAPORE 618804,14148.7257356998,34692.2826832552
33 QUALITY ROAD SINGAPORE 618805,33,NIL,1.33073266442926,103.710649244467,103.710649244467,618805,QUALITY ROAD,33 QUALITY ROAD SINGAPORE 618805,14348.1599367457,34771.5130957402
36 QUALITY ROAD SINGAPORE 618806,36,NIL,1.33159616053681,103.709072890468,103.709072890468,618806,QUALITY ROAD,36 QUALITY ROAD SINGAPORE 618806,14172.7324237693,34867.0030755959
36A QUALITY ROAD SINGAPORE 618807,36A,NIL,1.33239503103983,103.709096599522,103.709096599522,618807,QUALITY ROAD,36A QUALITY ROAD SINGAPORE 618807,14175.3754543755,34955.3381581195
37 QUALITY ROAD SINGAPORE 618808,37,NIL,1.33136073269542,103.710549374953,103.710549374953,618808,QUALITY ROAD,37 QUALITY ROAD SINGAPORE 618808,14337.0489231385,34840.9623790197
38 QUALITY ROAD SINGAPORE 618809,38,NIL,1.33425516362837,103.709458006115,103.709458006115,618809,QUALITY ROAD,38 QUALITY ROAD SINGAPORE 618809,14215.6066897567,35161.0205487758
39 QUALITY ROAD SINGAPORE 618810,39,NIL,1.33176981910526,103.71000596481,103.71000596481,618810,QUALITY ROAD,39 QUALITY ROAD SINGAPORE 618810,14276.5751261432,34886.2001810521
47 QUALITY ROAD SINGAPORE 618811,47,NIL,1.33357788411643,103.71070405319,103.71070405319,618811,QUALITY ROAD,47 QUALITY ROAD SINGAPORE 618811,14354.2752499077,35086.1233311072
49 QUALITY ROAD SINGAPORE 618812,49,NIL,1.33373803432021,103.710761023919,103.710761023919,618812,QUALITY ROAD,49 QUALITY ROAD SINGAPORE 618812,14360.616392497,35103.8316452485
51 QUALITY ROAD SINGAPORE 618813,51,NIL,1.33389829837838,103.710801256522,103.710801256522,618813,QUALITY ROAD,51 QUALITY ROAD SINGAPORE 618813,14365.0947525641,35121.5526416767
53 QUALITY ROAD SINGAPORE 618814,53,NIL,1.33405859911726,103.710841508981,103.710841508981,618814,QUALITY ROAD,53 QUALITY ROAD SINGAPORE 618814,14369.5753221931,35139.277694013
55 QUALITY ROAD SINGAPORE 618815,55,NIL,1.33421481265915,103.710918031356,103.710918031356,618815,QUALITY ROAD,55 QUALITY ROAD SINGAPORE 618815,14378.0923393276,35156.5506032091
57 QUALITY ROAD SINGAPORE 618816,57,NIL,1.33437640470096,103.710938587637,103.710938587637,618816,QUALITY ROAD,57 QUALITY ROAD SINGAPORE 618816,14380.380931844,35174.4185506962
59 QUALITY ROAD SINGAPORE 618817,59,NIL,1.33454277740334,103.710963140078,103.710963140078,618817,QUALITY ROAD,59 QUALITY ROAD SINGAPORE 618817,14383.1142821144,35192.8150982521
61 QUALITY ROAD SINGAPORE 618818,61,NIL,1.33483553333792,103.711019314202,103.711019314202,618818,QUALITY ROAD,61 QUALITY ROAD SINGAPORE 618818,14389.3674962102,35225.1863133535
63 QUALITY ROAD SINGAPORE 618819,63,NIL,1.33499986543957,103.711072694702,103.711072694702,618819,QUALITY ROAD,63 QUALITY ROAD SINGAPORE 618819,14395.3091014139,35243.3570617512
65 QUALITY ROAD SINGAPORE 618820,65,NIL,1.33515890269173,103.711119701743,103.711119701743,618820,QUALITY ROAD,65 QUALITY ROAD SINGAPORE 618820,14400.5413764194,35260.9423668068
67 QUALITY ROAD SINGAPORE 618821,67,NIL,1.33531620055798,103.711164899972,103.711164899972,618821,QUALITY ROAD,67 QUALITY ROAD SINGAPORE 618821,14405.5723390644,35278.3353490941
69 QUALITY ROAD SINGAPORE 618822,69,NIL,1.33547941932826,103.711200652505,103.711200652505,618822,QUALITY ROAD,69 QUALITY ROAD SINGAPORE 618822,14409.5521249035,35296.3830884062
71 QUALITY ROAD SINGAPORE 618823,71,NIL,1.33562595600302,103.711301559581,103.711301559581,618823,QUALITY ROAD,71 QUALITY ROAD SINGAPORE 618823,14420.7828483861,35312.5858427696
45 QUALITY ROAD QUALITY ROAD FOOD CENTRE SINGAPORE 618824,45,QUALITY ROAD FOOD CENTRE,1.33325220575265,103.71047686812,103.71047686812,618824,QUALITY ROAD,QUALITY ROAD FOOD CENTRE,14328.9900724739,35050.1126633752
30A QUALITY ROAD SINGAPORE 618825,30A,NIL,1.33014825752458,103.709745161291,103.709745161291,618825,QUALITY ROAD,30A QUALITY ROAD SINGAPORE 618825,14247.5413497295,34706.8972462453
30B QUALITY ROAD SINGAPORE 618826,30B,NIL,1.32910556296126,103.709054533622,103.709054533622,618826,QUALITY ROAD,30B QUALITY ROAD SINGAPORE 618826,14170.6756234718,34591.605013134
34 QUALITY ROAD SINGAPORE 618827,34,NIL,1.33109588622458,103.708951977843,103.708951977843,618827,QUALITY ROAD,34 QUALITY ROAD SINGAPORE 618827,14159.2732805219,34811.685853377
28 QUALITY ROAD SINGAPORE 618828,28,NIL,1.32751042020475,103.70983807571,103.70983807571,618828,QUALITY ROAD,28 QUALITY ROAD SINGAPORE 618828,14257.8672118392,34415.2175207864
1 LINK ROAD SINGAPORE 619023,1,NIL,1.32763649423284,103.712933121276,103.712933121276,619023,LINK ROAD,1 LINK ROAD SINGAPORE 619023,14602.3157163579,34429.1411867794
2 LINK ROAD SINGAPORE 619024,2,NIL,1.32843928331065,103.712677886571,103.712677886571,619024,LINK ROAD,2 LINK ROAD SINGAPORE 619024,14573.9149645567,34517.9110688902
3 LINK ROAD SINGAPORE 619025,3,NIL,1.3276009456954,103.712776491086,103.712776491086,619025,LINK ROAD,3 LINK ROAD SINGAPORE 619025,14584.8841423914,34425.2112523094
4 LINK ROAD SINGAPORE 619026,4,NIL,1.32823621107393,103.712059303745,103.712059303745,619026,LINK ROAD,4 LINK ROAD SINGAPORE 619026,14505.0717673823,34495.4597011637
5 LINK ROAD SINGAPORE 619027,5,NIL,1.32756433680335,103.712616202089,103.712616202089,619027,LINK ROAD,5 LINK ROAD SINGAPORE 619027,14567.0453732396,34421.1640899386
6 LINK ROAD SINGAPORE 619028,6,NIL,1.32849447220622,103.711548403638,103.711548403638,619028,LINK ROAD,6 LINK ROAD SINGAPORE 619028,14448.2150852447,34524.0197533648
7 LINK ROAD SINGAPORE 619029,7,NIL,1.3275281636814,103.712455878264,103.712455878264,619029,LINK ROAD,7 LINK ROAD SINGAPORE 619029,14549.2027297867,34417.1651141979
8 LINK ROAD SINGAPORE 619030,8,NIL,1.32804304445743,103.71099908149,103.71099908149,619030,LINK ROAD,8 LINK ROAD SINGAPORE 619030,14387.0785404779,34474.1060926709
9 LINK ROAD SINGAPORE 619031,9,NIL,1.3274923515925,103.712295354526,103.712295354526,619031,LINK ROAD,9 LINK ROAD SINGAPORE 619031,14531.337839365,34413.2060619276
11 LINK ROAD SINGAPORE 619032,11,NIL,1.32743484107914,103.712125200442,103.712125200442,619032,LINK ROAD,11 LINK ROAD SINGAPORE 619032,14512.4010688355,34406.8477573935
15 LINK ROAD SINGAPORE 619033,15,NIL,1.32737631383383,103.711909118199,103.711909118199,619033,LINK ROAD,15 LINK ROAD SINGAPORE 619033,14488.3529438963,34400.37727971
17 LINK ROAD SINGAPORE 619034,17,NIL,1.32733203106189,103.711737478239,103.711737478239,619034,LINK ROAD,17 LINK ROAD SINGAPORE 619034,14469.2508799089,34395.481645219
19 LINK ROAD SINGAPORE 619035,19,NIL,1.32732637509415,103.711569384567,103.711569384567,619035,LINK ROAD,19 LINK ROAD SINGAPORE 619035,14450.5436920365,34394.8571561798
21 LINK ROAD SINGAPORE 619036,21,NIL,1.32729051094484,103.711408947622,103.711408947622,619036,LINK ROAD,21 LINK ROAD SINGAPORE 619036,14432.6884571016,34390.8923529927
23 LINK ROAD SINGAPORE 619037,23,NIL,1.3272637376114,103.71124654441,103.71124654441,619037,LINK ROAD,23 LINK ROAD SINGAPORE 619037,14414.6144451806,34387.9327798113
25 LINK ROAD SINGAPORE 619038,25,NIL,1.32722027718278,103.711082336388,103.711082336388,619038,LINK ROAD,25 LINK ROAD SINGAPORE 619038,14396.3394841151,34383.1280400772
5 KANG CHING ROAD SINGAPORE 619061,5,NIL,1.33929895602766,103.721639410645,103.721639410645,619061,KANG CHING ROAD,5 KANG CHING ROAD SINGAPORE 619061,15571.297482457,35718.6734616589
2 JURONG PORT ROAD SPH PRINT CENTRE SINGAPORE 619088,2,SPH PRINT CENTRE,1.32214580323509,103.717924774943,103.717924774943,619088,JURONG PORT ROAD,SPH PRINT CENTRE,15157.8087967262,33821.9810214229
3 JURONG PORT ROAD SINGAPORE 619089,3,NIL,1.32084208293443,103.7194576704,103.7194576704,619089,JURONG PORT ROAD,3 JURONG PORT ROAD SINGAPORE 619089,15328.3985475963,33677.8141609579
12 JURONG PORT ROAD SINGAPORE 619090,12,NIL,1.32037654611288,103.719561901895,103.719561901895,619090,JURONG PORT ROAD,12 JURONG PORT ROAD SINGAPORE 619090,15339.9961493099,33626.3368562255
14 JURONG PORT ROAD SINGAPORE 619091,14,NIL,1.31933596443976,103.719508815449,103.719508815449,619091,JURONG PORT ROAD,14 JURONG PORT ROAD SINGAPORE 619091,15334.0828749388,33511.2747203279
17 JURONG PORT ROAD SINGAPORE 619092,17,NIL,1.31940735641302,103.721284695933,103.721284695933,619092,JURONG PORT ROAD,17 JURONG PORT ROAD SINGAPORE 619092,15531.7216699943,33519.1599235702
19 JURONG PORT ROAD SINGAPORE 619093,19,NIL,1.31844143568313,103.72155023611,103.72155023611,619093,JURONG PORT ROAD,19 JURONG PORT ROAD SINGAPORE 619093,15561.2689427519,33412.351836564
20 JURONG PORT ROAD SINGAPORE 619094,20,NIL,1.31839199896504,103.719619933699,103.719619933699,619094,JURONG PORT ROAD,20 JURONG PORT ROAD SINGAPORE 619094,15346.4445010973,33406.8950941917
21 JURONG PORT ROAD SINGAPORE 619095,21,NIL,1.31774870281126,103.721747497631,103.721747497631,619095,JURONG PORT ROAD,21 JURONG PORT ROAD SINGAPORE 619095,15583.218830524,33335.7518632021
23 JURONG PORT ROAD SINGAPORE 619096,23,NIL,1.31754749488734,103.721091727335,103.721091727335,619096,JURONG PORT ROAD,23 JURONG PORT ROAD SINGAPORE 619096,15510.2368497923,33313.5065599103
24 JURONG PORT ROAD SINGAPORE 619097,24,NIL,1.31730329224007,103.719005062408,103.719005062408,619097,JURONG PORT ROAD,24 JURONG PORT ROAD SINGAPORE 619097,15278.0096795596,33286.5143892653
25 JURONG PORT ROAD SINGAPORE 619098,25,NIL,1.31696990800786,103.720610274909,103.720610274909,619098,JURONG PORT ROAD,25 JURONG PORT ROAD SINGAPORE 619098,15456.6528933942,33249.64226445
26 JURONG PORT ROAD SINGAPORE 619099,26,NIL,1.31642721249394,103.718189226988,103.718189226988,619099,JURONG PORT ROAD,26 JURONG PORT ROAD SINGAPORE 619099,15187.2104804814,33189.6459751651
27 JURONG PORT ROAD SINGAPORE 619100,27,NIL,1.31617943045423,103.720341786627,103.720341786627,619100,JURONG PORT ROAD,27 JURONG PORT ROAD SINGAPORE 619100,15426.7687379783,33162.2364998292
27A JURONG PORT ROAD JURONG INDUSTRIAL ESTATE SINGAPORE 619101,27A,JURONG INDUSTRIAL ESTATE,1.31568941891919,103.720033316124,103.720033316124,619101,JURONG PORT ROAD,JURONG INDUSTRIAL ESTATE,15392.4364299439,33108.0549928974
29 JURONG PORT ROAD SINGAPORE 619102,29,NIL,1.31480991017258,103.721022557383,103.721022557383,619102,JURONG PORT ROAD,29 JURONG PORT ROAD SINGAPORE 619102,15502.5252637053,33010.7982708327
30 JURONG PORT ROAD JALAN BUROH WAREHOUSE COMPLEX SINGAPORE 619103,30,JALAN BUROH WAREHOUSE COMPLEX,1.31328040778935,103.717923921547,103.717923921547,619103,JURONG PORT ROAD,JALAN BUROH WAREHOUSE COMPLEX,15157.668413817,32841.689138921
32 JURONG PORT ROAD HERITAGE CONSERVATION CENTRE SINGAPORE 619104,32,HERITAGE CONSERVATION CENTRE,1.31258304508827,103.718281638929,103.718281638929,619104,JURONG PORT ROAD,HERITAGE CONSERVATION CENTRE,15197.4754736749,32764.5763653796
34 JURONG PORT ROAD SINGAPORE 619107,34,NIL,1.31206638526955,103.71793265584,103.71793265584,619107,JURONG PORT ROAD,34 JURONG PORT ROAD SINGAPORE 619107,15158.6342651779,32707.4484518394
37 JURONG PORT ROAD SINGAPORE 619110,37,NIL,1.30914259843542,103.719502537183,103.719502537183,619110,JURONG PORT ROAD,37 JURONG PORT ROAD SINGAPORE 619110,15333.3328040345,32384.1424971633
29A JURONG PORT ROAD JURONG INDUSTRIAL ESTATE SINGAPORE 619112,29A,JURONG INDUSTRIAL ESTATE,1.31568010999565,103.720282870182,103.720282870182,619112,JURONG PORT ROAD,JURONG INDUSTRIAL ESTATE,15420.2093934948,33107.0243983194
28 JURONG PORT ROAD SINGAPORE 619113,28,NIL,1.31499144469994,103.718436799503,103.718436799503,619113,JURONG PORT ROAD,28 JURONG PORT ROAD SINGAPORE 619113,15214.7556471871,33030.8845588472
22 JURONG PORT ROAD COLLIN’S MOVERS BUILDING SINGAPORE 619114,22,COLLIN’S MOVERS BUILDING,1.31806897159836,103.719022920866,103.719022920866,619114,JURONG PORT ROAD,COLLIN’S MOVERS BUILDING,15280.0010404764,33371.1793576926
31 JURONG PORT ROAD JURONG LOGISTICS HUB SINGAPORE 619115,31,JURONG LOGISTICS HUB,1.31324171117689,103.719875314232,103.719875314232,619115,JURONG PORT ROAD,JURONG LOGISTICS HUB,15374.8400165373,32837.4003169686
15A JURONG PORT ROAD SINGAPORE 619120,15A,NIL,1.3224499238407,103.722474561425,103.722474561425,619120,JURONG PORT ROAD,15A JURONG PORT ROAD SINGAPORE 619120,15664.1572653307,33855.5861108806
51A JURONG PORT ROAD SINGAPORE 619123,51A,NIL,1.30440542303855,103.723133452326,103.723133452326,619123,JURONG PORT ROAD,51A JURONG PORT ROAD SINGAPORE 619123,15737.3974319631,31860.3109990191
8 JURONG PIER WAY ICA JURONG SCANNING STATION SINGAPORE 619135,8,ICA JURONG SCANNING STATION,1.30958080799637,103.711905099312,103.711905099312,619135,JURONG PIER WAY,ICA JURONG SCANNING STATION,14487.8097243933,32432.6372250468
2 JURONG PIER ROAD JURONG POWER STATION SINGAPORE 619157,2,JURONG POWER STATION,1.320407266956,103.710884727281,103.710884727281,619157,JURONG PIER ROAD,JURONG POWER STATION,14374.3103547618,33629.7796880342
6 JURONG PIER ROAD SINGAPORE 619158,6,NIL,1.31798910123285,103.710654668411,103.710654668411,619158,JURONG PIER ROAD,6 JURONG PIER ROAD SINGAPORE 619158,14348.6938337106,33362.391986927
7 JURONG PIER ROAD SINGAPORE 619159,7,NIL,1.31486749672031,103.709104327134,103.709104327134,619159,JURONG PIER ROAD,7 JURONG PIER ROAD SINGAPORE 619159,14176.138389173,33017.2287342399
8 JURONG PIER ROAD SINGAPORE 619160,8,NIL,1.31633804553389,103.710631516708,103.710631516708,619160,JURONG PIER ROAD,8 JURONG PIER ROAD SINGAPORE 619160,14346.1082820054,33179.8264358863
9 JURONG PIER ROAD SINGAPORE 619161,9,NIL,1.31051651145762,103.708105367541,103.708105367541,619161,JURONG PIER ROAD,9 JURONG PIER ROAD SINGAPORE 619161,14064.9394468404,32536.1235521808
9A JURONG PIER ROAD SINGAPORE 619162,9A,NIL,1.31083058765951,103.709420306797,103.709420306797,619162,JURONG PIER ROAD,9A JURONG PIER ROAD SINGAPORE 619162,14211.2818489037,32570.8452880941
9B JURONG PIER ROAD SINGAPORE 619163,9B,NIL,1.31143011098385,103.709359702074,103.709359702074,619163,JURONG PIER ROAD,9B JURONG PIER ROAD SINGAPORE 619163,14204.5403819624,32637.1379838865
11 JURONG PIER ROAD JURONG SHIPBREAKER SINGAPORE 619165,11,JURONG SHIPBREAKER,1.31136951714145,103.705122518363,103.705122518363,619165,JURONG PIER ROAD,JURONG SHIPBREAKER,13732.9804809783,32630.4615628421
11A JURONG PIER ROAD JURONG SHIPBREAKER SINGAPORE 619166,11A,JURONG SHIPBREAKER,1.30945322785057,103.706052915443,103.706052915443,619166,JURONG PIER ROAD,JURONG SHIPBREAKER,13836.5143591147,32418.5623402055
20 JURONG PIER ROAD JURONG PIER AMENITY CENTRE SINGAPORE 619167,20,JURONG PIER AMENITY CENTRE,1.30824665721144,103.710322728389,103.710322728389,619167,JURONG PIER ROAD,JURONG PIER AMENITY CENTRE,14311.6990630236,32285.1219386142
18 JURONG PIER ROAD JURONG ISLAND CHECKPOINT SINGAPORE 619168,18,JURONG ISLAND CHECKPOINT,1.30956122430741,103.710719343991,103.710719343991,619168,JURONG PIER ROAD,JURONG ISLAND CHECKPOINT,14355.8458858514,32430.4781794995
16 JURONG PIER ROAD SINGAPORE 619175,16,NIL,1.31131326577744,103.710677384619,103.710677384619,619175,JURONG PIER ROAD,16 JURONG PIER ROAD SINGAPORE 619175,14351.1856757384,32624.2105885781
9D JURONG PIER ROAD MEP BUILDING SINGAPORE 619177,9D,MEP BUILDING,1.31234138565182,103.7092896418,103.7092896418,619177,JURONG PIER ROAD,MEP BUILDING,14196.7483133059,32737.9026744608
1 JOO YEE ROAD SINGAPORE 619197,1,NIL,1.32969318518586,103.716015373617,103.716015373617,619197,JOO YEE ROAD,1 JOO YEE ROAD SINGAPORE 619197,14945.3505244302,34656.5435193367
11 JOO YEE ROAD SINGAPORE 619198,11,NIL,1.32932632032238,103.716445375124,103.716445375124,619198,JOO YEE ROAD,11 JOO YEE ROAD SINGAPORE 619198,14993.2034499878,34615.9751288835
11A JOO YEE ROAD SINGAPORE 619199,11A,NIL,1.32880086672668,103.71634812207,103.71634812207,619199,JOO YEE ROAD,11A JOO YEE ROAD SINGAPORE 619199,14982.377409447,34557.8735548444
17 JOO YEE ROAD SINGAPORE 619201,17,NIL,1.32938565821288,103.714985675305,103.714985675305,619201,JOO YEE ROAD,17 JOO YEE ROAD SINGAPORE 619201,14830.7538193176,34622.5441591218
17A JOO YEE ROAD SINGAPORE 619202,17A,NIL,1.32896995268478,103.715025543911,103.715025543911,619202,JOO YEE ROAD,17A JOO YEE ROAD SINGAPORE 619202,14835.1885934882,34576.5772618987
17B JOO YEE ROAD SINGAPORE 619203,17B,NIL,1.32857425396006,103.715121910602,103.715121910602,619203,JOO YEE ROAD,17B JOO YEE ROAD SINGAPORE 619203,14845.9111477919,34532.8223186564
24 JALAN TUKANG SINGAPORE 619258,24,NIL,1.32673410143417,103.713028652992,103.713028652992,619258,JALAN TUKANG,24 JALAN TUKANG SINGAPORE 619258,14612.9425935652,34329.3584804032
26 JALAN TUKANG SINGAPORE 619259,26,NIL,1.32682798584232,103.712469926249,103.712469926249,619259,JALAN TUKANG,26 JALAN TUKANG SINGAPORE 619259,14550.7623481834,34339.7427899875
28 JALAN TUKANG SINGAPORE 619262,28,NIL,1.32680118661743,103.711814468651,103.711814468651,619262,JALAN TUKANG,28 JALAN TUKANG SINGAPORE 619262,14477.8162652813,34336.7830352001
25 JALAN TUKANG SINGAPORE 619264,25,NIL,1.32480475616809,103.711461232408,103.711461232408,619264,JALAN TUKANG,25 JALAN TUKANG SINGAPORE 619264,14438.4937050389,34116.0294284839
19 JALAN TUKANG LT SAMBO INNOVATION BUILDING SINGAPORE 619265,19,LT SAMBO INNOVATION BUILDING,1.32604409359094,103.714304084296,103.714304084296,619265,JALAN TUKANG,LT SAMBO INNOVATION BUILDING,14754.8817909649,34253.0539225619
36 JALAN TUKANG SINGAPORE 619266,36,NIL,1.32624527784217,103.709791357348,103.709791357348,619266,JALAN TUKANG,36 JALAN TUKANG SINGAPORE 619266,14252.6609370317,34275.324499622
2 JALAN TERUSAN SINGAPORE 619285,2,NIL,1.31969834921616,103.722448129832,103.722448129832,619285,JALAN TERUSAN,2 JALAN TERUSAN SINGAPORE 619285,15661.2021112768,33551.3306738157
13 JALAN TERUSAN SINGAPORE 619293,13,NIL,1.32358878483205,103.722998533903,103.722998533903,619293,JALAN TERUSAN,13 JALAN TERUSAN SINGAPORE 619293,15722.4758910825,33981.513151411
15 JALAN TERUSAN SINGAPORE 619294,15,NIL,1.32247905227118,103.725795222201,103.725795222201,619294,JALAN TERUSAN,15 JALAN TERUSAN SINGAPORE 619294,16033.7145454744,33858.7907336578
22 JALAN TERUSAN SINGAPORE 619299,22,NIL,1.31949433994741,103.726291347007,103.726291347007,619299,JALAN TERUSAN,22 JALAN TERUSAN SINGAPORE 619299,16088.9141765758,33528.7536031529
22A JALAN TERUSAN SINGAPORE 619300,22A,NIL,1.31991597027061,103.725458735752,103.725458735752,619300,JALAN TERUSAN,22A JALAN TERUSAN SINGAPORE 619300,15996.2545861462,33575.3794041146
3A JALAN TERUSAN MK DISTRICENTRE SINGAPORE 619302,3A,MK DISTRICENTRE,1.32113506327687,103.722298245912,103.722298245912,619302,JALAN TERUSAN,MK DISTRICENTRE,15644.5285686944,33710.1961817294
5 JALAN TEPONG SINGAPORE 619325,5,NIL,1.31015292808042,103.721952747641,103.721952747641,619325,JALAN TEPONG,5 JALAN TEPONG SINGAPORE 619325,15606.0237585679,32495.8475201819
9 JALAN TEPONG SINGAPORE 619327,9,NIL,1.31093441585307,103.721184281479,103.721184281479,619327,JALAN TEPONG,9 JALAN TEPONG SINGAPORE 619327,15520.5044157654,32582.2643995062
10 JALAN TEPONG SINGAPORE 619328,10,NIL,1.31009997375786,103.72015686435,103.72015686435,619328,JALAN TEPONG,10 JALAN TEPONG SINGAPORE 619328,15406.1582084857,32490.0010472517
12 JALAN TEPONG SINGAPORE 619329,12,NIL,1.30957757688345,103.720915154305,103.720915154305,619329,JALAN TEPONG,12 JALAN TEPONG SINGAPORE 619329,15490.5463156654,32432.2331777327
16 JALAN TEPONG SINGAPORE 619331,16,NIL,1.30737600899126,103.721335322975,103.721335322975,619331,JALAN TEPONG,16 JALAN TEPONG SINGAPORE 619331,15537.2963667,32188.7925670352
17 JALAN TEPONG JURONG FOOD HUB SINGAPORE 619332,17,JURONG FOOD HUB,1.30873854558298,103.722355914553,103.722355914553,619332,JALAN TEPONG,JURONG FOOD HUB,15650.8856019741,32339.4500939287
15 JALAN TEPONG JURONG FOOD HUB SINGAPORE 619336,15,JURONG FOOD HUB,1.30859345523909,103.722316829054,103.722316829054,619336,JALAN TEPONG,JURONG FOOD HUB,15646.535033335,32323.4069123752
19 JALAN TEPONG JURONG FOOD HUB SINGAPORE 619337,19,JURONG FOOD HUB,1.30873854558298,103.722355914553,103.722355914553,619337,JALAN TEPONG,JURONG FOOD HUB,15650.8856019741,32339.4500939287
21 JALAN TEPONG JURONG FOOD HUB SINGAPORE 619338,21,JURONG FOOD HUB,1.30873854558298,103.722355914553,103.722355914553,619338,JALAN TEPONG,JURONG FOOD HUB,15650.8856019741,32339.4500939287
23 JALAN TEPONG JURONG FOOD HUB SINGAPORE 619339,23,JURONG FOOD HUB,1.30873854558298,103.722355914553,103.722355914553,619339,JALAN TEPONG,JURONG FOOD HUB,15650.8856019741,32339.4500939287
25 JALAN TEPONG JURONG FOOD HUB SINGAPORE 619340,25,JURONG FOOD HUB,1.30873854558298,103.722355914553,103.722355914553,619340,JALAN TEPONG,JURONG FOOD HUB,15650.8856019741,32339.4500939287
27 JALAN TEPONG JURONG FOOD HUB SINGAPORE 619341,27,JURONG FOOD HUB,1.30873854558298,103.722355914553,103.722355914553,619341,JALAN TEPONG,JURONG FOOD HUB,15650.8856019741,32339.4500939287
29 JALAN TEPONG JURONG FOOD HUB SINGAPORE 619342,29,JURONG FOOD HUB,1.30873854558298,103.722355914553,103.722355914553,619342,JALAN TEPONG,JURONG FOOD HUB,15650.8856019741,32339.4500939287
31 JALAN TEPONG JURONG FOOD HUB SINGAPORE 619343,31,JURONG FOOD HUB,1.30794232348199,103.722089910809,103.722089910809,619343,JALAN TEPONG,JURONG FOOD HUB,15621.277914322,32251.4090951346
33 JALAN TEPONG JURONG FOOD HUB SINGAPORE 619344,33,JURONG FOOD HUB,1.30796000327387,103.722058336008,103.722058336008,619344,JALAN TEPONG,JURONG FOOD HUB,15617.7640132885,32253.3641950078
35 JALAN TEPONG JURONG FOOD HUB SINGAPORE 619345,35,JURONG FOOD HUB,1.30796000327387,103.722058336008,103.722058336008,619345,JALAN TEPONG,JURONG FOOD HUB,15617.7640132885,32253.3641950078
37 JALAN TEPONG JURONG FOOD HUB SINGAPORE 619346,37,JURONG FOOD HUB,1.30796000327387,103.722058336008,103.722058336008,619346,JALAN TEPONG,JURONG FOOD HUB,15617.7640132885,32253.3641950078
39 JALAN TEPONG JURONG FOOD HUB SINGAPORE 619347,39,JURONG FOOD HUB,1.30796000327387,103.722058336008,103.722058336008,619347,JALAN TEPONG,JURONG FOOD HUB,15617.7640132885,32253.3641950078
41 JALAN TEPONG JURONG FOOD HUB SINGAPORE 619348,41,JURONG FOOD HUB,1.30796000327387,103.722058336008,103.722058336008,619348,JALAN TEPONG,JURONG FOOD HUB,15617.7640132885,32253.3641950078
2 JALAN PESAWAT SINGAPORE 619358,2,NIL,1.31880563111548,103.712356468741,103.712356468741,619358,JALAN PESAWAT,2 JALAN PESAWAT SINGAPORE 619358,14538.0924123432,33452.670606954
2C JALAN PESAWAT SINGAPORE 619359,2C,NIL,1.31899014537396,103.710761996477,103.710761996477,619359,JALAN PESAWAT,2C JALAN PESAWAT SINGAPORE 619359,14360.6438758262,33473.0819731131
3 JALAN PESAWAT SINGAPORE 619361,3,NIL,1.32018408584823,103.712429383119,103.712429383119,619361,JALAN PESAWAT,3 JALAN PESAWAT SINGAPORE 619361,14546.2144928258,33605.0929994415
4 JALAN PESAWAT SINGAPORE 619362,4,NIL,1.31908256305582,103.713955051776,103.713955051776,619362,JALAN PESAWAT,4 JALAN PESAWAT SINGAPORE 619362,14716.0009011412,33483.2837970257
5 JALAN PESAWAT SINGAPORE 619363,5,NIL,1.32108883732954,103.712818825587,103.712818825587,619363,JALAN PESAWAT,5 JALAN PESAWAT SINGAPORE 619363,14589.5605458757,33705.1338917203
6 JALAN PESAWAT SINGAPORE 619364,6,NIL,1.31968206760332,103.714586682372,103.714586682372,619364,JALAN PESAWAT,6 JALAN PESAWAT SINGAPORE 619364,14786.2985052001,33549.5707116351
7 JALAN PESAWAT SINGAPORE 619365,7,NIL,1.32107800930972,103.713516499198,103.713516499198,619365,JALAN PESAWAT,7 JALAN PESAWAT SINGAPORE 619365,14667.2048252113,33703.9328278583
9 JALAN PESAWAT SINGAPORE 619367,9,NIL,1.32129929883626,103.714238985301,103.714238985301,619367,JALAN PESAWAT,9 JALAN PESAWAT SINGAPORE 619367,14747.6117239557,33728.3980758823
1 JALAN PAPAN SINGAPORE 619392,1,NIL,1.32087635946694,103.727545977964,103.727545977964,619392,JALAN PAPAN,1 JALAN PAPAN SINGAPORE 619392,16228.5490118396,33681.5645154808
5 JALAN PAPAN ASPRI-WESTLITE PAPAN SINGAPORE 619396,5,ASPRI-WESTLITE PAPAN,1.32213826794398,103.727421300389,103.727421300389,619396,JALAN PAPAN,ASPRI-WESTLITE PAPAN,16214.6795558045,33821.1007073838
7 JALAN PAPAN SINGAPORE 619397,7,NIL,1.32344174670927,103.728556094916,103.728556094916,619397,JALAN PAPAN,7 JALAN PAPAN SINGAPORE 619397,16340.977197526,33965.2275838424
9 JALAN PAPAN SINGAPORE 619398,9,NIL,1.32460128849803,103.729047659296,103.729047659296,619398,JALAN PAPAN,9 JALAN PAPAN SINGAPORE 619398,16395.6888784617,34093.4416732229
11 JALAN PAPAN SINGAPORE 619399,11,NIL,1.32499522898394,103.729651052397,103.729651052397,619399,JALAN PAPAN,11 JALAN PAPAN SINGAPORE 619399,16462.8423957126,34136.998845458
6 JALAN PAPAN SINGAPORE 619400,6,NIL,1.32363654605205,103.72945046172,103.72945046172,619400,JALAN PAPAN,6 JALAN PAPAN SINGAPORE 619400,16440.5123420656,33986.7633450627
6A JALAN PAPAN SINGAPORE 619401,6A,NIL,1.32443245078101,103.730301250019,103.730301250019,619401,JALAN PAPAN,6A JALAN PAPAN SINGAPORE 619401,16535.200371692,34074.7665996812
6B JALAN PAPAN SINGAPORE 619402,6B,NIL,1.32450348052827,103.730898350309,103.730898350309,619402,JALAN PAPAN,6B JALAN PAPAN SINGAPORE 619402,16601.6520652035,34082.6179633159
6C JALAN PAPAN SINGAPORE 619403,6C,NIL,1.32408561894724,103.730657700998,103.730657700998,619403,JALAN PAPAN,6C JALAN PAPAN SINGAPORE 619403,16574.8682593601,34036.4140072446
7A JALAN PAPAN SINGAPORE 619408,7A,NIL,1.32394418267904,103.728157877574,103.728157877574,619408,JALAN PAPAN,7A JALAN PAPAN SINGAPORE 619408,16296.661872834,34020.786344571
7B JALAN PAPAN SINGAPORE 619409,7B,NIL,1.32449787464931,103.727064712765,103.727064712765,619409,JALAN PAPAN,7B JALAN PAPAN SINGAPORE 619409,16175.0060080225,34082.0160541926
2Q JALAN PAPAN SINGAPORE 619412,2Q,NIL,1.32289828608026,103.730530665862,103.730530665862,619412,JALAN PAPAN,2Q JALAN PAPAN SINGAPORE 619412,16560.7250596806,33905.1252052747
2S JALAN PAPAN SINGAPORE 619413,2S,NIL,1.32292664722965,103.731672823382,103.731672823382,619413,JALAN PAPAN,2S JALAN PAPAN SINGAPORE 619413,16687.8361231973,33908.2560044397
2D JALAN PAPAN AVERY LODGE SINGAPORE 619415,2D,AVERY LODGE,1.32128074994759,103.729832580442,103.729832580442,619415,JALAN PAPAN,AVERY LODGE,16483.0275389617,33726.2692983188
6E JALAN PAPAN SINGAPORE 619417,6E,NIL,1.32405953539367,103.731525191853,103.731525191853,619417,JALAN PAPAN,6E JALAN PAPAN SINGAPORE 619417,16671.4113229048,34033.5258362386
8 JALAN PAPAN SINGAPORE 619418,8,NIL,1.32529492453131,103.730881999922,103.730881999922,619418,JALAN PAPAN,8 JALAN PAPAN SINGAPORE 619418,16599.8360467171,34170.1319965143
13 JALAN PAPAN SINGAPORE 619419,13,NIL,1.32550497672205,103.730089507309,103.730089507309,619419,JALAN PAPAN,13 JALAN PAPAN SINGAPORE 619419,16511.6404390614,34193.3621897306
5C JALAN PAPAN ASPRI-WESTLITE PAPAN SINGAPORE 619420,5C,ASPRI-WESTLITE PAPAN,1.32239887663165,103.727639339401,103.727639339401,619420,JALAN PAPAN,ASPRI-WESTLITE PAPAN,16238.9463971937,33849.916493779
5D JALAN PAPAN ASPRI-WESTLITE PAPAN SINGAPORE 619421,5D,ASPRI-WESTLITE PAPAN,1.32277054934441,103.727859730691,103.727859730691,619421,JALAN PAPAN,ASPRI-WESTLITE PAPAN,16263.4755409304,33891.0131816193
16 JALAN BUROH SINGAPORE 619475,16,NIL,1.31231186679037,103.703902610297,103.703902610297,619475,JALAN BUROH,16 JALAN BUROH SINGAPORE 619475,13597.2213096907,32734.6689944211
19 JALAN BUROH SINGAPORE 619476,19,NIL,1.31432491888733,103.702979712897,103.702979712897,619476,JALAN BUROH,19 JALAN BUROH SINGAPORE 619476,13494.5229489775,32957.2678584959
20 JALAN BUROH SINGAPORE 619477,20,NIL,1.31284418012211,103.704527322528,103.704527322528,619477,JALAN BUROH,20 JALAN BUROH SINGAPORE 619477,13666.7490475839,32793.5260270666
21 JALAN BUROH SINGAPORE 619478,21,NIL,1.31495511719394,103.704181162746,103.704181162746,619478,JALAN BUROH,21 JALAN BUROH SINGAPORE 619478,13628.2367309975,33026.9451807663
23 JALAN BUROH SINGAPORE 619479,23,NIL,1.31476597133606,103.705621844055,103.705621844055,619479,JALAN BUROH,23 JALAN BUROH SINGAPORE 619479,13788.5700242463,33006.0221040733
24 JALAN BUROH SINGAPORE 619480,24,NIL,1.31281414974736,103.705422264199,103.705422264199,619480,JALAN BUROH,24 JALAN BUROH SINGAPORE 619480,13766.3476035483,32790.2003020868
25 JALAN BUROH SINGAPORE 619481,25,NIL,1.31471536871044,103.706289700064,103.706289700064,619481,JALAN BUROH,25 JALAN BUROH SINGAPORE 619481,13862.8958731862,33000.4229205698
26 JALAN BUROH SINGAPORE 619482,26,NIL,1.31327050507931,103.706352549957,103.706352549957,619482,JALAN BUROH,26 JALAN BUROH SINGAPORE 619482,13869.8823594563,32840.656576924
27 JALAN BUROH SINGAPORE 619483,27,NIL,1.31494691738558,103.706855702082,103.706855702082,619483,JALAN BUROH,27 JALAN BUROH SINGAPORE 619483,13925.887905892,33026.0232482497
28 JALAN BUROH SINGAPORE 619484,28,NIL,1.31262489350473,103.707158362574,103.707158362574,619484,JALAN BUROH,28 JALAN BUROH SINGAPORE 619484,13959.5582228545,32769.2634534612
29 JALAN BUROH SINGAPORE 619485,29,NIL,1.31464091931406,103.708045405964,103.708045405964,619485,JALAN BUROH,29 JALAN BUROH SINGAPORE 619485,14058.289116798,32992.180797264
30 JALAN BUROH SINGAPORE 619486,30,NIL,1.31274400074794,103.708073225565,103.708073225565,619486,JALAN BUROH,30 JALAN BUROH SINGAPORE 619486,14061.3746653264,32782.4286340512
33 JALAN BUROH DBS SPC JALAN BUROH/33 SINGAPORE 619487,33,DBS SPC JALAN BUROH/33,1.31479675050636,103.714906860677,103.714906860677,619487,JALAN BUROH,DBS SPC JALAN BUROH/33,14821.9056099057,33009.3745859507
41 JALAN BUROH SINGAPORE 619488,41,NIL,1.31700466722819,103.714231653396,103.714231653396,619488,JALAN BUROH,41 JALAN BUROH SINGAPORE 619488,14746.7730283951,33253.5187759288
42 JALAN BUROH SINGAPORE 619489,42,NIL,1.31261406006591,103.714466265629,103.714466265629,619489,JALAN BUROH,42 JALAN BUROH SINGAPORE 619489,14772.8600349855,32768.0257048048
43 JALAN BUROH SINGAPORE 619490,43,NIL,1.31783817376581,103.714447866726,103.714447866726,619490,JALAN BUROH,43 JALAN BUROH SINGAPORE 619490,14770.8399194842,33345.6826978568
47 JALAN BUROH CWT DISTRIPARK SINGAPORE 619491,47,CWT DISTRIPARK,1.31578893853133,103.716735052227,103.716735052227,619491,JALAN BUROH,CWT DISTRIPARK,15025.3712945068,33119.0762922
47A JALAN BUROH CWT DISTRIPARK SINGAPORE 619492,47A,CWT DISTRIPARK,1.31834144643538,103.716676113756,103.716676113756,619492,JALAN BUROH,CWT DISTRIPARK,15018.8252074001,33401.3203974869
47C JALAN BUROH SINGAPORE 619493,47C,NIL,1.31961458355913,103.717892397469,103.717892397469,619493,JALAN BUROH,47C JALAN BUROH SINGAPORE 619493,15154.192499103,33542.0913415179
51 JALAN BUROH SINGAPORE 619495,51,NIL,1.31462821513647,103.721947041407,103.721947041407,619495,JALAN BUROH,51 JALAN BUROH SINGAPORE 619495,15605.4107410936,32990.7027208153
38 JALAN BUROH HANKYU HANSHIN LOGISTICS CENTRE SINGAPORE 619504,38,HANKYU HANSHIN LOGISTICS CENTRE,1.3131919385338,103.713183417698,103.713183417698,619504,JALAN BUROH,HANKYU HANSHIN LOGISTICS CENTRE,14630.0940373428,32831.9314976688
249 JALAN BOON LAY SINGAPORE 619523,249,NIL,1.33948085331458,103.712432335863,103.712432335863,619523,JALAN BOON LAY,249 JALAN BOON LAY SINGAPORE 619523,14546.6475974051,35738.8353893645
255 JALAN BOON LAY SINGAPORE 619524,255,NIL,1.33703493647193,103.710313252557,103.710313252557,619524,JALAN BOON LAY,255 JALAN BOON LAY SINGAPORE 619524,14310.8022529343,35468.389532255
320 JALAN BOON LAY SINGAPORE 619525,320,NIL,1.33519557238112,103.708541508175,103.708541508175,619525,JALAN BOON LAY,320 JALAN BOON LAY SINGAPORE 619525,14113.6151167313,35265.0115340017
338 JALAN BOON LAY SINGAPORE 619526,338,NIL,1.33681179971542,103.708822527819,103.708822527819,619526,JALAN BOON LAY,338 JALAN BOON LAY SINGAPORE 619526,14144.8987729102,35443.7245155387
342 JALAN BOON LAY SINGAPORE 619527,342,NIL,1.33183762934579,103.707198414956,103.707198414956,619527,JALAN BOON LAY,342 JALAN BOON LAY SINGAPORE 619527,13964.1236033747,34893.7141172066
346 JALAN BOON LAY SINGAPORE 619528,346,NIL,1.3304824483409,103.706695010001,103.706695010001,619528,JALAN BOON LAY,346 JALAN BOON LAY SINGAPORE 619528,13908.092026473,34743.8676512036
348 JALAN BOON LAY PSC BUILDING SINGAPORE 619529,348,PSC BUILDING,1.32895591182632,103.707170105487,103.707170105487,619529,JALAN BOON LAY,PSC BUILDING,13960.9567550421,34575.0679488909
350 JALAN BOON LAY SINGAPORE 619530,350,NIL,1.32694933643694,103.707764954988,103.707764954988,619530,JALAN BOON LAY,350 JALAN BOON LAY SINGAPORE 619530,14027.146297548,34353.1872229949
352 JALAN BOON LAY UTOC UNITY SINGAPORE 619531,352,UTOC UNITY,1.32619502696338,103.708356945264,103.708356945264,619531,JALAN BOON LAY,UTOC UNITY,14093.0247457158,34269.7760149911
1 JALAN BESUT SINGAPORE 619554,1,NIL,1.31833162029239,103.72490355734,103.72490355734,619554,JALAN BESUT,1 JALAN BESUT SINGAPORE 619554,15934.4609537208,33400.1924913414
1A JALAN BESUT SINGAPORE 619555,1A,NIL,1.31965902901918,103.724557271077,103.724557271077,619555,JALAN BESUT,1A JALAN BESUT SINGAPORE 619555,15895.929023481,33546.9724776447
3 JALAN BESUT SINGAPORE 619556,3,NIL,1.31786865350634,103.72532775146,103.72532775146,619556,JALAN BESUT,3 JALAN BESUT SINGAPORE 619556,15981.6674762173,33348.9978593085
4 JALAN BESUT SINGAPORE 619557,4,NIL,1.3183403244637,103.723458374361,103.723458374361,619557,JALAN BESUT,4 JALAN BESUT SINGAPORE 619557,15773.6259686416,33401.1620051265
5 JALAN BESUT SINGAPORE 619559,5,NIL,1.31789040654885,103.725700137452,103.725700137452,619559,JALAN BESUT,5 JALAN BESUT SINGAPORE 619559,16023.1105811317,33351.4014096279
6 JALAN BESUT SINGAPORE 619560,6,NIL,1.31737659721462,103.722857947104,103.722857947104,619560,JALAN BESUT,6 JALAN BESUT SINGAPORE 619560,15706.7994364193,33294.6007535271
7 JALAN BESUT SINGAPORE 619561,7,NIL,1.31773853475658,103.726240780111,103.726240780111,619561,JALAN BESUT,7 JALAN BESUT SINGAPORE 619561,16083.2782174721,33334.6055843905
9 JALAN BESUT SINGAPORE 619563,9,NIL,1.31734248226825,103.726432586565,103.726432586565,619563,JALAN BESUT,9 JALAN BESUT SINGAPORE 619563,16104.6225639619,33290.8111414313
11 JALAN BESUT SINGAPORE 619565,11,NIL,1.31717216390617,103.72687507377,103.72687507377,619565,JALAN BESUT,11 JALAN BESUT SINGAPORE 619565,16153.8663639072,33271.9760713261
12 JALAN BESUT SINGAPORE 619566,12,NIL,1.31625344750337,103.725498270379,103.725498270379,619566,JALAN BESUT,12 JALAN BESUT SINGAPORE 619566,16000.6368756332,33170.3955375198
14 JALAN BESUT SINGAPORE 619568,14,NIL,1.31606250665348,103.726290834518,103.726290834518,619568,JALAN BESUT,14 JALAN BESUT SINGAPORE 619568,16088.8408372514,33149.2784430515
16 JALAN BESUT SINGAPORE 619569,16,NIL,1.31567500485707,103.726574640374,103.726574640374,619569,JALAN BESUT,16 JALAN BESUT SINGAPORE 619569,16120.4239043258,33106.4290573467
17 JALAN BESUT SINGAPORE 619570,17,NIL,1.31682813999794,103.727855508166,103.727855508166,619570,JALAN BESUT,17 JALAN BESUT SINGAPORE 619570,16262.97775367,33233.9309713375
18 JALAN BESUT SINGAPORE 619571,18,NIL,1.31557001884419,103.72703913797,103.72703913797,619571,JALAN BESUT,18 JALAN BESUT SINGAPORE 619571,16172.1175948726,33094.8180166502
10A JALAN BESUT TEMPORARY SITE OFFICE SINGAPORE 619573,10A,TEMPORARY SITE OFFICE,1.31703400619942,103.725018991926,103.725018991926,619573,JALAN BESUT,TEMPORARY SITE OFFICE,15947.301479917,33256.7081739083
302 JALAN AHMAD IBRAHIM DBS EXXONMOBIL JALAN AHMAD IBRAHIM SINGAPORE 619594,302,DBS EXXONMOBIL JALAN AHMAD IBRAHIM,1.32510871935482,103.72454637764,103.72454637764,619594,JALAN AHMAD IBRAHIM,DBS EXXONMOBIL JALAN AHMAD IBRAHIM,15894.7430936107,34149.5724080391
311 JALAN AHMAD IBRAHIM CITIBANK SHELL JALAN AHMAD IBRAHIM SINGAPORE 619595,311,CITIBANK SHELL JALAN AHMAD IBRAHIM,1.32355317485146,103.721846046458,103.721846046458,619595,JALAN AHMAD IBRAHIM,CITIBANK SHELL JALAN AHMAD IBRAHIM,15594.2151587401,33977.581310058
330 JALAN AHMAD IBRAHIM SINGAPORE 619596,330,NIL,1.32158642851733,103.710888919411,103.710888919411,619596,JALAN AHMAD IBRAHIM,330 JALAN AHMAD IBRAHIM SINGAPORE 619596,14374.7833222756,33760.1655960493
1 BUROH CLOSE SINGAPORE 619615,1,NIL,1.31106094610796,103.715913252068,103.715913252068,619615,BUROH CLOSE,1 BUROH CLOSE SINGAPORE 619615,14933.8881298006,32596.2823805381
106 YUAN CHING ROAD SINGAPORE 619616,106,NIL,1.34331637518714,103.721923054944,103.721923054944,619616,YUAN CHING ROAD,106 YUAN CHING ROAD SINGAPORE 619616,15602.8843330285,36162.8985281549
108 YUAN CHING ROAD SINGAPORE 619617,108,NIL,1.34411944300542,103.725856194386,103.725856194386,619617,YUAN CHING ROAD,108 YUAN CHING ROAD SINGAPORE 619617,16040.6045979485,36251.6782170907
2 INTERNATIONAL ROAD ACTIVESG SPORT VILLAGE @ JURONG TOWN SINGAPORE 619618,2,ACTIVESG SPORT VILLAGE @ JURONG TOWN,1.3318371086834,103.720258673031,103.720258673031,619618,INTERNATIONAL ROAD,ACTIVESG SPORT VILLAGE @ JURONG TOWN,15417.5979323955,34893.5860230997
3 INTERNATIONAL ROAD SINGAPORE 619619,3,NIL,1.33058568574841,103.719200510668,103.719200510668,619619,INTERNATIONAL ROAD,3 INTERNATIONAL ROAD SINGAPORE 619619,15299.8288096422,34755.2152393721
50 INTERNATIONAL ROAD SINGAPORE 619625,50,NIL,1.33176689366237,103.711596954349,103.711596954349,619625,INTERNATIONAL ROAD,50 INTERNATIONAL ROAD SINGAPORE 619625,14453.6361416643,34885.8678991273
52 INTERNATIONAL ROAD SINGAPORE 619626,52,NIL,1.32980576822773,103.711389159779,103.711389159779,619626,INTERNATIONAL ROAD,52 INTERNATIONAL ROAD SINGAPORE 619626,14430.4999910751,34669.0173489098
77 INTERNATIONAL ROAD SINGAPORE 619628,77,NIL,1.32658159939024,103.694838124385,103.694838124385,619628,INTERNATIONAL ROAD,77 INTERNATIONAL ROAD SINGAPORE 619628,12588.5152969379,34312.6013981849
70B YUAN CHING ROAD SINGAPORE 619629,70B,NIL,1.33917165907439,103.730909082802,103.730909082802,619629,YUAN CHING ROAD,70B YUAN CHING ROAD SINGAPORE 619629,16602.9138769088,35704.5525392145
3 HU CHING ROAD SINGAPORE 619651,3,NIL,1.32943016197842,103.723512453427,103.723512453427,619651,HU CHING ROAD,3 HU CHING ROAD SINGAPORE 619651,15779.6987552866,34627.4213301428
60 YUAN CHING ROAD SINGAPORE 619672,60,NIL,1.33536513547859,103.730612066718,103.730612066718,619672,YUAN CHING ROAD,60 YUAN CHING ROAD SINGAPORE 619672,16569.8415039647,35283.6473499686
60A YUAN CHING ROAD SINGAPORE 619673,60A,NIL,1.33648334928986,103.730976357144,103.730976357144,619673,YUAN CHING ROAD,60A YUAN CHING ROAD SINGAPORE 619673,16610.3884041477,35407.2922147941
60B YUAN CHING ROAD SINGAPORE 619674,60B,NIL,1.3342137130047,103.733320143586,103.733320143586,619674,YUAN CHING ROAD,60B YUAN CHING ROAD SINGAPORE 619674,16871.2172147911,35156.3163290154
70 YUAN CHING ROAD SINGAPORE 619675,70,NIL,1.3381272715537,103.72814742357,103.72814742357,619675,YUAN CHING ROAD,70 YUAN CHING ROAD SINGAPORE 619675,16295.5653243195,35589.0823303591
70A YUAN CHING ROAD SINGAPORE 619676,70A,NIL,1.33879777342092,103.729841313775,103.729841313775,619676,YUAN CHING ROAD,70A YUAN CHING ROAD SINGAPORE 619676,16484.0806831876,35663.215099832
1 FOURTH CHIN BEE ROAD SINGAPORE 619697,1,NIL,1.33144545299602,103.717848104427,103.717848104427,619697,FOURTH CHIN BEE ROAD,1 FOURTH CHIN BEE ROAD SINGAPORE 619697,15149.3241057983,34850.2910926733
5 FOURTH CHIN BEE ROAD SINGAPORE 619699,5,NIL,1.33242736129003,103.717539444183,103.717539444183,619699,FOURTH CHIN BEE ROAD,5 FOURTH CHIN BEE ROAD SINGAPORE 619699,15114.9784495821,34958.8673142176
7 FOURTH CHIN BEE ROAD SINGAPORE 619700,7,NIL,1.33284430586312,103.717477935094,103.717477935094,619700,FOURTH CHIN BEE ROAD,7 FOURTH CHIN BEE ROAD SINGAPORE 619700,15108.1352822157,35004.9713254068
9 FOURTH CHIN BEE ROAD SINGAPORE 619701,9,NIL,1.33322076228998,103.717599029648,103.717599029648,619701,FOURTH CHIN BEE ROAD,9 FOURTH CHIN BEE ROAD SINGAPORE 619701,15121.6138272407,35046.5974002816
11 FOURTH CHIN BEE ROAD SINGAPORE 619702,11,NIL,1.33373258091388,103.717394357673,103.717394357673,619702,FOURTH CHIN BEE ROAD,11 FOURTH CHIN BEE ROAD SINGAPORE 619702,15098.8385920888,35103.192869721
15 FOURTH CHIN BEE ROAD SINGAPORE 619703,15,NIL,1.33405640858093,103.71709096683,103.71709096683,619703,FOURTH CHIN BEE ROAD,15 FOURTH CHIN BEE ROAD SINGAPORE 619703,15065.075988044,35139.0017408058
17 FOURTH CHIN BEE ROAD SINGAPORE 619704,17,NIL,1.33429921886646,103.71704149957,103.71704149957,619704,FOURTH CHIN BEE ROAD,17 FOURTH CHIN BEE ROAD SINGAPORE 619704,15059.5720578842,35165.8507741541
19 FOURTH CHIN BEE ROAD SINGAPORE 619705,19,NIL,1.33491215109726,103.716933613509,103.716933613509,619705,FOURTH CHIN BEE ROAD,19 FOURTH CHIN BEE ROAD SINGAPORE 619705,15047.5686533134,35233.6263892744
21 FOURTH CHIN BEE ROAD SINGAPORE 619706,21,NIL,1.33539060425146,103.717387174694,103.717387174694,619706,FOURTH CHIN BEE ROAD,21 FOURTH CHIN BEE ROAD SINGAPORE 619706,15098.0478410143,35286.5290133581
6 FOURTH CHIN BEE ROAD SINGAPORE 619708,6,NIL,1.33125833094886,103.71918646355,103.71918646355,619708,FOURTH CHIN BEE ROAD,6 FOURTH CHIN BEE ROAD SINGAPORE 619708,15298.2689491007,34829.5931189768
12 FOURTH CHIN BEE ROAD SINGAPORE 619709,12,NIL,1.33426757722144,103.71888394198,103.71888394198,619709,FOURTH CHIN BEE ROAD,12 FOURTH CHIN BEE ROAD SINGAPORE 619709,15264.6168231964,35162.3423818927
1 FISHERY PORT ROAD SINGAPORE 619729,1,NIL,1.31247133252521,103.724751392389,103.724751392389,619729,FISHERY PORT ROAD,1 FISHERY PORT ROAD SINGAPORE 619729,15917.4982610894,32752.1915539466
9 FISHERY PORT ROAD SINGAPORE 619730,9,NIL,1.31260492013892,103.725427195428,103.725427195428,619730,FISHERY PORT ROAD,9 FISHERY PORT ROAD SINGAPORE 619730,15992.7094788216,32766.9597572219
10 FISHERY PORT ROAD SINGAPORE 619732,10,NIL,1.31074723924413,103.722301237315,103.722301237315,619732,FISHERY PORT ROAD,10 FISHERY PORT ROAD SINGAPORE 619732,15644.8103636224,32561.5617948081
11 FISHERY PORT ROAD SINGAPORE 619733,11,NIL,1.3120392012855,103.725375575946,103.725375575946,619733,FISHERY PORT ROAD,11 FISHERY PORT ROAD SINGAPORE 619733,15986.9620124651,32704.4056114368
12 FISHERY PORT ROAD SINGAPORE 619734,12,NIL,1.31087972805315,103.721691968531,103.721691968531,619734,FISHERY PORT ROAD,12 FISHERY PORT ROAD SINGAPORE 619734,15577.0050253421,32576.2147678696
15 FISHERY PORT ROAD SINGAPORE 619735,15,NIL,1.31122836890376,103.724531234997,103.724531234997,619735,FISHERY PORT ROAD,15 FISHERY PORT ROAD SINGAPORE 619735,15892.990819497,32614.7518436667
19 FISHERY PORT ROAD SINGAPORE 619736,19,NIL,1.31149287789215,103.724098813074,103.724098813074,619736,FISHERY PORT ROAD,19 FISHERY PORT ROAD SINGAPORE 619736,15844.8675403092,32644.0020361636
21 FISHERY PORT ROAD SINGAPORE 619737,21,NIL,1.31154832973867,103.723711826321,103.723711826321,619737,FISHERY PORT ROAD,21 FISHERY PORT ROAD SINGAPORE 619737,15801.7997711021,32650.135510115
23 FISHERY PORT ROAD SINGAPORE 619738,23,NIL,1.31194414187149,103.723369080558,103.723369080558,619738,FISHERY PORT ROAD,23 FISHERY PORT ROAD SINGAPORE 619738,15763.6572687402,32693.9041344859
25 FISHERY PORT ROAD SINGAPORE 619739,25,NIL,1.3114598300613,103.72326427818,103.72326427818,619739,FISHERY PORT ROAD,25 FISHERY PORT ROAD SINGAPORE 619739,15751.9913824564,32640.3518383987
29 FISHERY PORT ROAD SINGAPORE 619740,29,NIL,1.31051490634609,103.723033516864,103.723033516864,619740,FISHERY PORT ROAD,29 FISHERY PORT ROAD SINGAPORE 619740,15726.3051845059,32535.8679693248
31 FISHERY PORT ROAD SINGAPORE 619741,31,NIL,1.31030213027162,103.724288598374,103.724288598374,619741,FISHERY PORT ROAD,31 FISHERY PORT ROAD SINGAPORE 619741,15865.9831516463,32512.3341276981
35 FISHERY PORT ROAD JURONG FISHERY PORT SINGAPORE 619742,35,JURONG FISHERY PORT,1.30924662300875,103.723291225757,103.723291225757,619742,FISHERY PORT ROAD,JURONG FISHERY PORT,15754.9796496844,32395.6262004524
35A FISHERY PORT ROAD SINGAPORE 619743,35A,NIL,1.30875167036994,103.723123965581,103.723123965581,619743,FISHERY PORT ROAD,35A FISHERY PORT ROAD SINGAPORE 619743,15736.3627209393,32340.8975997139
35B FISHERY PORT ROAD SINGAPORE 619744,35B,NIL,1.30805175120899,103.722604158174,103.722604158174,619744,FISHERY PORT ROAD,35B FISHERY PORT ROAD SINGAPORE 619744,15678.5094957063,32263.5065423306
39 FISHERY PORT ROAD SINGAPORE 619745,39,NIL,1.30982554332613,103.722537430096,103.722537430096,619745,FISHERY PORT ROAD,39 FISHERY PORT ROAD SINGAPORE 619745,15671.0919328127,32459.6440453939
2 FISHERY PORT ROAD ALOG COLD CENTRE SINGAPORE 619746,2,ALOG COLD CENTRE,1.31271259251117,103.722595654004,103.722595654004,619746,FISHERY PORT ROAD,ALOG COLD CENTRE,15677.5858379146,32778.8794102818
6 FISHERY PORT ROAD SINGAPORE WINE VAULT BUILDING SINGAPORE 619747,6,SINGAPORE WINE VAULT BUILDING,1.31253078661287,103.721472720238,103.721472720238,619747,FISHERY PORT ROAD,SINGAPORE WINE VAULT BUILDING,15552.6128745005,32758.7817717735
235 CORPORATION DRIVE ACUTE AND REHABILITATION HOSPITAL & 24 HOURS OUTPATIENT CLINIC (WEST POINT HOSPITAL) SINGAPORE 619771,235,ACUTE AND REHABILITATION HOSPITAL & 24 HOURS OUTPATIENT CLINIC (WEST POINT HOSPITAL),1.33093978855518,103.723072368708,103.723072368708,619771,CORPORATION DRIVE,ACUTE AND REHABILITATION HOSPITAL & 24 HOURS OUTPATIENT CLINIC (WEST POINT HOSPITAL),15730.7292135423,34794.3505921345
301A CORPORATION DRIVE SINGAPORE 619773,301A,NIL,1.33496387278123,103.722176522782,103.722176522782,619773,CORPORATION DRIVE,301A CORPORATION DRIVE SINGAPORE 619773,15631.0507198321,35239.3185257558
5 CORPORATION DRIVE SINGAPORE 619774,5,NIL,1.32549485659514,103.722330329611,103.722330329611,619774,CORPORATION DRIVE,5 CORPORATION DRIVE SINGAPORE 619774,15648.1207427336,34192.2805027962
1 CORPORATION DRIVE REVV SINGAPORE 619775,1,REVV,1.32498382969148,103.722836350899,103.722836350899,619775,CORPORATION DRIVE,REVV,15704.4333881326,34135.7711457703
2C JALAN PAPAN MCC INNOCENTRE SINGAPORE 619815,2C,MCC INNOCENTRE,1.31973201791252,103.729516875528,103.729516875528,619815,JALAN PAPAN,MCC INNOCENTRE,16447.8855018271,33555.0196448676
14 CHIN BEE ROAD SINGAPORE 619824,14,NIL,1.32979140061075,103.713299201761,103.713299201761,619824,CHIN BEE ROAD,14 CHIN BEE ROAD SINGAPORE 619824,14643.0684085628,34667.4182307944
16 CHIN BEE ROAD SINGAPORE 619826,16,NIL,1.33073777963416,103.713403250884,103.713403250884,619826,CHIN BEE ROAD,16 CHIN BEE ROAD SINGAPORE 619826,14654.6531161154,34772.0636400972
18 CHIN BEE ROAD SINGAPORE 619827,18,NIL,1.33108205053975,103.712905577998,103.712905577998,619827,CHIN BEE ROAD,18 CHIN BEE ROAD SINGAPORE 619827,14599.2690016534,34810.134134924
20 CHIN BEE ROAD SINGAPORE 619828,20,NIL,1.33154119357883,103.713174340006,103.713174340006,619828,CHIN BEE ROAD,20 CHIN BEE ROAD SINGAPORE 619828,14629.1819721898,34860.902472673
22 CHIN BEE ROAD SINGAPORE 619829,22,NIL,1.33192838839862,103.71292173327,103.71292173327,619829,CHIN BEE ROAD,22 CHIN BEE ROAD SINGAPORE 619829,14601.0714903511,34903.7179582361
24 CHIN BEE ROAD SINGAPORE 619830,24,NIL,1.33234547336331,103.712980149978,103.712980149978,619830,CHIN BEE ROAD,24 CHIN BEE ROAD SINGAPORE 619830,14607.5749298688,34949.8368612751
25 CHIN BEE ROAD SINGAPORE 619831,25,NIL,1.33217673922113,103.711346898449,103.711346898449,619831,CHIN BEE ROAD,25 CHIN BEE ROAD SINGAPORE 619831,14425.8096945863,34931.1879998073
26 CHIN BEE ROAD SINGAPORE 619832,26,NIL,1.33265886763315,103.712414877881,103.712414877881,619832,CHIN BEE ROAD,26 CHIN BEE ROAD SINGAPORE 619832,14544.6675869823,34984.4935512915
19 CHIN BEE ROAD SINGAPORE 619833,19,NIL,1.3303752066493,103.711923370611,103.711923370611,619833,CHIN BEE ROAD,19 CHIN BEE ROAD SINGAPORE 619833,14489.9553914908,34731.9801427443
4A JALAN BESUT TEMPORARY DORMITARY OFFICE SINGAPORE 619846,4A,TEMPORARY DORMITARY OFFICE,1.31801259052048,103.723739914944,103.723739914944,619846,JALAN BESUT,TEMPORARY DORMITARY OFFICE,15804.9571455549,33364.9214217905
4 CHIN BEE DRIVE SINGAPORE 619855,4,NIL,1.33500469852275,103.712095843737,103.712095843737,619855,CHIN BEE DRIVE,4 CHIN BEE DRIVE SINGAPORE 619855,14509.1751071317,35243.885843426
6 CHIN BEE DRIVE SINGAPORE 619856,6,NIL,1.33509415734148,103.712944709245,103.712944709245,619856,CHIN BEE DRIVE,6 CHIN BEE DRIVE SINGAPORE 619856,14603.6456007585,35253.7731224522
7 CHIN BEE DRIVE SINGAPORE 619857,7,NIL,1.3361966754571,103.712351048337,103.712351048337,619857,CHIN BEE DRIVE,7 CHIN BEE DRIVE SINGAPORE 619857,14537.5832443209,35375.6874455754
7A CHIN BEE DRIVE SINGAPORE 619858,7A,NIL,1.33647558975156,103.713276244858,103.713276244858,619858,CHIN BEE DRIVE,7A CHIN BEE DRIVE SINGAPORE 619858,14640.5495674945,35406.5233777389
8 CHIN BEE DRIVE SINGAPORE 619859,8,NIL,1.33531422690986,103.713317791783,103.713317791783,619859,CHIN BEE DRIVE,8 CHIN BEE DRIVE SINGAPORE 619859,14645.1670392146,35278.1053124182
9 CHIN BEE DRIVE INNOVATE 360 SINGAPORE 619860,9,INNOVATE 360,1.33632184561405,103.713802111794,103.713802111794,619860,CHIN BEE DRIVE,INNOVATE 360,14699.0722902594,35389.5202470832
10 CHIN BEE DRIVE SINGAPORE 619861,10,NIL,1.33582441558991,103.713710483337,103.713710483337,619861,CHIN BEE DRIVE,10 CHIN BEE DRIVE SINGAPORE 619861,14688.8723126948,35334.5173578747
11 CHIN BEE DRIVE SINGAPORE 619862,11,NIL,1.3371550830213,103.71522572957,103.71522572957,619862,CHIN BEE DRIVE,11 CHIN BEE DRIVE SINGAPORE 619862,14857.5106563875,35481.6479079667
15 CHIN BEE DRIVE SINGAPORE 619863,15,NIL,1.33893699422754,103.716178447681,103.716178447681,619863,CHIN BEE DRIVE,15 CHIN BEE DRIVE SINGAPORE 619863,14963.5476967767,35678.6778625306
16 CHIN BEE DRIVE SINGAPORE 619864,16,NIL,1.33560099560971,103.714767066735,103.714767066735,619864,CHIN BEE DRIVE,16 CHIN BEE DRIVE SINGAPORE 619864,14806.457950932,35309.8069694526
18 CHIN BEE DRIVE SINGAPORE 619865,18,NIL,1.33602545677555,103.715588399906,103.715588399906,619865,CHIN BEE DRIVE,18 CHIN BEE DRIVE SINGAPORE 619865,14897.8661115747,35356.73741767
20 CHIN BEE DRIVE SINGAPORE 619866,20,NIL,1.33571566393469,103.716418002125,103.716418002125,619866,CHIN BEE DRIVE,20 CHIN BEE DRIVE SINGAPORE 619866,14990.1906354241,35322.4776317235
12 CHIN BEE DRIVE SINGAPORE 619868,12,NIL,1.33547464177109,103.714174517122,103.714174517122,619868,CHIN BEE DRIVE,12 CHIN BEE DRIVE SINGAPORE 619868,14740.5126105193,35295.838567378
26 CHIN BEE DRIVE CISCO RECALL CENTRE II SINGAPORE 619869,26,CISCO RECALL CENTRE II,1.33656544829515,103.717562988359,103.717562988359,619869,CHIN BEE DRIVE,CISCO RECALL CENTRE II,15117.620208933,35416.4365964271
22 CHIN BEE DRIVE SINGAPORE 619870,22,NIL,1.33628946693344,103.717021116717,103.717021116717,619870,CHIN BEE DRIVE,22 CHIN BEE DRIVE SINGAPORE 619870,15057.3140662992,35385.9227761459
1 CHIN BEE CRESCENT SINGAPORE 619890,1,NIL,1.33624571331971,103.711220335832,103.711220335832,619890,CHIN BEE CRESCENT,1 CHIN BEE CRESCENT SINGAPORE 619890,14411.7468866715,35381.1160387229
3 CHIN BEE CRESCENT SINGAPORE 619891,3,NIL,1.33697252185442,103.7116101854,103.7116101854,619891,CHIN BEE CRESCENT,3 CHIN BEE CRESCENT SINGAPORE 619891,14455.1371007096,35461.4808347039
6 CHIN BEE CRESCENT SINGAPORE 619892,6,NIL,1.3369411170437,103.71248468755,103.71248468755,619892,CHIN BEE CRESCENT,6 CHIN BEE CRESCENT SINGAPORE 619892,14552.4599583186,35458.0034368578
8 CHIN BEE CRESCENT SINGAPORE 619893,8,NIL,1.33659955997812,103.712701959097,103.712701959097,619893,CHIN BEE CRESCENT,8 CHIN BEE CRESCENT SINGAPORE 619893,14576.6381750517,35420.2345322203
9 CHIN BEE CRESCENT SINGAPORE 619894,9,NIL,1.33740133856983,103.712314930126,103.712314930126,619894,CHIN BEE CRESCENT,9 CHIN BEE CRESCENT SINGAPORE 619894,14533.5702242358,35508.8934216332
11 CHIN BEE CRESCENT SINGAPORE 619895,11,NIL,1.3374280155915,103.712539180838,103.712539180838,619895,CHIN BEE CRESCENT,11 CHIN BEE CRESCENT SINGAPORE 619895,14558.5271453867,35511.8420075346
12 CHIN BEE CRESCENT SINGAPORE 619896,12,NIL,1.33673681029184,103.713666155438,103.713666155438,619896,CHIN BEE CRESCENT,12 CHIN BEE CRESCENT SINGAPORE 619896,14683.9439887824,35435.4057536982
15 CHIN BEE CRESCENT SINGAPORE 619897,15,NIL,1.33738725704037,103.712697842113,103.712697842113,619897,CHIN BEE CRESCENT,15 CHIN BEE CRESCENT SINGAPORE 619897,14576.1842763675,35507.3342572562
17 CHIN BEE CRESCENT SINGAPORE 619898,17,NIL,1.33737351654015,103.712859260981,103.712859260981,619898,CHIN BEE CRESCENT,17 CHIN BEE CRESCENT SINGAPORE 619898,14594.1484457757,35505.8140175063
19 CHIN BEE CRESCENT SINGAPORE 619899,19,NIL,1.33735965557982,103.713020537339,103.713020537339,619899,CHIN BEE CRESCENT,19 CHIN BEE CRESCENT SINGAPORE 619899,14612.0967547605,35504.2804598436
21 CHIN BEE CRESCENT SINGAPORE 619900,21,NIL,1.33734671529646,103.713223278674,103.713223278674,619900,CHIN BEE CRESCENT,21 CHIN BEE CRESCENT SINGAPORE 619900,14634.6596902749,35502.848481534
33 CHIN BEE CRESCENT SINGAPORE 619901,33,NIL,1.33744850198293,103.714029462346,103.714029462346,619901,CHIN BEE CRESCENT,33 CHIN BEE CRESCENT SINGAPORE 619901,14724.3801081451,35514.0991818849
35 CHIN BEE CRESCENT SINGAPORE 619902,35,NIL,1.33700865167593,103.71447287798,103.71447287798,619902,CHIN BEE CRESCENT,35 CHIN BEE CRESCENT SINGAPORE 619902,14773.7253058357,35465.4602875952
37 CHIN BEE CRESCENT SINGAPORE 619903,37,NIL,1.33640361901713,103.714491249054,103.714491249054,619903,CHIN BEE CRESCENT,37 CHIN BEE CRESCENT SINGAPORE 619903,14775.7665786585,35398.5586302355
1 CHIN BEE AVENUE SINGAPORE 619926,1,NIL,1.33387416138934,103.715415181834,103.715415181834,619926,CHIN BEE AVENUE,1 CHIN BEE AVENUE SINGAPORE 619926,14878.5773243951,35118.858609518
2 CHIN BEE AVENUE SINGAPORE 619927,2,NIL,1.33428983680332,103.714956397747,103.714956397747,619927,CHIN BEE AVENUE,2 CHIN BEE AVENUE SINGAPORE 619927,14827.5215618722,35164.8244170938
3 CHIN BEE AVENUE SINGAPORE 619928,3,NIL,1.33382616328513,103.715257141615,103.715257141615,619928,CHIN BEE AVENUE,3 CHIN BEE AVENUE SINGAPORE 619928,14860.9888109323,35113.5520568807
5 CHIN BEE AVENUE SINGAPORE 619929,5,NIL,1.33372928497099,103.715114193154,103.715114193154,619929,CHIN BEE AVENUE,5 CHIN BEE AVENUE SINGAPORE 619929,14845.0795954755,35102.840489855
6 CHIN BEE AVENUE SINGAPORE 619930,6,NIL,1.33420771155322,103.714774034284,103.714774034284,619930,CHIN BEE AVENUE,6 CHIN BEE AVENUE SINGAPORE 619930,14807.2259404827,35155.744385194
7 CHIN BEE AVENUE SINGAPORE 619931,7,NIL,1.33373149023155,103.714945927846,103.714945927846,619931,CHIN BEE AVENUE,7 CHIN BEE AVENUE SINGAPORE 619931,14826.3533993084,35103.085236771
8 CHIN BEE AVENUE SINGAPORE 619932,8,NIL,1.33443953481399,103.713564729463,103.713564729463,619932,CHIN BEE AVENUE,8 CHIN BEE AVENUE SINGAPORE 619932,14672.6439516172,35181.3847876862
9 CHIN BEE AVENUE SINGAPORE 619933,9,NIL,1.33365007295209,103.714680878423,103.714680878423,619933,CHIN BEE AVENUE,9 CHIN BEE AVENUE SINGAPORE 619933,14796.855675241,35094.0839318968
10 CHIN BEE AVENUE SINGAPORE 619934,10,NIL,1.33444099329345,103.713152696316,103.713152696316,619934,CHIN BEE AVENUE,10 CHIN BEE AVENUE SINGAPORE 619934,14626.7888945928,35181.548295334
11 CHIN BEE AVENUE SINGAPORE 619935,11,NIL,1.33357248285887,103.714531824333,103.714531824333,619935,CHIN BEE AVENUE,11 CHIN BEE AVENUE SINGAPORE 619935,14780.2670646207,35085.5051983446
11A CHIN BEE AVENUE SINGAPORE 619936,11A,NIL,1.33355331655573,103.714366162588,103.714366162588,619936,CHIN BEE AVENUE,11A CHIN BEE AVENUE SINGAPORE 619936,14761.8305027913,35083.3867724314
14 CHIN BEE AVENUE SINGAPORE 619937,14,NIL,1.33372798498832,103.712608744904,103.712608744904,619937,CHIN BEE AVENUE,14 CHIN BEE AVENUE SINGAPORE 619937,14566.2488107122,35102.7102769893
15 CHIN BEE AVENUE SINGAPORE 619938,15,NIL,1.33350425528732,103.714204070046,103.714204070046,619938,CHIN BEE AVENUE,15 CHIN BEE AVENUE SINGAPORE 619938,14743.7909963718,35077.9626892135
16 CHIN BEE AVENUE GHL BUILDING SINGAPORE 619939,16,GHL BUILDING,1.33388312494915,103.711939392002,103.711939392002,619939,CHIN BEE AVENUE,GHL BUILDING,14491.7575169737,35119.8685613293
18 CHIN BEE AVENUE SINGAPORE 619940,18,NIL,1.33323212657385,103.71110897496,103.71110897496,619940,CHIN BEE AVENUE,18 CHIN BEE AVENUE SINGAPORE 619940,14399.3370133471,35047.8889048789
19 CHIN BEE AVENUE SINGAPORE 619941,19,NIL,1.3329694033279,103.71254953495,103.71254953495,619941,CHIN BEE AVENUE,19 CHIN BEE AVENUE SINGAPORE 619941,14559.6552331392,35018.8303389885
21 CHIN BEE AVENUE SINGAPORE 619942,21,NIL,1.33298975617318,103.712212251404,103.712212251404,619942,CHIN BEE AVENUE,21 CHIN BEE AVENUE SINGAPORE 619942,14522.1191195641,35021.0827007275
23 CHIN BEE AVENUE SINGAPORE 619943,23,NIL,1.33262396173031,103.711369929543,103.711369929543,619943,CHIN BEE AVENUE,23 CHIN BEE AVENUE SINGAPORE 619943,14428.3752694214,34980.6395591926
25 CHIN BEE AVENUE SINGAPORE 619944,25,NIL,1.33232800595558,103.710658157341,103.710658157341,619944,CHIN BEE AVENUE,25 CHIN BEE AVENUE SINGAPORE 619944,14349.1606265558,34947.9181435183
16A CHIN BEE AVENUE SINGAPORE 619945,16A,NIL,1.3337130425091,103.711417164429,103.711417164429,619945,CHIN BEE AVENUE,16A CHIN BEE AVENUE SINGAPORE 619945,14433.6379940184,35101.0645461772
2 CHIA PING ROAD HAW PAR TIGER BALM BUILDING SINGAPORE 619968,2,HAW PAR TIGER BALM BUILDING,1.32803616723985,103.718694456747,103.718694456747,619968,CHIA PING ROAD,HAW PAR TIGER BALM BUILDING,15243.4970348775,34473.3045964614
4 CHIA PING ROAD SINGAPORE 619969,4,NIL,1.32828051593732,103.718990634661,103.718990634661,619969,CHIA PING ROAD,4 CHIA PING ROAD SINGAPORE 619969,15276.4599285256,34500.3219500687
5 CHIA PING ROAD SINGAPORE 619970,5,NIL,1.32923863018826,103.717230130743,103.717230130743,619970,CHIA PING ROAD,5 CHIA PING ROAD SINGAPORE 619970,15080.5384177938,34606.2746638544
7 CHIA PING ROAD SINGAPORE 619972,7,NIL,1.33006320023228,103.717288632208,103.717288632208,619972,CHIA PING ROAD,7 CHIA PING ROAD SINGAPORE 619972,15087.0533288764,34697.4512744229
8 CHIA PING ROAD SINGAPORE 619973,8,NIL,1.33030022131173,103.720504163313,103.720504163313,619973,CHIA PING ROAD,8 CHIA PING ROAD SINGAPORE 619973,15444.9107317906,34723.6433109157
20 CHIA PING ROAD SINGAPORE 619974,20,NIL,1.32991839149627,103.719763727733,103.719763727733,619974,CHIA PING ROAD,20 CHIA PING ROAD SINGAPORE 619974,15362.505782905,34681.4262233917
22 CHIA PING ROAD SINGAPORE 619975,22,NIL,1.32954635524899,103.719250558137,103.719250558137,619975,CHIA PING ROAD,22 CHIA PING ROAD SINGAPORE 619975,15305.3932757685,34640.2909136042
24 CHIA PING ROAD SINGAPORE 619976,24,NIL,1.3298204013142,103.718715947201,103.718715947201,619976,CHIA PING ROAD,24 CHIA PING ROAD SINGAPORE 619976,15245.8978610784,34670.596338816
26 CHIA PING ROAD SINGAPORE 619977,26,NIL,1.33018069513719,103.718146718819,103.718146718819,619977,CHIA PING ROAD,26 CHIA PING ROAD SINGAPORE 619977,15182.5503309043,34710.4388122149
10 CHIA PING ROAD SINGAPORE 619978,10,NIL,1.32948639107712,103.720456130748,103.720456130748,619978,CHIA PING ROAD,10 CHIA PING ROAD SINGAPORE 619978,15439.5610775445,34633.6542041544
