ADDRESS,BLK_NO,BUILDING,LATITUDE,LONGITUDE,LONGTITUDE,POSTAL,ROAD_NAME,SEARCHVAL,X,Y
296E CHOA CHU KANG AVENUE 2 SINGAPORE 685296,296E,NIL,1.37691701980975,103.743047128967,103.743047128967,685296,CHOA CHU KANG AVENUE 2,296E CHOA CHU KANG AVENUE 2 SINGAPORE 685296,17953.9062007647,39878.1941293925
476E CHOA CHU KANG AVENUE 5 SUNSHINE COURT SINGAPORE 685476,476E,SUNSHINE COURT,1.37709957336678,103.73829566713,103.73829566713,685476,CHOA CHU KANG AVENUE 5,SUNSHINE COURT,17425.1277033621,39898.4005510341
10A LORONG BISTARI MWOC@CCK SINGAPORE 688186,10A,MWOC@CCK,1.40529238286891,103.742689755319,103.742689755319,688186,LORONG BISTARI,MWOC@CCK,17914.2554145064,43015.8033776339
60 CHOA CHU KANG AVENUE 5 INZ RESIDENCE SINGAPORE 688191,60,INZ RESIDENCE,1.37490905657101,103.739491611866,103.739491611866,688191,CHOA CHU KANG AVENUE 5,INZ RESIDENCE,17558.2121231966,39656.178741239
62 CHOA CHU KANG AVENUE 5 INZ RESIDENCE SINGAPORE 688192,62,INZ RESIDENCE,1.3749378909492,103.739739790529,103.739739790529,688192,CHOA CHU KANG AVENUE 5,INZ RESIDENCE,17585.8315069992,39659.3660204597
64 CHOA CHU KANG AVENUE 5 INZ RESIDENCE SINGAPORE 688193,64,INZ RESIDENCE,1.37486394799442,103.739965159294,103.739965159294,688193,CHOA CHU KANG AVENUE 5,INZ RESIDENCE,17610.9119820585,39651.1887917109
66 CHOA CHU KANG AVENUE 5 INZ RESIDENCE SINGAPORE 688194,66,INZ RESIDENCE,1.37460159153555,103.739859647498,103.739859647498,688194,CHOA CHU KANG AVENUE 5,INZ RESIDENCE,17599.1686702725,39622.1791691482
68 CHOA CHU KANG AVENUE 5 INZ RESIDENCE SINGAPORE 688195,68,INZ RESIDENCE,1.37432727081344,103.739789839181,103.739789839181,688195,CHOA CHU KANG AVENUE 5,INZ RESIDENCE,17591.398666976,39591.8464422133
70 CHOA CHU KANG AVENUE 5 INZ RESIDENCE SINGAPORE 688196,70,INZ RESIDENCE,1.37440052759283,103.73956662375,103.73956662375,688196,CHOA CHU KANG AVENUE 5,INZ RESIDENCE,17566.5578235434,39599.947789127
72 CHOA CHU KANG AVENUE 5 INZ RESIDENCE SINGAPORE 688197,72,INZ RESIDENCE,1.37447643169523,103.739345388212,103.739345388212,688197,CHOA CHU KANG AVENUE 5,INZ RESIDENCE,17541.937331032,39608.3418577127
74 CHOA CHU KANG AVENUE 5 INZ RESIDENCE SINGAPORE 688198,74,INZ RESIDENCE,1.37402133781192,103.739193627173,103.739193627173,688198,CHOA CHU KANG AVENUE 5,INZ RESIDENCE,17525.046191914,39558.0204872787
76 CHOA CHU KANG AVENUE 5 INZ RESIDENCE SINGAPORE 688199,76,INZ RESIDENCE,1.37395420297069,103.739420693564,103.739420693564,688199,CHOA CHU KANG AVENUE 5,INZ RESIDENCE,17550.3156299964,39550.5960535519
78 CHOA CHU KANG AVENUE 5 INZ RESIDENCE SINGAPORE 688200,78,INZ RESIDENCE,1.37387069160216,103.739643029231,103.739643029231,688200,CHOA CHU KANG AVENUE 5,INZ RESIDENCE,17575.0585262338,39541.3608074337
8 CHOA CHU KANG GROVE SOL ACRES SINGAPORE 688206,8,SOL ACRES,1.37673740748021,103.750455040263,103.750455040263,688206,CHOA CHU KANG GROVE,SOL ACRES,18778.3148495201,39858.3035541605
10 CHOA CHU KANG GROVE SOL ACRES SINGAPORE 688207,10,SOL ACRES,1.37660058413507,103.750759252551,103.750759252551,688207,CHOA CHU KANG GROVE,SOL ACRES,18812.1694077002,39843.1731339246
12 CHOA CHU KANG GROVE SOL ACRES SINGAPORE 688208,12,SOL ACRES,1.37646008930639,103.751067276726,103.751067276726,688208,CHOA CHU KANG GROVE,SOL ACRES,18846.4481716724,39827.6367292218
14 CHOA CHU KANG GROVE SOL ACRES SINGAPORE 688209,14,SOL ACRES,1.37588208700765,103.750802449388,103.750802449388,688209,CHOA CHU KANG GROVE,SOL ACRES,18816.9739355594,39763.725124903
16 CHOA CHU KANG GROVE SOL ACRES SINGAPORE 688210,16,SOL ACRES,1.37601045367124,103.750474717513,103.750474717513,688210,CHOA CHU KANG GROVE,SOL ACRES,18780.5018929522,39777.9205368552
18 CHOA CHU KANG GROVE SOL ACRES SINGAPORE 688211,18,SOL ACRES,1.37614468896726,103.750174045192,103.750174045192,688211,CHOA CHU KANG GROVE,SOL ACRES,18747.0412725797,39792.7647733055
20 CHOA CHU KANG GROVE SOL ACRES SINGAPORE 688212,20,SOL ACRES,1.37639801366799,103.749941054082,103.749941054082,688212,CHOA CHU KANG GROVE,SOL ACRES,18721.1132031726,39820.7770658042
22 CHOA CHU KANG GROVE SOL ACRES SINGAPORE 688213,22,SOL ACRES,1.37650214784907,103.749708901737,103.749708901737,688213,CHOA CHU KANG GROVE,SOL ACRES,18695.2779051345,39832.2926110141
24 CHOA CHU KANG GROVE SOL ACRES SINGAPORE 688214,24,SOL ACRES,1.37706308013026,103.749969056302,103.749969056302,688214,CHOA CHU KANG GROVE,SOL ACRES,18724.2320767501,39894.3167038672
26 CHOA CHU KANG GROVE SOL ACRES SINGAPORE 688215,26,SOL ACRES,1.37695782743825,103.75020070992,103.75020070992,688215,CHOA CHU KANG GROVE,SOL ACRES,18750.0118633062,39882.6774836779
5A CHOA CHU KANG GROVE CCK DORM A SINGAPORE 688216,5A,CCK DORM A,1.37183450688649,103.749171088661,103.749171088661,688216,CHOA CHU KANG GROVE,CCK DORM A,18635.4077425376,39316.1701564472
11A CHOA CHU KANG GROVE CCK DORM B SINGAPORE 688217,11A,CCK DORM B,1.37100176727136,103.747901548504,103.747901548504,688217,CHOA CHU KANG GROVE,CCK DORM B,18494.1199726835,39224.0949499793
7A CHOA CHU KANG GROVE CCK DORM C SINGAPORE 688218,7A,CCK DORM C,1.37247336103822,103.74852201642,103.74852201642,688218,CHOA CHU KANG GROVE,CCK DORM C,18563.1763472669,39386.8140262403
1 CHOA CHU KANG GROVE DBS ITE COLLEGE WEST SINGAPORE 688236,1,DBS ITE COLLEGE WEST,1.37490650898361,103.752233735193,103.752233735193,688236,CHOA CHU KANG GROVE,DBS ITE COLLEGE WEST,18976.254811014,39655.8450972531
3 CHOA CHU KANG GROVE APSN (DELTA SENIOR SCHOOL) SINGAPORE 688237,3,APSN (DELTA SENIOR SCHOOL),1.37375935302829,103.749745711674,103.749745711674,688237,CHOA CHU KANG GROVE,APSN (DELTA SENIOR SCHOOL),18699.3637802564,39529.0078379177
2 CHOA CHU KANG GROVE SOL ACRES SINGAPORE 688238,2,SOL ACRES,1.37697290394125,103.751272385118,103.751272385118,688238,CHOA CHU KANG GROVE,SOL ACRES,18869.2761639198,39884.3404369708
4 CHOA CHU KANG GROVE SOL ACRES SINGAPORE 688239,4,SOL ACRES,1.37710537917687,103.750977984079,103.750977984079,688239,CHOA CHU KANG GROVE,SOL ACRES,18836.5134627167,39898.9900200181
6 CHOA CHU KANG GROVE SOL ACRES SINGAPORE 688240,6,SOL ACRES,1.37723499111745,103.75068318085,103.75068318085,688240,CHOA CHU KANG GROVE,SOL ACRES,18803.7059951648,39913.3229999561
5 STAGMONT RING SINGAPORE 688241,5,NIL,1.39471136648429,103.753450909034,103.753450909034,688241,STAGMONT RING,5 STAGMONT RING SINGAPORE 688241,19111.7851563459,41845.7632910199
30 HONG SAN TERRACE HOME @ HONG SAN SINGAPORE 688246,30,HOME @ HONG SAN,1.37802604793113,103.745466894123,103.745466894123,688246,HONG SAN TERRACE,HOME @ HONG SAN,18223.2008151133,40000.8149072565
"28 HONG SAN TERRACE EVERGREEN PLACE, HOME @ HONG SAN SINGAPORE 688247",28,"EVERGREEN PLACE, HOME @ HONG SAN",1.37802603889771,103.745466887052,103.745466887052,688247,HONG SAN TERRACE,"EVERGREEN PLACE, HOME @ HONG SAN",18223.2000281457,40000.8139084131
151 CHOA CHU KANG WAY KRANJI CAMP SINGAPORE 688248,151,KRANJI CAMP,1.40415837837158,103.741606108957,103.741606108957,688248,CHOA CHU KANG WAY,KRANJI CAMP,17793.6554180393,42890.4154401626
95 CHOA CHU KANG WAY KRANJI CAMP SINGAPORE 688249,95,KRANJI CAMP,1.40110741958582,103.741195338856,103.741195338856,688249,CHOA CHU KANG WAY,KRANJI CAMP,17747.9289999465,42553.0572108291
95A CHOA CHU KANG WAY KRANJI CAMP SINGAPORE 688250,95A,KRANJI CAMP,1.40110741958582,103.741195338856,103.741195338856,688250,CHOA CHU KANG WAY,KRANJI CAMP,17747.9289999465,42553.0572108291
95B CHOA CHU KANG WAY KRANJI CAMP SINGAPORE 688251,95B,KRANJI CAMP,1.40110741958582,103.741195338856,103.741195338856,688251,CHOA CHU KANG WAY,KRANJI CAMP,17747.9289999465,42553.0572108291
2 MOWBRAY ROAD POLICE K-9 UNIT SINGAPORE 688253,2,POLICE K-9 UNIT,1.39758293266616,103.741833048288,103.741833048288,688253,MOWBRAY ROAD,POLICE K-9 UNIT,17818.8822993366,42163.3340076059
33 BRICKLAND ROAD HAI INN TEMPLE SINGAPORE 688254,33,HAI INN TEMPLE,1.37611849616151,103.734443968905,103.734443968905,688254,BRICKLAND ROAD,HAI INN TEMPLE,16996.4765133318,39789.9352919199
10 MOWBRAY ROAD MOWBRAY CAMP SINGAPORE 688255,10,MOWBRAY CAMP,1.39828046704283,103.740912477197,103.740912477197,688255,MOWBRAY ROAD,MOWBRAY CAMP,17716.4379778113,42240.4679384679
91 CHOA CHU KANG WAY KRANJI CAMP SINGAPORE 688256,91,KRANJI CAMP,1.4011651711014,103.741195336328,103.741195336328,688256,CHOA CHU KANG WAY,KRANJI CAMP,17747.9289696785,42559.4430894982
93 CHOA CHU KANG WAY KRANJI CAMP SINGAPORE 688257,93,KRANJI CAMP,1.40110741958582,103.741195338856,103.741195338856,688257,CHOA CHU KANG WAY,KRANJI CAMP,17747.9289999465,42553.0572108291
21 TECK WHYE WALK JURONG PIONEER JUNIOR COLLEGE SINGAPORE 688258,21,JURONG PIONEER JUNIOR COLLEGE,1.38460949099614,103.753932798395,103.753932798395,688258,TECK WHYE WALK,JURONG PIONEER JUNIOR COLLEGE,19165.3755598245,40728.7462345287
81 BRICKLAND ROAD SINGAPORE 688259,81,NIL,1.37722379864994,103.732619267763,103.732619267763,688259,BRICKLAND ROAD,81 BRICKLAND ROAD SINGAPORE 688259,16793.4147549728,39912.162707068
11 TECK WHYE WALK SHG STUDENT CARE (TECK WHYE PRIMARY SCHOOL) SINGAPORE 688261,11,SHG STUDENT CARE (TECK WHYE PRIMARY SCHOOL),1.38388660469396,103.753924558586,103.753924558586,688261,TECK WHYE WALK,SHG STUDENT CARE (TECK WHYE PRIMARY SCHOOL),19164.4558974076,40648.8130902648
81 CHOA CHU KANG WAY WARREN GOLF AND COUNTRY CLUB SINGAPORE 688263,81,WARREN GOLF AND COUNTRY CLUB,1.38336965101309,103.736968099765,103.736968099765,688263,CHOA CHU KANG WAY,WARREN GOLF AND COUNTRY CLUB,17277.4138589567,40591.7208021414
90 CHOA CHU KANG WAY KRANJI CAMP SINGAPORE 688264,90,KRANJI CAMP,1.40110741958582,103.741195338856,103.741195338856,688264,CHOA CHU KANG WAY,KRANJI CAMP,17747.9289999465,42553.0572108291
50 CHOA CHU KANG WAY SOUTH VIEW LRT STATION (BP2) SINGAPORE 688265,50,SOUTH VIEW LRT STATION (BP2),1.38029828742399,103.745291799824,103.745291799824,688265,CHOA CHU KANG WAY,SOUTH VIEW LRT STATION (BP2),18203.72427563,40252.0686228592
30 CHOA CHU KANG WAY KEAT HONG LRT STATION (BP3) SINGAPORE 688266,30,KEAT HONG LRT STATION (BP3),1.3786032506373,103.749055668925,103.749055668925,688266,CHOA CHU KANG WAY,KEAT HONG LRT STATION (BP3),18622.5893422375,40064.6246900782
10 CHOA CHU KANG WAY TECK WHYE LRT STATION (BP4) SINGAPORE 688267,10,TECK WHYE LRT STATION (BP4),1.37668467920808,103.753712232337,103.753712232337,688267,CHOA CHU KANG WAY,TECK WHYE LRT STATION (BP4),19140.8000152688,39852.4607739244
21 CHOA CHU KANG CRESCENT ALPHAJOY STUDENT CARE CENTRE SINGAPORE 688268,21,ALPHAJOY STUDENT CARE CENTRE,1.40278303219036,103.746801233973,103.746801233973,688268,CHOA CHU KANG CRESCENT,ALPHAJOY STUDENT CARE CENTRE,18371.796668564,42738.3144028578
1 VERDE AVENUE VILLA VERDE SINGAPORE 688269,1,VILLA VERDE,1.39042143776951,103.752512025579,103.752512025579,688269,VERDE AVENUE,VILLA VERDE,19007.2835199665,41371.4078087918
2 VERDE AVENUE VILLA VERDE SINGAPORE 688270,2,VILLA VERDE,1.39077947445874,103.75246543063,103.75246543063,688270,VERDE AVENUE,VILLA VERDE,19002.0994618591,41410.9979077429
3 VERDE AVENUE VILLA VERDE SINGAPORE 688271,3,VILLA VERDE,1.39043301390419,103.752463976443,103.752463976443,688271,VERDE AVENUE,VILLA VERDE,19001.9363174271,41372.6880234312
4 VERDE AVENUE VILLA VERDE SINGAPORE 688272,4,VILLA VERDE,1.39079731977376,103.752414078604,103.752414078604,688272,VERDE AVENUE,VILLA VERDE,18996.384715193,41412.9713500123
5 VERDE AVENUE VILLA VERDE SINGAPORE 688273,5,VILLA VERDE,1.39044462559781,103.752407258992,103.752407258992,688273,VERDE AVENUE,VILLA VERDE,18995.6244439781,41373.9722031765
6 VERDE AVENUE VILLA VERDE SINGAPORE 688274,6,VILLA VERDE,1.39080920917249,103.752361477027,103.752361477027,688274,VERDE AVENUE,VILLA VERDE,18990.5308871428,41414.286221493
7 VERDE AVENUE VILLA VERDE SINGAPORE 688275,7,VILLA VERDE,1.39045643491309,103.752358129537,103.752358129537,688275,VERDE AVENUE,VILLA VERDE,18990.1570170075,41375.2782061379
8 VERDE AVENUE VILLA VERDE SINGAPORE 688276,8,VILLA VERDE,1.39082134245704,103.752308626035,103.752308626035,688276,VERDE AVENUE,VILLA VERDE,18984.6493033506,41415.6280617472
9 VERDE AVENUE VILLA VERDE SINGAPORE 688277,9,VILLA VERDE,1.39047774239737,103.752267227797,103.752267227797,688277,VERDE AVENUE,VILLA VERDE,18980.0409120256,41377.6346292067
10 VERDE AVENUE VILLA VERDE SINGAPORE 688278,10,VILLA VERDE,1.39084007258169,103.752220861944,103.752220861944,688278,VERDE AVENUE,VILLA VERDE,18974.8823698284,41417.6994814817
11 VERDE AVENUE VILLA VERDE SINGAPORE 688279,11,VILLA VERDE,1.39048879595086,103.75221858059,103.75221858059,688279,VERDE AVENUE,VILLA VERDE,18974.6271501901,41378.8570622653
12 VERDE AVENUE VILLA VERDE SINGAPORE 688280,12,VILLA VERDE,1.39085202904653,103.752168437151,103.752168437151,688280,VERDE AVENUE,VILLA VERDE,18969.0482159667,41419.0217686184
13 VERDE AVENUE VILLA VERDE SINGAPORE 688281,13,VILLA VERDE,1.39050124143391,103.752162044792,103.752162044792,688281,VERDE AVENUE,VILLA VERDE,18968.3354957541,41380.2334382888
14 VERDE AVENUE VILLA VERDE SINGAPORE 688282,14,VILLA VERDE,1.3908640254698,103.752115858414,103.752115858414,688282,VERDE AVENUE,VILLA VERDE,18963.1969304271,41420.3484748807
15 VERDE AVENUE VILLA VERDE SINGAPORE 688283,15,VILLA VERDE,1.39051232290332,103.752113324692,103.752113324692,688283,VERDE AVENUE,VILLA VERDE,18962.913622099,41381.4589586817
16 VERDE AVENUE VILLA VERDE SINGAPORE 688284,16,VILLA VERDE,1.3908760142272,103.752063275598,103.752063275598,688284,VERDE AVENUE,VILLA VERDE,18957.3451908669,41421.6743336394
17 VERDE AVENUE VILLA VERDE SINGAPORE 688285,17,VILLA VERDE,1.3905247571606,103.752056784542,103.752056784542,688285,VERDE AVENUE,VILLA VERDE,18956.6214833763,41382.8340937179
18 VERDE AVENUE VILLA VERDE SINGAPORE 688286,18,VILLA VERDE,1.39088800845812,103.752010694957,103.752010694957,688286,VERDE AVENUE,VILLA VERDE,18951.4936934505,41423.0007977579
19 VERDE AVENUE VILLA VERDE SINGAPORE 688287,19,VILLA VERDE,1.39053585258815,103.752008064985,103.752008064985,688287,VERDE AVENUE,VILLA VERDE,18951.199670257,41384.0611577779
20 VERDE AVENUE VILLA VERDE SINGAPORE 688288,20,VILLA VERDE,1.39089999858179,103.751958113227,103.751958113227,688288,VERDE AVENUE,VILLA VERDE,18945.6420749621,41424.3268078566
21 VERDE AVENUE VILLA VERDE SINGAPORE 688289,21,VILLA VERDE,1.3905483103837,103.751951521841,103.751951521841,688289,VERDE AVENUE,VILLA VERDE,18944.9071985856,41385.4388958607
22 VERDE AVENUE VILLA VERDE SINGAPORE 688290,22,VILLA VERDE,1.39091199335781,103.751905534489,103.751905534489,688290,VERDE AVENUE,VILLA VERDE,18939.7907894226,41425.653332511
23 VERDE AVENUE VILLA VERDE SINGAPORE 688291,23,VILLA VERDE,1.39055939431219,103.751902801195,103.751902801195,688291,VERDE AVENUE,VILLA VERDE,18939.4852643944,41386.6646886654
24 VERDE AVENUE VILLA VERDE SINGAPORE 688292,24,VILLA VERDE,1.39092398512132,103.751852948407,103.751852948407,688292,VERDE AVENUE,VILLA VERDE,18933.9386866465,41426.9795242175
25 VERDE AVENUE VILLA VERDE SINGAPORE 688293,25,VILLA VERDE,1.39057190520803,103.751846222691,103.751846222691,688293,VERDE AVENUE,VILLA VERDE,18933.188857886,41388.048298737
26 VERDE AVENUE VILLA VERDE SINGAPORE 688294,26,VILLA VERDE,1.39093594513524,103.751800495052,103.751800495052,688294,VERDE AVENUE,VILLA VERDE,18928.1013546465,41428.302204838
27 VERDE AVENUE VILLA VERDE SINGAPORE 688295,27,VILLA VERDE,1.39058287881652,103.751797399783,103.751797399783,688295,VERDE AVENUE,VILLA VERDE,18927.755542933,41389.2618935425
28 VERDE AVENUE VILLA VERDE SINGAPORE 688296,28,VILLA VERDE,1.39094800805769,103.751747648137,103.751747648137,688296,VERDE AVENUE,VILLA VERDE,18922.2202248741,41429.6362662204
29 VERDE AVENUE VILLA VERDE SINGAPORE 688297,29,VILLA VERDE,1.39060331250127,103.751705836334,103.751705836334,688297,VERDE AVENUE,VILLA VERDE,18917.5657959459,41391.5217012074
30 VERDE AVENUE VILLA VERDE SINGAPORE 688298,30,VILLA VERDE,1.39096586657114,103.751659157062,103.751659157062,688298,VERDE AVENUE,VILLA VERDE,18912.3723850315,41431.611312693
31 VERDE AVENUE VILLA VERDE SINGAPORE 688299,31,VILLA VERDE,1.39061438575248,103.751657216864,103.751657216864,688299,VERDE AVENUE,VILLA VERDE,18912.1551214447,41392.7463135608
32 VERDE AVENUE VILLA VERDE SINGAPORE 688300,32,VILLA VERDE,1.39097782221193,103.75160702002,103.75160702002,688300,VERDE AVENUE,VILLA VERDE,18906.5702546975,41432.9335090257
33 VERDE AVENUE VILLA VERDE SINGAPORE 688301,33,VILLA VERDE,1.39062680357408,103.751600664199,103.751600664199,688301,VERDE AVENUE,VILLA VERDE,18905.8615903948,41394.1196325179
34 VERDE AVENUE VILLA VERDE SINGAPORE 688302,34,VILLA VERDE,1.39098962098574,103.751554393961,103.751554393961,688302,VERDE AVENUE,VILLA VERDE,18900.7137025278,41434.2383618038
35 VERDE AVENUE VILLA VERDE SINGAPORE 688303,35,VILLA VERDE,1.39063792828116,103.751551941101,103.751551941101,688303,VERDE AVENUE,VILLA VERDE,18900.4393837918,41395.3499352522
36 VERDE AVENUE VILLA VERDE SINGAPORE 688304,36,VILLA VERDE,1.39100142112707,103.751501770077,103.751501770077,688304,VERDE AVENUE,VILLA VERDE,18894.857392502,41435.5433659218
37 VERDE AVENUE VILLA VERDE SINGAPORE 688305,37,VILLA VERDE,1.39065040933032,103.751495330229,103.751495330229,688305,VERDE AVENUE,VILLA VERDE,18894.1393753923,41396.7302461136
38 VERDE AVENUE VILLA VERDE SINGAPORE 688306,38,VILLA VERDE,1.39101322400452,103.751449145648,103.751449145648,688306,VERDE AVENUE,VILLA VERDE,18889.0010219403,41436.8486727197
39 VERDE AVENUE VILLA VERDE SINGAPORE 688307,39,VILLA VERDE,1.39066134487492,103.751446290279,103.751446290279,688307,VERDE AVENUE,VILLA VERDE,18888.6819065884,41397.9396336712
40 VERDE AVENUE VILLA VERDE SINGAPORE 688308,40,VILLA VERDE,1.39102502414336,103.751396520132,103.751396520132,688308,VERDE AVENUE,VILLA VERDE,18883.1445303075,41438.1536768377
41 VERDE AVENUE VILLA VERDE SINGAPORE 688309,41,VILLA VERDE,1.39067429591518,103.751389536599,103.751389536599,688309,VERDE AVENUE,VILLA VERDE,18882.3660074975,41399.3719146606
42 VERDE AVENUE VILLA VERDE SINGAPORE 688310,42,VILLA VERDE,1.39103682428091,103.751343891895,103.751343891895,688310,VERDE AVENUE,VILLA VERDE,18877.287735994,41439.4586809557
43 VERDE AVENUE VILLA VERDE SINGAPORE 688311,43,VILLA VERDE,1.3906848690408,103.751340643258,103.751340643258,688311,VERDE AVENUE,VILLA VERDE,18876.9248531368,41400.5412274078
44 VERDE AVENUE VILLA VERDE SINGAPORE 688312,44,VILLA VERDE,1.39104862085889,103.751291268553,103.751291268553,688312,VERDE AVENUE,VILLA VERDE,18871.4314865042,41440.7632915899
45 VERDE AVENUE VILLA VERDE SINGAPORE 688313,45,VILLA VERDE,1.39069771470626,103.751284313328,103.751284313328,688313,VERDE AVENUE,VILLA VERDE,18870.6561115654,41401.9618552234
46 VERDE AVENUE VILLA VERDE SINGAPORE 688314,46,VILLA VERDE,1.39106042564773,103.751238648202,103.751238648202,688314,VERDE AVENUE,VILLA VERDE,18865.5755699622,41442.0688102636
47 VERDE AVENUE VILLA VERDE SINGAPORE 688315,47,VILLA VERDE,1.39070854515131,103.751235795584,103.751235795584,688315,VERDE AVENUE,VILLA VERDE,18865.2567572901,41403.1596198753
48 VERDE AVENUE VILLA VERDE SINGAPORE 688316,48,VILLA VERDE,1.39107256355502,103.751185662297,103.751185662297,688316,VERDE AVENUE,VILLA VERDE,18859.6789732501,41443.4111650735
49 VERDE AVENUE VILLA VERDE SINGAPORE 688317,49,VILLA VERDE,1.39072904288095,103.751144630849,103.751144630849,688317,VERDE AVENUE,VILLA VERDE,18855.111383168,41405.4265102483
50 VERDE AVENUE VILLA VERDE SINGAPORE 688318,50,VILLA VERDE,1.39109815637928,103.751097761418,103.751097761418,688318,VERDE AVENUE,VILLA VERDE,18849.896845201,41446.2414334267
51 VERDE AVENUE VILLA VERDE SINGAPORE 688319,51,VILLA VERDE,1.39073915774304,103.751094880781,103.751094880781,688319,VERDE AVENUE,VILLA VERDE,18849.5748846577,41406.545154389
52 VERDE AVENUE VILLA VERDE SINGAPORE 688320,52,VILLA VERDE,1.39110892467767,103.751049101965,103.751049101965,688320,VERDE AVENUE,VILLA VERDE,18844.4817213062,41447.4323272463
53 VERDE AVENUE VILLA VERDE SINGAPORE 688321,53,VILLA VERDE,1.39075310928662,103.751038689521,103.751038689521,688321,VERDE AVENUE,VILLA VERDE,18843.3215797581,41408.0880648606
54 VERDE AVENUE VILLA VERDE SINGAPORE 688322,54,VILLA VERDE,1.39112173091297,103.750992632226,103.750992632226,688322,VERDE AVENUE,VILLA VERDE,18838.1974219903,41448.8485964723
55 VERDE AVENUE VILLA VERDE SINGAPORE 688323,55,VILLA VERDE,1.39076268245382,103.750989623504,103.750989623504,688323,VERDE AVENUE,VILLA VERDE,18837.8612052277,41409.1468086615
56 VERDE AVENUE VILLA VERDE SINGAPORE 688324,56,VILLA VERDE,1.39113245923936,103.750943835695,103.750943835695,688324,VERDE AVENUE,VILLA VERDE,18832.7670430318,41450.0350711662
57 VERDE AVENUE VILLA VERDE SINGAPORE 688325,57,VILLA VERDE,1.3907766381008,103.750933432787,103.750933432787,688325,VERDE AVENUE,VILLA VERDE,18831.607960863,41410.6901731528
58 VERDE AVENUE VILLA VERDE SINGAPORE 688326,58,VILLA VERDE,1.39114525561778,103.750887368676,103.750887368676,688326,VERDE AVENUE,VILLA VERDE,18826.4830463966,41451.4502507448
59 VERDE AVENUE VILLA VERDE SINGAPORE 688327,59,VILLA VERDE,1.39078622084636,103.750884365681,103.750884365681,688327,VERDE AVENUE,VILLA VERDE,18826.1474652607,41411.7499763332
60 VERDE AVENUE VILLA VERDE SINGAPORE 688328,60,VILLA VERDE,1.39115600720905,103.750838568335,103.750838568335,688328,VERDE AVENUE,VILLA VERDE,18821.0522436854,41452.6392982174
61 VERDE AVENUE VILLA VERDE SINGAPORE 688329,61,VILLA VERDE,1.39080017320584,103.750828172514,103.750828172514,688329,VERDE AVENUE,VILLA VERDE,18819.8939484851,41413.2929776069
62 VERDE AVENUE VILLA VERDE SINGAPORE 688330,62,VILLA VERDE,1.39116880276386,103.75078210621,103.75078210621,688330,VERDE AVENUE,VILLA VERDE,18814.7687918739,41454.054386992
63 VERDE AVENUE VILLA VERDE SINGAPORE 688331,63,VILLA VERDE,1.39080974773712,103.750779103776,103.750779103776,688331,VERDE AVENUE,VILLA VERDE,18814.4332712749,41414.3518727496
64 VERDE AVENUE VILLA VERDE SINGAPORE 688332,64,VILLA VERDE,1.39117953382301,103.750733308045,103.750733308045,688332,VERDE AVENUE,VILLA VERDE,18809.3382313075,41455.2411643658
65 VERDE AVENUE VILLA VERDE SINGAPORE 688333,65,VILLA VERDE,1.39082319616462,103.750723254682,103.750723254682,688333,VERDE AVENUE,VILLA VERDE,18808.2180434978,41415.8391506653
66 VERDE AVENUE VILLA VERDE SINGAPORE 688334,66,VILLA VERDE,1.39119228502792,103.750676771942,103.750676771942,688334,VERDE AVENUE,VILLA VERDE,18803.0465466036,41456.6513497271
67 VERDE AVENUE VILLA VERDE SINGAPORE 688335,67,VILLA VERDE,1.39083378901532,103.750675230044,103.750675230044,688335,VERDE AVENUE,VILLA VERDE,18802.8735650769,41417.0106427073
68 VERDE AVENUE VILLA VERDE SINGAPORE 688336,68,VILLA VERDE,1.39120322822491,103.750627900334,103.750627900334,688336,VERDE AVENUE,VILLA VERDE,18797.6078136815,41457.8615847882
69 VERDE AVENUE VILLA VERDE SINGAPORE 688337,69,VILLA VERDE,1.39086157362474,103.750588119743,103.750588119743,688337,VERDE AVENUE,VILLA VERDE,18793.1794260563,41420.0832668077
70 VERDE AVENUE VILLA VERDE SINGAPORE 688338,70,VILLA VERDE,1.39122361097017,103.750536974652,103.750536974652,688338,VERDE AVENUE,VILLA VERDE,18787.4890451171,41460.1157626081
71 VERDE AVENUE VILLA VERDE SINGAPORE 688339,71,VILLA VERDE,1.3908672845148,103.750534078504,103.750534078504,688339,VERDE AVENUE,VILLA VERDE,18787.1653592996,41420.714959627
72 VERDE AVENUE VILLA VERDE SINGAPORE 688340,72,VILLA VERDE,1.39123531349071,103.750487893862,103.750487893862,688340,VERDE AVENUE,VILLA VERDE,18782.0270361155,41461.409961056
73 VERDE AVENUE VILLA VERDE SINGAPORE 688341,73,VILLA VERDE,1.39088032149668,103.750477673221,103.750477673221,688341,VERDE AVENUE,VILLA VERDE,18780.8882334959,41422.1567447633
74 VERDE AVENUE VILLA VERDE SINGAPORE 688342,74,VILLA VERDE,1.39124704886267,103.750431199771,103.750431199771,688342,VERDE AVENUE,VILLA VERDE,18775.7177657131,41462.7078219298
75 VERDE AVENUE VILLA VERDE SINGAPORE 688343,75,VILLA VERDE,1.39089092033606,103.750428848412,103.750428848412,688343,VERDE AVENUE,VILLA VERDE,18775.454706667,41423.3289027009
76 VERDE AVENUE VILLA VERDE SINGAPORE 688344,76,VILLA VERDE,1.391258846658,103.750382631934,103.750382631934,688344,VERDE AVENUE,VILLA VERDE,18770.3128421288,41464.012553636
77 VERDE AVENUE VILLA VERDE SINGAPORE 688345,77,VILLA VERDE,1.39090396005264,103.750372442039,103.750372442039,688345,VERDE AVENUE,VILLA VERDE,18769.1774597922,41424.770990517
78 VERDE AVENUE VILLA VERDE SINGAPORE 688346,78,VILLA VERDE,1.3912705787426,103.75032593893,103.75032593893,688346,VERDE AVENUE,VILLA VERDE,18764.0036927992,41465.310051294
79 VERDE AVENUE VILLA VERDE SINGAPORE 688347,79,VILLA VERDE,1.390914572029,103.750323619404,103.750323619404,688347,VERDE AVENUE,VILLA VERDE,18763.7441751072,41425.9446013179
80 VERDE AVENUE VILLA VERDE SINGAPORE 688348,80,VILLA VERDE,1.39128238255782,103.750277372452,103.750277372452,688348,VERDE AVENUE,VILLA VERDE,18758.5989205549,41466.615448894
81 VERDE AVENUE VILLA VERDE SINGAPORE 688349,81,VILLA VERDE,1.39092759641389,103.7502672114,103.7502672114,688349,VERDE AVENUE,VILLA VERDE,18757.4667466236,41427.3849941269
82 VERDE AVENUE VILLA VERDE SINGAPORE 688350,82,VILLA VERDE,1.39129411244985,103.750220675912,103.750220675912,688350,VERDE AVENUE,VILLA VERDE,18752.2893777406,41467.9127044082
83 VERDE AVENUE SINGAPORE 688351,83,NIL,1.39101353215337,103.75023307638,103.75023307638,688351,VERDE AVENUE,83 VERDE AVENUE SINGAPORE 688351,18753.6682962747,41436.8874762747
84 VERDE AVENUE VILLA VERDE SINGAPORE 688352,84,VILLA VERDE,1.39130590941962,103.750172112153,103.750172112153,688352,VERDE AVENUE,VILLA VERDE,18746.884908176,41469.2173453104
85 VERDE AVENUE VILLA VERDE SINGAPORE 688353,85,VILLA VERDE,1.39095111014117,103.750162066709,103.750162066709,688353,VERDE AVENUE,VILLA VERDE,18745.7655981388,41429.98543768
86 VERDE AVENUE VILLA VERDE SINGAPORE 688354,86,VILLA VERDE,1.39131312940356,103.750118546818,103.750118546818,688354,VERDE AVENUE,VILLA VERDE,18740.9238103908,41470.0159055255
87 VERDE AVENUE VILLA VERDE SINGAPORE 688355,87,VILLA VERDE,1.39096583331677,103.750113677466,103.750113677466,688355,VERDE AVENUE,VILLA VERDE,18740.3805606188,41431.6136433277
1 VERDE CRESCENT VILLA VERDE SINGAPORE 688356,1,VILLA VERDE,1.38982610471573,103.752579350544,103.752579350544,688356,VERDE CRESCENT,VILLA VERDE,19014.773665485,41305.5785763655
2 VERDE CRESCENT VILLA VERDE SINGAPORE 688357,2,VILLA VERDE,1.39019383817606,103.752518777364,103.752518777364,688357,VERDE CRESCENT,VILLA VERDE,19008.0340448907,41346.2409489062
3 VERDE CRESCENT VILLA VERDE SINGAPORE 688358,3,VILLA VERDE,1.38983709203029,103.752530614144,103.752530614144,688358,VERDE CRESCENT,VILLA VERDE,19009.3499757508,41306.793684572
4 VERDE CRESCENT VILLA VERDE SINGAPORE 688359,4,VILLA VERDE,1.39021577386045,103.75246691416,103.75246691416,688359,VERDE CRESCENT,VILLA VERDE,19002.2624246832,41348.6666856576
5 VERDE CRESCENT VILLA VERDE SINGAPORE 688360,5,VILLA VERDE,1.38984966398704,103.752474098485,103.752474098485,688360,VERDE CRESCENT,VILLA VERDE,19003.0605611457,41308.184044404
6 VERDE CRESCENT VILLA VERDE SINGAPORE 688361,6,VILLA VERDE,1.39022585483659,103.752417969172,103.752417969172,688361,VERDE CRESCENT,VILLA VERDE,18996.8155194055,41349.7815765701
7 VERDE CRESCENT VILLA VERDE SINGAPORE 688362,7,VILLA VERDE,1.389860623652,103.752425352021,103.752425352021,688362,VERDE CRESCENT,VILLA VERDE,18997.6357514961,41309.3960955441
8 VERDE CRESCENT VILLA VERDE SINGAPORE 688363,8,VILLA VERDE,1.39023931095299,103.752361655284,103.752361655284,688363,VERDE CRESCENT,VILLA VERDE,18990.5485636452,41351.2697019894
9 VERDE CRESCENT VILLA VERDE SINGAPORE 688364,9,VILLA VERDE,1.38987319971223,103.752368838809,103.752368838809,688364,VERDE CRESCENT,VILLA VERDE,18991.3466093037,41310.7869093958
10 VERDE CRESCENT VILLA VERDE SINGAPORE 688365,10,VILLA VERDE,1.39024974146845,103.752312280825,103.752312280825,688365,VERDE CRESCENT,VILLA VERDE,18985.0538652204,41352.4232451171
11 VERDE CRESCENT VILLA VERDE SINGAPORE 688366,11,VILLA VERDE,1.38988415554278,103.752320094793,103.752320094793,688366,VERDE CRESCENT,VILLA VERDE,18985.922072066,41311.9985367842
12 VERDE CRESCENT VILLA VERDE SINGAPORE 688367,12,VILLA VERDE,1.39027153674656,103.752221488685,103.752221488685,688367,VERDE CRESCENT,VILLA VERDE,18974.949958236,41354.8336057328
13 VERDE CRESCENT VILLA VERDE SINGAPORE 688368,13,VILLA VERDE,1.38989672639948,103.752263581036,103.752263581036,688368,VERDE CRESCENT,VILLA VERDE,18979.6328693368,41313.3887755442
14 VERDE CRESCENT VILLA VERDE SINGAPORE 688369,14,VILLA VERDE,1.39028247122271,103.752172755268,103.752172755268,688369,VERDE CRESCENT,VILLA VERDE,18969.5266014496,41356.0428722184
15 VERDE CRESCENT VILLA VERDE SINGAPORE 688370,15,VILLA VERDE,1.38990768058512,103.75221483022,103.75221483022,688370,VERDE CRESCENT,VILLA VERDE,18974.2075753994,41314.6002213228
16 VERDE CRESCENT VILLA VERDE SINGAPORE 688371,16,VILLA VERDE,1.39029508696786,103.752116257002,103.752116257002,688371,VERDE CRESCENT,VILLA VERDE,18963.2391239963,41357.4380749278
17 VERDE CRESCENT VILLA VERDE SINGAPORE 688372,17,VILLA VERDE,1.38992027251641,103.752158309933,103.752158309933,688372,VERDE CRESCENT,VILLA VERDE,18967.9176462395,41315.9927907195
18 VERDE CRESCENT VILLA VERDE SINGAPORE 688373,18,VILLA VERDE,1.39030600474336,103.752067501826,103.752067501826,688373,VERDE CRESCENT,VILLA VERDE,18957.8133457713,41358.6454950664
19 VERDE CRESCENT VILLA VERDE SINGAPORE 688374,19,VILLA VERDE,1.38993122779472,103.752109558572,103.752109558572,688374,VERDE CRESCENT,VILLA VERDE,18962.4922917662,41317.20435757
20 VERDE CRESCENT VILLA VERDE SINGAPORE 688375,20,VILLA VERDE,1.39031861637955,103.752010992681,103.752010992681,688375,VERDE CRESCENT,VILLA VERDE,18951.5246575978,41360.040243756
21 VERDE CRESCENT VILLA VERDE SINGAPORE 688376,21,VILLA VERDE,1.38995417765622,103.752018386174,103.752018386174,688376,VERDE CRESCENT,VILLA VERDE,18952.3460701397,41319.7423885409
22 VERDE CRESCENT VILLA VERDE SINGAPORE 688377,22,VILLA VERDE,1.3903295396273,103.751962234512,103.751962234512,688377,VERDE CRESCENT,VILLA VERDE,18946.0985464249,41361.2482692525
23 VERDE CRESCENT VILLA VERDE SINGAPORE 688378,23,VILLA VERDE,1.38996530183113,103.751969825464,103.751969825464,688378,VERDE CRESCENT,VILLA VERDE,18946.9419335229,41320.9726307392
24 VERDE CRESCENT VILLA VERDE SINGAPORE 688379,24,VILLA VERDE,1.39034215345104,103.751905732981,103.751905732981,688379,VERDE CRESCENT,VILLA VERDE,18939.8107057558,41362.6432600878
25 VERDE CRESCENT VILLA VERDE SINGAPORE 688380,25,VILLA VERDE,1.38997762905535,103.75191325786,103.75191325786,688380,VERDE CRESCENT,VILLA VERDE,18940.6467377339,41322.3359309938
26 VERDE CRESCENT VILLA VERDE SINGAPORE 688381,26,VILLA VERDE,1.39035307094835,103.751856979979,103.751856979979,688381,VERDE CRESCENT,VILLA VERDE,18934.3851696737,41363.8506499566
27 VERDE CRESCENT VILLA VERDE SINGAPORE 688382,27,VILLA VERDE,1.3899888350694,103.751864562788,103.751864562788,688382,VERDE CRESCENT,VILLA VERDE,18935.2276487332,41323.5752233192
28 VERDE CRESCENT VILLA VERDE SINGAPORE 688383,28,VILLA VERDE,1.39036568285334,103.751800478447,103.751800478447,688383,VERDE CRESCENT,VILLA VERDE,18928.0973290047,41365.2454289142
29 VERDE CRESCENT VILLA VERDE SINGAPORE 688384,29,VILLA VERDE,1.39000116147004,103.75180800171,103.75180800171,688384,VERDE CRESCENT,VILLA VERDE,18928.9331793748,41324.9384327699
30 VERDE CRESCENT VILLA VERDE SINGAPORE 688385,30,VILLA VERDE,1.39037662416256,103.751751708581,103.751751708581,688385,VERDE CRESCENT,VILLA VERDE,18922.6699163085,41366.4554520994
31 VERDE CRESCENT VILLA VERDE SINGAPORE 688386,31,VILLA VERDE,1.39001236857699,103.751759313165,103.751759313165,688386,VERDE CRESCENT,VILLA VERDE,18923.5148168057,41326.1778461672
32 VERDE CRESCENT VILLA VERDE SINGAPORE 688387,32,VILLA VERDE,1.39039713202604,103.751660102436,103.751660102436,688387,VERDE CRESCENT,VILLA VERDE,18912.4754172489,41368.7234623879
33 VERDE CRESCENT VILLA VERDE SINGAPORE 688388,33,VILLA VERDE,1.3900246930587,103.751702746103,103.751702746103,688388,VERDE CRESCENT,VILLA VERDE,18917.2196815526,41327.540843742
34 VERDE CRESCENT VILLA VERDE SINGAPORE 688389,34,VILLA VERDE,1.39040803336926,103.751611388326,103.751611388326,688389,VERDE CRESCENT,VILLA VERDE,18907.0542094884,41369.9290664475
35 VERDE CRESCENT VILLA VERDE SINGAPORE 688390,35,VILLA VERDE,1.39003590262683,103.751654052389,103.751654052389,688390,VERDE CRESCENT,VILLA VERDE,18911.8007438919,41328.7805295512
36 VERDE CRESCENT VILLA VERDE SINGAPORE 688391,36,VILLA VERDE,1.39042069070816,103.751554897942,103.751554897942,688391,VERDE CRESCENT,VILLA VERDE,18900.7676098067,41371.3288698904
37 VERDE CRESCENT VILLA VERDE SINGAPORE 688392,37,VILLA VERDE,1.39004833823875,103.751597411344,103.751597411344,688392,VERDE CRESCENT,VILLA VERDE,18905.4973757463,41330.1558159273
38 VERDE CRESCENT VILLA VERDE SINGAPORE 688393,38,VILLA VERDE,1.39043155482003,103.751506141675,103.751506141675,688393,VERDE CRESCENT,VILLA VERDE,18895.3417105097,41372.5303575043
39 VERDE CRESCENT VILLA VERDE SINGAPORE 688394,39,VILLA VERDE,1.39005934550955,103.751548524257,103.751548524257,688394,VERDE CRESCENT,VILLA VERDE,18900.0569175491,41331.3731336966
40 VERDE CRESCENT VILLA VERDE SINGAPORE 688395,40,VILLA VERDE,1.39044431946194,103.751449722001,103.751449722001,688395,VERDE CRESCENT,VILLA VERDE,18889.0629805028,41373.9420259967
41 VERDE CRESCENT VILLA VERDE SINGAPORE 688396,41,VILLA VERDE,1.39007983722237,103.751457113407,103.751457113407,688396,VERDE CRESCENT,VILLA VERDE,18889.8841509018,41333.6393581741
42 VERDE CRESCENT VILLA VERDE SINGAPORE 688397,42,VILLA VERDE,1.39045513347875,103.751400972535,103.751400972535,688397,VERDE CRESCENT,VILLA VERDE,18883.6378379054,41375.1379745696
43 VERDE CRESCENT VILLA VERDE SINGAPORE 688398,43,VILLA VERDE,1.39009088583221,103.751408467565,103.751408467565,688398,VERDE CRESCENT,VILLA VERDE,18884.4705404062,41334.8612464089
44 VERDE CRESCENT VILLA VERDE SINGAPORE 688399,44,VILLA VERDE,1.39046814366116,103.751344696729,103.751344696729,688399,VERDE CRESCENT,VILLA VERDE,18877.3751196628,41376.5767934434
45 VERDE CRESCENT VILLA VERDE SINGAPORE 688400,45,VILLA VERDE,1.39010333047462,103.751351923886,103.751351923886,688400,VERDE CRESCENT,VILLA VERDE,18878.1780081987,41336.2375316285
46 VERDE CRESCENT VILLA VERDE SINGAPORE 688401,46,VILLA VERDE,1.39047814495778,103.75129577159,103.75129577159,688401,VERDE CRESCENT,VILLA VERDE,18871.930423948,41377.6828763727
47 VERDE CRESCENT VILLA VERDE SINGAPORE 688402,47,VILLA VERDE,1.39011442287689,103.751303205695,103.751303205695,688402,VERDE CRESCENT,VILLA VERDE,18872.7563464195,41337.4642627407
48 VERDE CRESCENT VILLA VERDE SINGAPORE 688403,48,VILLA VERDE,1.39049148990223,103.751239204208,103.751239204208,688403,VERDE CRESCENT,VILLA VERDE,18865.635258426,41379.1587129906
49 VERDE CRESCENT VILLA VERDE SINGAPORE 688404,49,VILLA VERDE,1.39012686423217,103.751246669359,103.751246669359,688404,VERDE CRESCENT,VILLA VERDE,18866.4646314485,41338.8401847444
50 VERDE CRESCENT VILLA VERDE SINGAPORE 688405,50,VILLA VERDE,1.39050178655098,103.751190193384,103.751190193384,688405,VERDE CRESCENT,VILLA VERDE,18860.1810282962,41380.2974550743
51 VERDE CRESCENT VILLA VERDE SINGAPORE 688406,51,VILLA VERDE,1.39013794650399,103.751197948447,103.751197948447,688406,VERDE CRESCENT,VILLA VERDE,18861.0426669884,41340.0657959413
52 VERDE CRESCENT VILLA VERDE SINGAPORE 688407,52,VILLA VERDE,1.3905227463568,103.751099514672,103.751099514672,688407,VERDE CRESCENT,VILLA VERDE,18850.089743061,41382.6154378019
53 VERDE CRESCENT VILLA VERDE SINGAPORE 688408,53,VILLA VERDE,1.39015039004634,103.751141407214,103.751141407214,688408,VERDE CRESCENT,VILLA VERDE,18854.7504071938,41341.4419600889
54 VERDE CRESCENT VILLA VERDE SINGAPORE 688409,54,VILLA VERDE,1.39053334984852,103.751050271564,103.751050271564,688409,VERDE CRESCENT,VILLA VERDE,18844.6096640732,41383.7881102953
55 VERDE CRESCENT VILLA VERDE SINGAPORE 688410,55,VILLA VERDE,1.39016147614831,103.75109269011,103.75109269011,688410,VERDE CRESCENT,VILLA VERDE,18849.3288664864,41342.6679950375
56 VERDE CRESCENT VILLA VERDE SINGAPORE 688411,56,VILLA VERDE,1.39054597295666,103.750993771656,103.750993771656,688411,VERDE CRESCENT,VILLA VERDE,18838.3220050111,41385.1841302402
57 VERDE CRESCENT VILLA VERDE SINGAPORE 688412,57,VILLA VERDE,1.39017399030949,103.751036104541,103.751036104541,688412,VERDE CRESCENT,VILLA VERDE,18843.0316730095,41344.0519683249
58 VERDE CRESCENT VILLA VERDE SINGAPORE 688413,58,VILLA VERDE,1.39055687784274,103.750945016744,103.750945016744,688413,VERDE CRESCENT,VILLA VERDE,18832.8962570541,41386.3901277836
59 VERDE CRESCENT VILLA VERDE SINGAPORE 688414,59,VILLA VERDE,1.39018497129216,103.750987280278,103.750987280278,688414,VERDE CRESCENT,VILLA VERDE,18837.5982067166,41345.2663803659
60 VERDE CRESCENT VILLA VERDE SINGAPORE 688415,60,VILLA VERDE,1.39056950888652,103.750888517378,103.750888517378,688415,VERDE CRESCENT,VILLA VERDE,18826.6086585289,41387.7870255001
61 VERDE CRESCENT VILLA VERDE SINGAPORE 688416,61,VILLA VERDE,1.39020748587546,103.75089614677,103.75089614677,688416,VERDE CRESCENT,VILLA VERDE,18827.4563134126,41347.7562852427
62 VERDE CRESCENT VILLA VERDE SINGAPORE 688417,62,VILLA VERDE,1.39058041103285,103.750839757025,103.750839757025,688417,VERDE CRESCENT,VILLA VERDE,18821.1823052121,41388.9927203637
63 VERDE CRESCENT VILLA VERDE SINGAPORE 688418,63,VILLA VERDE,1.39021860509904,103.750847578436,103.750847578436,688418,VERDE CRESCENT,VILLA VERDE,18822.0513292924,41348.9859826174
64 VERDE CRESCENT VILLA VERDE SINGAPORE 688419,64,VILLA VERDE,1.39059303824181,103.750783259019,103.750783259019,688419,VERDE CRESCENT,VILLA VERDE,18814.8948580259,41390.3891943283
65 VERDE CRESCENT VILLA VERDE SINGAPORE 688420,65,VILLA VERDE,1.39023094570858,103.750791016533,103.750791016533,688420,VERDE CRESCENT,VILLA VERDE,18815.7567691309,41350.3507660031
66 VERDE CRESCENT VILLA VERDE SINGAPORE 688421,66,VILLA VERDE,1.39060393819615,103.750734501929,103.750734501929,688421,VERDE CRESCENT,VILLA VERDE,18809.468867925,41391.594647048
67 VERDE CRESCENT VILLA VERDE SINGAPORE 688422,67,VILLA VERDE,1.39024213965434,103.750742318732,103.750742318732,688422,VERDE CRESCENT,VILLA VERDE,18810.3373774495,41351.5887265373
68 VERDE CRESCENT VILLA VERDE SINGAPORE 688423,68,VILLA VERDE,1.39061662015176,103.750678081979,103.750678081979,688423,VERDE CRESCENT,VILLA VERDE,18803.1901076511,41392.9971746095
69 VERDE CRESCENT VILLA VERDE SINGAPORE 688424,69,VILLA VERDE,1.39025448217735,103.750685755196,103.750685755196,688424,VERDE CRESCENT,VILLA VERDE,18804.0426356802,41352.953721799
70 VERDE CRESCENT VILLA VERDE SINGAPORE 688425,70,VILLA VERDE,1.39062691270129,103.750629604506,103.750629604506,688425,VERDE CRESCENT,VILLA VERDE,18797.7952330373,41394.1354626734
71 VERDE CRESCENT VILLA VERDE SINGAPORE 688426,71,VILLA VERDE,1.39026566900383,103.750637057939,103.750637057939,688426,VERDE CRESCENT,VILLA VERDE,18798.6233045356,41354.1908953656
72 VERDE CRESCENT VILLA VERDE SINGAPORE 688427,72,VILLA VERDE,1.39065059937735,103.750538057254,103.750538057254,688427,VERDE CRESCENT,VILLA VERDE,18787.6073021293,41396.7549750563
73 VERDE CRESCENT VILLA VERDE SINGAPORE 688428,73,VILLA VERDE,1.39027801946245,103.750580493041,103.750580493041,688428,VERDE CRESCENT,VILLA VERDE,18792.3284114255,41355.5567683987
74 VERDE CRESCENT VILLA VERDE SINGAPORE 688429,74,VILLA VERDE,1.39066026424142,103.750489187333,103.750489187333,688429,VERDE CRESCENT,VILLA VERDE,18782.1687508151,41397.8238586336
75 VERDE CRESCENT VILLA VERDE SINGAPORE 688430,75,VILLA VERDE,1.39028920437022,103.750531785992,103.750531785992,688430,VERDE CRESCENT,VILLA VERDE,18786.9079906335,41356.7937300894
76 VERDE CRESCENT VILLA VERDE SINGAPORE 688431,76,VILLA VERDE,1.39067404797042,103.750432941137,103.750432941137,688431,VERDE CRESCENT,VILLA VERDE,18775.9093317827,41399.3482148293
77 VERDE CRESCENT VILLA VERDE SINGAPORE 688432,77,VILLA VERDE,1.39030170838815,103.75047516506,103.75047516506,688432,VERDE CRESCENT,VILLA VERDE,18780.6068623196,41358.1765834615
78 VERDE CRESCENT VILLA VERDE SINGAPORE 688433,78,VILLA VERDE,1.39068393154061,103.750383961055,103.750383961055,688433,VERDE CRESCENT,VILLA VERDE,18770.4585219352,41400.4412825257
79 VERDE CRESCENT VILLA VERDE SINGAPORE 688434,79,VILLA VERDE,1.390312584243,103.75042626845,103.75042626845,688434,VERDE CRESCENT,VILLA VERDE,18775.1653447431,41359.3793725986
80 VERDE CRESCENT VILLA VERDE SINGAPORE 688435,80,VILLA VERDE,1.39069770951856,103.750327712683,103.750327712683,688435,VERDE CRESCENT,VILLA VERDE,18764.198860758,41401.9650030937
81 VERDE CRESCENT VILLA VERDE SINGAPORE 688436,81,VILLA VERDE,1.3903449247513,103.750320950227,103.750320950227,688436,VERDE CRESCENT,VILLA VERDE,18763.4449155517,41362.9558375552
82 VERDE CRESCENT VILLA VERDE SINGAPORE 688437,82,VILLA VERDE,1.39070759719246,103.750278732057,103.750278732057,688437,VERDE CRESCENT,VILLA VERDE,18758.7479903745,41403.0585248098
83 VERDE CRESCENT VILLA VERDE SINGAPORE 688438,83,VILLA VERDE,1.39034913879074,103.750264766113,103.750264766113,688438,VERDE CRESCENT,VILLA VERDE,18757.1923673516,41363.4220250398
84 VERDE CRESCENT VILLA VERDE SINGAPORE 688439,84,VILLA VERDE,1.39072138474868,103.750222490483,103.750222490483,688439,VERDE CRESCENT,VILLA VERDE,18752.4890858978,41404.5833047573
85 VERDE CRESCENT VILLA VERDE SINGAPORE 688440,85,VILLA VERDE,1.39035948551774,103.750215914396,103.750215914396,688440,VERDE CRESCENT,VILLA VERDE,18751.7558439923,41364.5663061645
86 VERDE CRESCENT VILLA VERDE SINGAPORE 688441,86,VILLA VERDE,1.39073130471046,103.750173219106,103.750173219106,688441,VERDE CRESCENT,VILLA VERDE,18747.0058590388,41405.6803980954
87 VERDE CRESCENT VILLA VERDE SINGAPORE 688442,87,VILLA VERDE,1.39037268947111,103.750159555355,103.750159555355,688442,VERDE CRESCENT,VILLA VERDE,18745.4838637458,41366.0265547708
88 VERDE CRESCENT VILLA VERDE SINGAPORE 688443,88,VILLA VERDE,1.39073935873484,103.750118997465,103.750118997465,688443,VERDE CRESCENT,VILLA VERDE,18740.9717246089,41406.571184855
89 VERDE CRESCENT VILLA VERDE SINGAPORE 688444,89,VILLA VERDE,1.39038303893214,103.75011067372,103.75011067372,688444,VERDE CRESCENT,VILLA VERDE,18740.0440109083,41367.1711385753
91 VERDE CRESCENT VILLA VERDE SINGAPORE 688445,91,VILLA VERDE,1.39039600665629,103.750054441973,103.750054441973,688445,VERDE CRESCENT,VILLA VERDE,18733.7861960791,41368.6052659117
93 VERDE CRESCENT VILLA VERDE SINGAPORE 688446,93,VILLA VERDE,1.39040700952066,103.75000573275,103.75000573275,688446,VERDE CRESCENT,VILLA VERDE,18728.3655331424,41369.8220993932
95 VERDE CRESCENT VILLA VERDE SINGAPORE 688447,95,VILLA VERDE,1.3904384909999,103.749953272459,103.749953272459,688447,VERDE CRESCENT,VILLA VERDE,18722.5275049796,41373.3033715393
97 VERDE CRESCENT VILLA VERDE SINGAPORE 688448,97,VILLA VERDE,1.39044906467438,103.749905261698,103.749905261698,688448,VERDE CRESCENT,VILLA VERDE,18717.1845702259,41374.4727448225
99 VERDE CRESCENT VILLA VERDE SINGAPORE 688449,99,VILLA VERDE,1.39065401574224,103.749832761175,103.749832761175,688449,VERDE CRESCENT,VILLA VERDE,18709.1170023819,41397.135504147
101 VERDE CRESCENT VILLA VERDE SINGAPORE 688450,101,VILLA VERDE,1.3907031425307,103.749833256903,103.749833256903,688450,VERDE CRESCENT,VILLA VERDE,18709.1723625241,41402.5676991846
103 VERDE CRESCENT VILLA VERDE SINGAPORE 688451,103,VILLA VERDE,1.39076146397207,103.74983314606,103.74983314606,688451,VERDE CRESCENT,VILLA VERDE,18709.1602553306,41409.0165957958
105 VERDE CRESCENT VILLA VERDE SINGAPORE 688452,105,VILLA VERDE,1.39081168075196,103.749833323803,103.749833323803,688452,VERDE CRESCENT,VILLA VERDE,18709.1802321998,41414.5693179443
107 VERDE CRESCENT VILLA VERDE SINGAPORE 688453,107,VILLA VERDE,1.3908699365362,103.749834300616,103.749834300616,688453,VERDE CRESCENT,VILLA VERDE,18709.2891666731,41421.0109502394
109 VERDE CRESCENT VILLA VERDE SINGAPORE 688454,109,VILLA VERDE,1.39092019485731,103.749832622357,103.749832622357,688454,VERDE CRESCENT,VILLA VERDE,18709.1025948217,41426.5682731215
111 VERDE CRESCENT VILLA VERDE SINGAPORE 688455,111,VILLA VERDE,1.39097854311125,103.749832144067,103.749832144067,688455,VERDE CRESCENT,VILLA VERDE,18709.0495955814,41433.020135995
113 VERDE CRESCENT VILLA VERDE SINGAPORE 688456,113,VILLA VERDE,1.39102876267863,103.749833732848,103.749833732848,688456,VERDE CRESCENT,VILLA VERDE,18709.2266027508,41438.5731608234
115 VERDE CRESCENT VILLA VERDE SINGAPORE 688457,115,VILLA VERDE,1.3910870392256,103.749833563259,103.749833563259,688457,VERDE CRESCENT,VILLA VERDE,18709.2079576729,41445.0170934852
117 VERDE CRESCENT VILLA VERDE SINGAPORE 688458,117,VILLA VERDE,1.39113627135913,103.749832885111,103.749832885111,688458,VERDE CRESCENT,VILLA VERDE,18709.1326811975,41450.4609416965
119 VERDE CRESCENT VILLA VERDE SINGAPORE 688459,119,VILLA VERDE,1.39123131564579,103.749832469174,103.749832469174,688459,VERDE CRESCENT,VILLA VERDE,18709.0867646663,41460.9704699311
121 VERDE CRESCENT VILLA VERDE SINGAPORE 688460,121,VILLA VERDE,1.3912820602252,103.74983386755,103.74983386755,688460,VERDE CRESCENT,VILLA VERDE,18709.2425842462,41466.5815487523
123 VERDE CRESCENT VILLA VERDE SINGAPORE 688461,123,VILLA VERDE,1.39134023083422,103.749833603858,103.749833603858,688461,VERDE CRESCENT,VILLA VERDE,18709.2134664459,41473.0137677044
125 VERDE CRESCENT VILLA VERDE SINGAPORE 688462,125,VILLA VERDE,1.39139057570831,103.749833434004,103.749833434004,688462,VERDE CRESCENT,VILLA VERDE,18709.194760832,41478.5806552693
127 VERDE CRESCENT VILLA VERDE SINGAPORE 688463,127,VILLA VERDE,1.39144878161979,103.749832918185,103.749832918185,688463,VERDE CRESCENT,VILLA VERDE,18709.1375846108,41485.0167787913
129 VERDE CRESCENT VILLA VERDE SINGAPORE 688464,129,VILLA VERDE,1.39149913228894,103.749834060367,103.749834060367,688464,VERDE CRESCENT,VILLA VERDE,18709.2648917502,41490.5843019839
131 VERDE CRESCENT VILLA VERDE SINGAPORE 688465,131,VILLA VERDE,1.39155731080363,103.749832884722,103.749832884722,688465,VERDE CRESCENT,VILLA VERDE,18709.1342854006,41497.0173987076
133 VERDE CRESCENT VILLA VERDE SINGAPORE 688466,133,VILLA VERDE,1.39160769296967,103.749834524086,103.749834524086,688466,VERDE CRESCENT,VILLA VERDE,18709.3169224141,41502.5884027183
135 VERDE CRESCENT VILLA VERDE SINGAPORE 688467,135,VILLA VERDE,1.39166582987339,103.749833248625,103.749833248625,688467,VERDE CRESCENT,VILLA VERDE,18709.1752077146,41509.0168987084
137 VERDE CRESCENT VILLA VERDE SINGAPORE 688468,137,VILLA VERDE,1.39171673286754,103.749832507317,103.749832507317,688468,VERDE CRESCENT,VILLA VERDE,18709.0929090669,41514.645502694
139 VERDE CRESCENT VILLA VERDE SINGAPORE 688469,139,VILLA VERDE,1.39181083694786,103.74983392239,103.74983392239,688469,VERDE CRESCENT,VILLA VERDE,18709.2507566018,41525.0510604028
141 VERDE CRESCENT VILLA VERDE SINGAPORE 688470,141,VILLA VERDE,1.39186092178009,103.749833870856,103.749833870856,688470,VERDE CRESCENT,VILLA VERDE,18709.2452175608,41530.5891933832
143 VERDE CRESCENT VILLA VERDE SINGAPORE 688471,143,VILLA VERDE,1.39191900646305,103.749834343421,103.749834343421,688471,VERDE CRESCENT,VILLA VERDE,18709.2980351923,41537.0119081885
145 VERDE CRESCENT VILLA VERDE SINGAPORE 688472,145,VILLA VERDE,1.39196908742657,103.74983326978,103.74983326978,688472,VERDE CRESCENT,VILLA VERDE,18709.1787490686,41542.5496174172
147 VERDE CRESCENT VILLA VERDE SINGAPORE 688473,147,VILLA VERDE,1.39209980549068,103.749775309488,103.749775309488,688473,VERDE CRESCENT,VILLA VERDE,18702.729035222,41557.0040022377
149 VERDE CRESCENT VILLA VERDE SINGAPORE 688474,149,VILLA VERDE,1.39215270670094,103.749812094738,103.749812094738,688474,VERDE CRESCENT,VILLA VERDE,18706.8229616275,41562.8534111641
151 VERDE CRESCENT VILLA VERDE SINGAPORE 688475,151,VILLA VERDE,1.39217253411395,103.749862324922,103.749862324922,688475,VERDE CRESCENT,VILLA VERDE,18712.4130042009,41565.0456304196
153 VERDE CRESCENT VILLA VERDE SINGAPORE 688476,153,VILLA VERDE,1.39218821480959,103.749914160486,103.749914160486,688476,VERDE CRESCENT,VILLA VERDE,18718.181688413,41566.7793199923
155 VERDE CRESCENT VILLA VERDE SINGAPORE 688477,155,VILLA VERDE,1.39220835591192,103.74996422176,103.74996422176,688477,VERDE CRESCENT,VILLA VERDE,18723.7529345686,41569.0062263571
157 VERDE CRESCENT VILLA VERDE SINGAPORE 688478,157,VILLA VERDE,1.39222849537123,103.750014293914,103.750014293914,688478,VERDE CRESCENT,VILLA VERDE,18729.3253914425,41571.2329511158
159 VERDE CRESCENT VILLA VERDE SINGAPORE 688479,159,VILLA VERDE,1.39223987021013,103.750072667792,103.750072667792,688479,VERDE CRESCENT,VILLA VERDE,18735.8216877161,41572.4904950354
160 VERDE CRESCENT VILLA VERDE SINGAPORE 688480,160,VILLA VERDE,1.39203299235485,103.750423757302,103.750423757302,688480,VERDE CRESCENT,VILLA VERDE,18774.8925696732,41549.6135897264
161 VERDE CRESCENT VILLA VERDE SINGAPORE 688481,161,VILLA VERDE,1.39226337085051,103.7501310679,103.7501310679,688481,VERDE CRESCENT,VILLA VERDE,18742.3209502511,41575.0888500977
162 VERDE CRESCENT VILLA VERDE SINGAPORE 688482,162,VILLA VERDE,1.39204588523446,103.750472427917,103.750472427917,688482,VERDE CRESCENT,VILLA VERDE,18780.3090253593,41551.0390301514
163 VERDE CRESCENT VILLA VERDE SINGAPORE 688483,163,VILLA VERDE,1.39229053549238,103.750184388629,103.750184388629,688483,VERDE CRESCENT,VILLA VERDE,18748.254958191,41578.0923723895
164 VERDE CRESCENT VILLA VERDE SINGAPORE 688484,164,VILLA VERDE,1.39206072652002,103.750528251304,103.750528251304,688484,VERDE CRESCENT,VILLA VERDE,18786.52149875,41552.6798878163
165 VERDE CRESCENT VILLA VERDE SINGAPORE 688485,165,VILLA VERDE,1.39232847726575,103.750276607761,103.750276607761,688485,VERDE CRESCENT,VILLA VERDE,18758.5178931626,41582.2874241285
166 VERDE CRESCENT VILLA VERDE SINGAPORE 688486,166,VILLA VERDE,1.39207329310257,103.750576757112,103.750576757112,688486,VERDE CRESCENT,VILLA VERDE,18791.9196120379,41554.0692488048
167 VERDE CRESCENT VILLA VERDE SINGAPORE 688487,167,VILLA VERDE,1.39234187884694,103.750328193189,103.750328193189,688487,VERDE CRESCENT,VILLA VERDE,18764.2587308297,41583.7691024672
168 VERDE CRESCENT VILLA VERDE SINGAPORE 688488,168,VILLA VERDE,1.39208810290723,103.750632601715,103.750632601715,688488,VERDE CRESCENT,VILLA VERDE,18798.1344463304,41555.7066256516
169 VERDE CRESCENT VILLA VERDE SINGAPORE 688489,169,VILLA VERDE,1.39235543510781,103.750380397098,103.750380397098,688489,VERDE CRESCENT,VILLA VERDE,18770.0683978926,41585.2678822167
170 VERDE CRESCENT VILLA VERDE SINGAPORE 688490,170,VILLA VERDE,1.39210098427683,103.750681015856,103.750681015856,688490,VERDE CRESCENT,VILLA VERDE,18803.5223593079,41557.1307948213
171 VERDE CRESCENT VILLA VERDE SINGAPORE 688491,171,VILLA VERDE,1.39236900149559,103.750432599647,103.750432599647,688491,VERDE CRESCENT,VILLA VERDE,18775.8779136157,41586.7677818835
172 VERDE CRESCENT VILLA VERDE SINGAPORE 688492,172,VILLA VERDE,1.39211971637069,103.750728489281,103.750728489281,688492,VERDE CRESCENT,VILLA VERDE,18808.8056055978,41559.201911876
173 VERDE CRESCENT VILLA VERDE SINGAPORE 688493,173,VILLA VERDE,1.39238256076537,103.750484807364,103.750484807364,688493,VERDE CRESCENT,VILLA VERDE,18781.6880044295,41588.2668945808
174 VERDE CRESCENT VILLA VERDE SINGAPORE 688494,174,VILLA VERDE,1.39216746984716,103.751149457963,103.751149457963,688494,VERDE CRESCENT,VILLA VERDE,18855.6541183833,41564.4806179684
175 VERDE CRESCENT VILLA VERDE SINGAPORE 688495,175,VILLA VERDE,1.39239612578236,103.750537013722,103.750537013722,688495,VERDE CRESCENT,VILLA VERDE,18787.4979439043,41589.7666429058
176 VERDE CRESCENT VILLA VERDE SINGAPORE 688496,176,VILLA VERDE,1.3921718302551,103.751199806191,103.751199806191,688496,VERDE CRESCENT,VILLA VERDE,18861.2572367257,41564.9625750724
177 VERDE CRESCENT VILLA VERDE SINGAPORE 688497,177,VILLA VERDE,1.39240968587106,103.750589220082,103.750589220082,688497,VERDE CRESCENT,VILLA VERDE,18793.3078833791,41591.265846407
178 VERDE CRESCENT VILLA VERDE SINGAPORE 688498,178,VILLA VERDE,1.39217814481534,103.751257313174,103.751257313174,688498,VERDE CRESCENT,VILLA VERDE,18867.6570386663,41565.6605850458
179 VERDE CRESCENT VILLA VERDE SINGAPORE 688499,179,VILLA VERDE,1.39242356654276,103.75064265633,103.75064265633,688499,VERDE CRESCENT,VILLA VERDE,18799.254694676,41592.8004937172
180 VERDE CRESCENT VILLA VERDE SINGAPORE 688500,180,VILLA VERDE,1.39218308606011,103.75130705432,103.75130705432,688500,VERDE CRESCENT,VILLA VERDE,18873.1925988691,41566.2067708112
181 VERDE CRESCENT VILLA VERDE SINGAPORE 688501,181,VILLA VERDE,1.39244273277004,103.750736490611,103.750736490611,688501,VERDE CRESCENT,VILLA VERDE,18809.6973003978,41594.9194341861
182 VERDE CRESCENT VILLA VERDE SINGAPORE 688502,182,VILLA VERDE,1.39218899467438,103.751364616257,103.751364616257,688502,VERDE CRESCENT,VILLA VERDE,18879.5985149425,41566.8598933648
183 VERDE CRESCENT VILLA VERDE SINGAPORE 688503,183,VILLA VERDE,1.39244986017195,103.750789583312,103.750789583312,688503,VERDE CRESCENT,VILLA VERDE,18815.6058529634,41595.7073400691
184 VERDE CRESCENT VILLA VERDE SINGAPORE 688504,184,VILLA VERDE,1.39219427804394,103.751413253691,103.751413253691,688504,VERDE CRESCENT,VILLA VERDE,18885.0112476666,41567.4439141098
185 VERDE CRESCENT VILLA VERDE SINGAPORE 688505,185,VILLA VERDE,1.39245703986777,103.750843021971,103.750843021971,688505,VERDE CRESCENT,VILLA VERDE,18821.5529064042,41596.5010271389
186 VERDE CRESCENT VILLA VERDE SINGAPORE 688506,186,VILLA VERDE,1.39221577510074,103.751523575675,103.751523575675,688506,VERDE CRESCENT,VILLA VERDE,18897.2887288304,41569.8205259237
187 VERDE CRESCENT VILLA VERDE SINGAPORE 688507,187,VILLA VERDE,1.39246474212853,103.750896768224,103.750896768224,688507,VERDE CRESCENT,VILLA VERDE,18827.5341929346,41597.3524957895
188 VERDE CRESCENT VILLA VERDE SINGAPORE 688508,188,VILLA VERDE,1.39221368773229,103.751573942078,103.751573942078,688508,VERDE CRESCENT,VILLA VERDE,18902.8938448587,41569.5895206723
189 VERDE CRESCENT VILLA VERDE SINGAPORE 688509,189,VILLA VERDE,1.39248479269671,103.751113054499,103.751113054499,688509,VERDE CRESCENT,VILLA VERDE,18851.6041108221,41599.5687478241
190 VERDE CRESCENT VILLA VERDE SINGAPORE 688510,190,VILLA VERDE,1.39222236567759,103.751631096494,103.751631096494,688510,VERDE CRESCENT,VILLA VERDE,18909.2544194935,41570.5488644149
191 VERDE CRESCENT VILLA VERDE SINGAPORE 688511,191,VILLA VERDE,1.39248994619097,103.751165742563,103.751165742563,688511,VERDE CRESCENT,VILLA VERDE,18857.467624628,41600.1383912787
192 VERDE CRESCENT VILLA VERDE SINGAPORE 688512,192,VILLA VERDE,1.39223033547889,103.751680491034,103.751680491034,688512,VERDE CRESCENT,VILLA VERDE,18914.7514182841,41571.4299351536
193 VERDE CRESCENT VILLA VERDE SINGAPORE 688513,193,VILLA VERDE,1.39249545639033,103.751219367862,103.751219367862,688513,VERDE CRESCENT,VILLA VERDE,18863.4354419056,41600.7474739142
194 VERDE CRESCENT VILLA VERDE SINGAPORE 688514,194,VILLA VERDE,1.3922388560264,103.751737672111,103.751737672111,688514,VERDE CRESCENT,VILLA VERDE,18921.1149591813,41572.3718748074
195 VERDE CRESCENT VILLA VERDE SINGAPORE 688515,195,VILLA VERDE,1.39250096385167,103.751273007576,103.751273007576,688515,VERDE CRESCENT,VILLA VERDE,18869.4048633864,41601.3562538717
196 VERDE CRESCENT VILLA VERDE SINGAPORE 688516,196,VILLA VERDE,1.39224715922983,103.751787014419,103.751787014419,688516,VERDE CRESCENT,VILLA VERDE,18926.6061465191,41573.2898119483
197 VERDE CRESCENT VILLA VERDE SINGAPORE 688517,197,VILLA VERDE,1.39250647322785,103.751326645387,103.751326645387,688517,VERDE CRESCENT,VILLA VERDE,18875.3740729913,41601.9652457032
198 VERDE CRESCENT VILLA VERDE SINGAPORE 688518,198,VILLA VERDE,1.39225540795994,103.751844239567,103.751844239567,688518,VERDE CRESCENT,VILLA VERDE,18932.9745908286,41574.2016954944
199 VERDE CRESCENT VILLA VERDE SINGAPORE 688519,199,VILLA VERDE,1.39251201518845,103.751380611207,103.751380611207,688519,VERDE CRESCENT,VILLA VERDE,18881.3797857845,41602.5778394248
200 VERDE CRESCENT VILLA VERDE SINGAPORE 688520,200,VILLA VERDE,1.39226391426983,103.751893556847,103.751893556847,688520,VERDE CRESCENT,VILLA VERDE,18938.4629935129,41575.142091481
201 VERDE CRESCENT VILLA VERDE SINGAPORE 688521,201,VILLA VERDE,1.39252001037672,103.751474828291,103.751474828291,688521,VERDE CRESCENT,VILLA VERDE,18891.8649482923,41603.4615434781
202 VERDE CRESCENT VILLA VERDE SINGAPORE 688522,202,VILLA VERDE,1.39227229575644,103.751950746906,103.751950746906,688522,VERDE CRESCENT,VILLA VERDE,18944.8275332525,41576.0686549991
203 VERDE CRESCENT VILLA VERDE SINGAPORE 688523,203,VILLA VERDE,1.39252835202179,103.751527413709,103.751527413709,688523,VERDE CRESCENT,VILLA VERDE,18897.7170510674,41604.3837181386
204 VERDE CRESCENT VILLA VERDE SINGAPORE 688524,204,VILLA VERDE,1.39228029758353,103.752000307083,103.752000307083,688524,VERDE CRESCENT,VILLA VERDE,18950.3429652452,41576.95326709
205 VERDE CRESCENT VILLA VERDE SINGAPORE 688525,205,VILLA VERDE,1.3925368023609,103.75158066983,103.75158066983,688525,VERDE CRESCENT,VILLA VERDE,18903.6437946912,41605.3179091886
207 VERDE CRESCENT VILLA VERDE SINGAPORE 688526,207,VILLA VERDE,1.39254525461485,103.751633923232,103.751633923232,688526,VERDE CRESCENT,VILLA VERDE,18909.5702356352,41606.2523121126
209 VERDE CRESCENT VILLA VERDE SINGAPORE 688527,209,VILLA VERDE,1.39255370303582,103.751687189418,103.751687189418,688527,VERDE CRESCENT,VILLA VERDE,18915.4980991744,41607.1862912867
211 VERDE CRESCENT VILLA VERDE SINGAPORE 688528,211,VILLA VERDE,1.39256214981252,103.751740436021,103.751740436021,688528,VERDE CRESCENT,VILLA VERDE,18921.4237834187,41608.1200888529
213 VERDE CRESCENT VILLA VERDE SINGAPORE 688529,213,VILLA VERDE,1.39261729455582,103.751786504246,103.751786504246,688529,VERDE CRESCENT,VILLA VERDE,18926.5507863769,41614.2175439037
215 VERDE CRESCENT VILLA VERDE SINGAPORE 688530,215,VILLA VERDE,1.39265640741745,103.751834999098,103.751834999098,688530,VERDE CRESCENT,VILLA VERDE,18931.9477797495,41618.5422636848
217 VERDE CRESCENT VILLA VERDE SINGAPORE 688531,217,VILLA VERDE,1.39267481444407,103.751886763879,103.751886763879,688531,VERDE CRESCENT,VILLA VERDE,18937.7085942859,41620.5774223749
219 VERDE CRESCENT VILLA VERDE SINGAPORE 688532,219,VILLA VERDE,1.39268333787795,103.751940482915,103.751940482915,688532,VERDE CRESCENT,VILLA VERDE,18943.6868540179,41621.5196949765
1 VERDE GROVE VILLA VERDE SINGAPORE 688533,1,VILLA VERDE,1.39105278265426,103.752266317438,103.752266317438,688533,VERDE GROVE,VILLA VERDE,18979.9417843791,41441.2197327837
2 VERDE GROVE VILLA VERDE SINGAPORE 688534,2,VILLA VERDE,1.39138202367194,103.752359461974,103.752359461974,688534,VERDE GROVE,VILLA VERDE,18990.3088109456,41477.6252160966
3 VERDE GROVE VILLA VERDE SINGAPORE 688535,3,VILLA VERDE,1.39106382443615,103.752217660972,103.752217660972,688535,VERDE GROVE,VILLA VERDE,18974.5269934321,41442.440864319
4 VERDE GROVE VILLA VERDE SINGAPORE 688536,4,VILLA VERDE,1.39139912539124,103.752312124404,103.752312124404,688536,VERDE GROVE,VILLA VERDE,18985.0408197194,41479.5164202545
5 VERDE GROVE VILLA VERDE SINGAPORE 688537,5,VILLA VERDE,1.39107627402418,103.75216112108,103.75216112108,688537,VERDE GROVE,VILLA VERDE,18968.2348849764,41443.8176943623
6 VERDE GROVE VILLA VERDE SINGAPORE 688538,6,VILLA VERDE,1.3914118254556,103.752255853485,103.752255853485,688538,VERDE GROVE,VILLA VERDE,18978.7786463005,41480.9209455028
7 VERDE GROVE VILLA VERDE SINGAPORE 688539,7,VILLA VERDE,1.39108735083928,103.752112398793,103.752112398793,688539,VERDE GROVE,VILLA VERDE,18962.8127691774,41445.0427001994
8 VERDE GROVE VILLA VERDE SINGAPORE 688540,8,VILLA VERDE,1.39142284888678,103.7522069098,103.7522069098,688540,VERDE GROVE,VILLA VERDE,18973.3318923628,41482.1400490832
9 VERDE GROVE VILLA VERDE SINGAPORE 688541,9,VILLA VERDE,1.39109981520628,103.752055859443,103.752055859443,688541,VERDE GROVE,VILLA VERDE,18956.5207212586,41446.4211647138
10 VERDE GROVE VILLA VERDE SINGAPORE 688542,10,VILLA VERDE,1.39143554867477,103.752150637793,103.752150637793,688542,VERDE GROVE,VILLA VERDE,18967.069597871,41483.5445440635
11 VERDE GROVE VILLA VERDE SINGAPORE 688543,11,VILLA VERDE,1.39111088654437,103.752007133891,103.752007133891,688543,VERDE GROVE,VILLA VERDE,18951.0982422438,41447.6455651913
12 VERDE GROVE VILLA VERDE SINGAPORE 688544,12,VILLA VERDE,1.39144658141082,103.752101700906,103.752101700906,688544,VERDE GROVE,VILLA VERDE,18961.6236006329,41484.7646767553
13 VERDE GROVE VILLA VERDE SINGAPORE 688545,13,VILLA VERDE,1.39112335036129,103.751950595085,103.751950595085,688545,VERDE GROVE,VILLA VERDE,18944.80625486,41449.0239691697
14 VERDE GROVE VILLA VERDE SINGAPORE 688546,14,VILLA VERDE,1.39145928283801,103.752045411218,103.752045411218,688546,VERDE GROVE,VILLA VERDE,18955.3593387231,41486.1693533435
15 VERDE GROVE VILLA VERDE SINGAPORE 688547,15,VILLA VERDE,1.39113441704355,103.751901865181,103.751901865181,688547,VERDE GROVE,VILLA VERDE,18939.3832915574,41450.2478550915
16 VERDE GROVE VILLA VERDE SINGAPORE 688548,16,VILLA VERDE,1.39147031885652,103.751996471883,103.751996471883,688548,VERDE GROVE,VILLA VERDE,18949.9130690731,41487.3898492511
17 VERDE GROVE VILLA VERDE SINGAPORE 688549,17,VILLA VERDE,1.39114695202722,103.751845294277,103.751845294277,688549,VERDE GROVE,VILLA VERDE,18933.0877325526,41451.6341287456
18 VERDE GROVE VILLA VERDE SINGAPORE 688550,18,VILLA VERDE,1.39148301179588,103.751940195522,103.751940195522,688550,VERDE GROVE,VILLA VERDE,18943.6502902936,41488.7935875319
19 VERDE GROVE VILLA VERDE SINGAPORE 688551,19,VILLA VERDE,1.39115791386497,103.751796486589,103.751796486589,688551,VERDE GROVE,VILLA VERDE,18927.6561126057,41452.8464220297
20 VERDE GROVE VILLA VERDE SINGAPORE 688552,20,VILLA VERDE,1.39149429114862,103.751890919736,103.751890919736,688552,VERDE GROVE,VILLA VERDE,18938.1665791478,41490.040991677
21 VERDE GROVE VILLA VERDE SINGAPORE 688553,21,VILLA VERDE,1.39117955990225,103.75170471365,103.75170471365,688553,VERDE GROVE,VILLA VERDE,18917.4430592721,41455.2402865943
22 VERDE GROVE VILLA VERDE SINGAPORE 688554,22,VILLA VERDE,1.39151472273469,103.751801935451,103.751801935451,688554,VERDE GROVE,VILLA VERDE,18928.2638634508,41492.300557198
23 VERDE GROVE VILLA VERDE SINGAPORE 688555,23,VILLA VERDE,1.39119110672869,103.751656632947,103.751656632947,688555,VERDE GROVE,VILLA VERDE,18912.0923456466,41456.5172625594
24 VERDE GROVE VILLA VERDE SINGAPORE 688556,24,VILLA VERDE,1.39152527307556,103.75175095763,103.75175095763,688556,VERDE GROVE,VILLA VERDE,18922.5907352632,41493.4673577026
25 VERDE GROVE VILLA VERDE SINGAPORE 688557,25,VILLA VERDE,1.39120277041081,103.751599921185,103.751599921185,688557,VERDE GROVE,VILLA VERDE,18905.7811078262,41457.8071932215
26 VERDE GROVE VILLA VERDE SINGAPORE 688558,26,VILLA VERDE,1.39153789948582,103.751694507473,103.751694507473,688558,VERDE GROVE,VILLA VERDE,18916.3086152421,41494.8637408633
27 VERDE GROVE VILLA VERDE SINGAPORE 688559,27,VILLA VERDE,1.39121463666435,103.75155136695,103.75155136695,688559,VERDE GROVE,VILLA VERDE,18900.3776976401,41459.1194919236
28 VERDE GROVE VILLA VERDE SINGAPORE 688560,28,VILLA VERDE,1.3915488183439,103.751645700866,103.751645700866,688560,VERDE GROVE,VILLA VERDE,18910.8771163682,41496.0712820739
29 VERDE GROVE VILLA VERDE SINGAPORE 688561,29,VILLA VERDE,1.39122629952279,103.751494659538,103.751494659538,688561,VERDE GROVE,VILLA VERDE,18894.0669441074,41460.4093317818
30 VERDE GROVE VILLA VERDE SINGAPORE 688562,30,VILLA VERDE,1.39156144256167,103.751589250436,103.751589250436,688562,VERDE GROVE,VILLA VERDE,18904.59496608,41497.4674230907
31 VERDE GROVE VILLA VERDE SINGAPORE 688563,31,VILLA VERDE,1.39123816823748,103.751446099319,103.751446099319,688563,VERDE GROVE,VILLA VERDE,18888.6628680266,41461.7219028957
32 VERDE GROVE VILLA VERDE SINGAPORE 688564,32,VILLA VERDE,1.39157236607101,103.751540445187,103.751540445187,688564,VERDE GROVE,VILLA VERDE,18899.163618546,41498.675478857
33 VERDE GROVE VILLA VERDE SINGAPORE 688565,33,VILLA VERDE,1.39124984313734,103.751389386467,103.751389386467,688565,VERDE GROVE,VILLA VERDE,18882.3515091334,41463.0130745452
34 VERDE GROVE VILLA VERDE SINGAPORE 688566,34,VILLA VERDE,1.39158498535894,103.751483993397,103.751483993397,688566,VERDE GROVE,VILLA VERDE,18892.881316917,41500.0710750502
35 VERDE GROVE VILLA VERDE SINGAPORE 688567,35,VILLA VERDE,1.39126169871081,103.751340831142,103.751340831142,688567,VERDE GROVE,VILLA VERDE,18876.9479778763,41464.3241927959
36 VERDE GROVE VILLA VERDE SINGAPORE 688568,36,VILLA VERDE,1.39159590339125,103.751435185156,103.751435185156,688568,VERDE GROVE,VILLA VERDE,18887.4496364351,41501.2785254549
37 VERDE GROVE VILLA VERDE SINGAPORE 688569,37,VILLA VERDE,1.3912737387591,103.751283886005,103.751283886005,688569,VERDE GROVE,VILLA VERDE,18870.6107701259,41465.6557419356
38 VERDE GROVE VILLA VERDE SINGAPORE 688570,38,VILLA VERDE,1.39160852979389,103.751378740164,103.751378740164,688570,VERDE GROVE,VILLA VERDE,18881.1680915067,41502.6749086175
39 VERDE GROVE VILLA VERDE SINGAPORE 688571,39,VILLA VERDE,1.39128491024911,103.751234654558,103.751234654558,688571,VERDE GROVE,VILLA VERDE,18865.1319926614,41466.8912204951
40 VERDE GROVE VILLA VERDE SINGAPORE 688572,40,VILLA VERDE,1.3916193287558,103.751330088587,103.751330088587,688572,VERDE GROVE,VILLA VERDE,18875.7538453834,41503.8691924494
41 VERDE GROVE VILLA VERDE SINGAPORE 688573,41,VILLA VERDE,1.39130426104449,103.751143673427,103.751143673427,688573,VERDE GROVE,VILLA VERDE,18855.0070494274,41469.0312880147
42 VERDE GROVE VILLA VERDE SINGAPORE 688574,42,VILLA VERDE,1.39164304698855,103.751240030942,103.751240030942,688574,VERDE GROVE,VILLA VERDE,18865.7316922219,41506.4921856504
43 VERDE GROVE VILLA VERDE SINGAPORE 688575,43,VILLA VERDE,1.39131520945624,103.751094919858,103.751094919858,688575,VERDE GROVE,VILLA VERDE,18849.5814528102,41470.2420981675
44 VERDE GROVE VILLA VERDE SINGAPORE 688576,44,VILLA VERDE,1.39165420504053,103.75119012307,103.75119012307,688576,VERDE GROVE,VILLA VERDE,18860.1776382821,41507.7261810787
45 VERDE GROVE VILLA VERDE SINGAPORE 688577,45,VILLA VERDE,1.39132783694376,103.751038413947,103.751038413947,688577,VERDE GROVE,VILLA VERDE,18843.2931278534,41471.6386024002
46 VERDE GROVE VILLA VERDE SINGAPORE 688578,46,VILLA VERDE,1.39166661026901,103.751133900292,103.751133900292,688578,VERDE GROVE,VILLA VERDE,18853.9208222963,41509.0981077086
47 VERDE GROVE VILLA VERDE SINGAPORE 688579,47,VILLA VERDE,1.39133877303541,103.750989662825,103.750989662825,688579,VERDE GROVE,VILLA VERDE,18837.8678036481,41472.8480504937
48 VERDE GROVE VILLA VERDE SINGAPORE 688580,48,VILLA VERDE,1.3916771571028,103.75108481328,103.75108481328,688580,VERDE GROVE,VILLA VERDE,18848.4581171311,41510.2645147294
49 VERDE GROVE VILLA VERDE SINGAPORE 688581,49,VILLA VERDE,1.39135139997294,103.75093315909,103.75093315909,688581,VERDE GROVE,VILLA VERDE,18831.5797208343,41474.2444941904
50 VERDE GROVE VILLA VERDE SINGAPORE 688582,50,VILLA VERDE,1.39168923412134,103.751028532036,103.751028532036,688582,VERDE GROVE,VILLA VERDE,18842.1947935279,41511.6001500469
51 VERDE GROVE VILLA VERDE SINGAPORE 688583,51,VILLA VERDE,1.39136233332469,103.750884399536,103.750884399536,688583,VERDE GROVE,VILLA VERDE,18826.1534583215,41475.4536396042
52 VERDE GROVE VILLA VERDE SINGAPORE 688584,52,VILLA VERDE,1.39170241509832,103.750979945921,103.750979945921,688584,VERDE GROVE,VILLA VERDE,18836.7878419887,41513.0578258745
53 VERDE GROVE VILLA VERDE SINGAPORE 688585,53,VILLA VERDE,1.3913749695666,103.750827897975,103.750827897975,688585,VERDE GROVE,VILLA VERDE,18819.8656176524,41476.8511124123
54 VERDE GROVE VILLA VERDE SINGAPORE 688586,54,VILLA VERDE,1.39171476201276,103.750923614351,103.750923614351,688586,VERDE GROVE,VILLA VERDE,18830.5189188095,41514.4233054239
55 VERDE GROVE VILLA VERDE SINGAPORE 688587,55,VILLA VERDE,1.3913858977154,103.75077914386,103.75077914386,688587,VERDE GROVE,VILLA VERDE,18814.4399604993,41478.0596827343
56 VERDE GROVE VILLA VERDE SINGAPORE 688588,56,VILLA VERDE,1.3917240899023,103.750874273621,103.750874273621,688588,VERDE GROVE,VILLA VERDE,18825.0279736146,41515.4549291134
57 VERDE GROVE VILLA VERDE SINGAPORE 688589,57,VILLA VERDE,1.39139866589063,103.750722553627,103.750722553627,688589,VERDE GROVE,VILLA VERDE,18808.1422524666,41479.4717447106
58 VERDE GROVE VILLA VERDE SINGAPORE 688590,58,VILLA VERDE,1.39173749124073,103.750818197947,103.750818197947,688590,VERDE GROVE,VILLA VERDE,18818.787532608,41516.9370009359
59 VERDE GROVE VILLA VERDE SINGAPORE 688591,59,VILLA VERDE,1.39140938408316,103.750673765793,103.750673765793,688591,VERDE GROVE,VILLA VERDE,18802.7128420835,41480.6570994891
60 VERDE GROVE VILLA VERDE SINGAPORE 688592,60,VILLA VERDE,1.39174905610354,103.750769810705,103.750769810705,688592,VERDE GROVE,VILLA VERDE,18813.4027069649,41518.2159745879
61 VERDE GROVE SINGAPORE 688593,61,NIL,1.39149628743104,103.750615163035,103.750615163035,688593,VERDE GROVE,61 VERDE GROVE SINGAPORE 688593,18796.1914536515,41490.2666697633
62 VERDE GROVE VILLA VERDE SINGAPORE 688594,62,VILLA VERDE,1.39176960363405,103.750678716912,103.750678716912,688594,VERDE GROVE,VILLA VERDE,18803.2652327865,41520.4883737341
63 VERDE GROVE SINGAPORE 688595,63,NIL,1.39151359870432,103.750534298037,103.750534298037,688595,VERDE GROVE,63 VERDE GROVE SINGAPORE 688595,18787.1922978051,41492.1811802704
64 VERDE GROVE VILLA VERDE SINGAPORE 688596,64,VILLA VERDE,1.39178060236836,103.75062900514,103.75062900514,688596,VERDE GROVE,VILLA VERDE,18797.733002062,41521.7047531959
65 VERDE GROVE VILLA VERDE SINGAPORE 688597,65,VILLA VERDE,1.39145407738698,103.750477180775,103.750477180775,688597,VERDE GROVE,VILLA VERDE,18780.8356580082,41485.5998309627
66 VERDE GROVE VILLA VERDE SINGAPORE 688598,66,VILLA VERDE,1.39179507975226,103.750573185904,103.750573185904,688598,VERDE GROVE,VILLA VERDE,18791.521103764,41523.3058084622
67 VERDE GROVE VILLA VERDE SINGAPORE 688599,67,VILLA VERDE,1.39146428587975,103.750428262405,103.750428262405,688599,VERDE GROVE,VILLA VERDE,18775.391718993,41486.7288267557
68 VERDE GROVE VILLA VERDE SINGAPORE 688600,68,VILLA VERDE,1.39180230261094,103.750523268373,103.750523268373,688600,VERDE GROVE,VILLA VERDE,18785.9659601767,41524.1046713572
69 VERDE GROVE VILLA VERDE SINGAPORE 688601,69,VILLA VERDE,1.39147761192188,103.750371920469,103.750371920469,688601,VERDE GROVE,VILLA VERDE,18769.1216456303,41488.2025748827
70 VERDE GROVE VILLA VERDE SINGAPORE 688602,70,VILLA VERDE,1.39181776790227,103.750467717004,103.750467717004,688602,VERDE GROVE,VILLA VERDE,18779.7838758426,41525.8149637766
71 VERDE GROVE VILLA VERDE SINGAPORE 688603,71,VILLA VERDE,1.39148781439015,103.750322999107,103.750322999107,688603,VERDE GROVE,VILLA VERDE,18763.6773736663,41489.33090478
72 VERDE GROVE VILLA VERDE SINGAPORE 688604,72,VILLA VERDE,1.39182804889513,103.750417715322,103.750417715322,688604,VERDE GROVE,VILLA VERDE,18774.2193794474,41526.9519805852
73 VERDE GROVE VILLA VERDE SINGAPORE 688605,73,VILLA VERDE,1.39150114207204,103.75026665581,103.75026665581,688605,VERDE GROVE,VILLA VERDE,18757.4071489638,41490.8048345149
74 VERDE GROVE VILLA VERDE SINGAPORE 688606,74,VILLA VERDE,1.39184447680481,103.750328522274,103.750328522274,688606,VERDE GROVE,VILLA VERDE,18764.293417939,41528.7688465752
75 VERDE GROVE VILLA VERDE SINGAPORE 688607,75,VILLA VERDE,1.39151135220277,103.75021774043,103.75021774043,688607,VERDE GROVE,VILLA VERDE,18751.9635428963,41491.9340119138
76 VERDE GROVE VILLA VERDE SINGAPORE 688608,76,VILLA VERDE,1.39185454314371,103.750277260781,103.750277260781,688608,VERDE GROVE,VILLA VERDE,18758.5887202444,41529.8821332846
77 VERDE GROVE VILLA VERDE SINGAPORE 688609,77,VILLA VERDE,1.39152440424004,103.750161582905,103.750161582905,688609,VERDE GROVE,VILLA VERDE,18745.7139912257,41493.377461791
78 VERDE GROVE VILLA VERDE SINGAPORE 688610,78,VILLA VERDE,1.39186764745733,103.750220893276,103.750220893276,688610,VERDE GROVE,VILLA VERDE,18752.3158016903,41531.3313643448
79 VERDE GROVE VILLA VERDE SINGAPORE 688611,79,VILLA VERDE,1.3915405154621,103.750111778755,103.750111778755,688611,VERDE GROVE,VILLA VERDE,18740.1714996556,41495.1591563839
80 VERDE GROVE VILLA VERDE SINGAPORE 688612,80,VILLA VERDE,1.39187778449762,103.750171909081,103.750171909081,688612,VERDE GROVE,VILLA VERDE,18746.864537823,41532.452460194
82 VERDE GROVE VILLA VERDE SINGAPORE 688613,82,VILLA VERDE,1.39189024457809,103.750119364567,103.750119364567,688613,VERDE GROVE,VILLA VERDE,18741.0170660485,41533.8304404207
1 VERDE PLACE VILLA VERDE SINGAPORE 688614,1,VILLA VERDE,1.39162323678823,103.752304829289,103.752304829289,688614,VERDE PLACE,VILLA VERDE,18984.2298193639,41504.2975752242
3 VERDE PLACE VILLA VERDE SINGAPORE 688615,3,VILLA VERDE,1.39163494852715,103.752252118635,103.752252118635,688615,VERDE PLACE,VILLA VERDE,18978.3638538513,41505.5928027835
5 VERDE PLACE VILLA VERDE SINGAPORE 688616,5,VILLA VERDE,1.39164663919134,103.752199521125,103.752199521125,688616,VERDE PLACE,VILLA VERDE,18972.5104798209,41506.885699708
7 VERDE PLACE VILLA VERDE SINGAPORE 688617,7,VILLA VERDE,1.39165829700485,103.752146877651,103.752146877651,688617,VERDE PLACE,VILLA VERDE,18966.6519905003,41508.1749644745
9 VERDE PLACE VILLA VERDE SINGAPORE 688618,9,VILLA VERDE,1.39166996439867,103.752094260286,103.752094260286,688618,VERDE PLACE,VILLA VERDE,18960.7964069061,41509.4652886204
10 VERDE PLACE VILLA VERDE SINGAPORE 688619,10,VILLA VERDE,1.39207474591462,103.75203451497,103.75203451497,688619,VERDE PLACE,VILLA VERDE,18954.149073394,41554.2242511492
11 VERDE PLACE VILLA VERDE SINGAPORE 688620,11,VILLA VERDE,1.39168164273939,103.752041608651,103.752041608651,688620,VERDE PLACE,VILLA VERDE,18954.937009546,41510.7568234857
12 VERDE PLACE VILLA VERDE SINGAPORE 688621,12,VILLA VERDE,1.39206612667394,103.751980699941,103.751980699941,688621,VERDE PLACE,VILLA VERDE,18948.1601290638,41553.2713847533
13 VERDE PLACE VILLA VERDE SINGAPORE 688622,13,VILLA VERDE,1.39169333038735,103.75198900162,103.75198900162,688622,VERDE PLACE,VILLA VERDE,18949.0825761361,41512.0493874624
14 VERDE PLACE VILLA VERDE SINGAPORE 688623,14,VILLA VERDE,1.3920578441354,103.751927240924,103.751927240924,688623,VERDE PLACE,VILLA VERDE,18942.2108055241,41552.3557479791
15 VERDE PLACE VILLA VERDE SINGAPORE 688624,15,VILLA VERDE,1.39170508291889,103.751936687782,103.751936687782,688624,VERDE PLACE,VILLA VERDE,18943.2607716117,41513.3491249513
16 VERDE PLACE VILLA VERDE SINGAPORE 688625,16,VILLA VERDE,1.39205329660516,103.751871752527,103.751871752527,688625,VERDE PLACE,VILLA VERDE,18936.0356525583,41551.8531178404
17 VERDE PLACE VILLA VERDE SINGAPORE 688626,17,VILLA VERDE,1.39172697626983,103.751848625728,103.751848625728,688626,VERDE PLACE,VILLA VERDE,18933.4606946474,41515.7703215033
18 VERDE PLACE VILLA VERDE SINGAPORE 688627,18,VILLA VERDE,1.39205423686551,103.751808470587,103.751808470587,688627,VERDE PLACE,VILLA VERDE,18928.9932007864,41551.9573305082
19 VERDE PLACE VILLA VERDE SINGAPORE 688628,19,VILLA VERDE,1.39173854977611,103.751796284153,103.751796284153,688628,VERDE PLACE,VILLA VERDE,18927.6358027887,41517.0502637308
20 VERDE PLACE VILLA VERDE SINGAPORE 688629,20,VILLA VERDE,1.39205519842047,103.751735752796,103.751735752796,688629,VERDE PLACE,VILLA VERDE,18920.9006618559,41552.0639343485
21 VERDE PLACE VILLA VERDE SINGAPORE 688630,21,VILLA VERDE,1.39175038496312,103.751743759797,103.751743759797,688630,VERDE PLACE,VILLA VERDE,18921.7905708458,41518.3591421507
22 VERDE PLACE VILLA VERDE SINGAPORE 688631,22,VILLA VERDE,1.39205513890318,103.75164595869,103.75164595869,688631,VERDE PLACE,VILLA VERDE,18910.9077475676,41552.0576991439
23 VERDE PLACE VILLA VERDE SINGAPORE 688632,23,VILLA VERDE,1.39176225189662,103.751691084762,103.751691084762,688632,VERDE PLACE,VILLA VERDE,18915.9285704391,41519.6715316568
25 VERDE PLACE VILLA VERDE SINGAPORE 688633,25,VILLA VERDE,1.39177409748154,103.751638517431,103.751638517431,688633,VERDE PLACE,VILLA VERDE,18910.0785561539,41520.9815602601
27 VERDE PLACE VILLA VERDE SINGAPORE 688634,27,VILLA VERDE,1.39178594990744,103.751585918007,103.751585918007,688634,VERDE PLACE,VILLA VERDE,18904.2249702467,41522.292345563
29 VERDE PLACE VILLA VERDE SINGAPORE 688635,29,VILLA VERDE,1.39179779439481,103.751533344692,103.751533344692,688635,VERDE PLACE,VILLA VERDE,18898.3742900658,41523.6022530943
31 VERDE PLACE VILLA VERDE SINGAPORE 688636,31,VILLA VERDE,1.39180964982894,103.751480734387,103.751480734387,688636,VERDE PLACE,VILLA VERDE,18892.5194934402,41524.913371345
33 VERDE PLACE VILLA VERDE SINGAPORE 688637,33,VILLA VERDE,1.39182149130308,103.751428168143,103.751428168143,688637,VERDE PLACE,VILLA VERDE,18886.6696002269,41526.2229459286
35 VERDE PLACE VILLA VERDE SINGAPORE 688638,35,VILLA VERDE,1.39183357696608,103.751376194265,103.751376194265,688638,VERDE PLACE,VILLA VERDE,18880.8856306821,41527.5595195536
1 VERDE VIEW VILLA VERDE SINGAPORE 688639,1,VILLA VERDE,1.39323150873149,103.752300320404,103.752300320404,688639,VERDE VIEW,VILLA VERDE,18983.7341508623,41682.132331213
2 VERDE VIEW VILLA VERDE SINGAPORE 688640,2,VILLA VERDE,1.39290119513171,103.752078037961,103.752078037961,688640,VERDE VIEW,VILLA VERDE,18958.9957645545,41645.6087422296
3 VERDE VIEW VILLA VERDE SINGAPORE 688641,3,VILLA VERDE,1.39317680994043,103.752302650435,103.752302650435,688641,VERDE VIEW,VILLA VERDE,18983.9932448035,41676.0840010997
4 VERDE VIEW VILLA VERDE SINGAPORE 688642,4,VILLA VERDE,1.3928458593371,103.752071661619,103.752071661619,688642,VERDE VIEW,VILLA VERDE,18958.2859500684,41639.4900087845
5 VERDE VIEW VILLA VERDE SINGAPORE 688643,5,VILLA VERDE,1.39312331649151,103.752323635636,103.752323635636,688643,VERDE VIEW,VILLA VERDE,18986.3284197468,41670.1688803807
6 VERDE VIEW VILLA VERDE SINGAPORE 688644,6,VILLA VERDE,1.39279223651958,103.752079885456,103.752079885456,688644,VERDE VIEW,VILLA VERDE,18959.2009512167,41633.560631847
7 VERDE VIEW VILLA VERDE SINGAPORE 688645,7,VILLA VERDE,1.39307758472164,103.752384031234,103.752384031234,688645,VERDE VIEW,VILLA VERDE,18993.0494860671,41665.1118570007
8 VERDE VIEW VILLA VERDE SINGAPORE 688646,8,VILLA VERDE,1.39273861616667,103.752088141386,103.752088141386,688646,VERDE VIEW,VILLA VERDE,18960.1195239862,41627.6315273196
9 VERDE VIEW VILLA VERDE SINGAPORE 688647,9,VILLA VERDE,1.39302801120484,103.752391593195,103.752391593195,688647,VERDE VIEW,VILLA VERDE,18993.8908452112,41659.6302343458
10 VERDE VIEW VILLA VERDE SINGAPORE 688648,10,VILLA VERDE,1.39268499088586,103.752096378004,103.752096378004,688648,VERDE VIEW,VILLA VERDE,18961.0359477289,41621.7018779702
11 VERDE VIEW VILLA VERDE SINGAPORE 688649,11,VILLA VERDE,1.39297030979065,103.752400370375,103.752400370375,688649,VERDE VIEW,VILLA VERDE,18994.8674114374,41653.2498644497
12 VERDE VIEW VILLA VERDE SINGAPORE 688650,12,VILLA VERDE,1.3926313675207,103.752104603743,103.752104603743,688650,VERDE VIEW,VILLA VERDE,18961.9511607531,41615.772440495
13 VERDE VIEW VILLA VERDE SINGAPORE 688651,13,VILLA VERDE,1.39292074202261,103.752407946751,103.752407946751,688651,VERDE VIEW,VILLA VERDE,18995.7103747837,41647.7688774224
14 VERDE VIEW VILLA VERDE SINGAPORE 688652,14,VILLA VERDE,1.39257774661993,103.752112854232,103.752112854232,688652,VERDE VIEW,VILLA VERDE,18962.869128163,41609.8432754334
15 VERDE VIEW VILLA VERDE SINGAPORE 688653,15,VILLA VERDE,1.39286303732322,103.752416716314,103.752416716314,688653,VERDE VIEW,VILLA VERDE,18996.6860935073,41641.3881443124
16 VERDE VIEW VILLA VERDE SINGAPORE 688654,16,VILLA VERDE,1.39252621784388,103.75212073693,103.75212073693,688654,VERDE VIEW,VILLA VERDE,18963.7461732598,41604.1454485711
17 VERDE VIEW VILLA VERDE SINGAPORE 688655,17,VILLA VERDE,1.39281346846046,103.752424303024,103.752424303024,688655,VERDE VIEW,VILLA VERDE,18997.530207037,41635.9070362113
18 VERDE VIEW VILLA VERDE SINGAPORE 688656,18,VILLA VERDE,1.39243087693477,103.752132177828,103.752132177828,688656,VERDE VIEW,VILLA VERDE,18965.0190327782,41593.6030795742
19 VERDE VIEW VILLA VERDE SINGAPORE 688657,19,VILLA VERDE,1.39272012893627,103.752439462918,103.752439462918,688657,VERDE VIEW,VILLA VERDE,18999.216950966,41625.585956445
20 VERDE VIEW VILLA VERDE SINGAPORE 688658,20,VILLA VERDE,1.3923825209545,103.75213897793,103.75213897793,688658,VERDE VIEW,VILLA VERDE,18965.7756113,41588.2560889106
21 VERDE VIEW VILLA VERDE SINGAPORE 688659,21,VILLA VERDE,1.39267061865403,103.752447105653,103.752447105653,688659,VERDE VIEW,VILLA VERDE,19000.0672997003,41620.1113256942
22 VERDE VIEW VILLA VERDE SINGAPORE 688660,22,VILLA VERDE,1.39232492794303,103.75214786499,103.75214786499,688660,VERDE VIEW,VILLA VERDE,18966.7644057916,41581.8877051361
23 VERDE VIEW VILLA VERDE SINGAPORE 688661,23,VILLA VERDE,1.39261292354025,103.752456030787,103.752456030787,688661,VERDE VIEW,VILLA VERDE,19001.0603317097,41613.7316519618
24 VERDE VIEW VILLA VERDE SINGAPORE 688662,24,VILLA VERDE,1.39227529721975,103.752155513445,103.752155513445,688662,VERDE VIEW,VILLA VERDE,18967.6153901536,41576.3997564726
25 VERDE VIEW VILLA VERDE SINGAPORE 688663,25,VILLA VERDE,1.39256338725357,103.752463682226,103.752463682226,688663,VERDE VIEW,VILLA VERDE,19001.9116490204,41608.2541457526
26 VERDE VIEW VILLA VERDE SINGAPORE 688664,26,VILLA VERDE,1.39221769955462,103.752164399415,103.752164399415,688664,VERDE VIEW,VILLA VERDE,18968.6040635742,41570.0308581423
27 VERDE VIEW VILLA VERDE SINGAPORE 688665,27,VILLA VERDE,1.39250569788956,103.752472652236,103.752472652236,688665,VERDE VIEW,VILLA VERDE,19002.909675247,41601.8751076479
28 VERDE VIEW VILLA VERDE SINGAPORE 688666,28,VILLA VERDE,1.39216805322882,103.752172058749,103.752172058749,688666,VERDE VIEW,VILLA VERDE,18969.4562586555,41564.5411842037
29 VERDE VIEW VILLA VERDE SINGAPORE 688667,29,VILLA VERDE,1.39245616379247,103.752480299594,103.752480299594,688667,VERDE VIEW,VILLA VERDE,19003.760538538,41596.3978435826
30 VERDE VIEW VILLA VERDE SINGAPORE 688668,30,VILLA VERDE,1.39211045583727,103.752180944447,103.752180944447,688668,VERDE VIEW,VILLA VERDE,18970.4449018082,41558.1723161414
31 VERDE VIEW VILLA VERDE SINGAPORE 688669,31,VILLA VERDE,1.39239846785671,103.752489211671,103.752489211671,688669,VERDE VIEW,VILLA VERDE,19004.7521176841,41590.0180790462
32 VERDE VIEW VILLA VERDE SINGAPORE 688670,32,VILLA VERDE,1.39206080704764,103.752188601061,103.752188601061,688670,VERDE VIEW,VILLA VERDE,18971.2967942096,41552.682369791
33 VERDE VIEW VILLA VERDE SINGAPORE 688671,33,VILLA VERDE,1.39234895073213,103.752496895201,103.752496895201,688671,VERDE VIEW,VILLA VERDE,19005.607006616,41584.5426915959
34 VERDE VIEW VILLA VERDE SINGAPORE 688672,34,VILLA VERDE,1.39200320910846,103.752197486757,103.752197486757,688672,VERDE VIEW,VILLA VERDE,18972.2854373613,41546.3134411927
35 VERDE VIEW VILLA VERDE SINGAPORE 688673,35,VILLA VERDE,1.39229123754991,103.752505773552,103.752505773552,688673,VERDE VIEW,VILLA VERDE,19006.594832533,41578.1610201765
36 VERDE VIEW VILLA VERDE SINGAPORE 688674,36,VILLA VERDE,1.39195399309397,103.752205264115,103.752205264115,688674,VERDE VIEW,VILLA VERDE,18973.1507687485,41540.8713485245
37 VERDE VIEW VILLA VERDE SINGAPORE 688675,37,VILLA VERDE,1.39224170756333,103.752513560707,103.752513560707,688675,VERDE VIEW,VILLA VERDE,19007.4612535667,41572.6842101309
39 VERDE VIEW VILLA VERDE SINGAPORE 688676,39,VILLA VERDE,1.392148142989,103.752527544009,103.752527544009,688676,VERDE VIEW,VILLA VERDE,19009.0170581974,41562.3382500801
41 VERDE VIEW VILLA VERDE SINGAPORE 688677,41,VILLA VERDE,1.39209857629492,103.752534543506,103.752534543506,688677,VERDE VIEW,VILLA VERDE,19009.7958231512,41556.8573841248
43 VERDE VIEW VILLA VERDE SINGAPORE 688678,43,VILLA VERDE,1.39204090117064,103.752543697642,103.752543697642,688678,VERDE VIEW,VILLA VERDE,19010.8143408028,41550.4799199551
45 VERDE VIEW VILLA VERDE SINGAPORE 688679,45,VILLA VERDE,1.39199127973299,103.752550785806,103.752550785806,688679,VERDE VIEW,VILLA VERDE,19011.6029731184,41544.993000403
47 VERDE VIEW VILLA VERDE SINGAPORE 688680,47,VILLA VERDE,1.39193370562099,103.752560088984,103.752560088984,688680,VERDE VIEW,VILLA VERDE,19012.638077626,41538.6267051194
49 VERDE VIEW VILLA VERDE SINGAPORE 688681,49,VILLA VERDE,1.39188404942635,103.752567384942,103.752567384942,688681,VERDE VIEW,VILLA VERDE,19013.4498346811,41533.1359415334
51 VERDE VIEW VILLA VERDE SINGAPORE 688682,51,VILLA VERDE,1.39182637564983,103.752575941806,103.752575941806,688682,VERDE VIEW,VILLA VERDE,19014.4018838406,41526.7586287055
53 VERDE VIEW VILLA VERDE SINGAPORE 688683,53,VILLA VERDE,1.39177669974441,103.752583183095,103.752583183095,688683,VERDE VIEW,VILLA VERDE,19015.2075570319,41521.2656858228
55 VERDE VIEW VILLA VERDE SINGAPORE 688684,55,VILLA VERDE,1.3917190161227,103.75259201058,103.75259201058,688684,VERDE VIEW,VILLA VERDE,19016.1897228351,41514.8872833475
57 VERDE VIEW VILLA VERDE SINGAPORE 688685,57,VILLA VERDE,1.39166925152381,103.752599135464,103.752599135464,688685,VERDE VIEW,VILLA VERDE,19016.9824413285,41509.38453364
59 VERDE VIEW VILLA VERDE SINGAPORE 688686,59,VILLA VERDE,1.39155672143796,103.752622432315,103.752622432315,688686,VERDE VIEW,VILLA VERDE,19019.5746519901,41496.9414260685
61 VERDE VIEW VILLA VERDE SINGAPORE 688687,61,VILLA VERDE,1.39150723060112,103.752630421816,103.752630421816,688687,VERDE VIEW,VILLA VERDE,19020.4635924045,41491.4689443447
63 VERDE VIEW VILLA VERDE SINGAPORE 688688,63,VILLA VERDE,1.39144983006444,103.752640587165,103.752640587165,688688,VERDE VIEW,VILLA VERDE,19021.5946464194,41485.1218389627
65 VERDE VIEW VILLA VERDE SINGAPORE 688689,65,VILLA VERDE,1.39140026477387,103.752648625081,103.752648625081,688689,VERDE VIEW,VILLA VERDE,19022.4889745349,41479.6411243472
67 VERDE VIEW VILLA VERDE SINGAPORE 688690,67,VILLA VERDE,1.39134286369009,103.752658806476,103.752658806476,688690,VERDE VIEW,VILLA VERDE,19023.6218143608,41473.2939584292
69 VERDE VIEW VILLA VERDE SINGAPORE 688691,69,VILLA VERDE,1.39129330168429,103.752666848198,103.752666848198,688691,VERDE VIEW,VILLA VERDE,19024.5165662281,41467.8136070296
71 VERDE VIEW VILLA VERDE SINGAPORE 688692,71,VILLA VERDE,1.39123590251649,103.752677030408,103.752677030408,688692,VERDE VIEW,VILLA VERDE,19025.649496858,41461.4666529894
73 VERDE VIEW VILLA VERDE SINGAPORE 688693,73,VILLA VERDE,1.39118633832037,103.752685063426,103.752685063426,688693,VERDE VIEW,VILLA VERDE,19026.5432801498,41455.9860594459
75 VERDE VIEW VILLA VERDE SINGAPORE 688694,75,VILLA VERDE,1.39112893778358,103.752695242099,103.752695242099,688694,VERDE VIEW,VILLA VERDE,19027.6758172959,41449.6389540639
77 VERDE VIEW VILLA VERDE SINGAPORE 688695,77,VILLA VERDE,1.39107928599224,103.752703254449,103.752703254449,688695,VERDE VIEW,VILLA VERDE,19028.567300221,41444.1486747656
79 VERDE VIEW VILLA VERDE SINGAPORE 688696,79,VILLA VERDE,1.39098607282341,103.752723335814,103.752723335814,688696,VERDE VIEW,VILLA VERDE,19030.8017433146,41433.8415485378
81 VERDE VIEW VILLA VERDE SINGAPORE 688697,81,VILLA VERDE,1.39093616562429,103.752730909738,103.752730909738,688697,VERDE VIEW,VILLA VERDE,19031.644434249,41428.3230292108
83 VERDE VIEW VILLA VERDE SINGAPORE 688698,83,VILLA VERDE,1.39087842120647,103.752738976757,103.752738976757,688698,VERDE VIEW,VILLA VERDE,19032.5419707708,41421.9379072413
85 VERDE VIEW VILLA VERDE SINGAPORE 688699,85,VILLA VERDE,1.39082880498852,103.752746655927,103.752746655927,688699,VERDE VIEW,VILLA VERDE,19033.3963754149,41416.4515627809
87 VERDE VIEW VILLA VERDE SINGAPORE 688700,87,VILLA VERDE,1.39077105865434,103.752754721313,103.752754721313,688700,VERDE VIEW,VILLA VERDE,19034.2937303279,41410.0662289355
89 VERDE VIEW VILLA VERDE SINGAPORE 688701,89,VILLA VERDE,1.39072144106747,103.752762396403,103.752762396403,688701,VERDE VIEW,VILLA VERDE,19035.1476809531,41404.5797331352
91 VERDE VIEW VILLA VERDE SINGAPORE 688702,91,VILLA VERDE,1.39066369966034,103.752770462604,103.752770462604,688702,VERDE VIEW,VILLA VERDE,19036.04512667,41398.1949441135
93 VERDE VIEW VILLA VERDE SINGAPORE 688703,93,VILLA VERDE,1.39061408508416,103.752778130893,103.752778130893,688703,VERDE VIEW,VILLA VERDE,19036.8983205948,41392.708781261
95 VERDE VIEW VILLA VERDE SINGAPORE 688704,95,VILLA VERDE,1.39055634586726,103.75278621178,103.75278621178,688704,VERDE VIEW,VILLA VERDE,19037.7974007837,41386.3242343832
97 VERDE VIEW VILLA VERDE SINGAPORE 688705,97,VILLA VERDE,1.39050696614704,103.752793694569,103.752793694569,688705,VERDE VIEW,VILLA VERDE,19038.6299519436,41380.8640414607
99 VERDE VIEW VILLA VERDE SINGAPORE 688706,99,VILLA VERDE,1.39041035930065,103.752807544678,103.752807544678,688706,VERDE VIEW,VILLA VERDE,19040.1709252624,41370.1816830393
101 VERDE VIEW VILLA VERDE SINGAPORE 688707,101,VILLA VERDE,1.39036018237307,103.752812168155,103.752812168155,688707,VERDE VIEW,VILLA VERDE,19040.6852691099,41364.6333497483
103 VERDE VIEW VILLA VERDE SINGAPORE 688708,103,VILLA VERDE,1.39030209376957,103.752817231421,103.752817231421,688708,VERDE VIEW,VILLA VERDE,19041.248526019,41358.2101809233
105 VERDE VIEW VILLA VERDE SINGAPORE 688709,105,VILLA VERDE,1.3902521062681,103.752821951444,103.752821951444,688709,VERDE VIEW,VILLA VERDE,19041.7736150008,41352.6827930771
107 VERDE VIEW VILLA VERDE SINGAPORE 688710,107,VILLA VERDE,1.39019401410547,103.752826999478,103.752826999478,688710,VERDE VIEW,VILLA VERDE,19042.3351769019,41346.2592307683
109 VERDE VIEW VILLA VERDE SINGAPORE 688711,109,VILLA VERDE,1.3901440241401,103.752831713245,103.752831713245,688711,VERDE VIEW,VILLA VERDE,19042.85956972,41340.7315705102
111 VERDE VIEW VILLA VERDE SINGAPORE 688712,111,VILLA VERDE,1.39008593663131,103.752836775422,103.752836775422,688712,VERDE VIEW,VILLA VERDE,19043.4227055572,41334.3085227571
113 VERDE VIEW VILLA VERDE SINGAPORE 688713,113,VILLA VERDE,1.39003594693965,103.752841491092,103.752841491092,688713,VERDE VIEW,VILLA VERDE,19043.9473102512,41328.780892767
115 VERDE VIEW VILLA VERDE SINGAPORE 688714,115,VILLA VERDE,1.38997785778827,103.752846550549,103.752846550549,688714,VERDE VIEW,VILLA VERDE,19044.5101434086,41322.3576634061
117 VERDE VIEW VILLA VERDE SINGAPORE 688715,117,VILLA VERDE,1.38992798813325,103.752871371333,103.752871371333,688715,VERDE VIEW,VILLA VERDE,19047.2721877266,41316.8432302568
119 VERDE VIEW VILLA VERDE SINGAPORE 688716,119,VILLA VERDE,1.38983459614726,103.752865554913,103.752865554913,688716,VERDE VIEW,VILLA VERDE,19046.6245436789,41306.5164298397
121 VERDE VIEW VILLA VERDE SINGAPORE 688717,121,VILLA VERDE,1.38978437680558,103.752870614646,103.752870614646,688717,VERDE VIEW,VILLA VERDE,19047.1874373723,41300.9634050112
123 VERDE VIEW VILLA VERDE SINGAPORE 688718,123,VILLA VERDE,1.38972458174287,103.752859411047,103.752859411047,688718,VERDE VIEW,VILLA VERDE,19045.940396443,41294.351606112
125 VERDE VIEW VILLA VERDE SINGAPORE 688719,125,VILLA VERDE,1.389674760405,103.752864376933,103.752864376933,688719,VERDE VIEW,VILLA VERDE,19046.492847682,41288.8425909318
127 VERDE VIEW VILLA VERDE SINGAPORE 688720,127,VILLA VERDE,1.38961256767665,103.752827985245,103.752827985245,688720,VERDE VIEW,VILLA VERDE,19042.4426887808,41281.9657655675
129 VERDE VIEW VILLA VERDE SINGAPORE 688721,129,VILLA VERDE,1.38956246412268,103.752833012337,103.752833012337,688721,VERDE VIEW,VILLA VERDE,19043.0019503152,41276.4255440962
130 VERDE VIEW VILLA VERDE SINGAPORE 688722,130,VILLA VERDE,1.38961841515428,103.752533299773,103.752533299773,688722,VERDE VIEW,VILLA VERDE,19009.648024586,41282.6134701502
132 VERDE VIEW VILLA VERDE SINGAPORE 688723,132,VILLA VERDE,1.38962934169617,103.752484466826,103.752484466826,688723,VERDE VIEW,VILLA VERDE,19004.2135897176,41283.8218588643
134 VERDE VIEW VILLA VERDE SINGAPORE 688724,134,VILLA VERDE,1.38964224760853,103.752428030307,103.752428030307,688724,VERDE VIEW,VILLA VERDE,18997.9329830967,41285.2491456363
136 VERDE VIEW VILLA VERDE SINGAPORE 688725,136,VILLA VERDE,1.38965324340578,103.75237929255,103.75237929255,688725,VERDE VIEW,VILLA VERDE,18992.5091420226,41286.4651921503
138 VERDE VIEW VILLA VERDE SINGAPORE 688726,138,VILLA VERDE,1.38966616573945,103.752322855214,103.752322855214,688726,VERDE VIEW,VILLA VERDE,18986.2284445968,41287.8942950014
140 VERDE VIEW VILLA VERDE SINGAPORE 688727,140,VILLA VERDE,1.38967717604235,103.752274119359,103.752274119359,688727,VERDE VIEW,VILLA VERDE,18980.8048153985,41289.1119457185
142 VERDE VIEW VILLA VERDE SINGAPORE 688728,142,VILLA VERDE,1.38969008331818,103.75221768311,103.75221768311,688728,VERDE VIEW,VILLA VERDE,18974.5242390456,41290.5393838305
144 VERDE VIEW VILLA VERDE SINGAPORE 688729,144,VILLA VERDE,1.38970108403807,103.752168943719,103.752168943719,688729,VERDE VIEW,VILLA VERDE,18969.1002163636,41291.7559751682
146 VERDE VIEW VILLA VERDE SINGAPORE 688730,146,VILLA VERDE,1.3897139943222,103.75211250339,103.75211250339,688730,VERDE VIEW,VILLA VERDE,18962.8191859899,41293.183746228
148 VERDE VIEW VILLA VERDE SINGAPORE 688731,148,VILLA VERDE,1.38972489211846,103.752063822477,103.752063822477,688731,VERDE VIEW,VILLA VERDE,18957.4016709244,41294.3889568038
150 VERDE VIEW VILLA VERDE SINGAPORE 688732,150,VILLA VERDE,1.38974803058073,103.751972660687,103.751972660687,688732,VERDE VIEW,VILLA VERDE,18947.2566297501,41296.9478424154
152 VERDE VIEW VILLA VERDE SINGAPORE 688733,152,VILLA VERDE,1.38975886076191,103.751923975153,103.751923975153,688733,VERDE VIEW,VILLA VERDE,18941.8386001289,41298.1455767993
154 VERDE VIEW VILLA VERDE SINGAPORE 688734,154,VILLA VERDE,1.38977160050338,103.751867498653,103.751867498653,688734,VERDE VIEW,VILLA VERDE,18935.5535441134,41299.5544909053
156 VERDE VIEW VILLA VERDE SINGAPORE 688735,156,VILLA VERDE,1.38978239481999,103.751818716021,103.751818716021,688735,VERDE VIEW,VILLA VERDE,18930.124708822,41300.7482601833
158 VERDE VIEW VILLA VERDE SINGAPORE 688736,158,VILLA VERDE,1.38979513455902,103.751762243872,103.751762243872,688736,VERDE VIEW,VILLA VERDE,18923.8401370952,41302.1571742892
160 VERDE VIEW VILLA VERDE SINGAPORE 688737,160,VILLA VERDE,1.38980592887343,103.751713462872,103.751713462872,688737,VERDE VIEW,VILLA VERDE,18918.4114834117,41303.3509435672
162 VERDE VIEW VILLA VERDE SINGAPORE 688738,162,VILLA VERDE,1.38981866231393,103.751656988546,103.751656988546,688738,VERDE VIEW,VILLA VERDE,18912.1266695401,41304.7591615096
164 VERDE VIEW VILLA VERDE SINGAPORE 688739,164,VILLA VERDE,1.38982945142494,103.751608200745,103.751608200745,688739,VERDE VIEW,VILLA VERDE,18906.697259157,41305.9523556959
166 VERDE VIEW VILLA VERDE SINGAPORE 688740,166,VILLA VERDE,1.38984216378376,103.751551678279,103.751551678279,688740,VERDE VIEW,VILLA VERDE,18900.4070878532,41307.3582430035
168 VERDE VIEW VILLA VERDE SINGAPORE 688741,168,VILLA VERDE,1.38985310481213,103.751502835259,103.751502835259,688741,VERDE VIEW,VILLA VERDE,18894.9715330685,41308.5682359207
170 VERDE VIEW VILLA VERDE SINGAPORE 688742,170,VILLA VERDE,1.38987362608501,103.751411373283,103.751411373283,688742,VERDE VIEW,VILLA VERDE,18884.7930760402,41310.8377293404
172 VERDE VIEW VILLA VERDE SINGAPORE 688743,172,VILLA VERDE,1.3898845589023,103.751362641504,103.751362641504,688743,VERDE VIEW,VILLA VERDE,18879.3699008618,41312.0468142182
174 VERDE VIEW VILLA VERDE SINGAPORE 688744,174,VILLA VERDE,1.38989717900783,103.751306137261,103.751306137261,688744,VERDE VIEW,VILLA VERDE,18873.0817575129,41313.4425012153
176 VERDE VIEW VILLA VERDE SINGAPORE 688745,176,VILLA VERDE,1.38990809238702,103.751257381275,103.751257381275,688745,VERDE VIEW,VILLA VERDE,18867.6558884829,41314.6494370662
178 VERDE VIEW VILLA VERDE SINGAPORE 688746,178,VILLA VERDE,1.38992071385886,103.751200884374,103.751200884374,688746,VERDE VIEW,VILLA VERDE,18861.3685623696,41316.0452754032
180 VERDE VIEW VILLA VERDE SINGAPORE 688747,180,VILLA VERDE,1.38993162833063,103.751152126211,103.751152126211,688747,VERDE VIEW,VILLA VERDE,18855.9424511967,41317.2523323242
182 VERDE VIEW VILLA VERDE SINGAPORE 688748,182,VILLA VERDE,1.38994424514624,103.751095623599,103.751095623599,688748,VERDE VIEW,VILLA VERDE,18849.6544894548,41318.6476561073
184 VERDE VIEW VILLA VERDE SINGAPORE 688749,184,VILLA VERDE,1.38995515797347,103.751046867883,103.751046867883,688749,VERDE VIEW,VILLA VERDE,18844.2286506938,41319.8545314204
186 VERDE VIEW VILLA VERDE SINGAPORE 688750,186,VILLA VERDE,1.38996777807115,103.750990363093,103.750990363093,688750,VERDE VIEW,VILLA VERDE,18837.9404468089,41321.2502184175
188 VERDE VIEW VILLA VERDE SINGAPORE 688751,188,VILLA VERDE,1.38997871662639,103.750941589425,103.750941589425,688751,VERDE VIEW,VILLA VERDE,18832.512610361,41322.4599389229
190 VERDE VIEW VILLA VERDE SINGAPORE 688752,190,VILLA VERDE,1.39000133796285,103.750850421107,103.750850421107,688752,VERDE VIEW,VILLA VERDE,18822.3668427542,41324.9616483133
192 VERDE VIEW VILLA VERDE SINGAPORE 688753,192,VILLA VERDE,1.39001217441587,103.750801732843,103.750801732843,688753,VERDE VIEW,VILLA VERDE,18816.9485104531,41326.1600788608
194 VERDE VIEW VILLA VERDE SINGAPORE 688754,194,VILLA VERDE,1.39002489880045,103.750745252797,103.750745252797,688754,VERDE VIEW,VILLA VERDE,18810.6630609548,41327.5672979597
196 VERDE VIEW VILLA VERDE SINGAPORE 688755,196,VILLA VERDE,1.39003571143323,103.750696471788,103.750696471788,688755,VERDE VIEW,VILLA VERDE,18805.2344072713,41328.7630951926
198 VERDE VIEW VILLA VERDE SINGAPORE 688756,198,VILLA VERDE,1.3900484303406,103.750639993374,103.750639993374,688756,VERDE VIEW,VILLA VERDE,18798.9491393799,41330.1697089318
200 VERDE VIEW VILLA VERDE SINGAPORE 688757,200,VILLA VERDE,1.3900592383177,103.750591212908,103.750591212908,688757,VERDE VIEW,VILLA VERDE,18793.5205462324,41331.364991609
202 VERDE VIEW VILLA VERDE SINGAPORE 688758,202,VILLA VERDE,1.39007196351846,103.750534738028,103.750534738028,688758,VERDE VIEW,VILLA VERDE,18787.2356718257,41332.7723015118
204 VERDE VIEW VILLA VERDE SINGAPORE 688759,204,VILLA VERDE,1.39008275890189,103.750485965721,103.750485965721,688759,VERDE VIEW,VILLA VERDE,18781.8079867177,41333.9661918618
206 VERDE VIEW VILLA VERDE SINGAPORE 688760,206,VILLA VERDE,1.39009547643529,103.750429484313,103.750429484313,688760,VERDE VIEW,VILLA VERDE,18775.5223858785,41335.3726542611
208 VERDE VIEW VILLA VERDE SINGAPORE 688761,208,VILLA VERDE,1.39010639170853,103.750380632582,103.750380632582,688761,VERDE VIEW,VILLA VERDE,18770.0858625192,41336.5798019879
210 VERDE VIEW VILLA VERDE SINGAPORE 688762,210,VILLA VERDE,1.3901262742457,103.75027164469,103.75027164469,688762,VERDE VIEW,VILLA VERDE,18757.9569971561,41338.7787407376
212 VERDE VIEW VILLA VERDE SINGAPORE 688763,212,VILLA VERDE,1.39014229257499,103.750218966821,103.750218966821,688763,VERDE VIEW,VILLA VERDE,18752.0946940696,41340.550174484
214 VERDE VIEW VILLA VERDE SINGAPORE 688764,214,VILLA VERDE,1.39015388533805,103.750170295388,103.750170295388,688764,VERDE VIEW,VILLA VERDE,18746.6782383835,41341.8322354704
216 VERDE VIEW VILLA VERDE SINGAPORE 688765,216,VILLA VERDE,1.39016580109416,103.750113617091,103.750113617091,688765,VERDE VIEW,VILLA VERDE,18740.3707235241,41343.1500429455
218 VERDE VIEW VILLA VERDE SINGAPORE 688766,218,VILLA VERDE,1.39017744668779,103.750065014739,103.750065014739,688766,VERDE VIEW,VILLA VERDE,18734.9619559059,41344.4379456528
220 VERDE VIEW VILLA VERDE SINGAPORE 688767,220,VILLA VERDE,1.39018950369796,103.750008637519,103.750008637519,688767,VERDE VIEW,VILLA VERDE,18728.6879477054,41345.7713714074
222 VERDE VIEW VILLA VERDE SINGAPORE 688768,222,VILLA VERDE,1.39020063548999,103.749959937815,103.749959937815,688768,VERDE VIEW,VILLA VERDE,18723.268344149,41347.0024611093
224 VERDE VIEW VILLA VERDE SINGAPORE 688769,224,VILLA VERDE,1.39023320916657,103.749907629256,103.749907629256,688769,VERDE VIEW,VILLA VERDE,18717.4472055202,41350.6045025103
226 VERDE VIEW VILLA VERDE SINGAPORE 688770,226,VILLA VERDE,1.39024397935133,103.749858804724,103.749858804724,688770,VERDE VIEW,VILLA VERDE,18712.0137089593,41351.7956082057
228 VERDE VIEW VILLA VERDE SINGAPORE 688771,228,VILLA VERDE,1.3902505954724,103.749805147504,103.749805147504,688771,VERDE VIEW,VILLA VERDE,18706.0423805956,41352.5273972489
10 VERDE WALK VILLA VERDE SINGAPORE 688772,10,VILLA VERDE,1.39221483455721,103.750867683871,103.750867683871,688772,VERDE WALK,VILLA VERDE,18824.2965175202,41569.7190676425
12 VERDE WALK VILLA VERDE SINGAPORE 688773,12,VILLA VERDE,1.3921613004098,103.750875207649,103.750875207649,688773,VERDE WALK,VILLA VERDE,18825.1336088786,41563.7994975299
14 VERDE WALK VILLA VERDE SINGAPORE 688774,14,VILLA VERDE,1.39210760640445,103.750882785283,103.750882785283,688774,VERDE WALK,VILLA VERDE,18825.9766932968,41557.8622509167
15 VERDE WALK VILLA VERDE SINGAPORE 688775,15,VILLA VERDE,1.3920133531188,103.751262922232,103.751262922232,688775,VERDE WALK,VILLA VERDE,18868.2806196669,41547.4387140237
16 VERDE WALK VILLA VERDE SINGAPORE 688776,16,VILLA VERDE,1.39205381933023,103.750890370264,103.750890370264,688776,VERDE WALK,VILLA VERDE,18826.8205949506,41551.9147131871
17 VERDE WALK VILLA VERDE SINGAPORE 688777,17,VILLA VERDE,1.3919604859309,103.751251253068,103.751251253068,688777,VERDE WALK,VILLA VERDE,18866.9817902176,41541.5929675251
18 VERDE WALK VILLA VERDE SINGAPORE 688778,18,VILLA VERDE,1.39199862282493,103.750898456556,103.750898456556,688778,VERDE WALK,VILLA VERDE,18827.7202804983,41545.8113256115
19 VERDE WALK VILLA VERDE SINGAPORE 688779,19,VILLA VERDE,1.39190751992451,103.751239555893,103.751239555893,688779,VERDE WALK,VILLA VERDE,18865.6798431659,41535.7362942826
20 VERDE WALK VILLA VERDE SINGAPORE 688780,20,VILLA VERDE,1.39194435992473,103.75088823874,103.75088823874,688780,VERDE WALK,VILLA VERDE,18826.5829610107,41539.8112426624
21 VERDE WALK VILLA VERDE SINGAPORE 688781,21,VILLA VERDE,1.39185454598045,103.751227876126,103.751227876126,688781,VERDE WALK,VILLA VERDE,18864.3798332652,41529.8787432704
22 VERDE WALK VILLA VERDE SINGAPORE 688782,22,VILLA VERDE,1.39188803990456,103.750877446572,103.750877446572,688782,VERDE WALK,VILLA VERDE,18825.3817155408,41533.5836958177
23 VERDE WALK VILLA VERDE SINGAPORE 688783,23,VILLA VERDE,1.39180136591173,103.75121608159,103.75121608159,688783,VERDE WALK,VILLA VERDE,18863.0670502754,41523.9984004665
32B HONG SAN TERRACE UTTAMAYANMUNI BUDDHIST TEMPLE SINGAPORE 688785,32B,UTTAMAYANMUNI BUDDHIST TEMPLE,1.37868132280496,103.745749453866,103.745749453866,688785,HONG SAN TERRACE,UTTAMAYANMUNI BUDDHIST TEMPLE,18254.6488869796,40073.2708001621
31 CHOA CHU KANG WAY DBS EM CHOA CHU KANG WAY/31 SINGAPORE 688786,31,DBS EM CHOA CHU KANG WAY/31,1.37758447799734,103.750314408095,103.750314408095,688786,CHOA CHU KANG WAY,DBS EM CHOA CHU KANG WAY/31,18762.6674823901,39951.9689496886
503 LORONG KEBASI KRANJI CAMP SINGAPORE 688792,503,KRANJI CAMP,1.39760942457245,103.738152520307,103.738152520307,688792,LORONG KEBASI,KRANJI CAMP,17409.2884372147,42166.2796272449
207 STAGMONT ROAD STAGMONT CAMP SINGAPORE 688793,207,STAGMONT CAMP,1.38554496050474,103.751891190795,103.751891190795,688793,STAGMONT ROAD,STAGMONT CAMP,18938.1740856078,40832.1935159639
312 STAGMONT ROAD STAGMONT CAMP SINGAPORE 688794,312,STAGMONT CAMP,1.38557367187612,103.751886594702,103.751886594702,688794,STAGMONT ROAD,STAGMONT CAMP,18937.6627080226,40835.3682945073
315 STAGMONT ROAD STAGMONT CAMP SINGAPORE 688795,315,STAGMONT CAMP,1.38557367187612,103.751886594702,103.751886594702,688795,STAGMONT ROAD,STAGMONT CAMP,18937.6627080226,40835.3682945073
319 STAGMONT ROAD STAGMONT CAMP SINGAPORE 688796,319,STAGMONT CAMP,1.38557367187612,103.751886594702,103.751886594702,688796,STAGMONT ROAD,STAGMONT CAMP,18937.6627080226,40835.3682945073
201B STAGMONT ROAD STAGMONT CAMP SINGAPORE 688797,201B,STAGMONT CAMP,1.38557367187612,103.751886594702,103.751886594702,688797,STAGMONT ROAD,STAGMONT CAMP,18937.6627080226,40835.3682945073
31 TECK WHYE LANE METHODIST CHURCH OF THE INCARNATION SINGAPORE 688798,31,METHODIST CHURCH OF THE INCARNATION,1.37959585490566,103.753612205325,103.753612205325,688798,TECK WHYE LANE,METHODIST CHURCH OF THE INCARNATION,19129.6790132271,40174.3644734509
2 TECK WHYE LANE CHUA CHU KANG COMBINED TEMPLE SINGAPORE 688799,2,CHUA CHU KANG COMBINED TEMPLE,1.3810188781236,103.753618796426,103.753618796426,688799,TECK WHYE LANE,CHUA CHU KANG COMBINED TEMPLE,19130.4177941745,40331.7152806558
4 TECK WHYE LANE SINGAPORE 688800,4,NIL,1.38064984341011,103.753610826376,103.753610826376,688800,TECK WHYE LANE,4 TECK WHYE LANE SINGAPORE 688800,19129.5294591198,40290.9092865326
3 TECK WHYE CRESCENT CHUA CHU KANG SECONDARY SCHOOL SINGAPORE 688845,3,CHUA CHU KANG SECONDARY SCHOOL,1.38327483805564,103.7520245177,103.7520245177,688845,TECK WHYE CRESCENT,CHUA CHU KANG SECONDARY SCHOOL,18953.0030669943,40581.1741350908
2 TECK WHYE CRESCENT CHOA CHU KANG POLYCLINIC SINGAPORE 688846,2,CHOA CHU KANG POLYCLINIC,1.38234139419018,103.750776869899,103.750776869899,688846,TECK WHYE CRESCENT,CHOA CHU KANG POLYCLINIC,18814.1520211697,40477.963337414
1 TECK WHYE CRESCENT AL - KHAIR MOSQUE KINDERGARTEN SINGAPORE 688847,1,AL - KHAIR MOSQUE KINDERGARTEN,1.38261285339265,103.749937134969,103.749937134969,688847,TECK WHYE CRESCENT,AL - KHAIR MOSQUE KINDERGARTEN,18720.7011348419,40507.9832144696
31 TECK WHYE CRESCENT TECK WHYE SECONDARY SCHOOL SINGAPORE 688848,31,TECK WHYE SECONDARY SCHOOL,1.38334818086948,103.755182428471,103.755182428471,688848,TECK WHYE CRESCENT,TECK WHYE SECONDARY SCHOOL,19304.4389355555,40589.2722130623
35 TECK WHYE AVENUE CHUA CHU KANG COMMUNITY CLUB SINGAPORE 688892,35,CHUA CHU KANG COMMUNITY CLUB,1.38115420648197,103.751907169203,103.751907169203,688892,TECK WHYE AVENUE,CHUA CHU KANG COMMUNITY CLUB,18939.9356217245,40346.6856740639
36 JALAN TECK WHYE SINGAPORE 688944,36,NIL,1.38122313856509,103.755584991605,103.755584991605,688944,JALAN TECK WHYE,36 JALAN TECK WHYE SINGAPORE 688944,19349.2314350111,40354.2941371296
38 TECK WHYE CRESCENT SINGAPORE 688945,38,NIL,1.38169398994363,103.756493446009,103.756493446009,688945,TECK WHYE CRESCENT,38 TECK WHYE CRESCENT SINGAPORE 688945,19450.3327055629,40406.3552507311
1 HONG SAN WALK COMFORT GARDEN SINGAPORE 688992,1,COMFORT GARDEN,1.37771148616043,103.747462093029,103.747462093029,688992,HONG SAN WALK,COMFORT GARDEN,18445.2405387266,39966.0241300724
2 HONG SAN WALK COMFORT GARDEN SINGAPORE 688993,2,COMFORT GARDEN,1.37798515326325,103.747198854433,103.747198854433,688993,HONG SAN WALK,COMFORT GARDEN,18415.9464273853,39996.2859391216
3 HONG SAN WALK COMFORT GARDEN SINGAPORE 688994,3,COMFORT GARDEN,1.37770157722561,103.747376579971,103.747376579971,688994,HONG SAN WALK,COMFORT GARDEN,18435.7239516974,39964.9287922774
4 HONG SAN WALK COMFORT GARDEN SINGAPORE 688995,4,COMFORT GARDEN,1.37796492086521,103.747115935608,103.747115935608,688995,HONG SAN WALK,COMFORT GARDEN,18406.7185061174,39994.0490745883
5 HONG SAN WALK COMFORT GARDEN SINGAPORE 688996,5,COMFORT GARDEN,1.37764901084481,103.747214008433,103.747214008433,688996,HONG SAN WALK,COMFORT GARDEN,18417.6315368423,39959.1169156525
6 HONG SAN WALK COMFORT GARDEN SINGAPORE 688997,6,COMFORT GARDEN,1.37792066780788,103.746955718017,103.746955718017,688997,HONG SAN WALK,COMFORT GARDEN,18388.888090929,39989.1564366277
7 HONG SAN WALK COMFORT GARDEN SINGAPORE 688998,7,COMFORT GARDEN,1.37761244318679,103.747138604189,103.747138604189,688998,HONG SAN WALK,COMFORT GARDEN,18409.2398291612,39955.0737486556
8 HONG SAN WALK COMFORT GARDEN SINGAPORE 688999,8,COMFORT GARDEN,1.37789968460203,103.746866637251,103.746866637251,688999,HONG SAN WALK,COMFORT GARDEN,18378.974418222,39986.8365772851
9 HONG SAN WALK COMFORT GARDEN SINGAPORE 689000,9,COMFORT GARDEN,1.37757853845354,103.746997174877,103.746997174877,689000,HONG SAN WALK,COMFORT GARDEN,18393.5003565559,39951.3253010158
10 HONG SAN WALK COMFORT GARDEN SINGAPORE 689001,10,COMFORT GARDEN,1.3778739396314,103.746712633466,103.746712633466,689001,HONG SAN WALK,COMFORT GARDEN,18361.8355961945,39983.9904485084
11 HONG SAN WALK COMFORT GARDEN SINGAPORE 689002,11,COMFORT GARDEN,1.37755579865769,103.746906702738,103.746906702738,689002,HONG SAN WALK,COMFORT GARDEN,18383.4318328444,39948.81121202
12 HONG SAN WALK COMFORT GARDEN SINGAPORE 689003,12,COMFORT GARDEN,1.37784643443807,103.746630263496,103.746630263496,689003,HONG SAN WALK,COMFORT GARDEN,18352.6687254496,39980.949393915
14 HONG SAN WALK COMFORT GARDEN SINGAPORE 689005,14,COMFORT GARDEN,1.37781087850702,103.746473565297,103.746473565297,689005,HONG SAN WALK,COMFORT GARDEN,18335.2300082389,39977.0184303336
15 HONG SAN WALK COMFORT GARDEN SINGAPORE 689006,15,COMFORT GARDEN,1.37751579452623,103.746770650964,103.746770650964,689006,HONG SAN WALK,COMFORT GARDEN,18368.2907885453,39944.3883028999
16 HONG SAN WALK COMFORT GARDEN SINGAPORE 689007,16,COMFORT GARDEN,1.37779087147443,103.746393594738,103.746393594738,689007,HONG SAN WALK,COMFORT GARDEN,18326.330191914,39974.8064763527
17 HONG SAN WALK COMFORT GARDEN SINGAPORE 689008,17,COMFORT GARDEN,1.37749130206931,103.74668920454,103.74668920454,689008,HONG SAN WALK,COMFORT GARDEN,18359.2267078739,39941.6803777367
18 HONG SAN WALK COMFORT GARDEN SINGAPORE 689009,18,COMFORT GARDEN,1.37776089819086,103.746248745685,103.746248745685,689009,HONG SAN WALK,COMFORT GARDEN,18310.21015995,39971.4927677624
19 HONG SAN WALK COMFORT GARDEN SINGAPORE 689010,19,COMFORT GARDEN,1.37746498367212,103.746559052334,103.746559052334,689010,HONG SAN WALK,COMFORT GARDEN,18344.7422669455,39938.7707467303
20 HONG SAN WALK COMFORT GARDEN SINGAPORE 689011,20,COMFORT GARDEN,1.37775645070332,103.746155256357,103.746155256357,689011,HONG SAN WALK,COMFORT GARDEN,18299.8059340315,39971.0013670474
21 HONG SAN WALK COMFORT GARDEN SINGAPORE 689012,21,COMFORT GARDEN,1.37742573162697,103.746472195684,103.746472195684,689012,HONG SAN WALK,COMFORT GARDEN,18335.076035006,39934.4308021516
22 HONG SAN WALK COMFORT GARDEN SINGAPORE 689013,22,COMFORT GARDEN,1.37771960993798,103.746023446539,103.746023446539,689013,HONG SAN WALK,COMFORT GARDEN,18285.1369794747,39966.9282347467
23 HONG SAN WALK COMFORT GARDEN SINGAPORE 689014,23,COMFORT GARDEN,1.37740371574366,103.746341988389,103.746341988389,689014,HONG SAN WALK,COMFORT GARDEN,18320.5854799449,39931.9969233144
24 HONG SAN WALK COMFORT GARDEN SINGAPORE 689015,24,COMFORT GARDEN,1.37770275990132,103.745944934772,103.745944934772,689015,HONG SAN WALK,COMFORT GARDEN,18276.3995206142,39965.0653614197
25 HONG SAN WALK COMFORT GARDEN SINGAPORE 689016,25,COMFORT GARDEN,1.37738434029323,103.746256881213,103.746256881213,689016,HONG SAN WALK,COMFORT GARDEN,18311.1140224803,39929.854827838
26 HONG SAN WALK COMFORT GARDEN SINGAPORE 689017,26,COMFORT GARDEN,1.37758960481689,103.745675824239,103.745675824239,689017,HONG SAN WALK,COMFORT GARDEN,18246.4503798382,39952.5543324947
27 HONG SAN WALK COMFORT GARDEN SINGAPORE 689018,27,COMFORT GARDEN,1.37733071044109,103.746140362993,103.746140362993,689018,HONG SAN WALK,COMFORT GARDEN,18298.1467642356,39923.9251784869
28 HONG SAN WALK COMFORT GARDEN SINGAPORE 689019,28,COMFORT GARDEN,1.37757136506883,103.745613157794,103.745613157794,689019,HONG SAN WALK,COMFORT GARDEN,18239.4763034415,39950.5377280787
29 HONG SAN WALK COMFORT GARDEN SINGAPORE 689020,29,COMFORT GARDEN,1.3773072443429,103.746055734927,103.746055734927,689020,HONG SAN WALK,COMFORT GARDEN,18288.7286086902,39921.3307582643
30 HONG SAN WALK COMFORT GARDEN SINGAPORE 689021,30,COMFORT GARDEN,1.37755267775216,103.745550103796,103.745550103796,689021,HONG SAN WALK,COMFORT GARDEN,18232.4590951689,39948.4716355111
31 HONG SAN WALK COMFORT GARDEN SINGAPORE 689022,31,COMFORT GARDEN,1.37725834411841,103.745771106192,103.745771106192,689022,HONG SAN WALK,COMFORT GARDEN,18257.0527399778,39915.9247752987
32 HONG SAN WALK COMFORT GARDEN SINGAPORE 689023,32,COMFORT GARDEN,1.37753398769629,103.745487043271,103.745487043271,689023,HONG SAN WALK,COMFORT GARDEN,18225.4411604637,39946.4052402619
33 HONG SAN WALK COMFORT GARDEN SINGAPORE 689024,33,COMFORT GARDEN,1.37723288197057,103.745701829281,103.745701829281,689024,HONG SAN WALK,COMFORT GARDEN,18249.3429699698,39913.1095804013
34 HONG SAN WALK COMFORT GARDEN SINGAPORE 689025,34,COMFORT GARDEN,1.37751896596613,103.745425010696,103.745425010696,689025,HONG SAN WALK,COMFORT GARDEN,18218.5376387378,39944.7444662638
35 HONG SAN WALK COMFORT GARDEN SINGAPORE 689026,35,COMFORT GARDEN,1.37721434438673,103.74563872932,103.74563872932,689026,HONG SAN WALK,COMFORT GARDEN,18242.3206464071,39911.0600444209
36 HONG SAN WALK COMFORT GARDEN SINGAPORE 689027,36,COMFORT GARDEN,1.37749347954364,103.745358367906,103.745358367906,689027,HONG SAN WALK,COMFORT GARDEN,18211.1210141517,39941.9265775159
37 HONG SAN WALK COMFORT GARDEN SINGAPORE 689028,37,COMFORT GARDEN,1.37723591289288,103.745565579334,103.745565579334,689028,HONG SAN WALK,COMFORT GARDEN,18234.1800419185,39913.4452826101
38 HONG SAN WALK COMFORT GARDEN SINGAPORE 689029,38,COMFORT GARDEN,1.37740907121332,103.745198955289,103.745198955289,689029,HONG SAN WALK,COMFORT GARDEN,18193.3800105872,39932.5937776845
39 HONG SAN WALK COMFORT GARDEN SINGAPORE 689030,39,COMFORT GARDEN,1.37720745392043,103.745503808086,103.745503808086,689030,HONG SAN WALK,COMFORT GARDEN,18227.305547189,39910.2986835577
40 HONG SAN WALK COMFORT GARDEN SINGAPORE 689031,40,COMFORT GARDEN,1.37748775578063,103.745173903886,103.745173903886,689031,HONG SAN WALK,COMFORT GARDEN,18190.5924200909,39941.294430675
41 HONG SAN WALK COMFORT GARDEN SINGAPORE 689032,41,COMFORT GARDEN,1.37718865792975,103.745440756006,103.745440756006,689032,HONG SAN WALK,COMFORT GARDEN,18220.2885507913,39908.2205746006
42 HONG SAN WALK COMFORT GARDEN SINGAPORE 689033,42,COMFORT GARDEN,1.37761677751083,103.745132757592,103.745132757592,689033,HONG SAN WALK,COMFORT GARDEN,18186.0138729978,39955.5611842647
43 HONG SAN WALK COMFORT GARDEN SINGAPORE 689034,43,COMFORT GARDEN,1.37715666520351,103.745382641929,103.745382641929,689034,HONG SAN WALK,COMFORT GARDEN,18213.8210393712,39904.6832158789
44 HONG SAN WALK COMFORT GARDEN SINGAPORE 689035,44,COMFORT GARDEN,1.37767324309421,103.745060511998,103.745060511998,689035,HONG SAN WALK,COMFORT GARDEN,18177.9740608949,39961.8051666263
45 HONG SAN WALK COMFORT GARDEN SINGAPORE 689036,45,COMFORT GARDEN,1.37714039086708,103.745320494635,103.745320494635,689036,HONG SAN WALK,COMFORT GARDEN,18206.9047445552,39902.8839355875
46 HONG SAN WALK COMFORT GARDEN SINGAPORE 689037,46,COMFORT GARDEN,1.37764531746995,103.744760424508,103.744760424508,689037,HONG SAN WALK,COMFORT GARDEN,18144.5779113285,39958.7185284514
47 HONG SAN WALK COMFORT GARDEN SINGAPORE 689038,47,COMFORT GARDEN,1.37709646544732,103.745184919024,103.745184919024,689038,HONG SAN WALK,COMFORT GARDEN,18191.8166692285,39898.0274375994
48 HONG SAN WALK COMFORT GARDEN SINGAPORE 689039,48,COMFORT GARDEN,1.377566802758,103.744781786243,103.744781786243,689039,HONG SAN WALK,COMFORT GARDEN,18146.9548863573,39950.0366718769
49 HONG SAN WALK COMFORT GARDEN SINGAPORE 689040,49,COMFORT GARDEN,1.37707800119968,103.745121529411,103.745121529411,689040,HONG SAN WALK,COMFORT GARDEN,18184.7621102631,39895.9860134386
50 HONG SAN WALK COMFORT GARDEN SINGAPORE 689041,50,COMFORT GARDEN,1.37739998022129,103.744808302259,103.744808302259,689041,HONG SAN WALK,COMFORT GARDEN,18149.9051067308,39931.5901518799
51 HONG SAN WALK COMFORT GARDEN SINGAPORE 689042,51,COMFORT GARDEN,1.37707351957373,103.745053314366,103.745053314366,689042,HONG SAN WALK,COMFORT GARDEN,18177.1705972673,39895.4907384198
52 HONG SAN WALK COMFORT GARDEN SINGAPORE 689043,52,COMFORT GARDEN,1.37732533073667,103.744840345577,103.744840345577,689043,HONG SAN WALK,COMFORT GARDEN,18153.4708265522,39923.3356489688
53 HONG SAN WALK COMFORT GARDEN SINGAPORE 689044,53,COMFORT GARDEN,1.37704121998769,103.74499528979,103.74499528979,689044,HONG SAN WALK,COMFORT GARDEN,18170.7130440129,39891.9194492884
55 HONG SAN WALK SINGAPORE 689045,55,NIL,1.37710445414356,103.744900834921,103.744900834921,689045,HONG SAN WALK,55 HONG SAN WALK SINGAPORE 689045,18160.2016391633,39898.9119588882
57 HONG SAN WALK COMFORT GARDEN SINGAPORE 689046,57,COMFORT GARDEN,1.37700419572407,103.744869835115,103.744869835115,689046,HONG SAN WALK,COMFORT GARDEN,18156.7513311636,39887.8260071706
2A HONG SAN WALK PALM GARDENS SINGAPORE 689047,2A,PALM GARDENS,1.37819479696272,103.747083682509,103.747083682509,689047,HONG SAN WALK,PALM GARDENS,18403.1300550401,40019.4677640982
2B HONG SAN WALK PALM GARDENS SINGAPORE 689048,2B,PALM GARDENS,1.37825124580086,103.746417574005,103.746417574005,689048,HONG SAN WALK,PALM GARDENS,18329.0006453134,40025.7122912835
2C HONG SAN WALK PALM GARDENS SINGAPORE 689049,2C,PALM GARDENS,1.37866305595577,103.746563110704,103.746563110704,689049,HONG SAN WALK,PALM GARDENS,18345.1987384083,40071.2476275954
2D HONG SAN WALK PALM GARDENS SINGAPORE 689050,2D,PALM GARDENS,1.37868493315986,103.747258858501,103.747258858501,689050,HONG SAN WALK,PALM GARDENS,18422.6269346075,40073.663890468
2E HONG SAN WALK PALM GARDENS SINGAPORE 689051,2E,PALM GARDENS,1.37807456946793,103.747881713788,103.747881713788,689051,HONG SAN WALK,PALM GARDENS,18491.9405870521,40006.1704032235
20 CHOA CHU KANG STREET 64 THE WINDERMERE SINGAPORE 689093,20,THE WINDERMERE,1.39774827163461,103.751580705894,103.751580705894,689093,CHOA CHU KANG STREET 64,THE WINDERMERE,18903.6678274702,42181.576370053
22 CHOA CHU KANG STREET 64 THE WINDERMERE SINGAPORE 689094,22,THE WINDERMERE,1.39752245616468,103.750915493861,103.750915493861,689094,CHOA CHU KANG STREET 64,THE WINDERMERE,18829.6376967309,42156.6093999315
24 CHOA CHU KANG STREET 64 THE WINDERMERE SINGAPORE 689095,24,THE WINDERMERE,1.39777338177797,103.750713376627,103.750713376627,689095,CHOA CHU KANG STREET 64,THE WINDERMERE,18807.1457093712,42184.3563027494
26 CHOA CHU KANG STREET 64 THE WINDERMERE SINGAPORE 689096,26,THE WINDERMERE,1.3976449661232,103.750494831599,103.750494831599,689096,CHOA CHU KANG STREET 64,THE WINDERMERE,18782.8240526626,42170.1575915869
28 CHOA CHU KANG STREET 64 THE WINDERMERE SINGAPORE 689097,28,THE WINDERMERE,1.39801941385921,103.750650309259,103.750650309259,689097,CHOA CHU KANG STREET 64,THE WINDERMERE,18800.1281076139,42211.5615599975
30 CHOA CHU KANG STREET 64 THE WINDERMERE SINGAPORE 689098,30,THE WINDERMERE,1.3981992228113,103.750978361225,103.750978361225,689098,CHOA CHU KANG STREET 64,THE WINDERMERE,18836.6366231423,42231.4426613506
32 CHOA CHU KANG STREET 64 THE WINDERMERE SINGAPORE 689099,32,THE WINDERMERE,1.39808290073685,103.751312457443,103.751312457443,689099,CHOA CHU KANG STREET 64,THE WINDERMERE,18873.8166338895,42218.5790406819
10 CHOA CHU KANG STREET 64 PRO-TEACH SCHOOLCARE (YEW TEE PRIMARY) SINGAPORE 689100,10,PRO-TEACH SCHOOLCARE (YEW TEE PRIMARY),1.39672603497195,103.751817992962,103.751817992962,689100,CHOA CHU KANG STREET 64,PRO-TEACH SCHOOLCARE (YEW TEE PRIMARY),18930.0708015431,42068.5415837038
36 CHOA CHU KANG STREET 64 THE QUINTET SINGAPORE 689101,36,THE QUINTET,1.39874738449482,103.750531821149,103.750531821149,689101,CHOA CHU KANG STREET 64,THE QUINTET,18786.9447965017,42292.0574163478
38 CHOA CHU KANG STREET 64 THE QUINTET SINGAPORE 689102,38,THE QUINTET,1.3985797083213,103.750957756741,103.750957756741,689102,CHOA CHU KANG STREET 64,THE QUINTET,18834.3450946305,42273.5149468426
40 CHOA CHU KANG STREET 64 THE QUINTET SINGAPORE 689103,40,THE QUINTET,1.39862685116492,103.75144219471,103.75144219471,689103,CHOA CHU KANG STREET 64,THE QUINTET,18888.2567624887,42278.7258829195
42 CHOA CHU KANG STREET 64 THE QUINTET SINGAPORE 689104,42,THE QUINTET,1.39902704753214,103.751450526881,103.751450526881,689104,CHOA CHU KANG STREET 64,THE QUINTET,18889.1855658377,42322.9775843099
44 CHOA CHU KANG STREET 64 THE QUINTET SINGAPORE 689105,44,THE QUINTET,1.39913270027436,103.750990269246,103.750990269246,689105,CHOA CHU KANG STREET 64,THE QUINTET,18837.9654481635,42334.6619340647
46 CHOA CHU KANG STREET 64 THE QUINTET SINGAPORE 689106,46,THE QUINTET,1.39928681294389,103.750547255722,103.750547255722,689106,CHOA CHU KANG STREET 64,THE QUINTET,18788.6645628009,42351.7046855111
20 CHOA CHU KANG STREET 62 UNITY SECONDARY SCHOOL SINGAPORE 689143,20,UNITY SECONDARY SCHOOL,1.39966040841671,103.745882795532,103.745882795532,689143,CHOA CHU KANG STREET 62,UNITY SECONDARY SCHOOL,18269.5739994822,42393.033861734
11 CHOA CHU KANG STREET 54 KRANJI PRIMARY SCHOOL SINGAPORE 689189,11,KRANJI PRIMARY SCHOOL,1.39421785057099,103.747104202255,103.747104202255,689189,CHOA CHU KANG STREET 54,KRANJI PRIMARY SCHOOL,18405.4781544125,41791.2176602427
1 CHOA CHU KANG STREET 53 CHOA CHU KANG SPORTS CENTRE SINGAPORE 689236,1,CHOA CHU KANG SPORTS CENTRE,1.39059559281482,103.748024129362,103.748024129362,689236,CHOA CHU KANG STREET 53,CHOA CHU KANG SPORTS CENTRE,18507.8394811274,41390.682581896
10 CHOA CHU KANG STREET 52 CHOA CHU KANG BIBLE CENTRE KINDERGARTEN SINGAPORE 689284,10,CHOA CHU KANG BIBLE CENTRE KINDERGARTEN,1.39447144920635,103.744054352225,103.744054352225,689284,CHOA CHU KANG STREET 52,CHOA CHU KANG BIBLE CENTRE KINDERGARTEN,18066.0709036533,41819.2719949707
11 CHOA CHU KANG STREET 52 DE LA SALLE SCHOOL SINGAPORE 689285,11,DE LA SALLE SCHOOL,1.39507191622876,103.743443644259,103.743443644259,689285,CHOA CHU KANG STREET 52,DE LA SALLE SCHOOL,17998.1096549891,41885.6712643355
20 CHOA CHU KANG STREET 52 CHOA CHU KANG NEIGHBOURHOOD POLICE CENTRE SINGAPORE 689286,20,CHOA CHU KANG NEIGHBOURHOOD POLICE CENTRE,1.39480564592115,103.744971294739,103.744971294739,689286,CHOA CHU KANG STREET 52,CHOA CHU KANG NEIGHBOURHOOD POLICE CENTRE,18168.1159602059,41856.221969042
61 CHOA CHU KANG STREET 51 KRANJI SECONDARY SCHOOL SINGAPORE 689333,61,KRANJI SECONDARY SCHOOL,1.39004038830493,103.741091095437,103.741091095437,689333,CHOA CHU KANG STREET 51,KRANJI SECONDARY SCHOOL,17736.2801242685,41329.3198142182
11 CHOA CHU KANG STREET 51 SINGAPORE 689334,11,NIL,1.39150729488856,103.742746434118,103.742746434118,689334,CHOA CHU KANG STREET 51,11 CHOA CHU KANG STREET 51 SINGAPORE 689334,17920.5041792095,41491.5159807913
13 CHOA CHU KANG STREET 51 CHOA CHU KANG LIAN HE TEMPLE SINGAPORE 689335,13,CHOA CHU KANG LIAN HE TEMPLE,1.39166432349481,103.742868881167,103.742868881167,689335,CHOA CHU KANG STREET 51,CHOA CHU KANG LIAN HE TEMPLE,17934.1316124462,41508.8789069708
15 CHOA CHU KANG STREET 51 CHOA CHU KANG LIAN HE TEMPLE SINGAPORE 689336,15,CHOA CHU KANG LIAN HE TEMPLE,1.39166432349481,103.742868881167,103.742868881167,689336,CHOA CHU KANG STREET 51,CHOA CHU KANG LIAN HE TEMPLE,17934.1316124462,41508.8789069708
17 CHOA CHU KANG STREET 51 CHEE SENG TEMPLE SINGAPORE 689337,17,CHEE SENG TEMPLE,1.39170380392324,103.742861747498,103.742861747498,689337,CHOA CHU KANG STREET 51,CHEE SENG TEMPLE,17933.3378951093,41513.2444885299
3 CHOA CHU KANG STREET 51 CHOA CHU KANG YEW TEE CHUN LIAN HE MIOW SINGAPORE 689338,3,CHOA CHU KANG YEW TEE CHUN LIAN HE MIOW,1.391739380974,103.742593830711,103.742593830711,689338,CHOA CHU KANG STREET 51,CHOA CHU KANG YEW TEE CHUN LIAN HE MIOW,17903.5223874804,41517.1795685571
5 CHOA CHU KANG STREET 51 CHOA CHU KANG YEW TEE CHUN LIAN HE MIOW SINGAPORE 689339,5,CHOA CHU KANG YEW TEE CHUN LIAN HE MIOW,1.39173513194093,103.742625105185,103.742625105185,689339,CHOA CHU KANG STREET 51,CHOA CHU KANG YEW TEE CHUN LIAN HE MIOW,17907.0028121239,41516.7095975745
7 CHOA CHU KANG STREET 51 CHOA CHU KANG YEW TEE CHUN LIAN HE MIOW SINGAPORE 689340,7,CHOA CHU KANG YEW TEE CHUN LIAN HE MIOW,1.39173513194093,103.742625105185,103.742625105185,689340,CHOA CHU KANG STREET 51,CHOA CHU KANG YEW TEE CHUN LIAN HE MIOW,17907.0028121239,41516.7095975745
9 CHOA CHU KANG STREET 51 CHOA CHU KANG YEW TEE CHUN LIAN HE MIOW SINGAPORE 689341,9,CHOA CHU KANG YEW TEE CHUN LIAN HE MIOW,1.39173513194093,103.742625105185,103.742625105185,689341,CHOA CHU KANG STREET 51,CHOA CHU KANG YEW TEE CHUN LIAN HE MIOW,17907.0028121239,41516.7095975745
19 CHOA CHU KANG STREET 51 CHOA CHU KANG LIAN HE TEMPLE SINGAPORE 689342,19,CHOA CHU KANG LIAN HE TEMPLE,1.39166432349481,103.742868881167,103.742868881167,689342,CHOA CHU KANG STREET 51,CHOA CHU KANG LIAN HE TEMPLE,17934.1316124462,41508.8789069708
5A CHOA CHU KANG STREET 51 SOON LENG KENG SINGAPORE 689344,5A,SOON LENG KENG,1.39167513487209,103.742622030825,103.742622030825,689344,CHOA CHU KANG STREET 51,SOON LENG KENG,17906.6604206925,41510.0754306354
10 CHOA CHU KANG ROAD BUKIT PANJANG DELIVERY BASE SINGAPORE 689379,10,BUKIT PANJANG DELIVERY BASE,1.37931574026694,103.759225737641,103.759225737641,689379,CHOA CHU KANG ROAD,BUKIT PANJANG DELIVERY BASE,19754.3942459244,40143.3706029486
53 CHOA CHU KANG ROAD ECON MEDICARE CENTRE (CHOA CHU KANG) SINGAPORE 689385,53,ECON MEDICARE CENTRE (CHOA CHU KANG),1.37850076590601,103.759350801517,103.759350801517,689385,CHOA CHU KANG ROAD,ECON MEDICARE CENTRE (CHOA CHU KANG),19768.3094974188,40053.254370654
57 CHOA CHU KANG ROAD SINGAPORE 689386,57,NIL,1.37829102938216,103.758744168339,103.758744168339,689386,CHOA CHU KANG ROAD,57 CHOA CHU KANG ROAD SINGAPORE 689386,19700.798030993,40030.0648576096
59 CHOA CHU KANG ROAD SINGAPORE 689387,59,NIL,1.37816402953505,103.758545498904,103.758545498904,689387,CHOA CHU KANG ROAD,59 CHOA CHU KANG ROAD SINGAPORE 689387,19678.6881466592,40016.0225411206
61 CHOA CHU KANG ROAD NICON GARDENS SINGAPORE 689388,61,NICON GARDENS,1.37794304958658,103.758276899347,103.758276899347,689388,CHOA CHU KANG ROAD,NICON GARDENS,19648.7955767438,39991.5886204597
61A CHOA CHU KANG ROAD NICON GARDENS SINGAPORE 689389,61A,NICON GARDENS,1.37792523613735,103.758224236182,103.758224236182,689389,CHOA CHU KANG ROAD,NICON GARDENS,19642.9347567884,39989.6190827601
61B CHOA CHU KANG ROAD NICON GARDENS SINGAPORE 689390,61B,NICON GARDENS,1.37788738527917,103.758174431609,103.758174431609,689390,CHOA CHU KANG ROAD,NICON GARDENS,19637.3919928065,39985.4338983838
61C CHOA CHU KANG ROAD NICON GARDENS SINGAPORE 689391,61C,NICON GARDENS,1.37786852010389,103.758120406132,103.758120406132,689391,CHOA CHU KANG ROAD,NICON GARDENS,19631.3795605209,39983.348071089
61D CHOA CHU KANG ROAD NICON GARDENS SINGAPORE 689392,61D,NICON GARDENS,1.37783113704382,103.758070323856,103.758070323856,689392,CHOA CHU KANG ROAD,NICON GARDENS,19625.8058929276,39979.2146146968
61E CHOA CHU KANG ROAD NICON GARDENS SINGAPORE 689393,61E,NICON GARDENS,1.37781263706399,103.758017506504,103.758017506504,689393,CHOA CHU KANG ROAD,NICON GARDENS,19619.9279110255,39977.1691648923
61F CHOA CHU KANG ROAD NICON GARDENS SINGAPORE 689394,61F,NICON GARDENS,1.37777485158626,103.757966522903,103.757966522903,689394,CHOA CHU KANG ROAD,NICON GARDENS,19614.2539353333,39972.9912145641
61G CHOA CHU KANG ROAD NICON GARDENS SINGAPORE 689395,61G,NICON GARDENS,1.37775677066106,103.757912834388,103.757912834388,689395,CHOA CHU KANG ROAD,NICON GARDENS,19608.2790050795,39970.9921050444
61H CHOA CHU KANG ROAD NICON GARDENS SINGAPORE 689396,61H,NICON GARDENS,1.37772057992876,103.757861271423,103.757861271423,689396,CHOA CHU KANG ROAD,NICON GARDENS,19602.5405585831,39966.9904959891
63 CHOA CHU KANG ROAD NICON GARDENS SINGAPORE 689397,63,NICON GARDENS,1.37784795010292,103.758315925986,103.758315925986,689397,CHOA CHU KANG ROAD,NICON GARDENS,19653.138427048,39981.0728570204
63A CHOA CHU KANG ROAD NICON GARDENS SINGAPORE 689398,63A,NICON GARDENS,1.37778512007533,103.75821501828,103.75821501828,689398,CHOA CHU KANG ROAD,NICON GARDENS,19641.908429997,39974.125779666
63B CHOA CHU KANG ROAD NICON GARDENS SINGAPORE 689399,63B,NICON GARDENS,1.37772649831981,103.758111322654,103.758111322654,689399,CHOA CHU KANG ROAD,NICON GARDENS,19630.3681861125,39967.6440422926
63C CHOA CHU KANG ROAD NICON GARDENS SINGAPORE 689400,63C,NICON GARDENS,1.37767254833664,103.758007083743,103.758007083743,689400,CHOA CHU KANG ROAD,NICON GARDENS,19618.7674970655,39961.6788885985
63D CHOA CHU KANG ROAD NICON GARDENS SINGAPORE 689401,63D,NICON GARDENS,1.37761753184671,103.757901580708,103.757901580708,689401,CHOA CHU KANG ROAD,NICON GARDENS,19607.0261224294,39955.595810838
65 CHOA CHU KANG ROAD NICON GARDENS SINGAPORE 689402,65,NICON GARDENS,1.37759743978783,103.758416167888,103.758416167888,689402,CHOA CHU KANG ROAD,NICON GARDENS,19664.2932384266,39953.3723247554
65A CHOA CHU KANG ROAD NICON GARDENS SINGAPORE 689403,65A,NICON GARDENS,1.37758536528794,103.758359355226,103.758359355226,689403,CHOA CHU KANG ROAD,NICON GARDENS,19657.9706501123,39952.0373856016
65B CHOA CHU KANG ROAD NICON GARDENS SINGAPORE 689404,65B,NICON GARDENS,1.377540611512,103.758311680747,103.758311680747,689404,CHOA CHU KANG ROAD,NICON GARDENS,19652.6649147104,39947.0889032111
65C CHOA CHU KANG ROAD NICON GARDENS SINGAPORE 689405,65C,NICON GARDENS,1.37753122121948,103.758254492399,103.758254492399,689405,CHOA CHU KANG ROAD,NICON GARDENS,19646.3005263098,39946.0507719051
65D CHOA CHU KANG ROAD NICON GARDENS SINGAPORE 689406,65D,NICON GARDENS,1.37748623208464,103.758208491967,103.758208491967,689406,CHOA CHU KANG ROAD,NICON GARDENS,19641.1810903484,39941.0762590487
65E CHOA CHU KANG ROAD NICON GARDENS SINGAPORE 689407,65E,NICON GARDENS,1.37747404615138,103.758151067358,103.758151067358,689407,CHOA CHU KANG ROAD,NICON GARDENS,19634.7903990699,39939.7290008254
65F CHOA CHU KANG ROAD NICON GARDENS SINGAPORE 689408,65F,NICON GARDENS,1.37742955127069,103.758101759095,103.758101759095,689408,CHOA CHU KANG ROAD,NICON GARDENS,19629.3028438902,39934.8091519494
65G CHOA CHU KANG ROAD NICON GARDENS SINGAPORE 689409,65G,NICON GARDENS,1.37741739359162,103.758046293013,103.758046293013,689409,CHOA CHU KANG ROAD,NICON GARDENS,19623.130112363,39933.4650113285
65H CHOA CHU KANG ROAD NICON GARDENS SINGAPORE 689410,65H,NICON GARDENS,1.37737069030813,103.757999301818,103.757999301818,689410,CHOA CHU KANG ROAD,NICON GARDENS,19617.9004101362,39928.3009603582
65J CHOA CHU KANG ROAD NICON GARDENS SINGAPORE 689411,65J,NICON GARDENS,1.37736010270838,103.757942312602,103.757942312602,689411,CHOA CHU KANG ROAD,NICON GARDENS,19611.5581778996,39927.1304368917
65K CHOA CHU KANG ROAD NICON GARDENS SINGAPORE 689412,65K,NICON GARDENS,1.37731432593044,103.757892894506,103.757892894506,689412,CHOA CHU KANG ROAD,NICON GARDENS,19606.0583944544,39922.0688430462
67 CHOA CHU KANG ROAD NICON GARDENS SINGAPORE 689415,67,NICON GARDENS,1.37749682137049,103.758457276964,103.758457276964,689415,CHOA CHU KANG ROAD,NICON GARDENS,19668.8678204138,39942.2462982275
67A CHOA CHU KANG ROAD NICON GARDENS SINGAPORE 689416,67A,NICON GARDENS,1.37743998294105,103.758351922484,103.758351922484,689416,CHOA CHU KANG ROAD,NICON GARDENS,19657.1429720977,39935.9617567677
67B CHOA CHU KANG ROAD NICON GARDENS SINGAPORE 689417,67B,NICON GARDENS,1.37738588408374,103.758248488644,103.758248488644,689417,CHOA CHU KANG ROAD,NICON GARDENS,19645.6318762815,39929.9801372904
67C CHOA CHU KANG ROAD NICON GARDENS SINGAPORE 689418,67C,NICON GARDENS,1.37732665843978,103.758143642306,103.758143642306,689418,CHOA CHU KANG ROAD,NICON GARDENS,19633.9635685589,39923.431628745
67D CHOA CHU KANG ROAD NICON GARDENS SINGAPORE 689419,67D,NICON GARDENS,1.37726893287869,103.758039824826,103.758039824826,689419,CHOA CHU KANG ROAD,NICON GARDENS,19622.4097646186,39917.0489887502
67E CHOA CHU KANG ROAD NICON GARDENS SINGAPORE 689420,67E,NICON GARDENS,1.37721392213384,103.757934147741,103.757934147741,689420,CHOA CHU KANG ROAD,NICON GARDENS,19610.649018473,39910.9665466193
69 CHOA CHU KANG ROAD NICON GARDENS SINGAPORE 689421,69,NICON GARDENS,1.37729583505959,103.758567449176,103.758567449176,689421,CHOA CHU KANG ROAD,NICON GARDENS,19681.127927755,39920.0218495764
69A CHOA CHU KANG ROAD NICON GARDENS SINGAPORE 689422,69A,NICON GARDENS,1.37727524000116,103.758516505021,103.758516505021,689422,CHOA CHU KANG ROAD,NICON GARDENS,19675.4584014565,39917.7447286248
69B CHOA CHU KANG ROAD NICON GARDENS SINGAPORE 689423,69B,NICON GARDENS,1.37724182368093,103.7584687146,103.7584687146,689423,CHOA CHU KANG ROAD,NICON GARDENS,19670.1398021616,39914.049885584
69C CHOA CHU KANG ROAD NICON GARDENS SINGAPORE 689424,69C,NICON GARDENS,1.37722014427972,103.758415051227,103.758415051227,689424,CHOA CHU KANG ROAD,NICON GARDENS,19664.1676565623,39911.6528731491
69D CHOA CHU KANG ROAD NICON GARDENS SINGAPORE 689425,69D,NICON GARDENS,1.37718339549821,103.758366032652,103.758366032652,689425,CHOA CHU KANG ROAD,NICON GARDENS,19658.7123670531,39907.5895476751
69E CHOA CHU KANG ROAD NICON GARDENS SINGAPORE 689426,69E,NICON GARDENS,1.3771611105305,103.758310228004,103.758310228004,689426,CHOA CHU KANG ROAD,NICON GARDENS,19652.5019216184,39905.1255824603
69F CHOA CHU KANG ROAD NICON GARDENS SINGAPORE 689427,69F,NICON GARDENS,1.37712681572209,103.758260026788,103.758260026788,689427,CHOA CHU KANG ROAD,NICON GARDENS,19646.9150269153,39901.3336094618
69G CHOA CHU KANG ROAD NICON GARDENS SINGAPORE 689428,69G,NICON GARDENS,1.37710444705919,103.758206409134,103.758206409134,689428,CHOA CHU KANG ROAD,NICON GARDENS,19640.9479663372,39898.860382244
71 CHOA CHU KANG ROAD NICON GARDENS SINGAPORE 689429,71,NICON GARDENS,1.37702940077147,103.758101744716,103.758101744716,689429,CHOA CHU KANG ROAD,NICON GARDENS,19629.2998473598,39890.5625053104
71A CHOA CHU KANG ROAD NICON GARDENS SINGAPORE 689430,71A,NICON GARDENS,1.37700891793197,103.758050740188,103.758050740188,689430,CHOA CHU KANG ROAD,NICON GARDENS,19623.6236015689,39888.297794234
71B CHOA CHU KANG ROAD NICON GARDENS SINGAPORE 689431,71B,NICON GARDENS,1.37697542196471,103.758003516315,103.758003516315,689431,CHOA CHU KANG ROAD,NICON GARDENS,19618.368050484,39884.59414321
71C CHOA CHU KANG ROAD NICON GARDENS SINGAPORE 689432,71C,NICON GARDENS,1.37695428344188,103.757949627193,103.757949627193,689432,CHOA CHU KANG ROAD,NICON GARDENS,19612.3707824582,39882.2569403108
71D CHOA CHU KANG ROAD NICON GARDENS SINGAPORE 689433,71D,NICON GARDENS,1.37691745854384,103.757900298848,103.757900298848,689433,CHOA CHU KANG ROAD,NICON GARDENS,19606.8810177157,39878.1852003373
71E CHOA CHU KANG ROAD NICON GARDENS SINGAPORE 689434,71E,NICON GARDENS,1.37689495952279,103.757844995749,103.757844995749,689434,CHOA CHU KANG ROAD,NICON GARDENS,19600.7263864428,39875.6975655593
71F CHOA CHU KANG ROAD NICON GARDENS SINGAPORE 689435,71F,NICON GARDENS,1.37686007181832,103.757795358377,103.757795358377,689435,CHOA CHU KANG ROAD,NICON GARDENS,19595.2022372708,39871.8400321063
71G CHOA CHU KANG ROAD NICON GARDENS SINGAPORE 689436,71G,NICON GARDENS,1.37683772087929,103.757739898615,103.757739898615,689436,CHOA CHU KANG ROAD,NICON GARDENS,19589.0301716384,39869.3687723093
73 CHOA CHU KANG ROAD SINGAPORE 689437,73,NIL,1.3775573732779,103.757359444516,103.757359444516,689437,CHOA CHU KANG ROAD,73 CHOA CHU KANG ROAD SINGAPORE 689437,19546.6928596823,39948.9456926715
75 CHOA CHU KANG ROAD SINGAPORE 689438,75,NIL,1.37754595767439,103.757252960449,103.757252960449,689438,CHOA CHU KANG ROAD,75 CHOA CHU KANG ROAD SINGAPORE 689438,19534.842459769,39947.6837901622
156 CHOA CHU KANG AVENUE 1 COMFORT GARDEN SINGAPORE 689447,156,COMFORT GARDEN,1.37754743338709,103.747584225946,103.747584225946,689447,CHOA CHU KANG AVENUE 1,COMFORT GARDEN,18458.8317714548,39947.8834983185
158 CHOA CHU KANG AVENUE 1 COMFORT GARDEN SINGAPORE 689448,158,COMFORT GARDEN,1.37751686852175,103.747504053409,103.747504053409,689448,CHOA CHU KANG AVENUE 1,COMFORT GARDEN,18449.9094357509,39944.5041082054
160 CHOA CHU KANG AVENUE 1 COMFORT GARDEN SINGAPORE 689450,160,COMFORT GARDEN,1.37743630587783,103.747379006288,103.747379006288,689450,CHOA CHU KANG AVENUE 1,COMFORT GARDEN,18435.9929130012,39935.5963919368
162 CHOA CHU KANG AVENUE 1 COMFORT GARDEN SINGAPORE 689451,162,COMFORT GARDEN,1.37740472725171,103.747280386228,103.747280386228,689451,CHOA CHU KANG AVENUE 1,COMFORT GARDEN,18425.0175907649,39932.1049800161
164 CHOA CHU KANG AVENUE 1 COMFORT GARDEN SINGAPORE 689453,164,COMFORT GARDEN,1.37742093961461,103.747152625368,103.747152625368,689453,CHOA CHU KANG AVENUE 1,COMFORT GARDEN,18410.7994475579,39933.8981764428
166 CHOA CHU KANG AVENUE 1 COMFORT GARDEN SINGAPORE 689454,166,COMFORT GARDEN,1.37741141331006,103.747066087488,103.747066087488,689454,CHOA CHU KANG AVENUE 1,COMFORT GARDEN,18401.1688107671,39932.8451532889
168 CHOA CHU KANG AVENUE 1 SINGAPORE 689455,168,NIL,1.37735238422878,103.746944969447,103.746944969447,689455,CHOA CHU KANG AVENUE 1,168 CHOA CHU KANG AVENUE 1 SINGAPORE 689455,18387.6896301135,39926.3184982277
170 CHOA CHU KANG AVENUE 1 COMFORT GARDEN SINGAPORE 689456,170,COMFORT GARDEN,1.37732492011501,103.746847900077,103.746847900077,689456,CHOA CHU KANG AVENUE 1,COMFORT GARDEN,18376.8868959211,39923.2820443697
172 CHOA CHU KANG AVENUE 1 SINGAPORE 689457,172,NIL,1.37723261157993,103.746730429408,103.746730429408,689457,CHOA CHU KANG AVENUE 1,172 CHOA CHU KANG AVENUE 1 SINGAPORE 689457,18363.8134878585,39913.0754986517
174 CHOA CHU KANG AVENUE 1 SINGAPORE 689458,174,NIL,1.37721224251218,103.746660760923,103.746660760923,689458,CHOA CHU KANG AVENUE 1,174 CHOA CHU KANG AVENUE 1 SINGAPORE 689458,18356.0601622211,39910.8234698605
176 CHOA CHU KANG AVENUE 1 COMFORT GARDEN SINGAPORE 689459,176,COMFORT GARDEN,1.37722259349265,103.746490502646,103.746490502646,689459,CHOA CHU KANG AVENUE 1,COMFORT GARDEN,18337.1125557544,39911.9687195588
178 CHOA CHU KANG AVENUE 1 COMFORT GARDEN SINGAPORE 689460,178,COMFORT GARDEN,1.37720777754209,103.746388624773,103.746388624773,689460,CHOA CHU KANG AVENUE 1,COMFORT GARDEN,18325.7747441456,39910.3308584243
180 CHOA CHU KANG AVENUE 1 COMFORT GARDEN SINGAPORE 689461,180,COMFORT GARDEN,1.37715258830784,103.746221762094,103.746221762094,689461,CHOA CHU KANG AVENUE 1,COMFORT GARDEN,18307.2047610432,39904.2289842479
182 CHOA CHU KANG AVENUE 1 COMFORT GARDEN SINGAPORE 689462,182,COMFORT GARDEN,1.37711612347263,103.746136997156,103.746136997156,689462,CHOA CHU KANG AVENUE 1,COMFORT GARDEN,18297.7713201661,39900.1972282808
184 CHOA CHU KANG AVENUE 1 COMFORT GARDEN SINGAPORE 689463,184,COMFORT GARDEN,1.37705377637971,103.7458141169,103.7458141169,689463,CHOA CHU KANG AVENUE 1,COMFORT GARDEN,18261.8384714201,39893.3045122232
186 CHOA CHU KANG AVENUE 1 COMFORT GARDEN SINGAPORE 689464,186,COMFORT GARDEN,1.3770107540746,103.745605759232,103.745605759232,689464,CHOA CHU KANG AVENUE 1,COMFORT GARDEN,18238.6506533818,39888.548170995
188 CHOA CHU KANG AVENUE 1 COMFORT GARDEN SINGAPORE 689465,188,COMFORT GARDEN,1.37693799586657,103.745418169665,103.745418169665,689465,CHOA CHU KANG AVENUE 1,COMFORT GARDEN,18217.7739472408,39880.5036976226
190 CHOA CHU KANG AVENUE 1 COMFORT GARDEN SINGAPORE 689466,190,COMFORT GARDEN,1.37688116067252,103.745223461276,103.745223461276,689466,CHOA CHU KANG AVENUE 1,COMFORT GARDEN,18196.1050674291,39874.2199431304
192 CHOA CHU KANG AVENUE 1 CHRISTIAN GOSPEL MISSION SINGAPORE 689467,192,CHRISTIAN GOSPEL MISSION,1.37682889281509,103.745054154263,103.745054154263,689467,CHOA CHU KANG AVENUE 1,CHRISTIAN GOSPEL MISSION,18177.2630659575,39868.4411191437
204 CHOA CHU KANG AVENUE 1 COMFORT GARDEN SINGAPORE 689471,204,COMFORT GARDEN,1.37664812345354,103.744206394869,103.744206394869,689471,CHOA CHU KANG AVENUE 1,COMFORT GARDEN,18082.9171250826,39848.4560472667
206 CHOA CHU KANG AVENUE 1 COMFORT GARDEN SINGAPORE 689472,206,COMFORT GARDEN,1.37663585890046,103.744098118626,103.744098118626,689472,CHOA CHU KANG AVENUE 1,COMFORT GARDEN,18070.8672591569,39847.1003442761
208 CHOA CHU KANG AVENUE 1 COMFORT GARDEN SINGAPORE 689473,208,COMFORT GARDEN,1.37663514123308,103.744048822356,103.744048822356,689473,CHOA CHU KANG AVENUE 1,COMFORT GARDEN,18065.3811871083,39847.0211934987
210 CHOA CHU KANG AVENUE 1 COMFORT GARDEN SINGAPORE 689474,210,COMFORT GARDEN,1.37663383216919,103.743988728791,103.743988728791,689474,CHOA CHU KANG AVENUE 1,COMFORT GARDEN,18058.693506374,39846.8766941447
212 CHOA CHU KANG AVENUE 1 COMFORT GARDEN SINGAPORE 689475,212,COMFORT GARDEN,1.37663279012264,103.743939328637,103.743939328637,689475,CHOA CHU KANG AVENUE 1,COMFORT GARDEN,18053.1958719557,39846.7616758067
214 CHOA CHU KANG AVENUE 1 COMFORT GARDEN SINGAPORE 689476,214,COMFORT GARDEN,1.37663106963426,103.743879188307,103.743879188307,689476,CHOA CHU KANG AVENUE 1,COMFORT GARDEN,18046.5029851282,39846.5716836713
216 CHOA CHU KANG AVENUE 1 COMFORT GARDEN SINGAPORE 689477,216,COMFORT GARDEN,1.37663060460853,103.743829656494,103.743829656494,689477,CHOA CHU KANG AVENUE 1,COMFORT GARDEN,18040.9907010049,39846.5204702429
55 CHOA CHU KANG ROAD SINGAPORE 689481,55,NIL,1.37841092148642,103.759030386434,103.759030386434,689481,CHOA CHU KANG ROAD,55 CHOA CHU KANG ROAD SINGAPORE 689481,19732.6509674098,40043.3209329546
59A CHOA CHU KANG ROAD SINGAPORE 689482,59A,NIL,1.3781201975164,103.758440293031,103.758440293031,689482,CHOA CHU KANG ROAD,59A CHOA CHU KANG ROAD SINGAPORE 689482,19666.9798851972,40011.1761829071
40 CHOA CHU KANG ROAD PHOENIX LRT STATION (BP5) SINGAPORE 689483,40,PHOENIX LRT STATION (BP5),1.37861545104083,103.757995558346,103.757995558346,689483,CHOA CHU KANG ROAD,PHOENIX LRT STATION (BP5),19617.4881601976,40065.9404090624
91 CHOA CHU KANG ROAD SINGAPORE 689484,91,NIL,1.37621448271864,103.755598971468,103.755598971468,689484,CHOA CHU KANG ROAD,91 CHOA CHU KANG ROAD SINGAPORE 689484,19350.7691393876,39800.4618610293
50 CHOA CHU KANG NORTH 7 REGENT GROVE SINGAPORE 689527,50,REGENT GROVE,1.39931151971397,103.748806666421,103.748806666421,689527,CHOA CHU KANG NORTH 7,REGENT GROVE,18594.960333216,42354.4435445536
52 CHOA CHU KANG NORTH 7 REGENT GROVE SINGAPORE 689528,52,REGENT GROVE,1.39931151944023,103.748806666149,103.748806666149,689528,CHOA CHU KANG NORTH 7,REGENT GROVE,18594.960302948,42354.4435142856
54 CHOA CHU KANG NORTH 7 REGENT GROVE SINGAPORE 689529,54,REGENT GROVE,1.39931151944023,103.748806666149,103.748806666149,689529,CHOA CHU KANG NORTH 7,REGENT GROVE,18594.960302948,42354.4435142856
50 CHOA CHU KANG NORTH 6 YEW MEI GREEN SINGAPORE 689574,50,YEW MEI GREEN,1.39445329185302,103.751341514747,103.751341514747,689574,CHOA CHU KANG NORTH 6,YEW MEI GREEN,18877.0363301206,41817.2347477898
52 CHOA CHU KANG NORTH 6 YEW MEI GREEN SINGAPORE 689575,52,YEW MEI GREEN,1.39525398517519,103.751311497782,103.751311497782,689575,CHOA CHU KANG NORTH 6,YEW MEI GREEN,18873.6989217,41905.7715664264
54 CHOA CHU KANG NORTH 6 YEW MEI GREEN SINGAPORE 689576,54,YEW MEI GREEN,1.39538733437594,103.750600857598,103.750600857598,689576,CHOA CHU KANG NORTH 6,YEW MEI GREEN,18794.6145522362,41920.5194296166
56 CHOA CHU KANG NORTH 6 YEW MEI GREEN SINGAPORE 689577,56,YEW MEI GREEN,1.39596319590733,103.750820282471,103.750820282471,689577,CHOA CHU KANG NORTH 6,YEW MEI GREEN,18819.0358814141,41984.194489643
21 CHOA CHU KANG NORTH 6 DBS NTUC YEW TEE POINT SINGAPORE 689578,21,DBS NTUC YEW TEE POINT,1.39708432396576,103.746598000147,103.746598000147,689578,CHOA CHU KANG NORTH 6,DBS NTUC YEW TEE POINT,18349.1561864754,42108.1802022327
23 CHOA CHU KANG NORTH 6 YEWTEE RESIDENCES SINGAPORE 689579,23,YEWTEE RESIDENCES,1.39729776002895,103.746524986925,103.746524986925,689579,CHOA CHU KANG NORTH 6,YEWTEE RESIDENCES,18341.0316542853,42131.7812085152
25 CHOA CHU KANG NORTH 6 YEWTEE RESIDENCES SINGAPORE 689580,25,YEWTEE RESIDENCES,1.39684272119558,103.746739926711,103.746739926711,689580,CHOA CHU KANG NORTH 6,YEWTEE RESIDENCES,18364.9497479666,42081.4643782806
51 CHOA CHU KANG NORTH 6 MWS NURSING HOME (YEW TEE) SINGAPORE 689581,51,MWS NURSING HOME (YEW TEE),1.3955565486311,103.752050602689,103.752050602689,689581,CHOA CHU KANG NORTH 6,MWS NURSING HOME (YEW TEE),18955.952712276,41939.2246803381
50 CHOA CHU KANG NORTH 5 REGENT SECONDARY SCHOOL SINGAPORE 689621,50,REGENT SECONDARY SCHOOL,1.39309408182711,103.750685553271,103.750685553271,689621,CHOA CHU KANG NORTH 5,REGENT SECONDARY SCHOOL,18804.0311641144,41666.9425857291
61 CHOA CHU KANG LOOP NORTHVALE SINGAPORE 689668,61,NORTHVALE,1.38683857399065,103.744781738443,103.744781738443,689668,CHOA CHU KANG LOOP,NORTHVALE,18146.9877876556,40975.2632830907
63 CHOA CHU KANG LOOP NORTHVALE SINGAPORE 689669,63,NORTHVALE,1.38721407011108,103.744768545113,103.744768545113,689669,CHOA CHU KANG LOOP,NORTHVALE,18145.5210919688,41016.7838437743
65 CHOA CHU KANG LOOP NORTHVALE SINGAPORE 689670,65,NORTHVALE,1.38761668820579,103.744748503104,103.744748503104,689670,CHOA CHU KANG LOOP,NORTHVALE,18143.292339256,41061.3034470882
67 CHOA CHU KANG LOOP NORTHVALE SINGAPORE 689671,67,NORTHVALE,1.38797325761112,103.744618460139,103.744618460139,689671,CHOA CHU KANG LOOP,NORTHVALE,18128.8217005283,41100.7316728625
69 CHOA CHU KANG LOOP NORTHVALE SINGAPORE 689672,69,NORTHVALE,1.38829836225788,103.745273156642,103.745273156642,689672,CHOA CHU KANG LOOP,NORTHVALE,18201.6823671805,41136.6774157695
71 CHOA CHU KANG LOOP NORTHVALE SINGAPORE 689673,71,NORTHVALE,1.3875905760788,103.745442249639,103.745442249639,689673,CHOA CHU KANG LOOP,NORTHVALE,18220.4973393437,41058.4132178593
73 CHOA CHU KANG LOOP NORTHVALE SINGAPORE 689674,73,NORTHVALE,1.38674709692968,103.745320145367,103.745320145367,689674,CHOA CHU KANG LOOP,NORTHVALE,18206.905228843,40965.1459673885
37 CHOA CHU KANG LOOP THE WARREN SINGAPORE 689675,37,THE WARREN,1.38603624928779,103.742894193541,103.742894193541,689675,CHOA CHU KANG LOOP,THE WARREN,17936.9247419834,40886.554118555
39 CHOA CHU KANG LOOP THE WARREN SINGAPORE 689676,39,THE WARREN,1.38584604953958,103.742424246557,103.742424246557,689676,CHOA CHU KANG LOOP,THE WARREN,17884.6248139907,40865.5247709733
41 CHOA CHU KANG LOOP THE WARREN SINGAPORE 689677,41,THE WARREN,1.38605890362985,103.742346578452,103.742346578452,689677,CHOA CHU KANG LOOP,THE WARREN,17875.9822452599,40889.0614577904
43 CHOA CHU KANG LOOP THE WARREN SINGAPORE 689678,43,THE WARREN,1.38633083084101,103.743086496628,103.743086496628,689678,CHOA CHU KANG LOOP,THE WARREN,17958.326870054,40919.1266762856
45 CHOA CHU KANG LOOP THE WARREN SINGAPORE 689679,45,THE WARREN,1.38631683809206,103.742394405653,103.742394405653,689679,CHOA CHU KANG LOOP,THE WARREN,17881.3058993081,40917.5823734887
47 CHOA CHU KANG LOOP THE WARREN SINGAPORE 689680,47,THE WARREN,1.38639752578681,103.742567858788,103.742567858788,689680,CHOA CHU KANG LOOP,THE WARREN,17900.6093664598,40926.5036800802
49 CHOA CHU KANG LOOP THE WARREN SINGAPORE 689681,49,THE WARREN,1.38659957882302,103.742771011421,103.742771011421,689681,CHOA CHU KANG LOOP,THE WARREN,17923.2185211852,40948.8448420782
51 CHOA CHU KANG LOOP THE WARREN SINGAPORE 689682,51,THE WARREN,1.38698912101143,103.743165596333,103.743165596333,689682,CHOA CHU KANG LOOP,THE WARREN,17967.1324318778,40991.916818535
53 CHOA CHU KANG LOOP THE WARREN SINGAPORE 689683,53,THE WARREN,1.38721474683074,103.74344254907,103.74344254907,689683,CHOA CHU KANG LOOP,THE WARREN,17997.9546829127,41016.864235539
55 CHOA CHU KANG LOOP THE WARREN SINGAPORE 689684,55,THE WARREN,1.38736758063179,103.74376369495,103.74376369495,689684,CHOA CHU KANG LOOP,THE WARREN,18033.6947548697,41033.7624876332
57 CHOA CHU KANG LOOP THE WARREN SINGAPORE 689685,57,THE WARREN,1.38670460482785,103.743680251173,103.743680251173,689685,CHOA CHU KANG LOOP,THE WARREN,18024.4057528107,40960.4542483054
59 CHOA CHU KANG LOOP THE WARREN SINGAPORE 689686,59,THE WARREN,1.38652709940704,103.743341984317,103.743341984317,689686,CHOA CHU KANG LOOP,THE WARREN,17986.7602204746,40940.8280033749
2 CHOA CHU KANG LOOP KEAT HONG COMMUNITY CLUB SINGAPORE 689687,2,KEAT HONG COMMUNITY CLUB,1.3840651692895,103.744923812475,103.744923812475,689687,CHOA CHU KANG LOOP,KEAT HONG COMMUNITY CLUB,18162.7873724764,40668.5933084283
70 CHOA CHU KANG LOOP CHOA CHU KANG BUS INTERCHANGE SINGAPORE 689688,70,CHOA CHU KANG BUS INTERCHANGE,1.38555516336432,103.745261508747,103.745261508747,689688,CHOA CHU KANG LOOP,CHOA CHU KANG BUS INTERCHANGE,18200.3748205518,40833.348088203
61 CHOA CHU KANG DRIVE CITIBANK YEW TEE SMRT STATION SINGAPORE 689715,61,CITIBANK YEW TEE SMRT STATION,1.39712886294116,103.747329717481,103.747329717481,689715,CHOA CHU KANG DRIVE,CITIBANK YEW TEE SMRT STATION,18430.5868089655,42113.1021093316
50 CHOA CHU KANG DRIVE SINGAPORE 689716,50,NIL,1.39514254163593,103.747091393075,103.747091393075,689716,CHOA CHU KANG DRIVE,50 CHOA CHU KANG DRIVE SINGAPORE 689716,18404.0564066814,41893.4654820189
20 CHOA CHU KANG DRIVE SHELL CHOA CHU KANG SINGAPORE 689717,20,SHELL CHOA CHU KANG,1.38567333043417,103.746545230013,103.746545230013,689717,CHOA CHU KANG DRIVE,SHELL CHOA CHU KANG,18343.2371611875,40846.4091469273
22 CHOA CHU KANG DRIVE SINGAPORE 689718,22,NIL,1.38582271319419,103.746674275849,103.746674275849,689718,CHOA CHU KANG DRIVE,22 CHOA CHU KANG DRIVE SINGAPORE 689718,18357.598925977,40862.9266277868
26 CHOA CHU KANG DRIVE SINGAPORE 689719,26,NIL,1.38789214442917,103.746407179555,103.746407179555,689719,CHOA CHU KANG DRIVE,26 CHOA CHU KANG DRIVE SINGAPORE 689719,18327.8829092113,41091.755187735
6 CHOA CHU KANG CENTRAL PRO-TEACH SCHOOLCARE (SOUTH VIEW PRIMARY) SINGAPORE 689762,6,PRO-TEACH SCHOOLCARE (SOUTH VIEW PRIMARY),1.38143123987698,103.747153671,103.747153671,689762,CHOA CHU KANG CENTRAL,PRO-TEACH SCHOOLCARE (SOUTH VIEW PRIMARY),18410.9318699865,40377.3373044748
7 CHOA CHU KANG AVENUE 4 BUKIT PANJANG GOVERNMENT HIGH SCHOOL SINGAPORE 689809,7,BUKIT PANJANG GOVERNMENT HIGH SCHOOL,1.38213672186466,103.738134418559,103.738134418559,689809,CHOA CHU KANG AVENUE 4,BUKIT PANJANG GOVERNMENT HIGH SCHOOL,17407.2050010916,40455.3843296003
10 CHOA CHU KANG AVENUE 4 CHOA CHU KANG XCHANGE SINGAPORE 689810,10,CHOA CHU KANG XCHANGE,1.38567272095725,103.74413911363,103.74413911363,689810,CHOA CHU KANG AVENUE 4,CHOA CHU KANG XCHANGE,18075.4669938385,40846.3516982943
301 CHOA CHU KANG AVENUE 4 CHOA CHU KANG BUS INTERCHANGE SINGAPORE 689811,301,CHOA CHU KANG BUS INTERCHANGE,1.38539288562639,103.744066878171,103.744066878171,689811,CHOA CHU KANG AVENUE 4,CHOA CHU KANG BUS INTERCHANGE,18067.4269395918,40815.4091925602
21 CHOA CHU KANG AVENUE 4 CHOA CHU KANG PUBLIC LIBRARY SINGAPORE 689812,21,CHOA CHU KANG PUBLIC LIBRARY,1.38493874036122,103.745022476677,103.745022476677,689812,CHOA CHU KANG AVENUE 4,CHOA CHU KANG PUBLIC LIBRARY,18173.7710486762,40765.1880696882
15 CHOA CHU KANG AVENUE 4 CHOA CHU KANG LRT STATION (BP1) SINGAPORE 689813,15,CHOA CHU KANG LRT STATION (BP1),1.38475541089131,103.74453769781,103.74453769781,689813,CHOA CHU KANG AVENUE 4,CHOA CHU KANG LRT STATION (BP1),18119.8205469949,40744.9184182286
3 CHOA CHU KANG AVENUE 4 BIG HEART STUDENT CARE (CONCORD PRIMARY SCHOOL) SINGAPORE 689814,3,BIG HEART STUDENT CARE (CONCORD PRIMARY SCHOOL),1.38026516111464,103.736554295636,103.736554295636,689814,CHOA CHU KANG AVENUE 4,BIG HEART STUDENT CARE (CONCORD PRIMARY SCHOOL),17231.3486815896,40248.4434567168
9 CHOA CHU KANG AVENUE 4 BETHANY METHODIST NURSING HOME SINGAPORE 689815,9,BETHANY METHODIST NURSING HOME,1.38235328798576,103.739205108039,103.739205108039,689815,CHOA CHU KANG AVENUE 4,BETHANY METHODIST NURSING HOME,17526.3602764271,40479.3263955247
50A CHOA CHU KANG AVENUE 4 TEMPORARY SITE OFFICE SINGAPORE 689816,50A,TEMPORARY SITE OFFICE,1.38275521170657,103.741186162235,103.741186162235,689816,CHOA CHU KANG AVENUE 4,TEMPORARY SITE OFFICE,17746.8284863262,40523.7604917847
50 CHOA CHU KANG AVENUE 3 DBS EXXONMOBIL CHOA CHU KANG AVENUE 3 SINGAPORE 689858,50,DBS EXXONMOBIL CHOA CHU KANG AVENUE 3,1.37824852197263,103.738056000138,103.738056000138,689858,CHOA CHU KANG AVENUE 3,DBS EXXONMOBIL CHOA CHU KANG AVENUE 3,17398.4607924717,40025.4466897268
311 CHOA CHU KANG AVENUE 3 MI CASA SINGAPORE 689859,311,MI CASA,1.38446287685656,103.748111309103,103.748111309103,689859,CHOA CHU KANG AVENUE 3,MI CASA,18517.5170332929,40712.5568586141
313 CHOA CHU KANG AVENUE 3 MI CASA SINGAPORE 689860,313,MI CASA,1.38427230847309,103.747939466683,103.747939466683,689860,CHOA CHU KANG AVENUE 3,MI CASA,18498.3923893888,40691.4854385331
315 CHOA CHU KANG AVENUE 3 MI CASA SINGAPORE 689861,315,MI CASA,1.38406640468789,103.747765558059,103.747765558059,689861,CHOA CHU KANG AVENUE 3,MI CASA,18479.0377390767,40668.7183152009
317 CHOA CHU KANG AVENUE 3 MI CASA SINGAPORE 689862,317,MI CASA,1.3838493195726,103.747481754278,103.747481754278,689862,CHOA CHU KANG AVENUE 3,MI CASA,18447.453098068,40644.7152592894
319 CHOA CHU KANG AVENUE 3 MI CASA SINGAPORE 689863,319,MI CASA,1.38379185133409,103.747805083933,103.747805083933,689863,CHOA CHU KANG AVENUE 3,MI CASA,18483.4353744313,40638.3594064601
321 CHOA CHU KANG AVENUE 3 MI CASA SINGAPORE 689864,321,MI CASA,1.38356017106459,103.747950575353,103.747950575353,689864,CHOA CHU KANG AVENUE 3,MI CASA,18499.6258097254,40612.7407666501
323 CHOA CHU KANG AVENUE 3 MI CASA SINGAPORE 689865,323,MI CASA,1.38372503220852,103.748147275205,103.748147275205,689865,CHOA CHU KANG AVENUE 3,MI CASA,18521.5166749293,40630.9695085045
325 CHOA CHU KANG AVENUE 3 MI CASA SINGAPORE 689866,325,MI CASA,1.38394088472582,103.748289484982,103.748289484982,689866,CHOA CHU KANG AVENUE 3,MI CASA,18537.3436825434,40654.8368427772
327 CHOA CHU KANG AVENUE 3 MI CASA SINGAPORE 689867,327,MI CASA,1.38417199944367,103.748415906864,103.748415906864,689867,CHOA CHU KANG AVENUE 3,MI CASA,18551.4137547743,40680.3918592855
329 CHOA CHU KANG AVENUE 3 MI CASA SINGAPORE 689868,329,MI CASA,1.38468098424872,103.748401451758,103.748401451758,689868,CHOA CHU KANG AVENUE 3,MI CASA,18549.8070999309,40736.6729351766
331 CHOA CHU KANG AVENUE 3 THE RAINFOREST SINGAPORE 689869,331,THE RAINFOREST,1.38413990557913,103.749368176042,103.749368176042,689869,CHOA CHU KANG AVENUE 3,THE RAINFOREST,18657.3891392807,40676.839306036
333 CHOA CHU KANG AVENUE 3 THE RAINFOREST SINGAPORE 689870,333,THE RAINFOREST,1.3838508105967,103.749174601965,103.749174601965,689870,CHOA CHU KANG AVENUE 3,THE RAINFOREST,18635.8456597263,40644.8733792361
335 CHOA CHU KANG AVENUE 3 THE RAINFOREST SINGAPORE 689871,335,THE RAINFOREST,1.38352132722057,103.748997170036,103.748997170036,689871,CHOA CHU KANG AVENUE 3,THE RAINFOREST,18616.098433665,40608.4414417073
337 CHOA CHU KANG AVENUE 3 THE RAINFOREST SINGAPORE 689872,337,THE RAINFOREST,1.38363139410306,103.748802266356,103.748802266356,689872,CHOA CHU KANG AVENUE 3,THE RAINFOREST,18594.4085478736,40620.6128638554
339 CHOA CHU KANG AVENUE 3 THE RAINFOREST SINGAPORE 689873,339,THE RAINFOREST,1.38375964625203,103.748580762329,103.748580762329,689873,CHOA CHU KANG AVENUE 3,THE RAINFOREST,18569.7584532741,40634.7952303067
341 CHOA CHU KANG AVENUE 3 THE RAINFOREST SINGAPORE 689874,341,THE RAINFOREST,1.38340195391998,103.748374018811,103.748374018811,689874,CHOA CHU KANG AVENUE 3,THE RAINFOREST,18546.7490952676,40595.2442073226
343 CHOA CHU KANG AVENUE 3 THE RAINFOREST SINGAPORE 689875,343,THE RAINFOREST,1.38330045094549,103.748588366877,103.748588366877,689875,CHOA CHU KANG AVENUE 3,THE RAINFOREST,18570.6029300196,40584.0196585096
345 CHOA CHU KANG AVENUE 3 THE RAINFOREST SINGAPORE 689876,345,THE RAINFOREST,1.38318048662868,103.748787992195,103.748787992195,689876,CHOA CHU KANG AVENUE 3,THE RAINFOREST,18592.8182377405,40570.7538066059
347 CHOA CHU KANG AVENUE 3 THE RAINFOREST SINGAPORE 689877,347,THE RAINFOREST,1.38400778184112,103.748895895353,103.748895895353,689877,CHOA CHU KANG AVENUE 3,THE RAINFOREST,18604.8297541309,40662.2315836102
349 CHOA CHU KANG AVENUE 3 WANDERVALE SINGAPORE 689878,349,WANDERVALE,1.38409490424215,103.750062942725,103.750062942725,689878,CHOA CHU KANG AVENUE 3,WANDERVALE,18734.707704843,40671.8605556618
351 CHOA CHU KANG AVENUE 3 WANDERVALE SINGAPORE 689879,351,WANDERVALE,1.38368035797321,103.750109335554,103.750109335554,689879,CHOA CHU KANG AVENUE 3,WANDERVALE,18739.8690316947,40626.0219038855
353 CHOA CHU KANG AVENUE 3 WANDERVALE SINGAPORE 689880,353,WANDERVALE,1.3838015277949,103.749890683004,103.749890683004,689880,CHOA CHU KANG AVENUE 3,WANDERVALE,18715.5362363681,40639.4211165253
355 CHOA CHU KANG AVENUE 3 WANDERVALE SINGAPORE 689881,355,WANDERVALE,1.38393003811435,103.749675088595,103.749675088595,689881,CHOA CHU KANG AVENUE 3,WANDERVALE,18691.5438045189,40653.6319954172
357 CHOA CHU KANG AVENUE 3 WANDERVALE SINGAPORE 689882,357,WANDERVALE,1.38347939915725,103.749429424772,103.749429424772,689882,CHOA CHU KANG AVENUE 3,WANDERVALE,18664.202765095,40603.8035390973
359 CHOA CHU KANG AVENUE 3 WANDERVALE SINGAPORE 689883,359,WANDERVALE,1.38336337220948,103.749638826808,103.749638826808,689883,CHOA CHU KANG AVENUE 3,WANDERVALE,18687.506116027,40590.9730316047
361 CHOA CHU KANG AVENUE 3 WANDERVALE SINGAPORE 689884,361,WANDERVALE,1.38323938665225,103.749853407337,103.749853407337,689884,CHOA CHU KANG AVENUE 3,WANDERVALE,18711.3857391011,40577.2624824829
363 CHOA CHU KANG AVENUE 3 WANDERVALE SINGAPORE 689885,363,WANDERVALE,1.38279786666426,103.749602840778,103.749602840778,689885,CHOA CHU KANG AVENUE 3,WANDERVALE,18683.4991192706,40528.4423737749
365 CHOA CHU KANG AVENUE 3 WANDERVALE SINGAPORE 689886,365,WANDERVALE,1.38292037495742,103.749390816945,103.749390816945,689886,CHOA CHU KANG AVENUE 3,WANDERVALE,18659.904015244,40541.9895665869
367 CHOA CHU KANG AVENUE 3 WANDERVALE SINGAPORE 689887,367,WANDERVALE,1.38303917300838,103.749185028644,103.749185028644,689887,CHOA CHU KANG AVENUE 3,WANDERVALE,18637.0028350111,40555.1264768802
20 CHOA CHU KANG AVENUE 2 CHUA CHU KANG PRIMARY SCHOOL SINGAPORE 689905,20,CHUA CHU KANG PRIMARY SCHOOL,1.3776786800641,103.741924742722,103.741924742722,689905,CHOA CHU KANG AVENUE 2,CHUA CHU KANG PRIMARY SCHOOL,17829.0016429927,39962.419515891
21 CHOA CHU KANG AVENUE 2 HOPE COMMUNITY KINDERGARTEN (CHOA CHU KANG) SINGAPORE 689907,21,HOPE COMMUNITY KINDERGARTEN (CHOA CHU KANG),1.37776771815027,103.740253371467,103.740253371467,689907,CHOA CHU KANG AVENUE 2,HOPE COMMUNITY KINDERGARTEN (CHOA CHU KANG),17642.9990110612,39972.2721078079
50A CHOA CHU KANG LOOP TEMPORARY SHOP SINGAPORE 689959,50A,TEMPORARY SHOP,1.38617350278689,103.744140597045,103.744140597045,689959,CHOA CHU KANG LOOP,TEMPORARY SHOP,18075.6341639124,40901.7256729826
28 CHOA CHU KANG DRIVE SINGAPORE 689964,28,NIL,1.38853884971276,103.747120075648,103.747120075648,689964,CHOA CHU KANG DRIVE,28 CHOA CHU KANG DRIVE SINGAPORE 689964,18407.2217113469,41163.2617556006
301 CHOA CHU KANG AVENUE 1 SINGAPORE 689989,301,NIL,1.37598320800287,103.744226170432,103.744226170432,689989,CHOA CHU KANG AVENUE 1,301 CHOA CHU KANG AVENUE 1 SINGAPORE 689989,18085.1151557928,39774.9329052549
