ADDRESS,BLK_NO,BUILDING,LATITUDE,LONGITUDE,LONGTITUDE,POSTAL,ROAD_NAME,SEARCHVAL,X,Y
113D MCNAIR ROAD MCNAIR TOWERS SINGAPORE 325113,113D,MCNAIR TOWERS,1.32014859879822,103.859763746554,103.859763746554,325113,MCNAIR ROAD,MCNAIR TOWERS,30943.0865165014,33600.8575702123
10 WHAMPOA ROAD SAINT MICHAEL BUS TERMINAL SINGAPORE 327691,10,SAINT MICHAEL BUS TERMINAL,1.32604996571129,103.855601472404,103.855601472404,327691,WHAMPOA ROAD,SAINT MICHAEL BUS TERMINAL,30479.8605416184,34253.3959507793
2 WHAMPOA DRIVE SINGAPORE 327713,2,NIL,1.32247321933977,103.853182806001,103.853182806001,327713,WHAMPOA DRIVE,2 WHAMPOA DRIVE SINGAPORE 327713,30210.6906010946,33857.8953764308
4 WHAMPOA DRIVE SINGAPORE 327715,4,NIL,1.32247608760632,103.853239204157,103.853239204157,327715,WHAMPOA DRIVE,4 WHAMPOA DRIVE SINGAPORE 327715,30216.9671518058,33858.2125848997
6 WHAMPOA DRIVE SINGAPORE 327717,6,NIL,1.32248636786747,103.853313421284,103.853313421284,327717,WHAMPOA DRIVE,6 WHAMPOA DRIVE SINGAPORE 327717,30225.2267700071,33859.3493898325
8 WHAMPOA DRIVE SINGAPORE 327718,8,NIL,1.32249044659917,103.853367215572,103.853367215572,327718,WHAMPOA DRIVE,8 WHAMPOA DRIVE SINGAPORE 327718,30231.2135350425,33859.8004433252
10 WHAMPOA DRIVE SINGAPORE 327720,10,NIL,1.3225053606235,103.853439457391,103.853439457391,327720,WHAMPOA DRIVE,10 WHAMPOA DRIVE SINGAPORE 327720,30239.2533168774,33861.4496246874
16 WHAMPOA DRIVE HANDICAPS WELFARE ASSOCIATION SINGAPORE 327725,16,HANDICAPS WELFARE ASSOCIATION,1.32218289110234,103.853915231408,103.853915231408,327725,WHAMPOA DRIVE,HANDICAPS WELFARE ASSOCIATION,30292.2025233889,33825.7930318285
300 WHAMPOA DRIVE DBS WHAMPOA COMMUNITY CLUB SINGAPORE 327737,300,DBS WHAMPOA COMMUNITY CLUB,1.32470128764811,103.857105337905,103.857105337905,327737,WHAMPOA DRIVE,DBS WHAMPOA COMMUNITY CLUB,30647.2269943673,34104.2675926909
2 TOWNER ROAD CENTRAL SIKH TEMPLE SINGAPORE 327804,2,CENTRAL SIKH TEMPLE,1.3188423199538,103.860362099128,103.860362099128,327804,TOWNER ROAD,CENTRAL SIKH TEMPLE,31009.6788350651,33456.4166634232
108 TOWNER ROAD TOWNERVILLE SINGAPORE 327807,108,TOWNERVILLE,1.32034473565113,103.858441956266,103.858441956266,327807,TOWNER ROAD,TOWNERVILLE,30795.9840550991,33622.5438541137
110 TOWNER ROAD TOWNERVILLE SINGAPORE 327808,110,TOWNERVILLE,1.32037245063477,103.858407823581,103.858407823581,327808,TOWNER ROAD,TOWNERVILLE,30792.1853928743,33625.6083966624
112 TOWNER ROAD TOWNERVILLE SINGAPORE 327809,112,TOWNERVILLE,1.32040003285375,103.858374059963,103.858374059963,327809,TOWNER ROAD,TOWNERVILLE,30788.4278043043,33628.6582592372
114 TOWNER ROAD TOWNERVILLE SINGAPORE 327810,114,TOWNERVILLE,1.32042775741911,103.858339728737,103.858339728737,327810,TOWNER ROAD,TOWNERVILLE,30784.6070464514,33631.7238611635
116 TOWNER ROAD TOWNERVILLE SINGAPORE 327811,116,TOWNERVILLE,1.32045562569367,103.858305413285,103.858305413285,327811,TOWNER ROAD,TOWNERVILLE,30780.7880441416,33634.8053537831
118 TOWNER ROAD TOWNERVILLE SINGAPORE 327812,118,TOWNERVILLE,1.32048334040162,103.858271286581,103.858271286581,327812,TOWNER ROAD,TOWNERVILLE,30776.9900478125,33637.869866062
120 TOWNER ROAD TOWNERVILLE SINGAPORE 327813,120,TOWNERVILLE,1.32051165185436,103.858236423106,103.858236423106,327813,TOWNER ROAD,TOWNERVILLE,30773.1100555165,33641.0003625453
122 TOWNER ROAD TOWNERVILLE SINGAPORE 327814,122,TOWNERVILLE,1.3205649644713,103.85817016188,103.85817016188,327814,TOWNER ROAD,TOWNERVILLE,30765.7357758395,33646.8953247871
124 TOWNER ROAD TOWNERVILLE SINGAPORE 327815,124,TOWNERVILLE,1.32059329426273,103.858135297859,103.858135297859,327815,TOWNER ROAD,TOWNERVILLE,30761.8557230067,33650.0278492253
126 TOWNER ROAD TOWNERVILLE SINGAPORE 327816,126,TOWNERVILLE,1.32062102457141,103.858101147489,103.858101147489,327816,TOWNER ROAD,TOWNERVILLE,30758.0550933629,33653.0940867793
128 TOWNER ROAD TOWNERVILLE SINGAPORE 327817,128,TOWNERVILLE,1.32064877075608,103.858067005279,103.858067005279,327817,TOWNER ROAD,TOWNERVILLE,30754.2553717587,33656.1620798782
130 TOWNER ROAD TOWNERVILLE SINGAPORE 327818,130,TOWNERVILLE,1.32067650133757,103.858032853004,103.858032853004,327818,TOWNER ROAD,TOWNERVILLE,30750.45453024,33659.2283477001
132 TOWNER ROAD TOWNERVILLE SINGAPORE 327819,132,TOWNERVILLE,1.32070423602457,103.857998705624,103.857998705624,327819,TOWNER ROAD,TOWNERVILLE,30746.6542335441,33662.2950695418
134 TOWNER ROAD TOWNERVILLE SINGAPORE 327820,134,TOWNERVILLE,1.32073197153232,103.8579645577,103.8579645577,327820,TOWNER ROAD,TOWNERVILLE,30742.8538763123,33665.3618821893
136 TOWNER ROAD TOWNERVILLE SINGAPORE 327821,136,TOWNERVILLE,1.32075971032436,103.857930411678,103.857930411678,327821,TOWNER ROAD,TOWNERVILLE,30739.0537309563,33668.4290580507
138 TOWNER ROAD TOWNERVILLE SINGAPORE 327822,138,TOWNERVILLE,1.32078744555742,103.857896265384,103.857896265384,327822,TOWNER ROAD,TOWNERVILLE,30735.2535553332,33671.4958404284
140 TOWNER ROAD TOWNERVILLE SINGAPORE 327823,140,TOWNERVILLE,1.32081518270615,103.857862117729,103.857862117729,327823,TOWNER ROAD,TOWNERVILLE,30731.4532283694,33674.5628346819
142 TOWNER ROAD TOWNERVILLE SINGAPORE 327824,142,TOWNERVILLE,1.32084291547469,103.857827971433,103.857827971433,327824,TOWNER ROAD,TOWNERVILLE,30727.6530527454,33677.6293446496
144 TOWNER ROAD TOWNERVILLE SINGAPORE 327825,144,TOWNERVILLE,1.32081589480598,103.857739433945,103.857739433945,327825,TOWNER ROAD,TOWNERVILLE,30717.7997343987,33674.6414406355
102 TOWNER ROAD TOWNERVILLE SINGAPORE 327826,102,TOWNERVILLE,1.32024939475758,103.858548602691,103.858548602691,327826,TOWNER ROAD,TOWNERVILLE,30807.8528579464,33612.0016667265
104 TOWNER ROAD TOWNERVILLE SINGAPORE 327827,104,TOWNERVILLE,1.32028930650381,103.858510209665,103.858510209665,327827,TOWNER ROAD,TOWNERVILLE,30803.5800477564,33616.4148598239
106 TOWNER ROAD TOWNERVILLE SINGAPORE 327828,106,TOWNERVILLE,1.32031702121457,103.858476082966,103.858476082966,327828,TOWNER ROAD,TOWNERVILLE,30799.7820514282,33619.4793721028
30 TOWNER ROAD HONG WEN SCHOOL SINGAPORE 327829,30,HONG WEN SCHOOL,1.32168928544376,103.857651758668,103.857651758668,327829,TOWNER ROAD,HONG WEN SCHOOL,30708.0413969839,33771.2164066359
151 TOWNER ROAD NORTHLIGHT SCHOOL SINGAPORE 327830,151,NORTHLIGHT SCHOOL,1.31982824931405,103.856326613258,103.856326613258,327830,TOWNER ROAD,NORTHLIGHT SCHOOL,30560.5677592978,33565.4311653711
1 TOPAZ ROAD SINGAPORE 327847,1,NIL,1.32846426861803,103.865420957854,103.865420957854,327847,TOPAZ ROAD,1 TOPAZ ROAD SINGAPORE 327847,31572.6665406134,34520.3692226522
2 TOPAZ ROAD TOPAZ MANSIONS SINGAPORE 327848,2,TOPAZ MANSIONS,1.32827039787981,103.866082210695,103.866082210695,327848,TOPAZ ROAD,TOPAZ MANSIONS,31646.2575131767,34498.932952296
3 TOPAZ ROAD SUITES @ TOPAZ SINGAPORE 327849,3,SUITES @ TOPAZ,1.32862584566182,103.865133145358,103.865133145358,327849,TOPAZ ROAD,SUITES @ TOPAZ,31540.6357192565,34538.2351724524
1 TAI GIN ROAD PENTECOSTAL CHURCH OF SINGAPORE SINGAPORE 327872,1,PENTECOSTAL CHURCH OF SINGAPORE,1.3279699326252,103.84640782206,103.84640782206,327872,TAI GIN ROAD,PENTECOSTAL CHURCH OF SINGAPORE,29456.6991452016,34465.6887480076
14 TAI GIN ROAD BURMESE BUDDHIST TEMPLE SINGAPORE 327873,14,BURMESE BUDDHIST TEMPLE,1.32843452844413,103.846933935562,103.846933935562,327873,TAI GIN ROAD,BURMESE BUDDHIST TEMPLE,29515.2499263883,34517.0616887305
12 TAI GIN ROAD FORMER SUN YAT SEN VILLA SINGAPORE 327874,12,FORMER SUN YAT SEN VILLA,1.32820003195673,103.84725726491,103.84725726491,327874,TAI GIN ROAD,FORMER SUN YAT SEN VILLA,29551.233322667,34491.13246914
16A TAI GIN ROAD TEMPORARY SITE OFFICE SINGAPORE 327875,16A,TEMPORARY SITE OFFICE,1.32870634764607,103.846593148578,103.846593148578,327875,TAI GIN ROAD,TEMPORARY SITE OFFICE,29477.3236585027,34547.1178570986
1 SAINT WILFRED ROAD BENDEMEER SECONDARY SCHOOL SINGAPORE 327919,1,BENDEMEER SECONDARY SCHOOL,1.32461111307996,103.860970284401,103.860970284401,327919,SAINT WILFRED ROAD,BENDEMEER SECONDARY SCHOOL,31077.3568056701,34094.3010115474
3 SAINT WILFRED ROAD SAINT WILFRID SQUASH & TENNIS CENTRE SINGAPORE 327920,3,SAINT WILFRID SQUASH & TENNIS CENTRE,1.32523298644982,103.861729832418,103.861729832418,327920,SAINT WILFRED ROAD,SAINT WILFRID SQUASH & TENNIS CENTRE,31161.8860827256,34163.0655422322
6 SAINT MICHAEL'S ROAD SINGAPORE 327944,6,NIL,1.32543182275261,103.864769251275,103.864769251275,327944,SAINT MICHAEL'S ROAD,6 SAINT MICHAEL'S ROAD SINGAPORE 327944,31500.1425144756,34185.0559285656
6A SAINT MICHAEL'S ROAD SINGAPORE 327945,6A,NIL,1.32546929299332,103.864723240789,103.864723240789,327945,SAINT MICHAEL'S ROAD,6A SAINT MICHAEL'S ROAD SINGAPORE 327945,31495.0219585979,34189.1991312485
6B SAINT MICHAEL'S ROAD SINGAPORE 327946,6B,NIL,1.32552435452575,103.864689154959,103.864689154959,327946,SAINT MICHAEL'S ROAD,6B SAINT MICHAEL'S ROAD SINGAPORE 327946,31491.2284721993,34195.2875059061
6C SAINT MICHAEL'S ROAD SINGAPORE 327947,6C,NIL,1.32556570573941,103.86464397676,103.86464397676,327947,SAINT MICHAEL'S ROAD,6C SAINT MICHAEL'S ROAD SINGAPORE 327947,31486.2005363517,34199.8598480616
6D SAINT MICHAEL'S ROAD SINGAPORE 327948,6D,NIL,1.32561530366817,103.864601552674,103.864601552674,327948,SAINT MICHAEL'S ROAD,6D SAINT MICHAEL'S ROAD SINGAPORE 327948,31481.4790941076,34205.344073765
6E SAINT MICHAEL'S ROAD SINGAPORE 327949,6E,NIL,1.32566965559272,103.864553032888,103.864553032888,327949,SAINT MICHAEL'S ROAD,6E SAINT MICHAEL'S ROAD SINGAPORE 327949,31476.0792555446,34211.353963539
7 SAINT MICHAEL'S ROAD THE RICHMOND SINGAPORE 327950,7,THE RICHMOND,1.32492428414092,103.86440663349,103.86440663349,327950,SAINT MICHAEL'S ROAD,THE RICHMOND,31459.7875133092,34128.9343952164
8A SAINT MICHAEL'S ROAD SINGAPORE 327951,8A,NIL,1.32575030575164,103.864317780566,103.864317780566,327951,SAINT MICHAEL'S ROAD,8A SAINT MICHAEL'S ROAD SINGAPORE 327951,31449.8979339171,34220.2715169024
10 SAINT MICHAEL'S ROAD SINGAPORE 327952,10,NIL,1.32579021982784,103.864275236137,103.864275236137,327952,SAINT MICHAEL'S ROAD,10 SAINT MICHAEL'S ROAD SINGAPORE 327952,31445.1631132243,34224.6849521436
10A SAINT MICHAEL'S ROAD SINGAPORE 327953,10A,NIL,1.32582781042746,103.864235163108,103.864235163108,327953,SAINT MICHAEL'S ROAD,10A SAINT MICHAEL'S ROAD SINGAPORE 327953,31440.7033376992,34228.8414727394
11 SAINT MICHAEL'S ROAD SINGAPORE 327954,11,NIL,1.32550513842762,103.864129423164,103.864129423164,327954,SAINT MICHAEL'S ROAD,11 SAINT MICHAEL'S ROAD SINGAPORE 327954,31428.9359931331,34193.1619064808
11A SAINT MICHAEL'S ROAD SINGAPORE 327955,11A,NIL,1.32554519188749,103.864082330242,103.864082330242,327955,SAINT MICHAEL'S ROAD,11A SAINT MICHAEL'S ROAD SINGAPORE 327955,31423.6949706804,34197.5907481276
11B SAINT MICHAEL'S ROAD SINGAPORE 327956,11B,NIL,1.32558431678569,103.864039949803,103.864039949803,327956,SAINT MICHAEL'S ROAD,11B SAINT MICHAEL'S ROAD SINGAPORE 327956,31418.9784015818,34201.9169207718
11C SAINT MICHAEL'S ROAD SINGAPORE 327957,11C,NIL,1.32562563050912,103.863992938758,103.863992938758,327957,SAINT MICHAEL'S ROAD,11C SAINT MICHAEL'S ROAD SINGAPORE 327957,31413.7464897931,34206.4851162136
11D SAINT MICHAEL'S ROAD SINGAPORE 327958,11D,NIL,1.32566557715529,103.863950295056,103.863950295056,327958,SAINT MICHAEL'S ROAD,11D SAINT MICHAEL'S ROAD SINGAPORE 327958,31409.0006212853,34210.9021533467
11E SAINT MICHAEL'S ROAD SINGAPORE 327959,11E,NIL,1.32570752839331,103.863903897317,103.863903897317,327959,SAINT MICHAEL'S ROAD,11E SAINT MICHAEL'S ROAD SINGAPORE 327959,31403.8369637998,34215.5408429224
11F SAINT MICHAEL'S ROAD SINGAPORE 327960,11F,NIL,1.32574686680666,103.863860995501,103.863860995501,327960,SAINT MICHAEL'S ROAD,11F SAINT MICHAEL'S ROAD SINGAPORE 327960,31399.0623709755,34219.8906245939
11G SAINT MICHAEL'S ROAD SINGAPORE 327961,11G,NIL,1.32578826155562,103.863813668144,103.863813668144,327961,SAINT MICHAEL'S ROAD,11G SAINT MICHAEL'S ROAD SINGAPORE 327961,31393.7952575218,34224.4677793607
11H SAINT MICHAEL'S ROAD SINGAPORE 327962,11H,NIL,1.32582423227551,103.863767218381,103.863767218381,327962,SAINT MICHAEL'S ROAD,11H SAINT MICHAEL'S ROAD SINGAPORE 327962,31388.6258188505,34228.4451740291
11J SAINT MICHAEL'S ROAD SINGAPORE 327963,11J,NIL,1.32586957037801,103.863723193652,103.863723193652,327963,SAINT MICHAEL'S ROAD,11J SAINT MICHAEL'S ROAD SINGAPORE 327963,31383.7262495216,34233.4583693687
12 SAINT MICHAEL'S ROAD SINGAPORE 327964,12,NIL,1.32586536598753,103.864195179557,103.864195179557,327964,SAINT MICHAEL'S ROAD,12 SAINT MICHAEL'S ROAD SINGAPORE 327964,31436.2535203407,34232.9941190332
12A SAINT MICHAEL'S ROAD SINGAPORE 327965,12A,NIL,1.3259029773888,103.864155168263,103.864155168263,327965,SAINT MICHAEL'S ROAD,12A SAINT MICHAEL'S ROAD SINGAPORE 327965,31431.8006156487,34237.1529399958
14 SAINT MICHAEL'S ROAD SINGAPORE 327966,14,NIL,1.32594059809693,103.864115114269,103.864115114269,327966,SAINT MICHAEL'S ROAD,14 SAINT MICHAEL'S ROAD SINGAPORE 327966,31427.3429588825,34241.3127900716
14A SAINT MICHAEL'S ROAD SINGAPORE 327967,14A,NIL,1.32598420186514,103.864068587089,103.864068587089,327967,SAINT MICHAEL'S ROAD,14A SAINT MICHAEL'S ROAD SINGAPORE 327967,31422.1648938358,34246.1342074648
15 SAINT MICHAEL'S ROAD SINGAPORE 327968,15,NIL,1.32595638342339,103.86365451578,103.86365451578,327968,SAINT MICHAEL'S ROAD,15 SAINT MICHAEL'S ROAD SINGAPORE 327968,31376.0829782737,34243.0576182604
15A SAINT MICHAEL'S ROAD SINGAPORE 327969,15A,NIL,1.32599029644321,103.863611882872,103.863611882872,327969,SAINT MICHAEL'S ROAD,15A SAINT MICHAEL'S ROAD SINGAPORE 327969,31371.3383204862,34246.8074884955
15B SAINT MICHAEL'S ROAD SINGAPORE 327970,15B,NIL,1.32603093050526,103.863562806159,103.863562806159,327970,SAINT MICHAEL'S ROAD,15B SAINT MICHAEL'S ROAD SINGAPORE 327970,31365.8765233606,34251.3005285338
15C SAINT MICHAEL'S ROAD SINGAPORE 327971,15C,NIL,1.32606739117268,103.863518779684,103.863518779684,327971,SAINT MICHAEL'S ROAD,15C SAINT MICHAEL'S ROAD SINGAPORE 327971,31360.9767724238,34255.3321028929
15D SAINT MICHAEL'S ROAD SINGAPORE 327972,15D,NIL,1.32609772229696,103.863461825382,103.863461825382,327972,SAINT MICHAEL'S ROAD,15D SAINT MICHAEL'S ROAD SINGAPORE 327972,31354.6382934181,34258.6858862937
15E SAINT MICHAEL'S ROAD SINGAPORE 327973,15E,NIL,1.32614445578864,103.863425630798,103.863425630798,327973,SAINT MICHAEL'S ROAD,15E SAINT MICHAEL'S ROAD SINGAPORE 327973,31350.6101393411,34263.8533878122
15F SAINT MICHAEL'S ROAD SINGAPORE 327974,15F,NIL,1.32618436966014,103.863376202136,103.863376202136,327974,SAINT MICHAEL'S ROAD,15F SAINT MICHAEL'S ROAD SINGAPORE 327974,31345.1091754446,34268.2667927872
15G SAINT MICHAEL'S ROAD SINGAPORE 327975,15G,NIL,1.32622073945539,103.863331321655,103.863331321655,327975,SAINT MICHAEL'S ROAD,15G SAINT MICHAEL'S ROAD SINGAPORE 327975,31340.1143830391,34272.2883181758
17 SAINT MICHAEL'S ROAD CHURCH OF SAINT MICHAEL SINGAPORE 327976,17,CHURCH OF SAINT MICHAEL,1.32615672145784,103.862863302158,103.862863302158,327976,SAINT MICHAEL'S ROAD,CHURCH OF SAINT MICHAEL,31288.0286312988,34265.2089091949
18 SAINT MICHAEL'S ROAD CITY REGENCY SINGAPORE 327977,18,CITY REGENCY,1.32638091456349,103.86384065497,103.86384065497,327977,SAINT MICHAEL'S ROAD,CITY REGENCY,31396.7978112381,34290.0003552791
19 SAINT MICHAEL'S ROAD SAINT MICHAEL'S CONDOMINIUM SINGAPORE 327978,19,SAINT MICHAEL'S CONDOMINIUM,1.32645102587284,103.862799555963,103.862799555963,327978,SAINT MICHAEL'S ROAD,SAINT MICHAEL'S CONDOMINIUM,31280.9339369871,34297.7515016217
20 SAINT MICHAEL'S ROAD SUNVILLE SINGAPORE 327979,20,SUNVILLE,1.32656203245391,103.863658971562,103.863658971562,327979,SAINT MICHAEL'S ROAD,SUNVILLE,31376.5780414157,34310.0271969736
22 SAINT MICHAEL'S ROAD SUNVILLE SINGAPORE 327981,22,SUNVILLE,1.32688549589761,103.864133218493,103.864133218493,327981,SAINT MICHAEL'S ROAD,SUNVILLE,31429.3564759633,34345.7947825287
24 SAINT MICHAEL'S ROAD SINGAPORE 327983,24,NIL,1.32706810437679,103.863811983148,103.863811983148,327983,SAINT MICHAEL'S ROAD,24 SAINT MICHAEL'S ROAD SINGAPORE 327983,31393.6059918189,34365.9862517864
24A SAINT MICHAEL'S ROAD SINGAPORE 327984,24A,NIL,1.32702540741694,103.863776132872,103.863776132872,327984,SAINT MICHAEL'S ROAD,24A SAINT MICHAEL'S ROAD SINGAPORE 327984,31389.6162780812,34361.2649911493
24B SAINT MICHAEL'S ROAD SINGAPORE 327985,24B,NIL,1.3269808329738,103.863736146388,103.863736146388,327985,SAINT MICHAEL'S ROAD,24B SAINT MICHAEL'S ROAD SINGAPORE 327985,31385.1662488477,34356.3361224141
24C SAINT MICHAEL'S ROAD SINGAPORE 327986,24C,NIL,1.32682288188001,103.863588708813,103.863588708813,327986,SAINT MICHAEL'S ROAD,24C SAINT MICHAEL'S ROAD SINGAPORE 327986,31368.7581564821,34338.8704969659
24D SAINT MICHAEL'S ROAD SINGAPORE 327987,24D,NIL,1.32677994186167,103.863551244373,103.863551244373,327987,SAINT MICHAEL'S ROAD,24D SAINT MICHAEL'S ROAD SINGAPORE 327987,31364.5888022613,34334.1223583594
24E SAINT MICHAEL'S ROAD SINGAPORE 327988,24E,NIL,1.32673666160036,103.863513159829,103.863513159829,327988,SAINT MICHAEL'S ROAD,24E SAINT MICHAEL'S ROAD SINGAPORE 327988,31360.3504370367,34329.336596651
24F SAINT MICHAEL'S ROAD SINGAPORE 327989,24F,NIL,1.32669335451281,103.863475058152,103.863475058152,327989,SAINT MICHAEL'S ROAD,24F SAINT MICHAEL'S ROAD SINGAPORE 327989,31356.1101649301,34324.5478686783
24G SAINT MICHAEL'S ROAD SINGAPORE 327990,24G,NIL,1.32665004906693,103.863436960827,103.863436960827,327990,SAINT MICHAEL'S ROAD,24G SAINT MICHAEL'S ROAD SINGAPORE 327990,31351.8703771112,34319.7593223136
24H SAINT MICHAEL'S ROAD SINGAPORE 327991,24H,NIL,1.3266067373246,103.863398863504,103.863398863504,327991,SAINT MICHAEL'S ROAD,24H SAINT MICHAEL'S ROAD SINGAPORE 327991,31347.6305892915,34314.9700797871
24J SAINT MICHAEL'S ROAD SINGAPORE 327992,24J,NIL,1.32655075731692,103.863375506221,103.863375506221,327992,SAINT MICHAEL'S ROAD,24J SAINT MICHAEL'S ROAD SINGAPORE 327992,31345.0312353857,34308.7800652403
24K SAINT MICHAEL'S ROAD SINGAPORE 327993,24K,NIL,1.32651174419617,103.863321424207,103.863321424207,327993,SAINT MICHAEL'S ROAD,24K SAINT MICHAEL'S ROAD SINGAPORE 327993,31339.0125073595,34304.4661208615
26 SAINT MICHAEL'S ROAD AIRSTREAM SINGAPORE 327994,26,AIRSTREAM,1.32732661439014,103.864035551424,103.864035551424,327994,SAINT MICHAEL'S ROAD,AIRSTREAM,31418.4865165791,34394.5712750722
26A SAINT MICHAEL'S ROAD RIVERSIDE MELODIES SINGAPORE 327995,26A,RIVERSIDE MELODIES,1.32730832840836,103.8644767861,103.8644767861,327995,SAINT MICHAEL'S ROAD,RIVERSIDE MELODIES,31467.5914772823,34392.5499185845
28 SAINT MICHAEL'S ROAD SINGAPORE 328000,28,NIL,1.32727531981305,103.863486384226,103.863486384226,328000,SAINT MICHAEL'S ROAD,28 SAINT MICHAEL'S ROAD SINGAPORE 328000,31357.3698578766,34388.8986311723
30C SAINT MICHAEL'S ROAD SINGAPORE 328002,30C,NIL,1.32737438777892,103.862884055458,103.862884055458,328002,SAINT MICHAEL'S ROAD,30C SAINT MICHAEL'S ROAD SINGAPORE 328002,31290.3366558608,34399.8522512633
19A SAINT MICHAEL'S ROAD SAINT MICHAEL'S CONDOMINIUM SINGAPORE 328003,19A,SAINT MICHAEL'S CONDOMINIUM,1.326144602682,103.862340325724,103.862340325724,328003,SAINT MICHAEL'S ROAD,SAINT MICHAEL'S CONDOMINIUM,31229.8266583569,34263.8681888562
22A SAINT MICHAEL'S ROAD SUNVILLE SINGAPORE 328004,22A,SUNVILLE,1.3273143906536,103.864225802514,103.864225802514,328004,SAINT MICHAEL'S ROAD,SUNVILLE,31439.6595462803,34393.2199004032
16 SAINT MICHAEL'S ROAD THE MORNINGTON SINGAPORE 328005,16,THE MORNINGTON,1.32618605863823,103.863993596759,103.863993596759,328005,SAINT MICHAEL'S ROAD,THE MORNINGTON,31413.818951346,34268.4543937501
1 SAINT MICHAEL'S ROAD ONE SAINT MICHAEL'S SINGAPORE 328006,1,ONE SAINT MICHAEL'S,1.3247038792419,103.864608983,103.864608983,328006,SAINT MICHAEL'S ROAD,ONE SAINT MICHAEL'S,31482.3072866779,34104.5634319633
3 SAINT MICHAEL'S ROAD ONE SAINT MICHAEL'S SINGAPORE 328007,3,ONE SAINT MICHAEL'S,1.32470387896817,103.864608983,103.864608983,328007,SAINT MICHAEL'S ROAD,ONE SAINT MICHAEL'S,31482.3072866779,34104.5634016953
38 SAINT MICHAEL'S ROAD SAINT MICHAEL REGENCY SINGAPORE 328008,38,SAINT MICHAEL REGENCY,1.32791955421654,103.86384632382,103.86384632382,328008,SAINT MICHAEL'S ROAD,SAINT MICHAEL REGENCY,31397.4265983319,34460.1352691595
2 SAINT GEORGE'S ROAD SINGAPORE 328023,2,NIL,1.32241677129053,103.863267718898,103.863267718898,328023,SAINT GEORGE'S ROAD,2 SAINT GEORGE'S ROAD SINGAPORE 328023,31333.0411184598,33851.6648935899
4 SAINT GEORGE'S ROAD SINGAPORE 328024,4,NIL,1.32241677129053,103.863267718626,103.863267718626,328024,SAINT GEORGE'S ROAD,4 SAINT GEORGE'S ROAD SINGAPORE 328024,31333.0410881918,33851.6648935899
6 SAINT GEORGE'S ROAD SINGAPORE 328025,6,NIL,1.32250846763564,103.863160674897,103.863160674897,328025,SAINT GEORGE'S ROAD,6 SAINT GEORGE'S ROAD SINGAPORE 328025,31321.1280638212,33861.8040627763
1 SAINT GEORGE'S LANE RESIDENCE @ ST GEORGE SINGAPORE 328047,1,RESIDENCE @ ST GEORGE,1.32263933076595,103.861706374536,103.861706374536,328047,SAINT GEORGE'S LANE,RESIDENCE @ ST GEORGE,31159.2787380721,33876.2723406013
84 SAINT FRANCIS ROAD CANAAN CENTRE SINGAPORE 328069,84,CANAAN CENTRE,1.32399443458641,103.863546754589,103.863546754589,328069,SAINT FRANCIS ROAD,CANAAN CENTRE,31364.0928916158,34026.1152047124
88 SAINT FRANCIS ROAD RENEWAL CENTRE SINGAPORE 328070,88,RENEWAL CENTRE,1.32416384207861,103.86364006549,103.86364006549,328070,SAINT FRANCIS ROAD,RENEWAL CENTRE,31374.4772314699,34044.8475452792
90 SAINT FRANCIS ROAD ST FRANCIS COURT SINGAPORE 328071,90,ST FRANCIS COURT,1.32437966274857,103.863833862679,103.863833862679,328071,SAINT FRANCIS ROAD,ST FRANCIS COURT,31396.0446227314,34068.7121554334
94 SAINT FRANCIS ROAD SINGAPORE 328072,94,NIL,1.3247480388189,103.863854140404,103.863854140404,328072,SAINT FRANCIS ROAD,94 SAINT FRANCIS ROAD SINGAPORE 328072,31398.3008285053,34109.4453247897
96 SAINT FRANCIS ROAD SINGAPORE 328073,96,NIL,1.32455908897071,103.864093495945,103.864093495945,328073,SAINT FRANCIS ROAD,96 SAINT FRANCIS ROAD SINGAPORE 328073,31424.9389545433,34088.5525463484
98 SAINT FRANCIS ROAD SAINT FRANCIS LODGE SINGAPORE 328074,98,SAINT FRANCIS LODGE,1.32480413933797,103.864179093295,103.864179093295,328074,SAINT FRANCIS ROAD,SAINT FRANCIS LODGE,31434.4647430396,34115.6490809992
100 SAINT FRANCIS ROAD SINGAPORE 328075,100,NIL,1.32505099986657,103.864179852708,103.864179852708,328075,SAINT FRANCIS ROAD,100 SAINT FRANCIS ROAD SINGAPORE 328075,31434.5489183022,34142.9456567559
102 SAINT FRANCIS ROAD SINGAPORE 328076,102,NIL,1.32509210017943,103.864212378875,103.864212378875,328076,SAINT FRANCIS ROAD,102 SAINT FRANCIS ROAD SINGAPORE 328076,31438.1686967425,34147.4903642423
104 SAINT FRANCIS ROAD SINGAPORE 328077,104,NIL,1.32513723774435,103.864247609059,103.864247609059,328077,SAINT FRANCIS ROAD,104 SAINT FRANCIS ROAD SINGAPORE 328077,31442.0893994775,34152.4814942218
106 SAINT FRANCIS ROAD SINGAPORE 328078,106,NIL,1.32518173318586,103.864278502338,103.864278502338,328078,SAINT FRANCIS ROAD,106 SAINT FRANCIS ROAD SINGAPORE 328078,31445.5274489438,34157.4016155116
108 SAINT FRANCIS ROAD SINGAPORE 328079,108,NIL,1.32522212556333,103.86431585196,103.86431585196,328079,SAINT FRANCIS ROAD,108 SAINT FRANCIS ROAD SINGAPORE 328079,31449.6840300756,34161.8680499922
110 SAINT FRANCIS ROAD SINGAPORE 328080,110,NIL,1.32525085484461,103.864365742711,103.864365742711,328080,SAINT FRANCIS ROAD,110 SAINT FRANCIS ROAD SINGAPORE 328080,31455.2363284733,34165.0448564906
112 SAINT FRANCIS ROAD SINGAPORE 328081,112,NIL,1.32530977340544,103.86438596445,103.86438596445,328081,SAINT FRANCIS ROAD,112 SAINT FRANCIS ROAD SINGAPORE 328081,31457.4867227944,34171.5597978421
2 SHAN ROAD SHAN GATE APARTMENTS SINGAPORE 328103,2,SHAN GATE APARTMENTS,1.32591275851831,103.846864567537,103.846864567537,328103,SHAN ROAD,SHAN GATE APARTMENTS,29507.531499736,34238.2172531076
3 SHAN ROAD SINGAPORE 328104,3,NIL,1.32626577531302,103.847472739865,103.847472739865,328104,SHAN ROAD,3 SHAN ROAD SINGAPORE 328104,29575.2147067022,34277.252418844
12 SHAN ROAD ARIVA ON SHAN SERVICED RESIDENCE SINGAPORE 328105,12,ARIVA ON SHAN SERVICED RESIDENCE,1.32478726207678,103.846354106513,103.846354106513,328105,SHAN ROAD,ARIVA ON SHAN SERVICED RESIDENCE,29450.7230042284,34113.7653227653
4 SHAN ROAD LE SHANTIER SINGAPORE 328106,4,LE SHANTIER,1.32586291679013,103.846541991124,103.846541991124,328106,SHAN ROAD,LE SHANTIER,29471.632036576,34232.7058164887
16 SHAN ROAD PINNACLE 16 SINGAPORE 328107,16,PINNACLE 16,1.32449721645123,103.846222526379,103.846222526379,328107,SHAN ROAD,PINNACLE 16,29436.0796261178,34081.6934882905
8 SHAN ROAD THE MARQUE @ IRRAWADDY SINGAPORE 328108,8,THE MARQUE @ IRRAWADDY,1.32590458180222,103.845997985457,103.845997985457,328108,SHAN ROAD,THE MARQUE @ IRRAWADDY,29411.0896825977,34237.3126036115
705 SERANGOON ROAD KWONG WAI SHIU HOSPITAL SINGAPORE 328127,705,KWONG WAI SHIU HOSPITAL,1.3173488411905,103.858748583754,103.858748583754,328127,SERANGOON ROAD,KWONG WAI SHIU HOSPITAL,30830.1120542437,33291.2735454179
987 SERANGOON ROAD SINGAPORE 328147,987,NIL,1.32223138528127,103.863435537579,103.863435537579,328147,SERANGOON ROAD,987 SERANGOON ROAD SINGAPORE 328147,31351.7179172765,33831.166083226
989 SERANGOON ROAD SINGAPORE 328148,989,NIL,1.32227415751644,103.863472170521,103.863472170521,328148,SERANGOON ROAD,989 SERANGOON ROAD SINGAPORE 328148,31355.7947422722,33835.8956675567
991 SERANGOON ROAD SINGAPORE 328149,991,NIL,1.32230905184454,103.863498461292,103.863498461292,328149,SERANGOON ROAD,991 SERANGOON ROAD SINGAPORE 328149,31358.7205969179,33839.7541393172
993 SERANGOON ROAD SINGAPORE 328150,993,NIL,1.32234388156079,103.863525615852,103.863525615852,328150,SERANGOON ROAD,993 SERANGOON ROAD SINGAPORE 328150,31361.7425826807,33843.6054678336
995 SERANGOON ROAD SINGAPORE 328151,995,NIL,1.32237930336901,103.86355211333,103.86355211333,328151,SERANGOON ROAD,995 SERANGOON ROAD SINGAPORE 328151,31364.6914409939,33847.5222659986
997 SERANGOON ROAD SINGAPORE 328152,997,NIL,1.32242154188446,103.863583748207,103.863583748207,328152,SERANGOON ROAD,997 SERANGOON ROAD SINGAPORE 328152,31368.2120312518,33852.192827763
997D SERANGOON ROAD SINGAPORE 328153,997D,NIL,1.32250303780768,103.863413729909,103.863413729909,328153,SERANGOON ROAD,997D SERANGOON ROAD SINGAPORE 328153,31349.2905763229,33861.203999998
997E SERANGOON ROAD SINGAPORE 328154,997E,NIL,1.32254598745584,103.863357772077,103.863357772077,328154,SERANGOON ROAD,997E SERANGOON ROAD SINGAPORE 328154,31343.0629689405,33865.9530769121
997F SERANGOON ROAD SINGAPORE 328155,997F,NIL,1.32259026853392,103.863302283143,103.863302283143,328155,SERANGOON ROAD,997F SERANGOON ROAD SINGAPORE 328155,31336.8875435628,33870.8493772987
997G SERANGOON ROAD SINGAPORE 328156,997G,NIL,1.32263441602059,103.863247496442,103.863247496442,328156,SERANGOON ROAD,997G SERANGOON ROAD SINGAPORE 328156,31330.790270119,33875.7309069075
999 SERANGOON ROAD SINGAPORE 328157,999,NIL,1.32254782189333,103.863680741595,103.863680741595,328157,SERANGOON ROAD,999 SERANGOON ROAD SINGAPORE 328157,31379.0062601408,33866.1563566905
999D SERANGOON ROAD SINGAPORE 328158,999D,NIL,1.32267846903369,103.863555102678,103.863555102678,328158,SERANGOON ROAD,999D SERANGOON ROAD SINGAPORE 328158,31365.0237229187,33880.6024783514
999E SERANGOON ROAD SINGAPORE 328159,999E,NIL,1.32267846930743,103.863555102406,103.863555102406,328159,SERANGOON ROAD,999E SERANGOON ROAD SINGAPORE 328159,31365.0236926507,33880.6025086194
999F SERANGOON ROAD SINGAPORE 328160,999F,NIL,1.32271969791887,103.863505777723,103.863505777723,328160,SERANGOON ROAD,999F SERANGOON ROAD SINGAPORE 328160,31359.534291124,33885.1612907182
999G SERANGOON ROAD SINGAPORE 328161,999G,NIL,1.32271969791887,103.863505777723,103.863505777723,328161,SERANGOON ROAD,999G SERANGOON ROAD SINGAPORE 328161,31359.534291124,33885.1612907182
999H SERANGOON ROAD SINGAPORE 328162,999H,NIL,1.32276016611644,103.86345505318,103.86345505318,328162,SERANGOON ROAD,999H SERANGOON ROAD SINGAPORE 328162,31353.8891002852,33889.6359883603
999J SERANGOON ROAD SINGAPORE 328163,999J,NIL,1.32276016611644,103.86345505318,103.86345505318,328163,SERANGOON ROAD,999J SERANGOON ROAD SINGAPORE 328163,31353.8891002852,33889.6359883603
1001 SERANGOON ROAD SINGAPORE 328165,1001,NIL,1.32258615367648,103.863713551899,103.863713551899,328165,SERANGOON ROAD,1001 SERANGOON ROAD SINGAPORE 328165,31382.657668625,33870.39493379
1003 SERANGOON ROAD SINGAPORE 328166,1003,NIL,1.32262196910192,103.863740738298,103.863740738298,328166,SERANGOON ROAD,1003 SERANGOON ROAD SINGAPORE 328166,31385.6831957409,33874.3552573156
1005 SERANGOON ROAD SINGAPORE 328167,1005,NIL,1.32265674268251,103.863769311751,103.863769311751,328167,SERANGOON ROAD,1005 SERANGOON ROAD SINGAPORE 328167,31388.8630895745,33878.2003808953
1007 SERANGOON ROAD SINGAPORE 328168,1007,NIL,1.32269047554041,103.863797061928,103.863797061928,328168,SERANGOON ROAD,1007 SERANGOON ROAD SINGAPORE 328168,31391.9513622215,33881.9304256011
1009 SERANGOON ROAD SINGAPORE 328169,1009,NIL,1.32273268618235,103.863824595718,103.863824595718,328169,SERANGOON ROAD,1009 SERANGOON ROAD SINGAPORE 328169,31395.0155415526,33886.5979000293
1037 SERANGOON ROAD EURO-ASIA APARTMENTS SINGAPORE 328170,1037,EURO-ASIA APARTMENTS,1.32333422243451,103.863847631639,103.863847631639,328170,SERANGOON ROAD,EURO-ASIA APARTMENTS,31397.57839227,33953.1127325557
1055 SERANGOON ROAD TONG TEK BUDDHIST TEMPLE SINGAPORE 328172,1055,TONG TEK BUDDHIST TEMPLE,1.32359668342827,103.864122477051,103.864122477051,328172,SERANGOON ROAD,TONG TEK BUDDHIST TEMPLE,31428.1655821437,33982.1347044557
1068 SERANGOON ROAD SINGAPORE 328176,1068,NIL,1.32321071362832,103.864653117895,103.864653117895,328176,SERANGOON ROAD,1068 SERANGOON ROAD SINGAPORE 328176,31487.2211424951,33939.4568776824
1070 SERANGOON ROAD SINGAPORE 328177,1070,NIL,1.32326525341781,103.864684250619,103.864684250619,328177,SERANGOON ROAD,1070 SERANGOON ROAD SINGAPORE 328177,31490.685827787,33945.487652367
1072 SERANGOON ROAD SINGAPORE 328178,1072,NIL,1.32330149770883,103.864716345086,103.864716345086,328178,SERANGOON ROAD,1072 SERANGOON ROAD SINGAPORE 328178,31494.2575709373,33949.495405823
1074 SERANGOON ROAD SINGAPORE 328179,1074,NIL,1.32335177213185,103.864752147279,103.864752147279,328179,SERANGOON ROAD,1074 SERANGOON ROAD SINGAPORE 328179,31498.2419272419,33955.0545447841
1076 SERANGOON ROAD SINGAPORE 328180,1076,NIL,1.32338489471926,103.864788371089,103.864788371089,328180,SERANGOON ROAD,1076 SERANGOON ROAD SINGAPORE 328180,31502.2732291892,33958.7171221543
1078 SERANGOON ROAD SINGAPORE 328181,1078,NIL,1.32343745292254,103.864821994531,103.864821994531,328181,SERANGOON ROAD,1078 SERANGOON ROAD SINGAPORE 328181,31506.0151086766,33964.5287869032
1079 SERANGOON ROAD ELIM CHURCH SINGAPORE 328182,1079,ELIM CHURCH,1.32372876552286,103.864626377113,103.864626377113,328182,SERANGOON ROAD,ELIM CHURCH,31484.2444376359,33996.7403686587
1080 SERANGOON ROAD SINGAPORE 328183,1080,NIL,1.3234693182428,103.864859065254,103.864859065254,328183,SERANGOON ROAD,1080 SERANGOON ROAD SINGAPORE 328183,31510.1406651251,33968.0523434244
1082 SERANGOON ROAD SINGAPORE 328184,1082,NIL,1.32352454731322,103.864888290097,103.864888290097,328184,SERANGOON ROAD,1082 SERANGOON ROAD SINGAPORE 328184,31513.3930205116,33974.1593328901
1084 SERANGOON ROAD SINGAPORE 328186,1084,NIL,1.32355675205122,103.864926140304,103.864926140304,328186,SERANGOON ROAD,1084 SERANGOON ROAD SINGAPORE 328186,31517.6053250013,33977.720421711
1086 SERANGOON ROAD SINGAPORE 328187,1086,NIL,1.32360864371051,103.864959942429,103.864959942429,328187,SERANGOON ROAD,1086 SERANGOON ROAD SINGAPORE 328187,31521.367090554,33983.4583839197
1088 SERANGOON ROAD SINGAPORE 328188,1088,NIL,1.32364319439061,103.864993718498,103.864993718498,328188,SERANGOON ROAD,1088 SERANGOON ROAD SINGAPORE 328188,31525.1259806482,33987.2788693607
1090 SERANGOON ROAD SINGAPORE 328189,1090,NIL,1.32369523933348,103.865027975097,103.865027975097,328189,SERANGOON ROAD,1090 SERANGOON ROAD SINGAPORE 328189,31528.9383240007,33993.0337816402
1091 SERANGOON ROAD REGENT RESIDENCES SINGAPORE 328190,1091,REGENT RESIDENCES,1.32423340916268,103.864556003087,103.864556003087,328190,SERANGOON ROAD,REGENT RESIDENCES,31476.4118098821,34052.5411824528
1092 SERANGOON ROAD SINGAPORE 328191,1092,NIL,1.32375634219308,103.865033526861,103.865033526861,328191,SERANGOON ROAD,1092 SERANGOON ROAD SINGAPORE 328191,31529.5560935484,33999.7902312335
1094 SERANGOON ROAD SINGAPORE 328192,1094,NIL,1.32380071293519,103.86507541713,103.86507541713,328192,SERANGOON ROAD,1094 SERANGOON ROAD SINGAPORE 328192,31534.2179986686,34004.6965805907
1096 SERANGOON ROAD SINGAPORE 328193,1096,NIL,1.32394820279063,103.86519436058,103.86519436058,328193,SERANGOON ROAD,1096 SERANGOON ROAD SINGAPORE 328193,31547.4550051838,34021.0054242369
1098 SERANGOON ROAD SINGAPORE 328194,1098,NIL,1.32398245292844,103.865268860953,103.865268860953,328194,SERANGOON ROAD,1098 SERANGOON ROAD SINGAPORE 328194,31555.7461020881,34024.7927359678
1100 SERANGOON ROAD SINGAPORE 328195,1100,NIL,1.32402421605873,103.86529181283,103.86529181283,328195,SERANGOON ROAD,1100 SERANGOON ROAD SINGAPORE 328195,31558.3003566973,34029.4107222445
1102 SERANGOON ROAD SINGAPORE 328196,1102,NIL,1.32407371332052,103.865329491113,103.865329491113,328196,SERANGOON ROAD,1102 SERANGOON ROAD SINGAPORE 328196,31562.4935015542,34034.8839304
1104 SERANGOON ROAD SINGAPORE 328197,1104,NIL,1.3241092092138,103.865361808065,103.865361808065,328197,SERANGOON ROAD,1104 SERANGOON ROAD SINGAPORE 328197,31566.0900039151,34038.8089311887
1106 SERANGOON ROAD SINGAPORE 328198,1106,NIL,1.32415885183501,103.865398839325,103.865398839325,328198,SERANGOON ROAD,1106 SERANGOON ROAD SINGAPORE 328198,31570.211141238,34044.2982116435
1108 SERANGOON ROAD SINGAPORE 328199,1108,NIL,1.32419015289918,103.865442299545,103.865442299545,328199,SERANGOON ROAD,1108 SERANGOON ROAD SINGAPORE 328199,31575.0477834279,34047.7593858484
1110 SERANGOON ROAD SINGAPORE 328200,1110,NIL,1.32423740518545,103.865465862623,103.865465862623,328200,SERANGOON ROAD,1110 SERANGOON ROAD SINGAPORE 328200,31577.6700501973,34052.9843360018
1112 SERANGOON ROAD SINGAPORE 328201,1112,NIL,1.32428104023593,103.865499307833,103.865499307833,328201,SERANGOON ROAD,1112 SERANGOON ROAD SINGAPORE 328201,31581.3921041554,34057.8093250189
1114 SERANGOON ROAD SINGAPORE 328202,1114,NIL,1.32431264828926,103.865553262451,103.865553262451,328202,SERANGOON ROAD,1114 SERANGOON ROAD SINGAPORE 328202,31587.3966667652,34061.3044599015
1116 SERANGOON ROAD SINGAPORE 328203,1116,NIL,1.32437004390979,103.865564365444,103.865564365444,328203,SERANGOON ROAD,1116 SERANGOON ROAD SINGAPORE 328203,31588.6322361287,34067.6509901918
1118 SERANGOON ROAD SINGAPORE 328204,1118,NIL,1.32441770084826,103.865603000518,103.865603000518,328204,SERANGOON ROAD,1118 SERANGOON ROAD SINGAPORE 328204,31592.9318637513,34072.9207066931
1120 SERANGOON ROAD SINGAPORE 328205,1120,NIL,1.32445527329185,103.865634060169,103.865634060169,328205,SERANGOON ROAD,1120 SERANGOON ROAD SINGAPORE 328205,31596.3884372236,34077.0753204059
1122 SERANGOON ROAD SINGAPORE 328206,1122,NIL,1.32449658834758,103.865675577816,103.865675577816,328206,SERANGOON ROAD,1122 SERANGOON ROAD SINGAPORE 328206,31601.0088752061,34081.6437882613
1124 SERANGOON ROAD SINGAPORE 328208,1124,NIL,1.32454402566715,103.86569971749,103.86569971749,328208,SERANGOON ROAD,1124 SERANGOON ROAD SINGAPORE 328208,31603.6953101009,34086.8891995717
1126 SERANGOON ROAD SINGAPORE 328210,1126,NIL,1.32458965915412,103.865739538077,103.865739538077,328210,SERANGOON ROAD,1126 SERANGOON ROAD SINGAPORE 328210,31608.1268758653,34091.9351751357
1177 SERANGOON ROAD JUI RESIDENCES SINGAPORE 328231,1177,JUI RESIDENCES,1.32626870727644,103.866142673614,103.866142673614,328231,SERANGOON ROAD,JUI RESIDENCES,31652.9893548992,34277.5963236764
1179 SERANGOON ROAD SINGAPORE 328232,1179,NIL,1.32629412263676,103.866564666483,103.866564666483,328232,SERANGOON ROAD,1179 SERANGOON ROAD SINGAPORE 328232,31699.9528557556,34280.4072507881
1249 SERANGOON ROAD SINGAPORE 328234,1249,NIL,1.32673784770738,103.8664665642,103.8664665642,328234,SERANGOON ROAD,1249 SERANGOON ROAD SINGAPORE 328234,31689.0344070606,34329.471955074
1347 SERANGOON ROAD SERANGOON HALL (HOMESTEAD HALLS) SINGAPORE 328235,1347,SERANGOON HALL (HOMESTEAD HALLS),1.32674791630875,103.866958961299,103.866958961299,328235,SERANGOON ROAD,SERANGOON HALL (HOMESTEAD HALLS),31743.8331992542,34330.5860287491
1349 SERANGOON ROAD SINGAPORE 328236,1349,NIL,1.32677351189209,103.867025068807,103.867025068807,328236,SERANGOON ROAD,1349 SERANGOON ROAD SINGAPORE 328236,31751.1902564485,34333.4163576402
1351 SERANGOON ROAD SINGAPORE 328237,1351,NIL,1.32681014105591,103.867054401732,103.867054401732,328237,SERANGOON ROAD,1351 SERANGOON ROAD SINGAPORE 328237,31754.4546584925,34337.4666678812
1353 SERANGOON ROAD SINGAPORE 328238,1353,NIL,1.32684755579027,103.867086827017,103.867086827017,328238,SERANGOON ROAD,1353 SERANGOON ROAD SINGAPORE 328238,31758.0632075109,34341.6038472354
1355 SERANGOON ROAD SINGAPORE 328239,1355,NIL,1.32687998265209,103.867112808347,103.867112808347,328239,SERANGOON ROAD,1355 SERANGOON ROAD SINGAPORE 328239,31760.9546171911,34345.1894833893
1357 SERANGOON ROAD SINGAPORE 328240,1357,NIL,1.32690549336676,103.867159548839,103.867159548839,328240,SERANGOON ROAD,1357 SERANGOON ROAD SINGAPORE 328240,31766.156321533,34348.0103989374
1359 SERANGOON ROAD SINGAPORE 328241,1359,NIL,1.32693955542632,103.867191461137,103.867191461137,328241,SERANGOON ROAD,1359 SERANGOON ROAD SINGAPORE 328241,31769.7077851342,34351.7768560257
1361 SERANGOON ROAD SINGAPORE 328242,1361,NIL,1.32697603951119,103.867220676844,103.867220676844,328242,SERANGOON ROAD,1361 SERANGOON ROAD SINGAPORE 328242,31772.9591416772,34355.8111242354
1363 SERANGOON ROAD SINGAPORE 328243,1363,NIL,1.32701271931262,103.867250041323,103.867250041323,328243,SERANGOON ROAD,1363 SERANGOON ROAD SINGAPORE 328243,31776.2270548074,34359.8670340534
1365 SERANGOON ROAD SINGAPORE 328244,1365,NIL,1.32716346733514,103.867286883662,103.867286883662,328244,SERANGOON ROAD,1365 SERANGOON ROAD SINGAPORE 328244,31780.3270045416,34376.5360364392
1370 SERANGOON ROAD SINGAPORE 328247,1370,NIL,1.32674600647723,103.867534267426,103.867534267426,328247,SERANGOON ROAD,1370 SERANGOON ROAD SINGAPORE 328247,31807.8589441394,34330.3757267985
1375 SERANGOON ROAD SINGAPORE 328250,1375,NIL,1.3272678852862,103.867380090699,103.867380090699,328250,SERANGOON ROAD,1375 SERANGOON ROAD SINGAPORE 328250,31790.699842562,34388.0821825806
1377 SERANGOON ROAD SINGAPORE 328251,1377,NIL,1.32730505781504,103.867408708349,103.867408708349,328251,SERANGOON ROAD,1377 SERANGOON ROAD SINGAPORE 328251,31793.8846398089,34392.1925747693
1379 SERANGOON ROAD SINGAPORE 328252,1379,NIL,1.32731486210891,103.867467651312,103.867467651312,328252,SERANGOON ROAD,1379 SERANGOON ROAD SINGAPORE 328252,31800.4443777762,34393.2767739445
1381 SERANGOON ROAD SINGAPORE 328253,1381,NIL,1.32735880625553,103.86749520319,103.86749520319,328253,SERANGOON ROAD,1381 SERANGOON ROAD SINGAPORE 328253,31803.5105547942,34398.1359355152
1383 SERANGOON ROAD SINGAPORE 328254,1383,NIL,1.32740635319145,103.867528686607,103.867528686607,328254,SERANGOON ROAD,1383 SERANGOON ROAD SINGAPORE 328254,31807.23684627,34403.393484287
1011 SERANGOON ROAD SINGAPORE 328256,1011,NIL,1.32281574349207,103.863654796094,103.863654796094,328256,SERANGOON ROAD,1011 SERANGOON ROAD SINGAPORE 328256,31376.1184220826,33895.781720845
1013 SERANGOON ROAD SINGAPORE 328257,1013,NIL,1.32286096702566,103.863600404857,103.863600404857,328257,SERANGOON ROAD,1013 SERANGOON ROAD SINGAPORE 328257,31370.0651582871,33900.7822338995
1015 SERANGOON ROAD SINGAPORE 328258,1015,NIL,1.32290406309922,103.863546564339,103.863546564339,328258,SERANGOON ROAD,1015 SERANGOON ROAD SINGAPORE 328258,31364.0731871584,33905.5475041848
1017 SERANGOON ROAD SINGAPORE 328259,1017,NIL,1.32294847693801,103.863491397691,103.863491397691,328259,SERANGOON ROAD,1017 SERANGOON ROAD SINGAPORE 328259,31357.9336293414,33910.4584845416
900 SERANGOON ROAD BOON KENG MRT STATION SINGAPORE 328260,900,BOON KENG MRT STATION,1.31993957653291,103.862052698446,103.862052698446,328260,SERANGOON ROAD,BOON KENG MRT STATION,31197.8245915845,33577.7477830369
999K SERANGOON ROAD SINGAPORE 328261,999K,NIL,1.32279263029313,103.863410049781,103.863410049781,328261,SERANGOON ROAD,999K SERANGOON ROAD SINGAPORE 328261,31348.8806267511,33893.2256501559
999L SERANGOON ROAD SINGAPORE 328262,999L,NIL,1.32282019233687,103.863375169463,103.863375169463,328262,SERANGOON ROAD,999L SERANGOON ROAD SINGAPORE 328262,31344.9987578392,33896.2732729018
701 SERANGOON ROAD KALLANG POLYCLINIC AND LONG TERM CARE SINGAPORE 328263,701,KALLANG POLYCLINIC AND LONG TERM CARE,1.31669302617615,103.858687319764,103.858687319764,328263,SERANGOON ROAD,KALLANG POLYCLINIC AND LONG TERM CARE,30823.2947054673,33218.7568138652
1 RUBY LANE SINGAPORE 328276,1,NIL,1.32741214334602,103.867101660266,103.867101660266,328276,RUBY LANE,1 RUBY LANE SINGAPORE 328276,31759.7131455708,34404.0330770519
2 RUBY LANE SINGAPORE 328277,2,NIL,1.3276153900162,103.86686146149,103.86686146149,328277,RUBY LANE,2 RUBY LANE SINGAPORE 328277,31732.9811585154,34426.5066917446
3 RUBY LANE SINGAPORE 328278,3,NIL,1.32737203999813,103.867069941526,103.867069941526,328278,RUBY LANE,3 RUBY LANE SINGAPORE 328278,31756.183232774,34399.5986055601
4 RUBY LANE SINGAPORE 328279,4,NIL,1.32755179641713,103.86685967349,103.86685967349,328279,RUBY LANE,4 RUBY LANE SINGAPORE 328279,31732.7822675947,34419.4748337679
5 RUBY LANE SINGAPORE 328280,5,NIL,1.32731952302798,103.867026229911,103.867026229911,328280,RUBY LANE,5 RUBY LANE SINGAPORE 328280,31751.3186532352,34393.7914810088
6 RUBY LANE SINGAPORE 328281,6,NIL,1.32750062038179,103.866821751684,103.866821751684,328281,RUBY LANE,6 RUBY LANE SINGAPORE 328281,31728.5620328933,34413.8159920685
7 RUBY LANE SINGAPORE 328282,7,NIL,1.327278647467,103.866995357276,103.866995357276,328282,RUBY LANE,7 RUBY LANE SINGAPORE 328282,31747.8829041356,34389.2716235351
8 RUBY LANE SINGAPORE 328283,8,NIL,1.32746691089067,103.866789465424,103.866789465424,328283,RUBY LANE,8 RUBY LANE SINGAPORE 328283,31724.9689508136,34410.0885201413
9 RUBY LANE SINGAPORE 328284,9,NIL,1.32722590055148,103.866952252163,103.866952252163,328284,RUBY LANE,9 RUBY LANE SINGAPORE 328284,31743.0858222004,34383.4390738774
10 RUBY LANE SINGAPORE 328285,10,NIL,1.32741482193197,103.866753236921,103.866753236921,328285,RUBY LANE,10 RUBY LANE SINGAPORE 328285,31720.9371645786,34404.3287347164
11 RUBY LANE SINGAPORE 328286,11,NIL,1.32718114758135,103.866920047892,103.866920047892,328286,RUBY LANE,11 RUBY LANE SINGAPORE 328286,31739.5018810518,34378.490470415
12 RUBY LANE SINGAPORE 328287,12,NIL,1.32738262850314,103.866711338565,103.866711338565,328287,RUBY LANE,12 RUBY LANE SINGAPORE 328287,31716.274351419,34400.7688868828
1 PROME ROAD SINGAPORE 328309,1,NIL,1.32522046497683,103.84957598338,103.84957598338,328309,PROME ROAD,1 PROME ROAD SINGAPORE 328309,29809.2851668755,34161.6687958557
3 PROME ROAD SINGAPORE 328311,3,NIL,1.32517977123566,103.849543116397,103.849543116397,328311,PROME ROAD,3 PROME ROAD SINGAPORE 328311,29805.6274323827,34157.1690665912
5 PROME ROAD SINGAPORE 328313,5,NIL,1.32512551610859,103.849526812825,103.849526812825,328313,PROME ROAD,5 PROME ROAD SINGAPORE 328313,29803.8130483674,34151.1698008794
7 PROME ROAD SINGAPORE 328315,7,NIL,1.32507873154428,103.849492595452,103.849492595452,328315,PROME ROAD,7 PROME ROAD SINGAPORE 328315,29800.0050333356,34145.9965787102
8 PROME ROAD NOVA 48 SINGAPORE 328316,8,NOVA 48,1.32502203689022,103.849099034618,103.849099034618,328316,PROME ROAD,NOVA 48,29756.2057172293,34139.7272923142
9 PROME ROAD SINGAPORE 328317,9,NIL,1.32503187964143,103.849458335381,103.849458335381,328317,PROME ROAD,9 PROME ROAD SINGAPORE 328317,29796.1922662305,34140.8159106169
10 PROME ROAD NOVA 48 SINGAPORE 328318,10,NOVA 48,1.32504606945318,103.849113548943,103.849113548943,328318,PROME ROAD,NOVA 48,29757.8209984489,34142.3847002126
11 PROME ROAD SINGAPORE 328319,11,NIL,1.32498499707973,103.849424113387,103.849424113387,328319,PROME ROAD,11 PROME ROAD SINGAPORE 328319,29792.383736643,34135.6318525095
13 PROME ROAD SINGAPORE 328321,13,NIL,1.32493805738206,103.849378429043,103.849378429043,328321,PROME ROAD,13 PROME ROAD SINGAPORE 328321,29787.2995628826,34130.4414683934
15 PROME ROAD SINGAPORE 328323,15,NIL,1.32486536931148,103.849326298206,103.849326298206,328323,PROME ROAD,15 PROME ROAD SINGAPORE 328323,29781.4979773713,34122.4039566573
17 PROME ROAD SINGAPORE 328325,17,NIL,1.3248143210995,103.849289092906,103.849289092906,328325,PROME ROAD,17 PROME ROAD SINGAPORE 328325,29777.3574382709,34116.7592803743
19 PROME ROAD SINGAPORE 328327,19,NIL,1.32476253402378,103.849260851869,103.849260851869,328327,PROME ROAD,19 PROME ROAD SINGAPORE 328327,29774.2145319134,34111.0329108033
21 PROME ROAD SINGAPORE 328329,21,NIL,1.32471571578784,103.849226404416,103.849226404416,328329,PROME ROAD,21 PROME ROAD SINGAPORE 328329,29770.3809101675,34105.8559656721
23 PROME ROAD SINGAPORE 328331,23,NIL,1.32467699847208,103.849181325548,103.849181325548,328331,PROME ROAD,23 PROME ROAD SINGAPORE 328331,29765.3641129388,34101.5747712515
25 PROME ROAD SINGAPORE 328333,25,NIL,1.32463661219195,103.849138400162,103.849138400162,328333,PROME ROAD,25 PROME ROAD SINGAPORE 328333,29760.5869776048,34097.1090329327
27 PROME ROAD SINGAPORE 328335,27,NIL,1.32458974002714,103.849104217344,103.849104217344,328335,PROME ROAD,27 PROME ROAD SINGAPORE 328335,29756.782806607,34091.9261250086
29 PROME ROAD SINGAPORE 328336,29,NIL,1.32453529531763,103.849069484275,103.849069484275,328336,PROME ROAD,29 PROME ROAD SINGAPORE 328336,29752.9174034782,34085.9058835842
1 PEGU ROAD SINGAPORE 328358,1,NIL,1.32304336794377,103.85175270361,103.85175270361,328358,PEGU ROAD,1 PEGU ROAD SINGAPORE 328358,30051.533975713,33920.9382593483
2 PEGU ROAD SINGAPORE 328359,2,NIL,1.32353039835573,103.851550155937,103.851550155937,328359,PEGU ROAD,2 PEGU ROAD SINGAPORE 328359,30028.9920461793,33974.791419195
4 PEGU ROAD SINGAPORE 328361,4,NIL,1.32349753337428,103.851521070256,103.851521070256,328361,PEGU ROAD,4 PEGU ROAD SINGAPORE 328361,30025.7551274654,33971.1573542655
6 PEGU ROAD SINGAPORE 328362,6,NIL,1.32346567170697,103.851480669105,103.851480669105,328362,PEGU ROAD,6 PEGU ROAD SINGAPORE 328362,30021.2589092879,33967.6342214961
8 PEGU ROAD SINGAPORE 328363,8,NIL,1.32346647147779,103.851416632294,103.851416632294,328363,PEGU ROAD,8 PEGU ROAD SINGAPORE 328363,30014.1322519854,33967.7226040084
10 PEGU ROAD SINGAPORE 328364,10,NIL,1.32338676912668,103.851427870225,103.851427870225,328364,PEGU ROAD,10 PEGU ROAD SINGAPORE 328364,30015.3829856087,33958.9095357265
12 PEGU ROAD SINGAPORE 328365,12,NIL,1.32337776316066,103.851374020402,103.851374020402,328365,PEGU ROAD,12 PEGU ROAD SINGAPORE 328365,30009.3900459046,33957.9136585258
20 PEGU ROAD BELMONDO VIEW SINGAPORE 328369,20,BELMONDO VIEW,1.32326280853007,103.851215603717,103.851215603717,328369,PEGU ROAD,BELMONDO VIEW,29991.7599442331,33945.2024371549
28 PEGU ROAD THE TIER SINGAPORE 328373,28,THE TIER,1.32302236265371,103.851021455853,103.851021455853,328373,PEGU ROAD,THE TIER,29970.1534164678,33918.6150099896
1 OPAL CRESCENT OPAL SUITES SINGAPORE 328396,1,OPAL SUITES,1.32751915623427,103.867298187961,103.867298187961,328396,OPAL CRESCENT,OPAL SUITES,31781.5845181933,34415.8663150165
2 OPAL CRESCENT SINGAPORE 328397,2,NIL,1.32771900350227,103.867508708943,103.867508708943,328397,OPAL CRESCENT,2 OPAL CRESCENT SINGAPORE 328397,31805.0130575057,34437.9647277854
4 OPAL CRESCENT SINGAPORE 328399,4,NIL,1.32774368158007,103.867471948133,103.867471948133,328399,OPAL CRESCENT,4 OPAL CRESCENT SINGAPORE 328399,31800.9219157547,34440.6934470534
5 OPAL CRESCENT SINGAPORE 328400,5,NIL,1.32755587039864,103.867237620309,103.867237620309,328400,OPAL CRESCENT,5 OPAL CRESCENT SINGAPORE 328400,31774.8438987555,34419.9258872606
6 OPAL CRESCENT SINGAPORE 328401,6,NIL,1.32778176552363,103.86742998817,103.86742998817,328401,OPAL CRESCENT,6 OPAL CRESCENT SINGAPORE 328401,31796.2521409588,34444.9045105558
7 OPAL CRESCENT SINGAPORE 328402,7,NIL,1.3276278666795,103.867226525823,103.867226525823,328402,OPAL CRESCENT,7 OPAL CRESCENT SINGAPORE 328402,31773.6090860916,34427.886851266
8 OPAL CRESCENT SINGAPORE 328403,8,NIL,1.32780601301505,103.867393473489,103.867393473489,328403,OPAL CRESCENT,8 OPAL CRESCENT SINGAPORE 328403,31792.188391733,34447.5856182855
9 OPAL CRESCENT SINGAPORE 328404,9,NIL,1.32772760510554,103.867066093284,103.867066093284,328404,OPAL CRESCENT,9 OPAL CRESCENT SINGAPORE 328404,31755.7544262493,34438.9151727427
10 OPAL CRESCENT SINGAPORE 328405,10,NIL,1.3278452843953,103.867352615309,103.867352615309,328405,OPAL CRESCENT,10 OPAL CRESCENT SINGAPORE 328405,31787.641232539,34451.927984301
11 OPAL CRESCENT SINGAPORE 328406,11,NIL,1.32776294299412,103.86702121173,103.86702121173,328406,OPAL CRESCENT,11 OPAL CRESCENT SINGAPORE 328406,31750.7595127719,34442.8225878328
12 OPAL CRESCENT SINGAPORE 328407,12,NIL,1.32787389898407,103.867318698042,103.867318698042,328407,OPAL CRESCENT,12 OPAL CRESCENT SINGAPORE 328407,31783.8665425582,34455.0919874441
13 OPAL CRESCENT SINGAPORE 328408,13,NIL,1.32779437803307,103.866993786527,103.866993786527,328408,OPAL CRESCENT,13 OPAL CRESCENT SINGAPORE 328408,31747.7073195614,34446.2984722778
14 OPAL CRESCENT SINGAPORE 328409,14,NIL,1.3279075435651,103.867273851006,103.867273851006,328409,OPAL CRESCENT,14 OPAL CRESCENT SINGAPORE 328409,31778.8754731147,34458.8121647872
15 OPAL CRESCENT SINGAPORE 328410,15,NIL,1.32782509587776,103.866947370428,103.866947370428,328410,OPAL CRESCENT,15 OPAL CRESCENT SINGAPORE 328410,31742.541634121,34449.6950243395
16 OPAL CRESCENT SINGAPORE 328411,16,NIL,1.327930769761,103.867237037952,103.867237037952,328411,OPAL CRESCENT,16 OPAL CRESCENT SINGAPORE 328411,31774.7785199108,34461.3803426698
17 OPAL CRESCENT SINGAPORE 328412,17,NIL,1.3278437082343,103.866895412142,103.866895412142,328412,OPAL CRESCENT,17 OPAL CRESCENT SINGAPORE 328412,31736.7591779754,34451.7530050874
18 OPAL CRESCENT SINGAPORE 328413,18,NIL,1.32797357553597,103.867199204715,103.867199204715,328413,OPAL CRESCENT,18 OPAL CRESCENT SINGAPORE 328413,31770.5680012321,34466.1135288905
19 OPAL CRESCENT SINGAPORE 328414,19,NIL,1.32788374288882,103.866846121125,103.866846121125,328414,OPAL CRESCENT,19 OPAL CRESCENT SINGAPORE 328414,31731.2735296786,34456.1797582433
20 OPAL CRESCENT SINGAPORE 328415,20,NIL,1.32799592526274,103.867160602328,103.867160602328,328415,OPAL CRESCENT,20 OPAL CRESCENT SINGAPORE 328415,31766.2719149627,34468.5847886894
21 OPAL CRESCENT SINGAPORE 328416,21,NIL,1.32791871420295,103.866784241429,103.866784241429,328416,OPAL CRESCENT,21 OPAL CRESCENT SINGAPORE 328416,31724.3868974866,34460.0466142353
22 OPAL CRESCENT SINGAPORE 328417,22,NIL,1.32803920372421,103.867126335224,103.867126335224,328417,OPAL CRESCENT,22 OPAL CRESCENT SINGAPORE 328417,31762.4582700869,34473.3702477198
24 OPAL CRESCENT SINGAPORE 328418,24,NIL,1.32806101916968,103.867084354633,103.867084354633,328418,OPAL CRESCENT,24 OPAL CRESCENT SINGAPORE 328418,31757.7862251922,34475.7824244127
25 OPAL CRESCENT SINGAPORE 328419,25,NIL,1.3277965071507,103.866630516309,103.866630516309,328419,OPAL CRESCENT,25 OPAL CRESCENT SINGAPORE 328419,31707.2790396065,34446.5333518311
26 OPAL CRESCENT SINGAPORE 328420,26,NIL,1.32809466108535,103.866974057483,103.866974057483,328420,OPAL CRESCENT,26 OPAL CRESCENT SINGAPORE 328420,31745.5112260031,34479.502208272
27 OPAL CRESCENT SINGAPORE 328421,27,NIL,1.32776937338516,103.866589614802,103.866589614802,328421,OPAL CRESCENT,27 OPAL CRESCENT SINGAPORE 328421,31702.727158607,34443.5329774097
29 OPAL CRESCENT SINGAPORE 328422,29,NIL,1.32772627640781,103.86654357059,103.86654357059,328422,OPAL CRESCENT,29 OPAL CRESCENT SINGAPORE 328422,31697.6029705713,34438.7674649823
31 OPAL CRESCENT SINGAPORE 328423,31,NIL,1.32768725042251,103.866515022276,103.866515022276,328423,OPAL CRESCENT,31 OPAL CRESCENT SINGAPORE 328423,31694.4258916611,34434.4521282744
33 OPAL CRESCENT SINGAPORE 328424,33,NIL,1.32763810221511,103.866475609266,103.866475609266,328424,OPAL CRESCENT,33 OPAL CRESCENT SINGAPORE 328424,31690.0396976043,34429.0175117981
35 OPAL CRESCENT SINGAPORE 328425,35,NIL,1.32759946711775,103.866447191235,103.866447191235,328425,OPAL CRESCENT,35 OPAL CRESCENT SINGAPORE 328425,31686.8771170573,34424.7453977726
37 OPAL CRESCENT SINGAPORE 328426,37,NIL,1.32755224135005,103.866406674853,103.866406674853,328426,OPAL CRESCENT,37 OPAL CRESCENT SINGAPORE 328426,31682.3681257907,34419.5233533457
39 OPAL CRESCENT SINGAPORE 328427,39,NIL,1.327514019587,103.866378366707,103.866378366707,328427,OPAL CRESCENT,39 OPAL CRESCENT SINGAPORE 328427,31679.2177735101,34415.2969439756
41 OPAL CRESCENT SINGAPORE 328428,41,NIL,1.32747338939525,103.86629830806,103.86629830806,328428,OPAL CRESCENT,41 OPAL CRESCENT SINGAPORE 328428,31670.3081200905,34410.8041460812
32 OPAL CRESCENT SINGAPORE 328429,32,NIL,1.32805834133318,103.866311804653,103.866311804653,328429,OPAL CRESCENT,32 OPAL CRESCENT SINGAPORE 328429,31671.8092910117,34475.485162545
2 MOONSTONE LANE SINGAPORE 328450,2,NIL,1.32700888590068,103.866875130095,103.866875130095,328450,MOONSTONE LANE,2 MOONSTONE LANE SINGAPORE 328450,31734.5032446133,34359.4425861184
4 MOONSTONE LANE SINGAPORE 328451,4,NIL,1.3269155851188,103.866816578751,103.866816578751,328451,MOONSTONE LANE,4 MOONSTONE LANE SINGAPORE 328451,31727.9872136144,34349.1257741358
6 MOONSTONE LANE SINGAPORE 328452,6,NIL,1.32695125461007,103.86678323273,103.86678323273,328452,MOONSTONE LANE,6 MOONSTONE LANE SINGAPORE 328452,31724.2760863984,34353.0698740222
8 MOONSTONE LANE SINGAPORE 328453,8,NIL,1.32703030373588,103.866783541395,103.866783541395,328453,MOONSTONE LANE,8 MOONSTONE LANE SINGAPORE 328453,31724.3103194879,34361.8107228968
10 MOONSTONE LANE SINGAPORE 328454,10,NIL,1.32706333030451,103.866752492704,103.866752492704,328454,MOONSTONE LANE,10 MOONSTONE LANE SINGAPORE 328454,31720.854865931,34365.4625854008
12 MOONSTONE LANE SINGAPORE 328455,12,NIL,1.32709839784992,103.866719618548,103.866719618548,328455,MOONSTONE LANE,12 MOONSTONE LANE SINGAPORE 328455,31717.1962536676,34369.340125991
14 MOONSTONE LANE SINGAPORE 328456,14,NIL,1.32711325372391,103.866670693827,103.866670693827,328456,MOONSTONE LANE,14 MOONSTONE LANE SINGAPORE 328456,31711.7514066128,34370.982739199
15 MOONSTONE LANE MAH BUILDING SINGAPORE 328457,15,MAH BUILDING,1.32643923524839,103.866343702106,103.866343702106,328457,MOONSTONE LANE,MAH BUILDING,31675.3615415804,34296.4527327083
16 MOONSTONE LANE SINGAPORE 328458,16,NIL,1.32714357497012,103.866641040326,103.866641040326,328458,MOONSTONE LANE,16 MOONSTONE LANE SINGAPORE 328458,31708.4512278121,34374.3354632184
17D MOONSTONE LANE SIM CHOON HUAT TEMPLE SINGAPORE 328459,17D,SIM CHOON HUAT TEMPLE,1.32657735881689,103.866087334175,103.866087334175,328459,MOONSTONE LANE,SIM CHOON HUAT TEMPLE,31646.8301834287,34311.7253519315
18 MOONSTONE LANE SINGAPORE 328460,18,NIL,1.32717852022662,103.866602912437,103.866602912437,328460,MOONSTONE LANE,18 MOONSTONE LANE SINGAPORE 328460,31704.2079289062,34378.1994740199
20 MOONSTONE LANE SINGAPORE 328461,20,NIL,1.3272066639179,103.866573927147,103.866573927147,328461,MOONSTONE LANE,20 MOONSTONE LANE SINGAPORE 328461,31700.9821185414,34381.3114162292
21 MOONSTONE LANE POH LENG INDUSTRIAL BUILDING SINGAPORE 328462,21,POH LENG INDUSTRIAL BUILDING,1.32669463115062,103.865883943001,103.865883943001,328462,MOONSTONE LANE,POH LENG INDUSTRIAL BUILDING,31624.1946350215,34324.6924285684
22 MOONSTONE LANE SINGAPORE 328463,22,NIL,1.32724556730521,103.866539181854,103.866539181854,328463,MOONSTONE LANE,22 MOONSTONE LANE SINGAPORE 328463,31697.1152625503,34385.6131020766
24 MOONSTONE LANE SINGAPORE 328464,24,NIL,1.32727288789604,103.866509082,103.866509082,328464,MOONSTONE LANE,24 MOONSTONE LANE SINGAPORE 328464,31693.7654139884,34388.634028459
25 MOONSTONE LANE MOONSTONE RESIDENCES SINGAPORE 328465,25,MOONSTONE RESIDENCES,1.32709863575898,103.86606572723,103.86606572723,328465,MOONSTONE LANE,MOONSTONE RESIDENCES,31644.4247867633,34369.3654602934
26 MOONSTONE LANE SINGAPORE 328466,26,NIL,1.32731448918306,103.866475132266,103.866475132266,328466,MOONSTONE LANE,26 MOONSTONE LANE SINGAPORE 328466,31689.9870918486,34393.2340355515
27 MOONSTONE LANE MOONSTONE RESIDENCES SINGAPORE 328467,27,MOONSTONE RESIDENCES,1.32708890237963,103.866064628326,103.866064628326,328467,MOONSTONE LANE,MOONSTONE RESIDENCES,31644.3025041083,34368.289191328
36 MOONSTONE LANE MOONSTONE ROYALE SINGAPORE 328468,36,MOONSTONE ROYALE,1.32785789082303,103.866088622774,103.866088622774,328468,MOONSTONE LANE,MOONSTONE ROYALE,31646.9717165204,34453.3200391419
38 MOONSTONE LANE MOONSTONE GARDEN SINGAPORE 328469,38,MOONSTONE GARDEN,1.32796334235365,103.865941391888,103.865941391888,328469,MOONSTONE LANE,MOONSTONE GARDEN,31630.5862646075,34464.980113972
40 MOONSTONE LANE MOONSTONE GARDEN SINGAPORE 328470,40,MOONSTONE GARDEN,1.32803537876835,103.865855224256,103.865855224256,328470,MOONSTONE LANE,MOONSTONE GARDEN,31620.9965803977,34472.9454062991
42 MOONSTONE LANE MOONSTONE GARDEN SINGAPORE 328471,42,MOONSTONE GARDEN,1.32810675846767,103.865771120897,103.865771120897,328471,MOONSTONE LANE,MOONSTONE GARDEN,31611.6366301849,34480.8380857334
46 MOONSTONE LANE SINGAPORE 328474,46,NIL,1.32822020936054,103.865638267472,103.865638267472,328474,MOONSTONE LANE,46 MOONSTONE LANE SINGAPORE 328474,31596.8512346949,34493.3827121221
47 MOONSTONE LANE SINGAPORE 328475,47,NIL,1.32769481372606,103.865333981937,103.865333981937,328475,MOONSTONE LANE,47 MOONSTONE LANE SINGAPORE 328475,31562.9881106755,34435.2867073901
48 MOONSTONE LANE SINGAPORE 328476,48,NIL,1.32824450976593,103.865572561476,103.865572561476,328476,MOONSTONE LANE,48 MOONSTONE LANE SINGAPORE 328476,31589.5387925087,34496.0696313046
49 MOONSTONE LANE SINGAPORE 328477,49,NIL,1.32769481372606,103.865333981665,103.865333981665,328477,MOONSTONE LANE,49 MOONSTONE LANE SINGAPORE 328477,31562.9880804075,34435.2867073901
54 MOONSTONE LANE SINGAPORE 328479,54,NIL,1.32837312226541,103.865348182017,103.865348182017,328479,MOONSTONE LANE,54 MOONSTONE LANE SINGAPORE 328479,31564.5674637984,34510.2906197011
55 MOONSTONE LANE SINGAPORE 328480,55,NIL,1.32796069209966,103.864891359193,103.864891359193,328480,MOONSTONE LANE,55 MOONSTONE LANE SINGAPORE 328480,31513.7283292348,34464.6855459549
56 MOONSTONE LANE SINGAPORE 328481,56,NIL,1.32828918270069,103.865237072564,103.865237072564,328481,MOONSTONE LANE,56 MOONSTONE LANE SINGAPORE 328481,31552.2022357499,34501.0088516902
57 MOONSTONE LANE SINGAPORE 328482,57,NIL,1.32805353917012,103.864836273033,103.864836273033,328482,MOONSTONE LANE,57 MOONSTONE LANE SINGAPORE 328482,31507.5976702049,34474.9520222805
58 MOONSTONE LANE SINGAPORE 328483,58,NIL,1.32821848877261,103.865106259826,103.865106259826,328483,MOONSTONE LANE,58 MOONSTONE LANE SINGAPORE 328483,31537.6442133533,34493.1916908752
59 MOONSTONE LANE SINGAPORE 328484,59,NIL,1.32818928439348,103.864751625691,103.864751625691,328484,MOONSTONE LANE,59 MOONSTONE LANE SINGAPORE 328484,31498.1770932209,34489.9619154055
60 MOONSTONE LANE SINGAPORE 328485,60,NIL,1.32838107633128,103.865057855067,103.865057855067,328485,MOONSTONE LANE,60 MOONSTONE LANE SINGAPORE 328485,31532.2570268074,34511.1697230209
61 MOONSTONE LANE SINGAPORE 328486,61,NIL,1.32826022692011,103.864709171916,103.864709171916,328486,MOONSTONE LANE,61 MOONSTONE LANE SINGAPORE 328486,31493.4523214987,34497.8063174058
62 MOONSTONE LANE SINGAPORE 328487,62,NIL,1.3285268939101,103.864967548065,103.864967548065,328487,MOONSTONE LANE,62 MOONSTONE LANE SINGAPORE 328487,31522.2065730821,34527.293356875
63 MOONSTONE LANE SINGAPORE 328488,63,NIL,1.32836450557548,103.864614582409,103.864614582409,328488,MOONSTONE LANE,63 MOONSTONE LANE SINGAPORE 328488,31482.9253286375,34509.3367847316
64 MOONSTONE LANE M66 SINGAPORE 328489,64,M66,1.32873367272575,103.864762336397,103.864762336397,328489,MOONSTONE LANE,M66,31499.3683199883,34550.1576101668
56A MOONSTONE LANE SINGAPORE 328494,56A,NIL,1.32826199299817,103.865180633705,103.865180633705,328494,MOONSTONE LANE,56A MOONSTONE LANE SINGAPORE 328494,31545.9212053772,34498.0022723321
58A MOONSTONE LANE SINGAPORE 328495,58A,NIL,1.32818708438313,103.865051261836,103.865051261836,328495,MOONSTONE LANE,58A MOONSTONE LANE SINGAPORE 328495,31531.5235427581,34489.7190753724
31 MOONSTONE LANE MOONSTONE VIEW SINGAPORE 328496,31,MOONSTONE VIEW,1.3272741656029,103.865610465124,103.865610465124,328496,MOONSTONE LANE,MOONSTONE VIEW,31593.7584823873,34388.7739876155
57A MOONSTONE LANE SINGAPORE 328497,57A,NIL,1.3281013338788,103.864805149154,103.864805149154,328497,MOONSTONE LANE,57A MOONSTONE LANE SINGAPORE 328497,31504.1338324165,34480.2368727736
66 MOONSTONE LANE M66 SINGAPORE 328498,66,M66,1.32866524071252,103.864495743933,103.864495743933,328498,MOONSTONE LANE,M66,31469.6994002042,34542.590372093
53 MOONSTONE LANE SINGAPORE 328499,53,NIL,1.32789418546678,103.864929510923,103.864929510923,328499,MOONSTONE LANE,53 MOONSTONE LANE SINGAPORE 328499,31517.9743219912,34457.3316366319
7 MCNAIR ROAD SINGAPORE 328516,7,NIL,1.31861240808264,103.85609494219,103.85609494219,328516,MCNAIR ROAD,7 MCNAIR ROAD SINGAPORE 328516,30534.7862777347,33430.9894383419
9 MCNAIR ROAD TOWNERVILLE SINGAPORE 328518,9,TOWNERVILLE,1.31916169200413,103.85723371274,103.85723371274,328518,MCNAIR ROAD,TOWNERVILLE,30661.5197178861,33491.7276261747
11 MCNAIR ROAD TOWNERVILLE SINGAPORE 328519,11,TOWNERVILLE,1.31919861827957,103.857264332686,103.857264332686,328519,MCNAIR ROAD,TOWNERVILLE,30664.9273782969,33495.810777178
13 MCNAIR ROAD TOWNERVILLE SINGAPORE 328520,13,TOWNERVILLE,1.31924075749648,103.857297841584,103.857297841584,328520,MCNAIR ROAD,TOWNERVILLE,30668.6565452311,33500.4703516643
15 MCNAIR ROAD TOWNERVILLE SINGAPORE 328521,15,TOWNERVILLE,1.31927590452764,103.857326342841,103.857326342841,328521,MCNAIR ROAD,TOWNERVILLE,30671.828418049,33504.3567607738
17 MCNAIR ROAD TOWNERVILLE SINGAPORE 328522,17,TOWNERVILLE,1.31931812312549,103.857359921368,103.857359921368,328522,MCNAIR ROAD,TOWNERVILLE,30675.5653335862,33509.0251129735
19 MCNAIR ROAD TOWNERVILLE SINGAPORE 328523,19,TOWNERVILLE,1.31935327973606,103.857388469678,103.857388469678,328523,MCNAIR ROAD,TOWNERVILLE,30678.7424427653,33512.9125814624
21 MCNAIR ROAD TOWNERVILLE SINGAPORE 328524,21,TOWNERVILLE,1.31939543345845,103.857422032703,103.857422032703,328524,MCNAIR ROAD,TOWNERVILLE,30682.4776330283,33517.5737601519
23 MCNAIR ROAD TOWNERVILLE SINGAPORE 328525,23,TOWNERVILLE,1.31943052601512,103.85745054457,103.85745054457,328525,MCNAIR ROAD,TOWNERVILLE,30685.6506862966,33521.4541459326
25 MCNAIR ROAD TOWNERVILLE SINGAPORE 328526,25,TOWNERVILLE,1.31947266741923,103.857484045044,103.857484045044,328526,MCNAIR ROAD,TOWNERVILLE,30689.3789149234,33526.1139625609
27 MCNAIR ROAD TOWNERVILLE SINGAPORE 328527,27,TOWNERVILLE,1.31950775696404,103.857512559632,103.857512559632,328527,MCNAIR ROAD,TOWNERVILLE,30692.5522708725,33529.9940153938
29 MCNAIR ROAD TOWNERVILLE SINGAPORE 328528,29,TOWNERVILLE,1.3195499030208,103.857546050589,103.857546050589,328528,MCNAIR ROAD,TOWNERVILLE,30696.2794401189,33534.6543465797
31 MCNAIR ROAD TOWNERVILLE SINGAPORE 328529,31,TOWNERVILLE,1.31958733898712,103.857576231583,103.857576231583,328529,MCNAIR ROAD,TOWNERVILLE,30699.638248004,33538.7938565686
33 MCNAIR ROAD TOWNERVILLE SINGAPORE 328530,33,TOWNERVILLE,1.31970277043165,103.857668644964,103.857668644964,328530,MCNAIR ROAD,TOWNERVILLE,30709.9228245839,33551.5577744972
35 MCNAIR ROAD TOWNERVILLE SINGAPORE 328531,35,TOWNERVILLE,1.31973988202154,103.85769895841,103.85769895841,328531,MCNAIR ROAD,TOWNERVILLE,30713.2963729771,33555.6614169255
37 MCNAIR ROAD TOWNERVILLE SINGAPORE 328532,37,TOWNERVILLE,1.31978203190796,103.857732437406,103.857732437406,328532,MCNAIR ROAD,TOWNERVILLE,30717.0222104322,33560.3221718632
39 MCNAIR ROAD TOWNERVILLE SINGAPORE 328533,39,TOWNERVILLE,1.3198171203547,103.857760958257,103.857760958257,328533,MCNAIR ROAD,TOWNERVILLE,30720.196262545,33564.2021036241
41 MCNAIR ROAD TOWNERVILLE SINGAPORE 328534,41,TOWNERVILLE,1.31985926312306,103.857794447318,103.857794447318,328534,MCNAIR ROAD,TOWNERVILLE,30723.9232199164,33568.8620715924
43 MCNAIR ROAD TOWNERVILLE SINGAPORE 328535,43,TOWNERVILLE,1.31989435786484,103.857822969802,103.857822969802,328535,MCNAIR ROAD,TOWNERVILLE,30727.097453637,33572.7426995169
45 MCNAIR ROAD TOWNERVILLE SINGAPORE 328536,45,TOWNERVILLE,1.31993655373644,103.857856467025,103.857856467025,328536,MCNAIR ROAD,TOWNERVILLE,30730.8253190471,33577.4085394759
47 MCNAIR ROAD TOWNERVILLE SINGAPORE 328537,47,TOWNERVILLE,1.31997171253056,103.857885026228,103.857885026228,328537,MCNAIR ROAD,TOWNERVILLE,30734.0036389455,33581.2962501068
49 MCNAIR ROAD TOWNERVILLE SINGAPORE 328538,49,TOWNERVILLE,1.32001392400329,103.857918595255,103.857918595255,328538,MCNAIR ROAD,TOWNERVILLE,30737.7394951042,33585.9638153408
51 MCNAIR ROAD TOWNERVILLE SINGAPORE 328539,51,TOWNERVILLE,1.32004909046127,103.857947148748,103.857947148748,328539,MCNAIR ROAD,TOWNERVILLE,30740.917179374,33589.8523734771
53 MCNAIR ROAD TOWNERVILLE SINGAPORE 328540,53,TOWNERVILLE,1.32009123021501,103.857980719952,103.857980719952,328540,MCNAIR ROAD,TOWNERVILLE,30744.6532776766,33594.5120084975
55 MCNAIR ROAD TOWNERVILLE SINGAPORE 328541,55,TOWNERVILLE,1.32012634329483,103.858009219051,103.858009219051,328541,MCNAIR ROAD,TOWNERVILLE,30747.8249083506,33598.394664377
57 MCNAIR ROAD TOWNERVILLE SINGAPORE 328542,57,TOWNERVILLE,1.3201683916215,103.858042730422,103.858042730422,328542,MCNAIR ROAD,TOWNERVILLE,30751.5543476958,33603.0441898927
59 MCNAIR ROAD TOWNERVILLE SINGAPORE 328543,59,TOWNERVILLE,1.32020592174706,103.858072746888,103.858072746888,328543,MCNAIR ROAD,TOWNERVILLE,30754.8948434507,33607.194112068
61 MCNAIR ROAD TOWNERVILLE SINGAPORE 328544,61,TOWNERVILLE,1.31898599894893,103.857463403276,103.857463403276,328544,MCNAIR ROAD,TOWNERVILLE,30687.0822105873,33472.3006353825
63 MCNAIR ROAD TOWNERVILLE SINGAPORE 328545,63,TOWNERVILLE,1.3190245038127,103.857496752491,103.857496752491,328545,MCNAIR ROAD,TOWNERVILLE,30690.7936102143,33476.5583418477
65 MCNAIR ROAD TOWNERVILLE SINGAPORE 328546,65,TOWNERVILLE,1.31907434991219,103.857536879941,103.857536879941,328546,MCNAIR ROAD,TOWNERVILLE,30695.2593485322,33482.0701114144
67 MCNAIR ROAD TOWNERVILLE SINGAPORE 328547,67,TOWNERVILLE,1.31911479965917,103.857569021343,103.857569021343,328547,MCNAIR ROAD,TOWNERVILLE,30698.8363280436,33486.5428719036
69 MCNAIR ROAD TOWNERVILLE SINGAPORE 328548,69,TOWNERVILLE,1.31916462604871,103.857609140636,103.857609140636,328548,MCNAIR ROAD,TOWNERVILLE,30703.301158322,33492.0524621774
71 MCNAIR ROAD TOWNERVILLE SINGAPORE 328549,71,TOWNERVILLE,1.31920509687202,103.857641290472,103.857641290472,328549,MCNAIR ROAD,TOWNERVILLE,30706.8790761409,33496.5275533013
73 MCNAIR ROAD TOWNERVILLE SINGAPORE 328550,73,TOWNERVILLE,1.31925491203738,103.857681396441,103.857681396441,328550,MCNAIR ROAD,TOWNERVILLE,30711.3424232882,33502.0359025858
75 MCNAIR ROAD TOWNERVILLE SINGAPORE 328551,75,TOWNERVILLE,1.31929539134524,103.857713563142,103.857713563142,328551,MCNAIR ROAD,TOWNERVILLE,30714.9222177221,33506.5119320173
77 MCNAIR ROAD TOWNERVILLE SINGAPORE 328552,77,TOWNERVILLE,1.31934518953802,103.857753658235,103.857753658235,328552,MCNAIR ROAD,TOWNERVILLE,30719.3843541499,33512.0184046887
79 MCNAIR ROAD TOWNERVILLE SINGAPORE 328553,79,TOWNERVILLE,1.31938567596231,103.857785782783,103.857785782783,328553,MCNAIR ROAD,TOWNERVILLE,30722.9594570464,33516.4952210877
81 MCNAIR ROAD TOWNERVILLE SINGAPORE 328554,81,TOWNERVILLE,1.31943537752676,103.857825809612,103.857825809612,328554,MCNAIR ROAD,TOWNERVILLE,30727.4139962103,33521.991009159
83 MCNAIR ROAD TOWNERVILLE SINGAPORE 328555,83,TOWNERVILLE,1.31947583356565,103.857857941233,103.857857941233,328555,MCNAIR ROAD,TOWNERVILLE,30730.9898860743,33526.4644658118
85 MCNAIR ROAD TOWNERVILLE SINGAPORE 328556,85,TOWNERVILLE,1.31952559726448,103.857898142673,103.857898142673,328556,MCNAIR ROAD,TOWNERVILLE,30735.4638572838,33531.9671247154
87 MCNAIR ROAD TOWNERVILLE SINGAPORE 328557,87,TOWNERVILLE,1.31956623451331,103.8579302966,103.8579302966,328557,MCNAIR ROAD,TOWNERVILLE,30739.0422291225,33536.4606187753
89 MCNAIR ROAD TOWNERVILLE SINGAPORE 328558,89,TOWNERVILLE,1.31961590404874,103.857970299773,103.857970299773,328558,MCNAIR ROAD,TOWNERVILLE,30743.4941349719,33541.9528654926
91 MCNAIR ROAD TOWNERVILLE SINGAPORE 328559,91,TOWNERVILLE,1.31965638964853,103.858002452885,103.858002452885,328559,MCNAIR ROAD,TOWNERVILLE,30747.0724160075,33546.4295910876
93 MCNAIR ROAD TOWNERVILLE SINGAPORE 328560,93,TOWNERVILLE,1.31970604823348,103.858042445454,103.858042445454,328560,MCNAIR ROAD,TOWNERVILLE,30751.5231414046,33551.9206270855
94 MCNAIR ROAD SINGAPORE 328561,94,NIL,1.31939223773459,103.858510152505,103.858510152505,328561,MCNAIR ROAD,94 MCNAIR ROAD SINGAPORE 328561,30803.5746903233,33517.2215921599
95 MCNAIR ROAD TOWNERVILLE SINGAPORE 328562,95,TOWNERVILLE,1.31974657051146,103.858074701102,103.858074701102,328562,MCNAIR ROAD,TOWNERVILLE,30755.1128334701,33556.4014085922
97 MCNAIR ROAD TOWNERVILLE SINGAPORE 328563,97,TOWNERVILLE,1.31979637088761,103.858114811712,103.858114811712,328563,MCNAIR ROAD,TOWNERVILLE,30759.5766951721,33561.9081234057
99 MCNAIR ROAD TOWNERVILLE SINGAPORE 328565,99,TOWNERVILLE,1.31983698431839,103.858146991211,103.858146991211,328565,MCNAIR ROAD,TOWNERVILLE,30763.1579122022,33566.3989841491
101 MCNAIR ROAD TOWNERVILLE SINGAPORE 328566,101,TOWNERVILLE,1.31988660731574,103.858186964203,103.858186964203,328566,MCNAIR ROAD,TOWNERVILLE,30767.6064583045,33571.8860853091
103 MCNAIR ROAD TOWNERVILLE SINGAPORE 328567,103,TOWNERVILLE,1.31992716599797,103.858219238895,103.858219238895,328567,MCNAIR ROAD,TOWNERVILLE,30771.1982691288,33576.3708924577
105 MCNAIR ROAD TOWNERVILLE SINGAPORE 328568,105,TOWNERVILLE,1.31997693626113,103.858259333736,103.858259333736,328568,MCNAIR ROAD,TOWNERVILLE,30775.6603752878,33581.8742777929
107 MCNAIR ROAD TOWNERVILLE SINGAPORE 328569,107,TOWNERVILLE,1.32001853104397,103.858289376081,103.858289376081,328569,MCNAIR ROAD,TOWNERVILLE,30779.0037465012,33586.4736492578
2 MAY ROAD TOWNERVILLE SINGAPORE 328591,2,TOWNERVILLE,1.32109237159984,103.857962516822,103.857962516822,328591,MAY ROAD,TOWNERVILLE,30742.626351879,33705.2130727656
4 MAY ROAD TOWNERVILLE SINGAPORE 328592,4,TOWNERVILLE,1.32105360629467,103.85799698394,103.85799698394,328592,MAY ROAD,TOWNERVILLE,30746.4622437237,33700.9266419839
6 MAY ROAD TOWNERVILLE SINGAPORE 328594,6,TOWNERVILLE,1.32102586640717,103.858031092432,103.858031092432,328594,MAY ROAD,TOWNERVILLE,30750.258212097,33697.8593450505
8 MAY ROAD TOWNERVILLE SINGAPORE 328595,8,TOWNERVILLE,1.32099806410866,103.858065142176,103.858065142176,328595,MAY ROAD,TOWNERVILLE,30754.0476425868,33694.7851470169
10 MAY ROAD TOWNERVILLE SINGAPORE 328596,10,TOWNERVILLE,1.32097020104098,103.858099190832,103.858099190832,328596,MAY ROAD,TOWNERVILLE,30757.8369520046,33691.704229489
12 MAY ROAD TOWNERVILLE SINGAPORE 328597,12,TOWNERVILLE,1.32094239025527,103.858133298233,103.858133298233,328597,MAY ROAD,TOWNERVILLE,30761.632799306,33688.6290931478
14 MAY ROAD TOWNERVILLE SINGAPORE 328598,14,TOWNERVILLE,1.32091457289954,103.85816740101,103.85816740101,328598,MAY ROAD,TOWNERVILLE,30765.4281320525,33685.5532303751
16 MAY ROAD TOWNERVILLE SINGAPORE 328599,16,TOWNERVILLE,1.3208867525323,103.858201501883,103.858201501883,328599,MAY ROAD,TOWNERVILLE,30769.2232529232,33682.4770346526
18 MAY ROAD TOWNERVILLE SINGAPORE 328600,18,TOWNERVILLE,1.32085894448247,103.858235614177,103.858235614177,328600,MAY ROAD,TOWNERVILLE,30773.0196450483,33679.4022009913
20 MAY ROAD TOWNERVILLE SINGAPORE 328601,20,TOWNERVILLE,1.32083112082956,103.858269712328,103.858269712328,328601,MAY ROAD,TOWNERVILLE,30776.8144632392,33676.3256420549
22 MAY ROAD TOWNERVILLE SINGAPORE 328602,22,TOWNERVILLE,1.32080330429312,103.858303818638,103.858303818638,328602,MAY ROAD,TOWNERVILLE,30780.6101894695,33673.2498700842
24 MAY ROAD TOWNERVILLE SINGAPORE 328603,24,TOWNERVILLE,1.32077513819138,103.858338708228,103.858338708228,328603,MAY ROAD,TOWNERVILLE,30784.4930874929,33670.1354459003
11 MAY ROAD SINGAPORE 328604,11,NIL,1.32297262235778,103.85813853674,103.85813853674,328604,MAY ROAD,11 MAY ROAD SINGAPORE 328604,30762.2135511097,33913.1217644289
1 MARTABAN ROAD SINGAPORE 328625,1,NIL,1.32378114330879,103.851310349577,103.851310349577,328625,MARTABAN ROAD,1 MARTABAN ROAD SINGAPORE 328625,30002.3037963603,34002.5173160303
2 MARTABAN ROAD CHELSEA GROVE SINGAPORE 328626,2,CHELSEA GROVE,1.32404093093057,103.851081000091,103.851081000091,328626,MARTABAN ROAD,CHELSEA GROVE,29976.7792899795,34031.2431157101
3 MARTABAN ROAD SINGAPORE 328628,3,NIL,1.32374334837886,103.851283423062,103.851283423062,328628,MARTABAN ROAD,3 MARTABAN ROAD SINGAPORE 328628,29999.3071751688,33998.3381247148
5 MARTABAN ROAD SINGAPORE 328636,5,NIL,1.32370418839069,103.851249872067,103.851249872067,328636,MARTABAN ROAD,5 MARTABAN ROAD SINGAPORE 328636,29995.573316697,33994.0079869647
7 MARTABAN ROAD SINGAPORE 328637,7,NIL,1.32367749694637,103.851215001001,103.851215001001,328637,MARTABAN ROAD,7 MARTABAN ROAD SINGAPORE 328637,29991.6925374325,33991.0565558728
9 MARTABAN ROAD SINGAPORE 328638,9,NIL,1.32362163993338,103.851200293063,103.851200293063,328638,MARTABAN ROAD,9 MARTABAN ROAD SINGAPORE 328638,29990.0557356775,33984.8801619187
11 MARTABAN ROAD SINGAPORE 328639,11,NIL,1.32360994151113,103.851148417748,103.851148417748,328639,MARTABAN ROAD,11 MARTABAN ROAD SINGAPORE 328639,29984.2825415349,33983.5865688305
13 MARTABAN ROAD SINGAPORE 328640,13,NIL,1.32354289038427,103.85114466294,103.85114466294,328640,MARTABAN ROAD,13 MARTABAN ROAD SINGAPORE 328640,29983.8647222882,33976.172395952
15 MARTABAN ROAD SINGAPORE 328641,15,NIL,1.32354274521355,103.851081566878,103.851081566878,328641,MARTABAN ROAD,15 MARTABAN ROAD SINGAPORE 328641,29976.8427619413,33976.1562933847
17 MARTABAN ROAD SINGAPORE 328642,17,NIL,1.3234913845679,103.851062520991,103.851062520991,328642,MARTABAN ROAD,17 MARTABAN ROAD SINGAPORE 328642,29974.7231858457,33970.4770813305
19 MARTABAN ROAD SINGAPORE 328643,19,NIL,1.32346686467683,103.851023093837,103.851023093837,328643,MARTABAN ROAD,19 MARTABAN ROAD SINGAPORE 328643,29970.3353573177,33967.7657661531
20 MARTABAN ROAD DE PARADISO SINGAPORE 328644,20,DE PARADISO,1.32408289110494,103.85062927516,103.85062927516,328644,MARTABAN ROAD,DE PARADISO,29926.50680234,34035.8825014494
21 MARTABAN ROAD SINGAPORE 328645,21,NIL,1.3234308676889,103.850986746436,103.850986746436,328645,MARTABAN ROAD,21 MARTABAN ROAD SINGAPORE 328645,29966.2902834378,33963.7853749543
23 MARTABAN ROAD SINGAPORE 328647,23,NIL,1.32340192558816,103.850954734623,103.850954734623,328647,MARTABAN ROAD,23 MARTABAN ROAD SINGAPORE 328647,29962.7277114866,33960.5850805007
25 MARTABAN ROAD SINGAPORE 328649,25,NIL,1.32335871268232,103.850924434514,103.850924434514,328649,MARTABAN ROAD,25 MARTABAN ROAD SINGAPORE 328649,29959.3556462247,33955.8067949824
27 MARTABAN ROAD SINGAPORE 328651,27,NIL,1.32333856732588,103.850883464486,103.850883464486,328651,MARTABAN ROAD,27 MARTABAN ROAD SINGAPORE 328651,29954.7961074254,33953.579192454
29 MARTABAN ROAD SINGAPORE 328652,29,NIL,1.32329852180744,103.850849702173,103.850849702173,328652,MARTABAN ROAD,29 MARTABAN ROAD SINGAPORE 328652,29951.0387307303,33949.1511377748
31 MARTABAN ROAD SINGAPORE 328653,31,NIL,1.32326823814286,103.850817253292,103.850817253292,328653,MARTABAN ROAD,31 MARTABAN ROAD SINGAPORE 328653,29947.4275181293,33945.8024999332
33 MARTABAN ROAD SINGAPORE 328655,33,NIL,1.3232310468542,103.850781021749,103.850781021749,328655,MARTABAN ROAD,33 MARTABAN ROAD SINGAPORE 328655,29943.3953384105,33941.6900495216
35 MARTABAN ROAD SINGAPORE 328657,35,NIL,1.32320405022548,103.850741236667,103.850741236667,328657,MARTABAN ROAD,35 MARTABAN ROAD SINGAPORE 328657,29938.967677216,33938.704869628
48 MARTABAN ROAD SINGAPORE 328664,48,NIL,1.32355600347295,103.850579607971,103.850579607971,328664,MARTABAN ROAD,48 MARTABAN ROAD SINGAPORE 328664,29920.9797474407,33977.6219296921
70 MARTABAN ROAD BEACON INTERNATIONAL COLLEGE SINGAPORE 328667,70,BEACON INTERNATIONAL COLLEGE,1.32296444395363,103.849687365137,103.849687365137,328667,MARTABAN ROAD,BEACON INTERNATIONAL COLLEGE,29821.6824789857,33912.2096387409
10 MARTABAN ROAD ECOVILLE SINGAPORE 328668,10,ECOVILLE,1.32383015110062,103.850890323047,103.850890323047,328668,MARTABAN ROAD,ECOVILLE,29955.5590119548,34007.9360115472
51 MARTABAN ROAD SINGAPORE 328669,51,NIL,1.32167236048478,103.851223441498,103.851223441498,328669,MARTABAN ROAD,51 MARTABAN ROAD SINGAPORE 328669,29992.6334782429,33769.3388533387
6 MAR THOMA ROAD THE ELYSIA SINGAPORE 328688,6,THE ELYSIA,1.32660081588209,103.861958241686,103.861958241686,328688,MAR THOMA ROAD,THE ELYSIA,31187.3039852679,34314.3134158794
8 MAR THOMA ROAD BEACON HEIGHTS SINGAPORE 328689,8,BEACON HEIGHTS,1.32637508646677,103.8621423703,103.8621423703,328689,MAR THOMA ROAD,BEACON HEIGHTS,31207.7959248004,34289.3536495399
22 MAR THOMA ROAD THE CALLISTA SINGAPORE 328702,22,THE CALLISTA,1.32751519175502,103.86282558481,103.86282558481,328702,MAR THOMA ROAD,THE CALLISTA,31283.8292815061,34415.4215572644
22A MAR THOMA ROAD VETRO SINGAPORE 328703,22A,VETRO,1.32751884756176,103.862564898481,103.862564898481,328703,MAR THOMA ROAD,VETRO,31254.8175401846,34415.8254532386
23 MAR THOMA ROAD RIVERBAY SINGAPORE 328704,23,RIVERBAY,1.32798732117053,103.862540519298,103.862540519298,328704,MAR THOMA ROAD,RIVERBAY,31252.1037733005,34467.6268372722
28 MAR THOMA ROAD MAR THOMA MANSIONS SINGAPORE 328708,28,MAR THOMA MANSIONS,1.32791217152286,103.863187561929,103.863187561929,328708,MAR THOMA ROAD,MAR THOMA MANSIONS,31324.113122643,34459.3180335984
38 MAR THOMA ROAD RIVIERA 38 SINGAPORE 328712,38,RIVIERA 38,1.32816337851711,103.863446045125,103.863446045125,328712,MAR THOMA ROAD,RIVIERA 38,31352.87933008,34487.0955676157
12 LORONG LIMAU PARC HAVEN SINGAPORE 328741,12,PARC HAVEN,1.32436836124439,103.854219451062,103.854219451062,328741,LORONG LIMAU,PARC HAVEN,30326.057111837,34067.4514031075
14 LORONG LIMAU PARC HAVEN SINGAPORE 328742,14,PARC HAVEN,1.32425033496387,103.854544054921,103.854544054921,328742,LORONG LIMAU,PARC HAVEN,30362.1823741551,34054.4009684436
16 LORONG LIMAU PARC HAVEN SINGAPORE 328743,16,PARC HAVEN,1.32393602440371,103.854736311503,103.854736311503,328743,LORONG LIMAU,PARC HAVEN,30383.5789026488,34019.6463009641
10 LORONG LIMAU CRADELS SINGAPORE 328754,10,CRADELS,1.32467146475006,103.853910277516,103.853910277516,328754,LORONG LIMAU,CRADELS,30291.6489219666,34100.9667479936
1 LORONG AMPAS SINGAPORE 328775,1,NIL,1.32555206814901,103.853619906359,103.853619906359,328775,LORONG AMPAS,1 LORONG AMPAS SINGAPORE 328775,30259.3327340595,34198.3390937559
13 LORONG AMPAS QING DE TANG SINGAPORE 328777,13,QING DE TANG,1.32565877917339,103.853071715185,103.853071715185,328777,LORONG AMPAS,QING DE TANG,30198.3244952746,34210.1381591689
16 LORONG AMPAS GS BUILDING SINGAPORE 328778,16,GS BUILDING,1.32640554957339,103.853152103919,103.853152103919,328778,LORONG AMPAS,GS BUILDING,30207.2702886667,34292.7122758161
18 LORONG AMPAS GS BUILDING SINGAPORE 328779,18,GS BUILDING,1.32640554984713,103.853152103919,103.853152103919,328779,LORONG AMPAS,GS BUILDING,30207.2702886667,34292.7123060841
20 LORONG AMPAS GS BUILDING SINGAPORE 328780,20,GS BUILDING,1.32640554984713,103.853152103919,103.853152103919,328780,LORONG AMPAS,GS BUILDING,30207.2702886667,34292.7123060841
28 LORONG AMPAS SINGAPORE 328781,28,NIL,1.32662544806737,103.852833629451,103.852833629451,328781,LORONG AMPAS,28 LORONG AMPAS SINGAPORE 328781,30171.8271153616,34317.0272432994
21 LORONG AMPAS HAINAN INDUSTRIAL BUILDING SINGAPORE 328782,21,HAINAN INDUSTRIAL BUILDING,1.32616151883394,103.852464919276,103.852464919276,328782,LORONG AMPAS,HAINAN INDUSTRIAL BUILDING,30130.7938086791,34265.7280051168
30 LORONG AMPAS SKYWAVES INDUSTRIAL BUILDING SINGAPORE 328783,30,SKYWAVES INDUSTRIAL BUILDING,1.32674385558171,103.852630345338,103.852630345338,328783,LORONG AMPAS,SKYWAVES INDUSTRIAL BUILDING,30149.2035530759,34330.1199623365
10 LORONG AMPAS D'LOTUS SINGAPORE 328784,10,D'LOTUS,1.326118367553,103.853496019619,103.853496019619,328784,LORONG AMPAS,D'LOTUS,30245.5448805084,34260.9574682023
1A KIM KEAT ROAD FAITH ASSEMBLY OF GOD CHURCH SINGAPORE 328803,1A,FAITH ASSEMBLY OF GOD CHURCH,1.32391309596568,103.852335196798,103.852335196798,328803,KIM KEAT ROAD,FAITH ASSEMBLY OF GOD CHURCH,30116.35891644,34017.1088148169
19 KIM KEAT ROAD FU TSU BUILDING SINGAPORE 328804,19,FU TSU BUILDING,1.32497603280492,103.853115639043,103.853115639043,328804,KIM KEAT ROAD,FU TSU BUILDING,30203.2133800052,34134.6436028406
21 KIM KEAT ROAD THE INTERWEAVE SINGAPORE 328805,21,THE INTERWEAVE,1.32538080526177,103.853111878947,103.853111878947,328805,KIM KEAT ROAD,THE INTERWEAVE,30202.7945619142,34179.4012638479
24 KIM KEAT ROAD SINGAPORE 328806,24,NIL,1.32425963996207,103.853096497811,103.853096497811,328806,KIM KEAT ROAD,24 KIM KEAT ROAD SINGAPORE 328806,30201.083785207,34055.4285362232
26 KIM KEAT ROAD SINGAPORE 328807,26,NIL,1.32431789213803,103.853143754038,103.853143754038,328807,KIM KEAT ROAD,26 KIM KEAT ROAD SINGAPORE 328807,30206.342877645,34061.8698053025
28 KIM KEAT ROAD ETERNAL LIFE BAPTIST CHURCH SINGAPORE 328808,28,ETERNAL LIFE BAPTIST CHURCH,1.32445450604672,103.853266621319,103.853266621319,328808,KIM KEAT ROAD,ETERNAL LIFE BAPTIST CHURCH,30220.0166511657,34076.9759808835
30 KIM KEAT ROAD SINGAPORE 328809,30,NIL,1.32450565190338,103.853305919536,103.853305919536,328809,KIM KEAT ROAD,30 KIM KEAT ROAD SINGAPORE 328809,30224.3901024004,34082.6314628366
32 KIM KEAT ROAD SINGAPORE 328810,32,NIL,1.32454796005312,103.853340934907,103.853340934907,328810,KIM KEAT ROAD,32 KIM KEAT ROAD SINGAPORE 328810,30228.2869236963,34087.3097126689
34 KIM KEAT ROAD SINGAPORE 328811,34,NIL,1.32459037687366,103.853376029697,103.853376029697,328811,KIM KEAT ROAD,34 KIM KEAT ROAD SINGAPORE 328811,30232.1925832434,34091.9999788906
36 KIM KEAT ROAD SINGAPORE 328812,36,NIL,1.32463281613945,103.853411157669,103.853411157669,328812,KIM KEAT ROAD,36 KIM KEAT ROAD SINGAPORE 328812,30236.1019354844,34096.6927270852
38 KIM KEAT ROAD SINGAPORE 328813,38,NIL,1.32467512729867,103.853446171684,103.853446171684,328813,KIM KEAT ROAD,38 KIM KEAT ROAD SINGAPORE 328813,30239.9986054404,34101.3713098653
39 KIM KEAT ROAD WEE HUR BUILDING SINGAPORE 328814,39,WEE HUR BUILDING,1.32543023629086,103.853508567565,103.853508567565,328814,KIM KEAT ROAD,WEE HUR BUILDING,30246.9419598328,34184.8674498312
40 KIM KEAT ROAD SINGAPORE 328815,40,NIL,1.32471754137054,103.853482453644,103.853482453644,328815,KIM KEAT ROAD,40 KIM KEAT ROAD SINGAPORE 328815,30244.0363847362,34106.0612734053
42 KIM KEAT ROAD SINGAPORE 328816,42,NIL,1.32475415552488,103.853526524082,103.853526524082,328816,KIM KEAT ROAD,42 KIM KEAT ROAD SINGAPORE 328816,30248.9409482814,34110.1099189073
44 KIM KEAT ROAD SINGAPORE 328817,44,NIL,1.32479630736284,103.853562386387,103.853562386387,328817,KIM KEAT ROAD,44 KIM KEAT ROAD SINGAPORE 328817,30252.9320240784,34114.7708857208
46 KIM KEAT ROAD SINGAPORE 328818,46,NIL,1.32483867408723,103.85359743522,103.85359743522,328818,KIM KEAT ROAD,46 KIM KEAT ROAD SINGAPORE 328818,30256.8325683363,34119.4556128997
48 KIM KEAT ROAD SINGAPORE 328819,48,NIL,1.32488103095669,103.853632491669,103.853632491669,328819,KIM KEAT ROAD,48 KIM KEAT ROAD SINGAPORE 328819,30260.7339600977,34124.1392504331
50 KIM KEAT ROAD SINGAPORE 328820,50,NIL,1.3249233330797,103.853667462448,103.853667462448,328820,KIM KEAT ROAD,50 KIM KEAT ROAD SINGAPORE 328820,30264.6258174442,34128.8168343678
51 KIM KEAT ROAD MUN HEAN INDUSTRIAL BUILDING SINGAPORE 328821,51,MUN HEAN INDUSTRIAL BUILDING,1.32587777118892,103.853783785454,103.853783785454,328821,KIM KEAT ROAD,MUN HEAN INDUSTRIAL BUILDING,30277.5705260402,34234.3538173977
52 KIM KEAT ROAD SINGAPORE 328822,52,NIL,1.3249831635899,103.853681398075,103.853681398075,328822,KIM KEAT ROAD,52 KIM KEAT ROAD SINGAPORE 328822,30266.1766581256,34135.4325983729
53 KIM KEAT ROAD SINGAPORE 328823,53,NIL,1.32590865445287,103.854090480452,103.854090480452,328823,KIM KEAT ROAD,53 KIM KEAT ROAD SINGAPORE 328823,30311.7025508266,34237.7690145373
54 KIM KEAT ROAD SINGAPORE 328824,54,NIL,1.32501657789375,103.85374750683,103.85374750683,328824,KIM KEAT ROAD,54 KIM KEAT ROAD SINGAPORE 328824,30273.5338666597,34139.1274414137
56 KIM KEAT ROAD SINGAPORE 328825,56,NIL,1.32515571712451,103.853850248384,103.853850248384,328825,KIM KEAT ROAD,56 KIM KEAT ROAD SINGAPORE 328825,30284.9678396527,34154.5128391441
60 KIM KEAT ROAD CHERIE HEARTS HOLDINGS PTE. LTD. SINGAPORE 328827,60,CHERIE HEARTS HOLDINGS PTE. LTD.,1.32533672784378,103.853993102406,103.853993102406,328827,KIM KEAT ROAD,CHERIE HEARTS HOLDINGS PTE. LTD.,30300.8658862244,34174.5282092728
76 KIM KEAT ROAD MASJID HAJJAH RAHIMABI KEBUN LIMAU SINGAPORE 328835,76,MASJID HAJJAH RAHIMABI KEBUN LIMAU,1.32612379680643,103.854848970868,103.854848970868,328835,KIM KEAT ROAD,MASJID HAJJAH RAHIMABI KEBUN LIMAU,30396.1146605173,34261.5590746477
81 KIM KEAT ROAD NKF CENTRE SINGAPORE 328836,81,NKF CENTRE,1.32650881633609,103.854443928029,103.854443928029,328836,KIM KEAT ROAD,NKF CENTRE,30351.0371274585,34304.1321741976
17 KIM KEAT ROAD REGAL COURT SINGAPORE 328837,17,REGAL COURT,1.32467219356956,103.852850424074,103.852850424074,328837,KIM KEAT ROAD,REGAL COURT,30173.6978886304,34101.0463830587
20 KIM KEAT ROAD SINGAPORE 328838,20,NIL,1.32415836931346,103.853011800481,103.853011800481,328838,KIM KEAT ROAD,20 KIM KEAT ROAD SINGAPORE 328838,30191.6579113249,34044.230471896
22 KIM KEAT ROAD SINGAPORE 328839,22,NIL,1.32420898356043,103.853054186949,103.853054186949,328839,KIM KEAT ROAD,22 KIM KEAT ROAD SINGAPORE 328839,30196.3750555152,34049.8271734249
16 KIM KEAT ROAD SINGAPORE 328840,16,NIL,1.32405721144034,103.852927022384,103.852927022384,328840,KIM KEAT ROAD,16 KIM KEAT ROAD SINGAPORE 328840,30182.2230478525,34033.0448779762
12 KIM KEAT ROAD HANSON COURT SINGAPORE 328841,12,HANSON COURT,1.3239812866436,103.852863554471,103.852863554471,328841,KIM KEAT ROAD,HANSON COURT,30175.1597717088,34024.6494473331
13 KIM KEAT ROAD VICTORY HEIGHTS SINGAPORE 328842,13,VICTORY HEIGHTS,1.32441624017727,103.85260347559,103.85260347559,328842,KIM KEAT ROAD,VICTORY HEIGHTS,30146.215225311,34072.7441535443
5 KIM KEAT ROAD KIM KEAT LODGE SINGAPORE 328843,5,KIM KEAT LODGE,1.32420580518988,103.85247150073,103.85247150073,328843,KIM KEAT ROAD,KIM KEAT LODGE,30131.5279283561,34049.4752173107
10 KIM KEAT ROAD SINGAPORE 328844,10,NIL,1.32390629665285,103.852798842561,103.852798842561,328844,KIM KEAT ROAD,10 KIM KEAT ROAD SINGAPORE 328844,30167.9580498068,34016.3573818542
8 KIM KEAT ROAD SINGAPORE 328845,8,NIL,1.32384467285361,103.852757655967,103.852757655967,328845,KIM KEAT ROAD,8 KIM KEAT ROAD SINGAPORE 328845,30163.3744479604,34009.5433020201
18 KIM KEAT ROAD SINGAPORE 328846,18,NIL,1.3241078662021,103.852969314473,103.852969314473,328846,KIM KEAT ROAD,18 KIM KEAT ROAD SINGAPORE 328846,30186.9296890525,34038.6460591685
6 KIM KEAT ROAD KIM KEAT GARDENS SINGAPORE 328847,6,KIM KEAT GARDENS,1.32358747782594,103.852647135431,103.852647135431,328847,KIM KEAT ROAD,KIM KEAT GARDENS,30151.0748409014,33981.1038980018
1 KIM KEAT LANE SINGAPORE 328858,1,NIL,1.32449624905099,103.85352287591,103.85352287591,328858,KIM KEAT LANE,1 KIM KEAT LANE SINGAPORE 328858,30248.5351756923,34081.5919392053
2 KIM KEAT LANE SINGAPORE 328859,2,NIL,1.32417206647354,103.853270203137,103.853270203137,328859,KIM KEAT LANE,2 KIM KEAT LANE SINGAPORE 328859,30220.4155226555,34045.7452634089
3 KIM KEAT LANE SINGAPORE 328860,3,NIL,1.32446345305409,103.853563021467,103.853563021467,328860,KIM KEAT LANE,3 KIM KEAT LANE SINGAPORE 328860,30253.0030025002,34077.9655623436
4 KIM KEAT LANE SINGAPORE 328861,4,NIL,1.32413624792567,103.853309869177,103.853309869177,328861,KIM KEAT LANE,4 KIM KEAT LANE SINGAPORE 328861,30224.8299870081,34041.7846674714
5 KIM KEAT LANE SINGAPORE 328862,5,NIL,1.32442109175474,103.853600574216,103.853600574216,328862,KIM KEAT LANE,5 KIM KEAT LANE SINGAPORE 328862,30257.1822846206,34073.2815010585
6 KIM KEAT LANE SINGAPORE 328863,6,NIL,1.32409391690572,103.853360799514,103.853360799514,328863,KIM KEAT LANE,6 KIM KEAT LANE SINGAPORE 328863,30230.4980604434,34037.1039659325
7 KIM KEAT LANE SINGAPORE 328864,7,NIL,1.32439548012013,103.853644444242,103.853644444242,328864,KIM KEAT LANE,7 KIM KEAT LANE SINGAPORE 328864,30262.0646011978,34070.4495376982
8 KIM KEAT LANE SINGAPORE 328865,8,NIL,1.32403836521138,103.853401996335,103.853401996335,328865,KIM KEAT LANE,8 KIM KEAT LANE SINGAPORE 328865,30235.0829032771,34030.961381318
9 KIM KEAT LANE SINGAPORE 328866,9,NIL,1.3243535981227,103.853682381565,103.853682381565,328866,KIM KEAT LANE,9 KIM KEAT LANE SINGAPORE 328866,30266.2866822463,34065.8184756543
10 KIM KEAT LANE SINGAPORE 328867,10,NIL,1.32393035192374,103.853526112989,103.853526112989,328867,KIM KEAT LANE,10 KIM KEAT LANE SINGAPORE 328867,30248.8959397897,34019.017937623
11 KIM KEAT LANE SINGAPORE 328868,11,NIL,1.32432368782697,103.853721166999,103.853721166999,328868,KIM KEAT LANE,11 KIM KEAT LANE SINGAPORE 328868,30270.6031388687,34062.5111838765
12 KIM KEAT LANE SINGAPORE 328869,12,NIL,1.32389809419619,103.853586132227,103.853586132227,328869,KIM KEAT LANE,12 KIM KEAT LANE SINGAPORE 328869,30255.5755087044,34015.4510978851
13 KIM KEAT LANE SINGAPORE 328870,13,NIL,1.32429133276381,103.853766958464,103.853766958464,328870,KIM KEAT LANE,13 KIM KEAT LANE SINGAPORE 328870,30275.6992987506,34058.9335687384
13C KIM KEAT LANE SINGAPORE 328871,13C,NIL,1.32425506940891,103.853804597745,103.853804597745,328871,KIM KEAT LANE,13C KIM KEAT LANE SINGAPORE 328871,30279.8882060898,34054.9237873275
14 KIM KEAT LANE SINGAPORE 328872,14,NIL,1.3238598902613,103.853634698046,103.853634698046,328872,KIM KEAT LANE,14 KIM KEAT LANE SINGAPORE 328872,30260.9804322887,34011.226746738
15 KIM KEAT LANE FU DE GONG TEMPLE SINGAPORE 328873,15,FU DE GONG TEMPLE,1.32421742147584,103.853912259726,103.853912259726,328873,KIM KEAT LANE,FU DE GONG TEMPLE,30291.8699387843,34050.7609709911
16 KIM KEAT LANE SINGAPORE 328874,16,NIL,1.32381813883759,103.853672271732,103.853672271732,328874,KIM KEAT LANE,16 KIM KEAT LANE SINGAPORE 328874,30265.1620450439,34006.6101225205
17 KIM KEAT LANE SINGAPORE 328875,17,NIL,1.32417321336027,103.853942036168,103.853942036168,328875,KIM KEAT LANE,17 KIM KEAT LANE SINGAPORE 328875,30295.1837987136,34045.8726916201
19 KIM KEAT LANE SINGAPORE 328876,19,NIL,1.32415188089721,103.853996541223,103.853996541223,328876,KIM KEAT LANE,19 KIM KEAT LANE SINGAPORE 328876,30301.2496842584,34043.5139076486
21 KIM KEAT LANE SINGAPORE 328877,21,NIL,1.3241159739046,103.854038288126,103.854038288126,328877,KIM KEAT LANE,21 KIM KEAT LANE SINGAPORE 328877,30305.895728955,34039.5435351525
23 KIM KEAT LANE SINGAPORE 328878,23,NIL,1.32407990103113,103.854079800041,103.854079800041,328878,KIM KEAT LANE,23 KIM KEAT LANE SINGAPORE 328878,30310.5156221138,34035.5548202582
31 KIM KEAT LANE CALARASI SINGAPORE 328882,31,CALARASI,1.32377306099593,103.854363234114,103.854363234114,328882,KIM KEAT LANE,CALARASI,30342.0592802726,34001.6262871269
1 KIM KEAT CLOSE SINGAPORE 328913,1,NIL,1.32374029302775,103.853472197501,103.853472197501,328913,KIM KEAT CLOSE,1 KIM KEAT CLOSE SINGAPORE 328913,30242.8958568415,33998.002150096
2 KIM KEAT CLOSE SINGAPORE 328914,2,NIL,1.32391913245428,103.853254420095,103.853254420095,328914,KIM KEAT CLOSE,2 KIM KEAT CLOSE SINGAPORE 328914,30218.6592531679,34017.7771016303
3 KIM KEAT CLOSE SINGAPORE 328915,3,NIL,1.32368409353212,103.853430930705,103.853430930705,328915,KIM KEAT CLOSE,3 KIM KEAT CLOSE SINGAPORE 328915,30238.3033259399,33991.7878606264
4 KIM KEAT CLOSE SINGAPORE 328916,4,NIL,1.32387646331839,103.853210832654,103.853210832654,328916,KIM KEAT CLOSE,4 KIM KEAT CLOSE SINGAPORE 328916,30213.8084455617,34013.0589283276
5 KIM KEAT CLOSE SINGAPORE 328917,5,NIL,1.32364656038336,103.853395540602,103.853395540602,328917,KIM KEAT CLOSE,5 KIM KEAT CLOSE SINGAPORE 328917,30234.3647953626,33987.6376055032
6 KIM KEAT CLOSE SINGAPORE 328918,6,NIL,1.32382648160791,103.8531762494,103.8531762494,328918,KIM KEAT CLOSE,6 KIM KEAT CLOSE SINGAPORE 328918,30209.9597200919,34007.532176109
7 KIM KEAT CLOSE SINGAPORE 328919,7,NIL,1.32359322689987,103.853350604359,103.853350604359,328919,KIM KEAT CLOSE,7 KIM KEAT CLOSE SINGAPORE 328919,30229.3638888253,33981.7402218245
8 KIM KEAT CLOSE SINGAPORE 328920,8,NIL,1.32378401913781,103.853132803934,103.853132803934,328920,KIM KEAT CLOSE,8 KIM KEAT CLOSE SINGAPORE 328920,30205.1247123731,34002.8368551359
9 KIM KEAT CLOSE SINGAPORE 328921,9,NIL,1.32355407131566,103.853317582868,103.853317582868,328921,KIM KEAT CLOSE,9 KIM KEAT CLOSE SINGAPORE 328921,30225.6889621178,33977.4105683621
10 KIM KEAT CLOSE SINGAPORE 328922,10,NIL,1.323734025108,103.853098240809,103.853098240809,328922,KIM KEAT CLOSE,10 KIM KEAT CLOSE SINGAPORE 328922,30201.2782267341,33997.3087408561
11 KIM KEAT CLOSE SINGAPORE 328923,11,NIL,1.32350146870382,103.853271870148,103.853271870148,328923,KIM KEAT CLOSE,11 KIM KEAT CLOSE SINGAPORE 328923,30220.6016404871,33971.5940001979
12 KIM KEAT CLOSE SINGAPORE 328924,12,NIL,1.32369096069203,103.85305550601,103.85305550601,328924,KIM KEAT CLOSE,12 KIM KEAT CLOSE SINGAPORE 328924,30196.5223092567,33992.5468605869
14 KIM KEAT CLOSE SINGAPORE 328925,14,NIL,1.32367891045428,103.852982842893,103.852982842893,328925,KIM KEAT CLOSE,14 KIM KEAT CLOSE SINGAPORE 328925,30188.4356423151,33991.2143428717
15 KIM KEAT CLOSE SINGAPORE 328926,15,NIL,1.32348651358751,103.853203063332,103.853203063332,328926,KIM KEAT CLOSE,15 KIM KEAT CLOSE SINGAPORE 328926,30212.944143286,33969.94027864
16 KIM KEAT CLOSE SINGAPORE 328927,16,NIL,1.32362416722108,103.852940107733,103.852940107733,328927,KIM KEAT CLOSE,16 KIM KEAT CLOSE SINGAPORE 328927,30183.6796945687,33985.1610790752
17 KIM KEAT CLOSE SINGAPORE 328928,17,NIL,1.32340936176913,103.853193168033,103.853193168033,328928,KIM KEAT CLOSE,17 KIM KEAT CLOSE SINGAPORE 328928,30211.842963771,33961.4092171621
18 KIM KEAT CLOSE SINGAPORE 328929,18,NIL,1.32358887323116,103.852900849642,103.852900849642,328929,KIM KEAT CLOSE,18 KIM KEAT CLOSE SINGAPORE 328929,30179.3106927276,33981.2584160585
19 KIM KEAT CLOSE SINGAPORE 328930,19,NIL,1.32339397086157,103.853125130631,103.853125130631,328930,KIM KEAT CLOSE,19 KIM KEAT CLOSE SINGAPORE 328930,30204.2710946957,33959.7073089723
21 KIM KEAT CLOSE SINGAPORE 328931,21,NIL,1.32331791206612,103.853114261949,103.853114261949,328931,KIM KEAT CLOSE,21 KIM KEAT CLOSE SINGAPORE 328931,30203.0615860661,33951.2971075531
23 KIM KEAT CLOSE SINGAPORE 328932,23,NIL,1.32330032282843,103.853043575234,103.853043575234,328932,KIM KEAT CLOSE,23 KIM KEAT CLOSE SINGAPORE 328932,30195.1948765628,33949.3521171883
25 KIM KEAT CLOSE BLISS LOFT SINGAPORE 328933,25,BLISS LOFT,1.32322945510697,103.852929261304,103.852929261304,328933,KIM KEAT CLOSE,BLISS LOFT,30182.4729403267,33941.5158270076
65A JALAN TENTERAM SAINT MICHAEL'S ESTATE FLATTED FACTORY SINGAPORE 328958,65A,SAINT MICHAEL'S ESTATE FLATTED FACTORY,1.32870274956183,103.858448905296,103.858448905296,328958,JALAN TENTERAM,SAINT MICHAEL'S ESTATE FLATTED FACTORY,30796.748049276,34546.7302452996
30 JALAN TAMAN SINGAPORE 328982,30,NIL,1.32577971193612,103.865036229891,103.865036229891,328982,JALAN TAMAN,30 JALAN TAMAN SINGAPORE 328982,31529.8540515807,34223.5241144318
32 JALAN TAMAN SINGAPORE 328983,32,NIL,1.32581744872047,103.864996214534,103.864996214534,328983,JALAN TAMAN,32 JALAN TAMAN SINGAPORE 328983,31525.400692868,34227.6967981309
34 JALAN TAMAN SINGAPORE 328984,34,NIL,1.32585414670817,103.864954621712,103.864954621712,328984,JALAN TAMAN,34 JALAN TAMAN SINGAPORE 328984,31520.7717798501,34231.7546148319
36 JALAN TAMAN SINGAPORE 328985,36,NIL,1.3258927845969,103.86491640221,103.86491640221,328985,JALAN TAMAN,36 JALAN TAMAN SINGAPORE 328985,31516.5182806347,34236.0269407351
38 JALAN TAMAN SINGAPORE 328986,38,NIL,1.325943798331,103.864869744591,103.864869744591,328986,JALAN TAMAN,38 JALAN TAMAN SINGAPORE 328986,31511.3256869558,34241.6677124482
40 JALAN TAMAN SINGAPORE 328987,40,NIL,1.32596257282881,103.865105319653,103.865105319653,328987,JALAN TAMAN,40 JALAN TAMAN SINGAPORE 328987,31537.54278534,34243.7440355942
42 JALAN TAMAN SINGAPORE 328988,42,NIL,1.32602549658771,103.865129765771,103.865129765771,328988,JALAN TAMAN,42 JALAN TAMAN SINGAPORE 328988,31540.2633019844,34250.7018580846
43 JALAN TAMAN SINGAPORE 328989,43,NIL,1.3259389145452,103.864470643846,103.864470643846,328989,JALAN TAMAN,43 JALAN TAMAN SINGAPORE 328989,31466.9098120211,34241.1271262579
44 JALAN TAMAN SINGAPORE 328990,44,NIL,1.32606068520159,103.865173875545,103.865173875545,328990,JALAN TAMAN,44 JALAN TAMAN SINGAPORE 328990,31545.1722241202,34254.5928981937
45 JALAN TAMAN SINGAPORE 328991,45,NIL,1.32597223258799,103.86441974891,103.86441974891,328991,JALAN TAMAN,45 JALAN TAMAN SINGAPORE 328991,31461.2456734246,34244.8111938965
46 JALAN TAMAN SINGAPORE 328992,46,NIL,1.32610980841716,103.865200260937,103.865200260937,328992,JALAN TAMAN,46 JALAN TAMAN SINGAPORE 328992,31548.1085817562,34260.0247300174
47 JALAN TAMAN SINGAPORE 328993,47,NIL,1.32600976953982,103.864379553219,103.864379553219,328993,JALAN TAMAN,47 JALAN TAMAN SINGAPORE 328993,31456.7722470388,34248.9617819674
48 JALAN TAMAN SINGAPORE 328994,48,NIL,1.32616744153425,103.865240521478,103.865240521478,328994,JALAN TAMAN,48 JALAN TAMAN SINGAPORE 328994,31552.5890908502,34266.3975631837
49 JALAN TAMAN SINGAPORE 328995,49,NIL,1.32604149250126,103.864331671191,103.864331671191,328995,JALAN TAMAN,49 JALAN TAMAN SINGAPORE 328995,31451.4434171654,34252.4694780651
51 JALAN TAMAN SINGAPORE 328997,51,NIL,1.32608620470081,103.864300312845,103.864300312845,328997,JALAN TAMAN,51 JALAN TAMAN SINGAPORE 328997,31447.9534883751,34257.4134807941
53 JALAN TAMAN SINGAPORE 328998,53,NIL,1.32612399046832,103.864260565095,103.864260565095,328998,JALAN TAMAN,53 JALAN TAMAN SINGAPORE 328998,31443.5299133584,34261.5915824622
55 JALAN TAMAN SINGAPORE 328999,55,NIL,1.32616641114414,103.864215753241,103.864215753241,328999,JALAN TAMAN,55 JALAN TAMAN SINGAPORE 328999,31438.5427484857,34266.2821816299
55B JALAN TAMAN RIO GARDENS SINGAPORE 329001,55B,RIO GARDENS,1.32661285068821,103.864339686311,103.864339686311,329001,JALAN TAMAN,RIO GARDENS,31452.3346276777,34315.6473561898
57 JALAN TAMAN SINGAPORE 329002,57,NIL,1.32641691175338,103.864435034517,103.864435034517,329002,JALAN TAMAN,57 JALAN TAMAN SINGAPORE 329002,31462.9461892853,34293.9815637134
59 JALAN TAMAN SINGAPORE 329003,59,NIL,1.32636812748918,103.864467380079,103.864467380079,329003,JALAN TAMAN,59 JALAN TAMAN SINGAPORE 329003,31466.5459908573,34288.5872944593
61 JALAN TAMAN SINGAPORE 329004,61,NIL,1.32633088507345,103.864507502073,103.864507502073,329004,JALAN TAMAN,61 JALAN TAMAN SINGAPORE 329004,31471.0112146186,34284.4692747388
63 JALAN TAMAN SINGAPORE 329005,63,NIL,1.32629359447761,103.864547816351,103.864547816351,329005,JALAN TAMAN,63 JALAN TAMAN SINGAPORE 329005,31475.4978378452,34280.3459278531
65 JALAN TAMAN SINGAPORE 329006,65,NIL,1.32625618042818,103.864588087382,103.864588087382,329006,JALAN TAMAN,65 JALAN TAMAN SINGAPORE 329006,31479.9796484625,34276.2089301068
67 JALAN TAMAN SINGAPORE 329007,67,NIL,1.32621890132916,103.864628299668,103.864628299668,329007,JALAN TAMAN,67 JALAN TAMAN SINGAPORE 329007,31484.4549211953,34272.0868544765
69 JALAN TAMAN SINGAPORE 329008,69,NIL,1.32618115545341,103.864673337313,103.864673337313,329008,JALAN TAMAN,69 JALAN TAMAN SINGAPORE 329008,31489.4672084944,34267.9131719321
71 JALAN TAMAN SINGAPORE 329009,71,NIL,1.32635840499877,103.864815002779,103.864815002779,329009,JALAN TAMAN,71 JALAN TAMAN SINGAPORE 329009,31505.2328931736,34287.5127205011
72 JALAN TAMAN SINGAPORE 329010,72,NIL,1.32661605248267,103.864988818551,103.864988818551,329010,JALAN TAMAN,72 JALAN TAMAN SINGAPORE 329010,31524.5764654037,34316.0023088362
73 JALAN TAMAN SINGAPORE 329011,73,NIL,1.32638998408901,103.864758990621,103.864758990621,329011,JALAN TAMAN,73 JALAN TAMAN SINGAPORE 329011,31498.9992624624,34291.0044956394
74 JALAN TAMAN SINGAPORE 329012,74,NIL,1.32665038114288,103.864939098822,103.864939098822,329012,JALAN TAMAN,74 JALAN TAMAN SINGAPORE 329012,31519.0431147637,34319.7981258687
75 JALAN TAMAN SINGAPORE 329013,75,NIL,1.32643659709795,103.864727401941,103.864727401941,329013,JALAN TAMAN,75 JALAN TAMAN SINGAPORE 329013,31495.4836966898,34296.1586792469
76 JALAN TAMAN SINGAPORE 329014,76,NIL,1.32669168690736,103.864895021287,103.864895021287,329014,JALAN TAMAN,76 JALAN TAMAN SINGAPORE 329014,31514.1376734469,34324.3654435407
77 JALAN TAMAN SINGAPORE 329015,77,NIL,1.32647406206215,103.86468727424,103.86468727424,329015,JALAN TAMAN,77 JALAN TAMAN SINGAPORE 329015,31491.0178373,34300.3013068382
78 JALAN TAMAN SINGAPORE 329016,78,NIL,1.32673853675025,103.864859273305,103.864859273305,329016,JALAN TAMAN,78 JALAN TAMAN SINGAPORE 329016,31510.1592193991,34329.5458089542
79 JALAN TAMAN SINGAPORE 329017,79,NIL,1.3265114802169,103.864647181894,103.864647181894,329017,JALAN TAMAN,79 JALAN TAMAN SINGAPORE 329017,31486.5559127489,34304.4387586042
80 JALAN TAMAN SINGAPORE 329018,80,NIL,1.32678406979474,103.864813292001,103.864813292001,329018,JALAN TAMAN,80 JALAN TAMAN SINGAPORE 329018,31505.0419021957,34334.5805550963
81 JALAN TAMAN SINGAPORE 329019,81,NIL,1.32654900485498,103.864606944314,103.864606944314,329019,JALAN TAMAN,81 JALAN TAMAN SINGAPORE 329019,31482.0778250936,34308.5879846159
82 JALAN TAMAN SINGAPORE 329020,82,NIL,1.32683238054871,103.864777560081,103.864777560081,329020,JALAN TAMAN,82 JALAN TAMAN SINGAPORE 329020,31501.0652339589,34339.9224607386
83 JALAN TAMAN SINGAPORE 329021,83,NIL,1.32658695542036,103.864566740463,103.864566740463,329021,JALAN TAMAN,83 JALAN TAMAN SINGAPORE 329021,31477.6034906683,34312.7843076102
1 JALAN TAMAN SAINT MICHAEL'S PLACE SINGAPORE 329022,1,SAINT MICHAEL'S PLACE,1.32505522536131,103.865178186819,103.865178186819,329022,JALAN TAMAN,SAINT MICHAEL'S PLACE,31545.6534547927,34143.4142959472
2 JALAN TAMAN THE ABERDEEN SINGAPORE 329023,2,THE ABERDEEN,1.32553401753237,103.86549809331,103.86549809331,329023,JALAN TAMAN,THE ABERDEEN,31581.2551415293,34196.357146183
2 JALAN SEMERBAK SINGAPORE 329043,2,NIL,1.32495494218065,103.863686105088,103.863686105088,329043,JALAN SEMERBAK,2 JALAN SEMERBAK SINGAPORE 329043,31379.5999061055,34132.3234105501
4 JALAN SEMERBAK SINGAPORE 329044,4,NIL,1.3249955454491,103.863648145338,103.863648145338,329044,JALAN SEMERBAK,4 JALAN SEMERBAK SINGAPORE 329044,31375.3753128145,34136.8130605742
6 JALAN SEMERBAK SINGAPORE 329045,6,NIL,1.32503426554497,103.863601210146,103.863601210146,329045,JALAN SEMERBAK,6 JALAN SEMERBAK SINGAPORE 329045,31370.1518457923,34141.0944668707
8 JALAN SEMERBAK SINGAPORE 329046,8,NIL,1.32506919547737,103.863558910434,103.863558910434,329046,JALAN SEMERBAK,8 JALAN SEMERBAK SINGAPORE 329046,31365.4442662848,34144.9567826651
10 JALAN SEMERBAK SINGAPORE 329047,10,NIL,1.32511319773041,103.863517274175,103.863517274175,329047,JALAN SEMERBAK,10 JALAN SEMERBAK SINGAPORE 329047,31360.8105103895,34149.8222702444
12 JALAN SEMERBAK SINGAPORE 329048,12,NIL,1.32514798609538,103.863478739941,103.863478739941,329048,JALAN SEMERBAK,12 JALAN SEMERBAK SINGAPORE 329048,31356.5219911169,34153.6689374913
14 JALAN SEMERBAK SINGAPORE 329049,14,NIL,1.32519775449225,103.863440236075,103.863440236075,329049,JALAN SEMERBAK,14 JALAN SEMERBAK SINGAPORE 329049,31352.2368315896,34159.1720201466
16 JALAN SEMERBAK SINGAPORE 329050,16,NIL,1.32521806643689,103.86338377884,103.86338377884,329050,JALAN SEMERBAK,16 JALAN SEMERBAK SINGAPORE 329050,31345.953682458,34161.417934807
18 JALAN SEMERBAK SINGAPORE 329051,18,NIL,1.32526989545651,103.863348314307,103.863348314307,329051,JALAN SEMERBAK,18 JALAN SEMERBAK SINGAPORE 329051,31342.0067676492,34167.1488748435
20 JALAN SEMERBAK SINGAPORE 329052,20,NIL,1.32531566606027,103.863303417364,103.863303417364,329052,JALAN SEMERBAK,20 JALAN SEMERBAK SINGAPORE 329052,31337.0101288967,34172.2098935973
22 JALAN SEMERBAK SINGAPORE 329053,22,NIL,1.32540465328784,103.863195157485,103.863195157485,329053,JALAN SEMERBAK,22 JALAN SEMERBAK SINGAPORE 329053,31324.9617763702,34182.0495005473
24 JALAN SEMERBAK SINGAPORE 329054,24,NIL,1.32544190280912,103.863154251928,103.863154251928,329054,JALAN SEMERBAK,24 JALAN SEMERBAK SINGAPORE 329054,31320.4093505479,34186.1683072355
26 JALAN SEMERBAK SINGAPORE 329055,26,NIL,1.32548562893814,103.863106072226,103.863106072226,329055,JALAN SEMERBAK,26 JALAN SEMERBAK SINGAPORE 329055,31315.0473772315,34191.0032544192
28 JALAN SEMERBAK SINGAPORE 329056,28,NIL,1.32552362355887,103.863065171299,103.863065171299,329056,JALAN SEMERBAK,28 JALAN SEMERBAK SINGAPORE 329056,31310.495465965,34195.2044505589
30 JALAN SEMERBAK SINGAPORE 329057,30,NIL,1.3255664540414,103.863016222712,103.863016222712,329057,JALAN SEMERBAK,30 JALAN SEMERBAK SINGAPORE 329057,31305.0479250588,34199.9403608982
32 JALAN SEMERBAK SINGAPORE 329058,32,NIL,1.32560433314596,103.86297527473,103.86297527473,329058,JALAN SEMERBAK,32 JALAN SEMERBAK SINGAPORE 329058,31300.4907774311,34204.1287839506
34 JALAN SEMERBAK SINGAPORE 329059,34,NIL,1.32564786519732,103.862926895934,103.862926895934,329059,JALAN SEMERBAK,34 JALAN SEMERBAK SINGAPORE 329059,31295.1066479515,34208.942271132
36 JALAN SEMERBAK SINGAPORE 329060,36,NIL,1.32569237622467,103.862892310591,103.862892310591,329060,JALAN SEMERBAK,36 JALAN SEMERBAK SINGAPORE 329060,31291.2575895339,34213.8640268929
8 JALAN RAMA RAMA PAPILLON SINGAPORE 329089,8,PAPILLON,1.3269225590077,103.849241627567,103.849241627567,329089,JALAN RAMA RAMA,PAPILLON,29772.0735260854,34349.8773887083
20 JALAN RAMA RAMA SINGAPORE 329100,20,NIL,1.32716989679005,103.849435590944,103.849435590944,329100,JALAN RAMA RAMA,20 JALAN RAMA RAMA SINGAPORE 329100,29793.6595018888,34377.2268728986
22 JALAN RAMA RAMA SINGAPORE 329102,22,NIL,1.32721096364986,103.849465382468,103.849465382468,329102,JALAN RAMA RAMA,22 JALAN RAMA RAMA SINGAPORE 329102,29796.9749660213,34381.7678574249
24 JALAN RAMA RAMA SINGAPORE 329104,24,NIL,1.32725685524938,103.849506775909,103.849506775909,329104,JALAN RAMA RAMA,24 JALAN RAMA RAMA SINGAPORE 329104,29801.5816018032,34386.8423454314
26 JALAN RAMA RAMA SINGAPORE 329106,26,NIL,1.32730014182403,103.849534212151,103.849534212151,329106,JALAN RAMA RAMA,26 JALAN RAMA RAMA SINGAPORE 329106,29804.634945197,34391.6287730355
28 JALAN RAMA RAMA SINGAPORE 329108,28,NIL,1.32734381699015,103.849578136302,103.849578136302,329108,JALAN RAMA RAMA,28 JALAN RAMA RAMA SINGAPORE 329108,29809.5232245671,34396.4581811782
30 JALAN RAMA RAMA SINGAPORE 329110,30,NIL,1.32739931505225,103.849607227591,103.849607227591,329110,JALAN RAMA RAMA,30 JALAN RAMA RAMA SINGAPORE 329110,29812.7607486416,34402.5948938038
31 JALAN RAMA RAMA DE ROYALE SINGAPORE 329111,31,DE ROYALE,1.32789799979738,103.849310947037,103.849310947037,329111,JALAN RAMA RAMA,DE ROYALE,29779.7873822721,34457.7366827894
33 JALAN RAMA RAMA DE ROYALE SINGAPORE 329112,33,DE ROYALE,1.32839347352744,103.84924168946,103.84924168946,329112,JALAN RAMA RAMA,DE ROYALE,29772.0793678062,34512.5235796645
35 JALAN RAMA RAMA DE ROYALE SINGAPORE 329113,35,DE ROYALE,1.3281491159178,103.849419868995,103.849419868995,329113,JALAN RAMA RAMA,DE ROYALE,29791.909104391,34485.5038954243
1 JALAN RAJAH DAYS HOTEL SINGAPORE AT ZHONGSHAN PARK SINGAPORE 329133,1,DAYS HOTEL SINGAPORE AT ZHONGSHAN PARK,1.32697770817966,103.847365848461,103.847365848461,329133,JALAN RAJAH,DAYS HOTEL SINGAPORE AT ZHONGSHAN PARK,29563.3183297217,34355.9742383994
2 JALAN RAJAH GOLDEN WALL FLATTED FACTORY SINGAPORE 329134,2,GOLDEN WALL FLATTED FACTORY,1.3270026199524,103.848267774628,103.848267774628,329134,JALAN RAJAH,GOLDEN WALL FLATTED FACTORY,29663.6935318802,34358.729442155
15 JALAN RAJAH LENG ERN JEE TEMPLE SINGAPORE 329136,15,LENG ERN JEE TEMPLE,1.32723524952118,103.847698509682,103.847698509682,329136,JALAN RAJAH,LENG ERN JEE TEMPLE,29600.3399783773,34384.4520524889
17 JALAN RAJAH SKYSUITES 17 SINGAPORE 329137,17,SKYSUITES 17,1.32761026033247,103.847605847436,103.847605847436,329137,JALAN RAJAH,SKYSUITES 17,29590.0273736455,34425.9187664296
23 JALAN RAJAH THE VERVE SINGAPORE 329138,23,THE VERVE,1.32772188246207,103.848137304369,103.848137304369,329138,JALAN RAJAH,THE VERVE,29649.1730417842,34438.2617172413
32 JALAN RAJAH RAJAH TOWER SINGAPORE 329141,32,RAJAH TOWER,1.32755515564555,103.848878899043,103.848878899043,329141,JALAN RAJAH,RAJAH TOWER,29731.7050859332,34419.8264266662
51 JALAN RAJAH GLOBAL INDIAN INTERNATIONAL SCHOOL (BALESTIER CAMPUS) SINGAPORE 329154,51,GLOBAL INDIAN INTERNATIONAL SCHOOL (BALESTIER CAMPUS),1.32861860599312,103.852707592212,103.852707592212,329154,JALAN RAJAH,GLOBAL INDIAN INTERNATIONAL SCHOOL (BALESTIER CAMPUS),30157.7987221442,34537.4203280639
90 JALAN RAJAH CURTIN SINGAPORE SINGAPORE 329161,90,CURTIN SINGAPORE,1.32704902776847,103.854049058196,103.854049058196,329161,JALAN RAJAH,CURTIN SINGAPORE,30307.0916169919,34363.8656163104
92 JALAN RAJAH CURTIN EDUCATION CENTRE SINGAPORE 329162,92,CURTIN EDUCATION CENTRE,1.3271336092509,103.854507209795,103.854507209795,329162,JALAN RAJAH,CURTIN EDUCATION CENTRE,30358.0791554786,34373.2186351549
2 JALAN RAJA UDANG SINGAPORE 329186,2,NIL,1.32694514386768,103.842477104702,103.842477104702,329186,JALAN RAJA UDANG,2 JALAN RAJA UDANG SINGAPORE 329186,29019.2508381158,34352.3708954751
4 JALAN RAJA UDANG SINGAPORE 329187,4,NIL,1.32699799021279,103.842473498244,103.842473498244,329187,JALAN RAJA UDANG,4 JALAN RAJA UDANG SINGAPORE 329187,29018.8494543834,34358.2143718749
20 JALAN RAJA UDANG GLOBAL VILLE SINGAPORE 329192,20,GLOBAL VILLE,1.32751668761838,103.842603758766,103.842603758766,329192,JALAN RAJA UDANG,GLOBAL VILLE,29033.3459117012,34415.5693255607
21 JALAN RAJA UDANG THE ARTE SINGAPORE 329215,21,THE ARTE,1.32810062850729,103.842349999219,103.842349999219,329215,JALAN RAJA UDANG,THE ARTE,29005.1048235139,34480.1384110227
23 JALAN RAJA UDANG THE ARTE SINGAPORE 329216,23,THE ARTE,1.32853196508959,103.842421864888,103.842421864888,329216,JALAN RAJA UDANG,THE ARTE,29013.1025631195,34527.8334285077
8 JALAN RAJA UDANG 8 RAJA SINGAPORE 329217,8,8 RAJA,1.32724141217289,103.842539713753,103.842539713753,329217,JALAN RAJA UDANG,8 RAJA,29026.2184674311,34385.1307514869
1 JALAN MANIS SINGAPORE 329236,1,NIL,1.32509486414273,103.86381040332,103.86381040332,329236,JALAN MANIS,1 JALAN MANIS SINGAPORE 329236,31393.4328589523,34147.7954352498
2 JALAN MANIS SINGAPORE 329237,2,NIL,1.32535267808568,103.864010101322,103.864010101322,329237,JALAN MANIS,2 JALAN MANIS SINGAPORE 329237,31415.6568838526,34176.303456787
3 JALAN MANIS SINGAPORE 329238,3,NIL,1.3251508546349,103.863782591114,103.863782591114,329238,JALAN MANIS,3 JALAN MANIS SINGAPORE 329238,31390.3375641331,34153.986539444
4 JALAN MANIS SINGAPORE 329239,4,NIL,1.32540053831037,103.863970649883,103.863970649883,329239,JALAN MANIS,4 JALAN MANIS SINGAPORE 329239,31411.266270671,34181.5955413282
5 JALAN MANIS SINGAPORE 329240,5,NIL,1.32518636965654,103.863730659989,103.863730659989,329240,JALAN MANIS,5 JALAN MANIS SINGAPORE 329240,31384.5581045188,34157.9135379195
6 JALAN MANIS SINGAPORE 329241,6,NIL,1.32543729985096,103.863923918101,103.863923918101,329241,JALAN MANIS,6 JALAN MANIS SINGAPORE 329241,31406.0654441006,34185.6603802014
7 JALAN MANIS SINGAPORE 329242,7,NIL,1.32522302818645,103.863690626114,103.863690626114,329242,JALAN MANIS,7 JALAN MANIS SINGAPORE 329242,31380.1026875833,34161.9669960309
8 JALAN MANIS SINGAPORE 329243,8,NIL,1.32548037252444,103.863881366094,103.863881366094,329243,JALAN MANIS,8 JALAN MANIS SINGAPORE 329243,31401.3297759043,34190.4230777062
9 JALAN MANIS SINGAPORE 329244,9,NIL,1.32526386093379,103.863645304567,103.863645304567,329244,JALAN MANIS,9 JALAN MANIS SINGAPORE 329244,31375.0588005083,34166.4820106253
10 JALAN MANIS SINGAPORE 329245,10,NIL,1.32551310911961,103.863832636882,103.863832636882,329245,JALAN MANIS,10 JALAN MANIS SINGAPORE 329245,31395.9066612618,34194.0428561475
11 JALAN MANIS SINGAPORE 329246,11,NIL,1.32530751241603,103.863613453932,103.863613453932,329246,JALAN MANIS,11 JALAN MANIS SINGAPORE 329246,31371.5140866674,34171.3087249175
12 JALAN MANIS SINGAPORE 329247,12,NIL,1.32555596862307,103.863784475131,103.863784475131,329247,JALAN MANIS,12 JALAN MANIS SINGAPORE 329247,31390.5466856333,34198.7819748949
13 JALAN MANIS SINGAPORE 329248,13,NIL,1.32534967389138,103.86356569551,103.86356569551,329248,JALAN MANIS,13 JALAN MANIS SINGAPORE 329248,31366.1989984587,34175.9706603047
14 JALAN MANIS SINGAPORE 329249,14,NIL,1.32559372703432,103.863742687303,103.863742687303,329249,JALAN MANIS,14 JALAN MANIS SINGAPORE 329249,31385.896070471,34202.9570497647
15 JALAN MANIS SINGAPORE 329250,15,NIL,1.32538518161527,103.863528132773,103.863528132773,329250,JALAN MANIS,15 JALAN MANIS SINGAPORE 329250,31362.0185964238,34179.8968718126
16 JALAN MANIS SINGAPORE 329251,16,NIL,1.32564612410774,103.863702921235,103.863702921235,329251,JALAN MANIS,16 JALAN MANIS SINGAPORE 329251,31381.4704372315,34208.7507958673
17 JALAN MANIS SINGAPORE 329252,17,NIL,1.32542107219161,103.863476333823,103.863476333823,329252,JALAN MANIS,17 JALAN MANIS SINGAPORE 329252,31356.2538470486,34183.8653979618
18 JALAN MANIS SINGAPORE 329253,18,NIL,1.32567479003137,103.863653071979,103.863653071979,329253,JALAN MANIS,18 JALAN MANIS SINGAPORE 329253,31375.9226790322,34211.9204591215
19 JALAN MANIS SINGAPORE 329254,19,NIL,1.32547336652581,103.8634211528,103.8634211528,329254,JALAN MANIS,19 JALAN MANIS SINGAPORE 329254,31350.1126850285,34189.6477633044
20 JALAN MANIS SINGAPORE 329255,20,NIL,1.32571504276114,103.863605876513,103.863605876513,329255,JALAN MANIS,20 JALAN MANIS SINGAPORE 329255,31370.6702455496,34216.3713358603
21 JALAN MANIS SINGAPORE 329256,21,NIL,1.32554453434611,103.863331107359,103.863331107359,329256,JALAN MANIS,21 JALAN MANIS SINGAPORE 329256,31340.0914399074,34197.5170153193
22 JALAN MANIS SINGAPORE 329257,22,NIL,1.32578553138463,103.863521717671,103.863521717671,329257,JALAN MANIS,22 JALAN MANIS SINGAPORE 329257,31361.3041206682,34224.1654930077
23 JALAN MANIS SINGAPORE 329258,23,NIL,1.3255920669683,103.863286206081,103.863286206081,329258,JALAN MANIS,23 JALAN MANIS SINGAPORE 329258,31335.0943168681,34202.772869084
24 JALAN MANIS SINGAPORE 329259,24,NIL,1.3258246308536,103.863476287844,103.863476287844,329259,JALAN MANIS,24 JALAN MANIS SINGAPORE 329259,31356.2481869357,34228.4888507295
25 JALAN MANIS SINGAPORE 329260,25,NIL,1.32563436532319,103.863236862856,103.863236862856,329260,JALAN MANIS,25 JALAN MANIS SINGAPORE 329260,31329.6028571175,34207.449938463
26 JALAN MANIS SINGAPORE 329261,26,NIL,1.32587147419297,103.863433508227,103.863433508227,329261,JALAN MANIS,26 JALAN MANIS SINGAPORE 329261,31351.487184437,34233.6684897114
27 JALAN MANIS SINGAPORE 329262,27,NIL,1.32567151631171,103.863195100848,103.863195100848,329262,JALAN MANIS,27 JALAN MANIS SINGAPORE 329262,31324.9551174138,34211.557848677
28 JALAN MANIS SINGAPORE 329263,28,NIL,1.32590168999221,103.86338322491,103.86338322491,329263,JALAN MANIS,28 JALAN MANIS SINGAPORE 329263,31345.8911185358,34237.0095302891
29 JALAN MANIS SINGAPORE 329264,29,NIL,1.32571835060295,103.863153162715,103.863153162715,329264,JALAN MANIS,29 JALAN MANIS SINGAPORE 329264,31320.2877640566,34216.7364888154
30 JALAN MANIS SINGAPORE 329265,30,NIL,1.32594110730763,103.863334104665,103.863334104665,329265,JALAN MANIS,30 JALAN MANIS SINGAPORE 329265,31340.4244785327,34241.3680291418
31 JALAN MANIS SINGAPORE 329266,31,NIL,1.32575083781969,103.863103905312,103.863103905312,329266,JALAN MANIS,31 JALAN MANIS SINGAPORE 329266,31314.8058689898,34220.3286931235
32 JALAN MANIS SINGAPORE 329267,32,NIL,1.32597956949774,103.86329075162,103.86329075162,329267,JALAN MANIS,32 JALAN MANIS SINGAPORE 329267,31335.5996711235,34245.6209229976
33 JALAN MANIS SINGAPORE 329268,33,NIL,1.32579227392066,103.863053876423,103.863053876423,329268,JALAN MANIS,33 JALAN MANIS SINGAPORE 329268,31309.2381036533,34224.910418354
34 JALAN MANIS SINGAPORE 329269,34,NIL,1.32601919977322,103.863241819852,103.863241819852,329269,JALAN MANIS,34 JALAN MANIS SINGAPORE 329269,31330.1540068332,34250.0029703397
35 JALAN MANIS SINGAPORE 329270,35,NIL,1.32582975392503,103.86301278619,103.86301278619,329270,JALAN MANIS,35 JALAN MANIS SINGAPORE 329270,31304.6651258692,34229.0547106843
36 JALAN MANIS SINGAPORE 329271,36,NIL,1.32605729025376,103.863196713654,103.863196713654,329271,JALAN MANIS,36 JALAN MANIS SINGAPORE 329271,31325.1340920022,34254.2147602737
1A JALAN KEMAMAN SINGAPORE 329317,1A,NIL,1.32605554614563,103.849858861638,103.849858861638,329317,JALAN KEMAMAN,1A JALAN KEMAMAN SINGAPORE 329317,29840.7660492361,34254.0079996772
2 JALAN KEMAMAN CHAN CHOR MIN TONG TEMPLE SINGAPORE 329318,2,CHAN CHOR MIN TONG TEMPLE,1.32634786222236,103.849903424117,103.849903424117,329318,JALAN KEMAMAN,CHAN CHOR MIN TONG TEMPLE,29845.7251859559,34286.3308465406
4 JALAN KEMAMAN SINGAPORE 329319,4,NIL,1.32640522243027,103.850142252475,103.850142252475,329319,JALAN KEMAMAN,4 JALAN KEMAMAN SINGAPORE 329319,29872.3043196937,34292.673623601
4A JALAN KEMAMAN SINGAPORE 329320,4A,NIL,1.32644817603773,103.850184456106,103.850184456106,329320,JALAN KEMAMAN,4A JALAN KEMAMAN SINGAPORE 329320,29877.001123799,34297.4232453387
4B JALAN KEMAMAN SINGAPORE 329321,4B,NIL,1.32649262288425,103.850222765076,103.850222765076,329321,JALAN KEMAMAN,4B JALAN KEMAMAN SINGAPORE 329321,29881.2644903781,34302.3379789256
4C JALAN KEMAMAN SINGAPORE 329322,4C,NIL,1.32653788655449,103.850260304366,103.850260304366,329322,JALAN KEMAMAN,4C JALAN KEMAMAN SINGAPORE 329322,29885.4421985624,34307.3430321775
4D JALAN KEMAMAN SINGAPORE 329323,4D,NIL,1.32658498945123,103.850295578939,103.850295578939,329323,JALAN KEMAMAN,4D JALAN KEMAMAN SINGAPORE 329323,29889.3678652467,34312.5514560118
4E JALAN KEMAMAN SINGAPORE 329324,4E,NIL,1.32662878890339,103.850335941315,103.850335941315,329324,JALAN KEMAMAN,4E JALAN KEMAMAN SINGAPORE 329324,29893.8597551025,34317.3946058191
6 JALAN KEMAMAN SINGAPORE 329326,6,NIL,1.32670704431441,103.850401066376,103.850401066376,329326,JALAN KEMAMAN,6 JALAN KEMAMAN SINGAPORE 329326,29901.1074540718,34326.0477380753
6A JALAN KEMAMAN SINGAPORE 329327,6A,NIL,1.32674963633809,103.850440094713,103.850440094713,329327,JALAN KEMAMAN,6A JALAN KEMAMAN SINGAPORE 329327,29905.4508794667,34330.7573758066
6B JALAN KEMAMAN SINGAPORE 329328,6B,NIL,1.32680066460237,103.850469601288,103.850469601288,329328,JALAN KEMAMAN,6B JALAN KEMAMAN SINGAPORE 329328,29908.7346227523,34336.3998425268
6C JALAN KEMAMAN SINGAPORE 329329,6C,NIL,1.32684368364827,103.850508628271,103.850508628271,329329,JALAN KEMAMAN,6C JALAN KEMAMAN SINGAPORE 329329,29913.0778968083,34341.1566983107
6D JALAN KEMAMAN SINGAPORE 329330,6D,NIL,1.32688957143435,103.850544820487,103.850544820487,329330,JALAN KEMAMAN,6D JALAN KEMAMAN SINGAPORE 329330,29917.1056876695,34346.2307625655
6E JALAN KEMAMAN SINGAPORE 329331,6E,NIL,1.32693134553233,103.850585181498,103.850585181498,329331,JALAN KEMAMAN,6E JALAN KEMAMAN SINGAPORE 329331,29921.5974261845,34350.8499595616
6F JALAN KEMAMAN SINGAPORE 329332,6F,NIL,1.32697574994976,103.850622617445,103.850622617445,329332,JALAN KEMAMAN,6F JALAN KEMAMAN SINGAPORE 329332,29925.7636325359,34355.760001611
7 JALAN KEMAMAN TAI PEI YUEN TEMPLE SINGAPORE 329333,7,TAI PEI YUEN TEMPLE,1.32705216840596,103.851287138666,103.851287138666,329333,JALAN KEMAMAN,TAI PEI YUEN TEMPLE,29999.7180327792,34364.2104897182
19 JALAN KEMAMAN SINGAPORE 329335,19,NIL,1.32744532535466,103.85100802776,103.85100802776,329335,JALAN KEMAMAN,19 JALAN KEMAMAN SINGAPORE 329335,29968.6555144899,34407.6835472267
21 JALAN KEMAMAN SINGAPORE 329336,21,NIL,1.32748341232092,103.851040239864,103.851040239864,329336,JALAN KEMAMAN,21 JALAN KEMAMAN SINGAPORE 329336,29972.240363677,34411.8950344808
23 JALAN KEMAMAN SINGAPORE 329337,23,NIL,1.32753124001668,103.851080198687,103.851080198687,329337,JALAN KEMAMAN,23 JALAN KEMAMAN SINGAPORE 329337,29976.6873358451,34417.1836079359
25 JALAN KEMAMAN SINGAPORE 329338,25,NIL,1.32756979589034,103.851111873375,103.851111873375,329338,JALAN KEMAMAN,25 JALAN KEMAMAN SINGAPORE 329338,29980.2123754965,34421.4469442479
27 JALAN KEMAMAN SINGAPORE 329339,27,NIL,1.32761940970994,103.851149378732,103.851149378732,329339,JALAN KEMAMAN,27 JALAN KEMAMAN SINGAPORE 329339,29984.3863001829,34426.9330162965
29 JALAN KEMAMAN SINGAPORE 329340,29,NIL,1.32765652437427,103.851181679497,103.851181679497,329340,JALAN KEMAMAN,29 JALAN KEMAMAN SINGAPORE 329340,29987.9810167337,34431.0369916726
30 JALAN KEMAMAN NEEM TREE SINGAPORE 329341,30,NEEM TREE,1.32736646893517,103.851568376064,103.851568376064,329341,JALAN KEMAMAN,NEEM TREE,30031.0166413421,34398.9644610342
17 JALAN KEMAMAN TAI PEI APARTMENTS SINGAPORE 329342,17,TAI PEI APARTMENTS,1.3274059437839,103.850801174352,103.850801174352,329342,JALAN KEMAMAN,TAI PEI APARTMENTS,29945.6348665254,34403.3287713379
3 JALAN KEMAMAN VERTICUS SINGAPORE 329343,3,VERTICUS,1.32635638132432,103.850660162189,103.850660162189,329343,JALAN KEMAMAN,VERTICUS,29929.9424606357,34287.2734218221
1 JALAN DUSUN ONE DUSUN RESIDENCES SINGAPORE 329363,1,ONE DUSUN RESIDENCES,1.32696539864482,103.84367423097,103.84367423097,329363,JALAN DUSUN,ONE DUSUN RESIDENCES,29152.4788189977,34354.6110894848
31 JALAN DUSUN GALLERY FIFTEEN SINGAPORE 329370,31,GALLERY FIFTEEN,1.32756140104682,103.843705507242,103.843705507242,329370,JALAN DUSUN,GALLERY FIFTEEN,29155.9592739092,34420.5139941853
33 JALAN DUSUN GAIA SINGAPORE 329371,33,GAIA,1.32784510851012,103.843709435735,103.843709435735,329371,JALAN DUSUN,GAIA,29156.3963435935,34451.8849129602
35 JALAN DUSUN NEW COURT SINGAPORE 329387,35,NEW COURT,1.32812868583745,103.843675063421,103.843675063421,329387,JALAN DUSUN,NEW COURT,29152.5709244721,34483.2414241768
12 JALAN DATOH SIN GUAN HIN MANSIONS SINGAPORE 329410,12,SIN GUAN HIN MANSIONS,1.32704549938529,103.843160832884,103.843160832884,329410,JALAN DATOH,SIN GUAN HIN MANSIONS,29095.3427936379,34363.4679858088
14 JALAN DATOH SIN GUAN HIN MANSIONS SINGAPORE 329411,14,SIN GUAN HIN MANSIONS,1.32704042052902,103.843164719106,103.843164719106,329411,JALAN DATOH,SIN GUAN HIN MANSIONS,29095.7752928576,34362.9063936397
18 JALAN DATOH THE CITRINE SINGAPORE 329415,18,THE CITRINE,1.32733516756517,103.843323869087,103.843323869087,329415,JALAN DATOH,THE CITRINE,29113.486936477,34395.4980807342
26 JALAN DATOH VISTA RESIDENCES SINGAPORE 329425,26,VISTA RESIDENCES,1.32792812694096,103.843273141429,103.843273141429,329425,JALAN DATOH,VISTA RESIDENCES,29107.8412008146,34461.0644659903
28 JALAN DATOH VISTA RESIDENCES SINGAPORE 329426,28,VISTA RESIDENCES,1.32860656574185,103.843283395132,103.843283395132,329426,JALAN DATOH,VISTA RESIDENCES,29108.9820313882,34536.0827555954
3 JALAN AMPAS BIRCHWOOD MANSIONS SINGAPORE 329504,3,BIRCHWOOD MANSIONS,1.32594687231998,103.850839479307,103.850839479307,329504,JALAN AMPAS,BIRCHWOOD MANSIONS,29949.8989595361,34241.9921549652
4 JALAN AMPAS BALESTIER REGENCY SINGAPORE 329505,4,BALESTIER REGENCY,1.32532360161851,103.851776439038,103.851776439038,329505,JALAN AMPAS,BALESTIER REGENCY,30054.173616305,34173.0748314988
5 JALAN AMPAS AMPAS APARTMENTS SINGAPORE 329506,5,AMPAS APARTMENTS,1.32619487244445,103.851066785455,103.851066785455,329506,JALAN AMPAS,AMPAS APARTMENTS,29975.1956388038,34269.4149179459
6 JALAN AMPAS THE VIRIDIAN SINGAPORE 329507,6,THE VIRIDIAN,1.32601051852888,103.851626759554,103.851626759554,329507,JALAN AMPAS,THE VIRIDIAN,30037.5152379824,34249.0304600224
8 JALAN AMPAS SINGAPORE 329508,8,NIL,1.32656828606704,103.851437151043,103.851437151043,329508,JALAN AMPAS,8 JALAN AMPAS SINGAPORE 329508,30016.4132775068,34310.7053814176
10 JALAN AMPAS TAI PEI OLD PEOPLE'S HOME SINGAPORE 329510,10,TAI PEI OLD PEOPLE'S HOME,1.32689334109035,103.851596049253,103.851596049253,329510,JALAN AMPAS,TAI PEI OLD PEOPLE'S HOME,30034.0967719015,34346.6484304741
10A JALAN AMPAS SINGAPORE 329511,10A,NIL,1.32582666764496,103.851857517192,103.851857517192,329511,JALAN AMPAS,10A JALAN AMPAS SINGAPORE 329511,30063.1963811796,34228.7013622429
10B JALAN AMPAS SINGAPORE 329512,10B,NIL,1.32574410849493,103.851957375995,103.851957375995,329512,JALAN AMPAS,10B JALAN AMPAS SINGAPORE 329512,30074.3097254206,34219.5724778175
10C JALAN AMPAS HO SENG LEE FLATTED WAREHOUSE SINGAPORE 329513,10C,HO SENG LEE FLATTED WAREHOUSE,1.32559382728485,103.852198517269,103.852198517269,329513,JALAN AMPAS,HO SENG LEE FLATTED WAREHOUSE,30101.1464397004,34202.9553547576
11 JALAN AMPAS FEEHA CHENG SEAH TEMPLE & OLD FOLKS HOME SINGAPORE 329514,11,FEEHA CHENG SEAH TEMPLE & OLD FOLKS HOME,1.3272172780628,103.851879290107,103.851879290107,329514,JALAN AMPAS,FEEHA CHENG SEAH TEMPLE & OLD FOLKS HOME,30065.6183344321,34382.4679558873
12 JALAN AMPAS SINGAPORE 329515,12,NIL,1.32702370137171,103.852295302831,103.852295302831,329515,JALAN AMPAS,12 JALAN AMPAS SINGAPORE 329515,30111.9164844705,34361.0635879859
12A JALAN AMPAS BALESTIER WAREHOUSE SINGAPORE 329516,12A,BALESTIER WAREHOUSE,1.32643222234217,103.852110758053,103.852110758053,329516,JALAN AMPAS,BALESTIER WAREHOUSE,30091.3790218905,34295.6607103776
9B JALAN AMPAS SINGAPORE 329517,9B,NIL,1.32587002493884,103.852894056214,103.852894056214,329517,JALAN AMPAS,9B JALAN AMPAS SINGAPORE 329517,30178.5526613435,34233.4964767601
6 IRRAWADDY ROAD IBIS SINGAPORE NOVENA SINGAPORE 329543,6,IBIS SINGAPORE NOVENA,1.32618265008736,103.845570157182,103.845570157182,329543,IRRAWADDY ROAD,IBIS SINGAPORE NOVENA,29363.4765702747,34268.0597295109
20 IRRAWADDY ROAD IRESIDENCES SINGAPORE 329550,20,IRESIDENCES,1.32526434675063,103.845622069281,103.845622069281,329550,IRRAWADDY ROAD,IRESIDENCES,29369.2543651508,34166.5184835456
53 IRRAWADDY ROAD THE CENTRIO SINGAPORE 329552,53,THE CENTRIO,1.32531433133887,103.846132850377,103.846132850377,329552,IRRAWADDY ROAD,THE CENTRIO,29426.0991217028,34172.0458108578
61 IRRAWADDY ROAD CASA IRRAWADDY SINGAPORE 329557,61,CASA IRRAWADDY,1.32493712413545,103.846068919286,103.846068919286,329557,IRRAWADDY ROAD,CASA IRRAWADDY,29418.9844505219,34130.3361358102
28 IRRAWADDY ROAD MINISTRY OF HOME AFFAIRS (MHA) SINGAPORE 329560,28,MINISTRY OF HOME AFFAIRS (MHA),1.32406899260785,103.845161533539,103.845161533539,329560,IRRAWADDY ROAD,MINISTRY OF HOME AFFAIRS (MHA),29318.002012074,34034.3421032224
30 IRRAWADDY ROAD NEW PHOENIX PARK SINGAPORE 329561,30,NEW PHOENIX PARK,1.32352386052999,103.844223984383,103.844223984383,329561,IRRAWADDY ROAD,NEW PHOENIX PARK,29213.6624607472,33974.0637163296
71 IRRAWADDY ROAD REN CI COMMUNITY HOSPITAL SINGAPORE 329562,71,REN CI COMMUNITY HOSPITAL,1.32284471856341,103.845976755687,103.845976755687,329562,IRRAWADDY ROAD,REN CI COMMUNITY HOSPITAL,29408.7287495993,33898.9686065838
38 IRRAWADDY ROAD 24-HOUR WALK-IN CLINIC (MOUNT ELIZABETH NOVENA HOSPITAL) SINGAPORE 329563,38,24-HOUR WALK-IN CLINIC (MOUNT ELIZABETH NOVENA HOSPITAL),1.32210979381602,103.844317495607,103.844317495607,329563,IRRAWADDY ROAD,24-HOUR WALK-IN CLINIC (MOUNT ELIZABETH NOVENA HOSPITAL),29224.0700161448,33817.7035196964
8 IRRAWADDY ROAD DOMUS SINGAPORE 329564,8,DOMUS,1.32571303801229,103.845508907095,103.845508907095,329564,IRRAWADDY ROAD,DOMUS,29356.6603111457,34216.1324003972
101 IRRAWADDY ROAD ROYAL SQUARE AT NOVENA SINGAPORE 329565,101,ROYAL SQUARE AT NOVENA,1.32057156550961,103.843219261065,103.843219261065,329565,IRRAWADDY ROAD,ROYAL SQUARE AT NOVENA,29101.8481097706,33647.6136143077
103 IRRAWADDY ROAD ROYAL SQUARE AT NOVENA SINGAPORE 329566,103,ROYAL SQUARE AT NOVENA,1.32057156550961,103.843219261065,103.843219261065,329566,IRRAWADDY ROAD,ROYAL SQUARE AT NOVENA,29101.8481097706,33647.6136143077
99 IRRAWADDY ROAD COURTYARD BY MARRIOTT SINGAPORE NOVENA SINGAPORE 329568,99,COURTYARD BY MARRIOTT SINGAPORE NOVENA,1.32069730783468,103.843467920576,103.843467920576,329568,IRRAWADDY ROAD,COURTYARD BY MARRIOTT SINGAPORE NOVENA,29129.5214008512,33661.5176666491
1A BOON TECK ROAD THONG TECK SIAN TONG LIAN SIN SIA TEMPLE SINGAPORE 329578,1A,THONG TECK SIAN TONG LIAN SIN SIA TEMPLE,1.32637189006532,103.849390963777,103.849390963777,329578,BOON TECK ROAD,THONG TECK SIAN TONG LIAN SIN SIA TEMPLE,29788.6935246047,34288.9873463996
9 BOON TECK ROAD VA RESIDENCES SINGAPORE 329583,9,VA RESIDENCES,1.32672666436714,103.84968009627,103.84968009627,329583,BOON TECK ROAD,VA RESIDENCES,29820.8707824666,34328.2166812532
11 BOON TECK ROAD SUMMER GREEN SINGAPORE 329585,11,SUMMER GREEN,1.32697070112982,103.84971650708,103.84971650708,329585,BOON TECK ROAD,SUMMER GREEN,29824.9227574468,34355.2010427564
12 BOON TECK ROAD BALESTIER STUDENTS' HOSTEL SINGAPORE 329586,12,BALESTIER STUDENTS' HOSTEL,1.32614577564978,103.849610168417,103.849610168417,329586,BOON TECK ROAD,BALESTIER STUDENTS' HOSTEL,29813.0889443895,34263.9849324711
16 BOON TECK ROAD SINGAPORE 329589,16,NIL,1.32655586898725,103.849965432109,103.849965432109,329589,BOON TECK ROAD,16 BOON TECK ROAD SINGAPORE 329589,29852.6258927602,34309.3312149569
18 BOON TECK ROAD SINGAPORE 329591,18,NIL,1.32660131386768,103.850003699744,103.850003699744,329591,BOON TECK ROAD,18 BOON TECK ROAD SINGAPORE 329591,29856.8846586049,34314.3563056123
20 BOON TECK ROAD SINGAPORE 329593,20,NIL,1.32664656139317,103.850040922453,103.850040922453,329593,BOON TECK ROAD,20 BOON TECK ROAD SINGAPORE 329593,29861.0271348562,34319.3595730532
22 BOON TECK ROAD SINGAPORE 329595,22,NIL,1.32669160005876,103.850078301547,103.850078301547,329595,BOON TECK ROAD,22 BOON TECK ROAD SINGAPORE 329595,29865.1870151991,34324.3397460226
24 BOON TECK ROAD SINGAPORE 329597,24,NIL,1.32673699320864,103.850115573216,103.850115573216,329597,BOON TECK ROAD,24 BOON TECK ROAD SINGAPORE 329597,29869.3349396875,34329.3591160309
26 BOON TECK ROAD SINGAPORE 329598,26,NIL,1.32678310244861,103.850152053445,103.850152053445,329598,BOON TECK ROAD,26 BOON TECK ROAD SINGAPORE 329598,29873.3947843434,34334.4576670825
27 BOON TECK ROAD KINGSLEY MANSIONS SINGAPORE 329599,27,KINGSLEY MANSIONS,1.32719478492029,103.84988000351,103.84988000351,329599,BOON TECK ROAD,KINGSLEY MANSIONS,29843.1180834472,34379.9792011958
28 BOON TECK ROAD SINGAPORE 329600,28,NIL,1.32685871085738,103.85021859384,103.85021859384,329600,BOON TECK ROAD,28 BOON TECK ROAD SINGAPORE 329600,29880.7999978997,34342.8181079384
30 BOON TECK ROAD SINGAPORE 329601,30,NIL,1.32690399451972,103.850254716965,103.850254716965,329601,BOON TECK ROAD,30 BOON TECK ROAD SINGAPORE 329601,29884.820100693,34347.8253707513
31 BOON TECK ROAD D'MIRA SINGAPORE 329602,31,D'MIRA,1.32751838640442,103.849853998922,103.849853998922,329602,BOON TECK ROAD,D'MIRA,29840.2237983076,34415.7613759171
32 BOON TECK ROAD SINGAPORE 329603,32,NIL,1.32694947417426,103.8502908439,103.8502908439,329603,BOON TECK ROAD,32 BOON TECK ROAD SINGAPORE 329603,29888.8406272382,34352.8543054424
34 BOON TECK ROAD SINGAPORE 329604,34,NIL,1.3269944788984,103.850327431558,103.850327431558,329604,BOON TECK ROAD,34 BOON TECK ROAD SINGAPORE 329604,29892.9124277476,34357.8307251818
36 BOON TECK ROAD SINGAPORE 329605,36,NIL,1.3270397299831,103.850363804903,103.850363804903,329605,BOON TECK ROAD,36 BOON TECK ROAD SINGAPORE 329605,29896.960377086,34362.8343861066
38 BOON TECK ROAD SINGAPORE 329606,38,NIL,1.32708456143154,103.850400624285,103.850400624285,329606,BOON TECK ROAD,38 BOON TECK ROAD SINGAPORE 329606,29901.0579659175,34367.7916462105
40 BOON TECK ROAD SINGAPORE 329607,40,NIL,1.32712827713341,103.85043897406,103.85043897406,329607,BOON TECK ROAD,40 BOON TECK ROAD SINGAPORE 329607,29905.3258726941,34372.6255340148
41 BOON TECK ROAD BOON TECK TOWER SINGAPORE 329608,41,BOON TECK TOWER,1.32771850493034,103.850327771845,103.850327771845,329608,BOON TECK ROAD,BOON TECK TOWER,29892.9497481715,34437.8898145258
42 BOON TECK ROAD BOON TECK APARTMENTS SINGAPORE 329609,42,BOON TECK APARTMENTS,1.3271864871616,103.850648468442,103.850648468442,329609,BOON TECK ROAD,BOON TECK APARTMENTS,29928.6404227801,34379.0622628964
46 BOON TECK ROAD BOON TECK LODGE SINGAPORE 329610,46,BOON TECK LODGE,1.32769210794585,103.850925051742,103.850925051742,329610,BOON TECK ROAD,BOON TECK LODGE,29959.4209342655,34434.9714360721
8 BHAMO ROAD NOVA 88 SINGAPORE 329640,8,NOVA 88,1.32472684199302,103.849470225477,103.849470225477,329640,BHAMO ROAD,NOVA 88,29797.5157338185,34107.0864197463
49 BALESTIER ROAD SINGAPORE 329676,49,NIL,1.31742079017681,103.856319269919,103.856319269919,329676,BALESTIER ROAD,49 BALESTIER ROAD SINGAPORE 329676,30559.7529754443,33299.2266700156
69 BALESTIER ROAD SINGAPORE INDIAN ASSOCIATION SINGAPORE 329677,69,SINGAPORE INDIAN ASSOCIATION,1.31796409799034,103.85539157318,103.85539157318,329677,BALESTIER ROAD,SINGAPORE INDIAN ASSOCIATION,30456.5088224486,33359.3019284699
101 BALESTIER ROAD CEYLON SPORTS CLUB SINGAPORE 329678,101,CEYLON SPORTS CLUB,1.31856090975493,103.85437832969,103.85437832969,329678,BALESTIER ROAD,CEYLON SPORTS CLUB,30343.7441475866,33425.2933367528
120 BALESTIER ROAD BALESTIER ROAD SEVENTH-DAY ADVENTIST CHURCH SINGAPORE 329680,120,BALESTIER ROAD SEVENTH-DAY ADVENTIST CHURCH,1.3194793262088,103.854276707693,103.854276707693,329680,BALESTIER ROAD,BALESTIER ROAD SEVENTH-DAY ADVENTIST CHURCH,30332.433758771,33526.8470228594
126 BALESTIER ROAD SINGAPORE 329681,126,NIL,1.31940607066815,103.853945651921,103.853945651921,329681,BALESTIER ROAD,126 BALESTIER ROAD SINGAPORE 329681,30295.5905701462,33518.7464931812
205 BALESTIER ROAD THE MEZZO SINGAPORE 329682,205,THE MEZZO,1.32052452699851,103.852447326986,103.852447326986,329682,BALESTIER ROAD,THE MEZZO,30128.8407670297,33642.4183267783
207 BALESTIER ROAD BT CENTRE SINGAPORE 329683,207,BT CENTRE,1.32096801809249,103.852347509769,103.852347509769,329683,BALESTIER ROAD,BT CENTRE,30117.7317208415,33691.4572124742
218 BALESTIER ROAD OCBC BALESTIER ROAD - CHEERS SINGAPORE 329684,218,OCBC BALESTIER ROAD - CHEERS,1.32123950376739,103.853272653334,103.853272653334,329684,BALESTIER ROAD,OCBC BALESTIER ROAD - CHEERS,30220.690809967,33721.4775132816
226 BALESTIER ROAD HOTEL 81 - BALESTIER SINGAPORE 329688,226,HOTEL 81 - BALESTIER,1.32137962748279,103.853123733593,103.853123733593,329688,BALESTIER ROAD,HOTEL 81 - BALESTIER,30204.1173938746,33736.9715428054
228 BALESTIER ROAD SINGAPORE 329690,228,NIL,1.32146463360273,103.853089360863,103.853089360863,329690,BALESTIER ROAD,228 BALESTIER ROAD SINGAPORE 329690,30200.2919747522,33746.3710532729
230 BALESTIER ROAD SINGAPORE 329692,230,NIL,1.32153748439029,103.853082659461,103.853082659461,329692,BALESTIER ROAD,230 BALESTIER ROAD SINGAPORE 329692,30199.5461110976,33754.4265139233
232 BALESTIER ROAD SINGAPORE 329694,232,NIL,1.32151329292318,103.853292555021,103.853292555021,329694,BALESTIER ROAD,232 BALESTIER ROAD SINGAPORE 329694,30222.9054275313,33751.7517322022
234 BALESTIER ROAD SINGAPORE 329698,234,NIL,1.32152152138944,103.853353432606,103.853353432606,329698,BALESTIER ROAD,234 BALESTIER ROAD SINGAPORE 329698,30229.6804919345,33752.6616483293
235 BALESTIER ROAD CITY SUITES SINGAPORE 329699,235,CITY SUITES,1.3212914342901,103.852179456118,103.852179456118,329699,BALESTIER ROAD,CITY SUITES,30099.0287402188,33727.2187747005
236 BALESTIER ROAD SINGAPORE 329700,236,NIL,1.32146425343621,103.853422515658,103.853422515658,329700,BALESTIER ROAD,236 BALESTIER ROAD SINGAPORE 329700,30237.368801943,33746.3293137234
238 BALESTIER ROAD URBAN HERITAGE SINGAPORE 329701,238,URBAN HERITAGE,1.32184413934142,103.853334117435,103.853334117435,329701,BALESTIER ROAD,URBAN HERITAGE,30227.5306175873,33788.3350701872
246 BALESTIER ROAD SINGAPORE 329706,246,NIL,1.32170313862912,103.853069618811,103.853069618811,329706,BALESTIER ROAD,246 BALESTIER ROAD SINGAPORE 329706,30198.0946704745,33772.7436988261
248 BALESTIER ROAD SINGAPORE 329707,248,NIL,1.32182789582469,103.853053452857,103.853053452857,329707,BALESTIER ROAD,248 BALESTIER ROAD SINGAPORE 329707,30196.2954507181,33786.5386956204
249 BALESTIER ROAD WU CAO DA BO GONG GONG SINGAPORE 329708,249,WU CAO DA BO GONG GONG,1.32176544382988,103.852615928671,103.852615928671,329708,BALESTIER ROAD,WU CAO DA BO GONG GONG,30147.6034058481,33779.6326919198
250 BALESTIER ROAD SINGAPORE 329709,250,NIL,1.32189749682295,103.853050720341,103.853050720341,329709,BALESTIER ROAD,250 BALESTIER ROAD SINGAPORE 329709,30195.9912877502,33794.2348147687
255 BALESTIER ROAD FRAGRANCE HOTEL - BALESTIER SINGAPORE 329710,255,FRAGRANCE HOTEL - BALESTIER,1.3219735790612,103.852659078106,103.852659078106,329710,BALESTIER ROAD,FRAGRANCE HOTEL - BALESTIER,30152.4053306617,33802.6472560205
262 BALESTIER ROAD OKIO SINGAPORE 329714,262,OKIO,1.32213331175281,103.85321681526,103.85321681526,329714,BALESTIER ROAD,OKIO,30214.4757940667,33820.3101681862
263 BALESTIER ROAD FRAGRANCE HOTEL - ROSE SINGAPORE 329715,263,FRAGRANCE HOTEL - ROSE,1.32207178750752,103.852564812466,103.852564812466,329715,BALESTIER ROAD,FRAGRANCE HOTEL - ROSE,30141.914417237,33813.5065610744
265 BALESTIER ROAD HOTEL 81 - FUJI SINGAPORE 329716,265,HOTEL 81 - FUJI,1.32218489012135,103.852599824528,103.852599824528,329716,BALESTIER ROAD,HOTEL 81 - FUJI,30145.8108147811,33826.0128984619
266 BALESTIER ROAD SINGAPORE 329717,266,NIL,1.32231979316282,103.853007849715,103.853007849715,329717,BALESTIER ROAD,266 BALESTIER ROAD SINGAPORE 329717,30191.2198427971,33840.9301412888
268 BALESTIER ROAD SINGAPORE 329719,268,NIL,1.32238308030042,103.85299717388,103.85299717388,329719,BALESTIER ROAD,268 BALESTIER ROAD SINGAPORE 329719,30190.0316730961,33847.9280991238
269 BALESTIER ROAD DBS CHEERS BALESTIER ROAD SINGAPORE 329720,269,DBS CHEERS BALESTIER ROAD,1.32218489201971,103.852602097686,103.852602097686,329720,BALESTIER ROAD,DBS CHEERS BALESTIER ROAD,30146.0637945887,33826.0131103378
270 BALESTIER ROAD SINGAPORE 329721,270,NIL,1.3224290792519,103.852990974869,103.852990974869,329721,BALESTIER ROAD,270 BALESTIER ROAD SINGAPORE 329721,30189.3417446753,33853.0144219119
271 BALESTIER ROAD VICTORY POINT SINGAPORE 329722,271,VICTORY POINT,1.32242229055037,103.852590390225,103.852590390225,329722,BALESTIER ROAD,VICTORY POINT,30144.7606670856,33852.263412701
272 BALESTIER ROAD SINGAPORE 329723,272,NIL,1.32249034594789,103.852982654855,103.852982654855,329723,BALESTIER ROAD,272 BALESTIER ROAD SINGAPORE 329723,30188.4157562498,33859.7889717594
275 BALESTIER ROAD SINGAPORE 329725,275,NIL,1.32250555348768,103.852526478095,103.852526478095,329725,BALESTIER ROAD,275 BALESTIER ROAD SINGAPORE 329725,30137.6478119837,33861.4701463804
277 BALESTIER ROAD SINGAPORE 329726,277,NIL,1.32255488735647,103.852516399938,103.852516399938,329726,BALESTIER ROAD,277 BALESTIER ROAD SINGAPORE 329726,30136.5261713117,33866.9252240136
279 BALESTIER ROAD BALESTIER POINT SINGAPORE 329727,279,BALESTIER POINT,1.32270446906334,103.85197105916,103.85197105916,329727,BALESTIER ROAD,BALESTIER POINT,30075.8350501927,33883.4647399634
288 BALESTIER ROAD BALESTIER 288 SINGAPORE 329731,288,BALESTIER 288,1.32297405552945,103.852814990816,103.852814990816,329731,BALESTIER ROAD,BALESTIER 288,30169.7559983078,33913.2749506943
290 BALESTIER ROAD SINGAPORE 329732,290,NIL,1.32306586202927,103.852706284639,103.852706284639,329732,BALESTIER ROAD,290 BALESTIER ROAD SINGAPORE 329732,30157.6580062872,33923.4263481461
292 BALESTIER ROAD SINGAPORE 329733,292,NIL,1.32309484847011,103.852666289737,103.852666289737,329733,BALESTIER ROAD,292 BALESTIER ROAD SINGAPORE 329733,30153.2069479423,33926.6314854771
294 BALESTIER ROAD SINGAPORE 329734,294,NIL,1.32313458929541,103.852630646228,103.852630646228,329734,BALESTIER ROAD,294 BALESTIER ROAD SINGAPORE 329734,30149.2401470682,33931.0257913545
296 BALESTIER ROAD SINGAPORE 329735,296,NIL,1.3231659464302,103.852604172254,103.852604172254,329735,BALESTIER ROAD,296 BALESTIER ROAD SINGAPORE 329735,30146.2938312646,33934.4930796921
298 BALESTIER ROAD SINGAPORE 329736,298,NIL,1.32322070625441,103.85259136624,103.85259136624,329736,BALESTIER ROAD,298 BALESTIER ROAD SINGAPORE 329736,30144.8686027154,33940.5481292997
300 BALESTIER ROAD SINGAPORE 329737,300,NIL,1.32323664827983,103.852544285496,103.852544285496,329737,BALESTIER ROAD,300 BALESTIER ROAD SINGAPORE 329737,30139.62897259,33942.3108761348
302 BALESTIER ROAD VALUE HOTEL - NICE SINGAPORE 329738,302,VALUE HOTEL - NICE,1.32334494773729,103.852504386389,103.852504386389,329738,BALESTIER ROAD,VALUE HOTEL - NICE,30135.1885080393,33954.2860406768
308 BALESTIER ROAD SINGAPORE 329741,308,NIL,1.32338173833329,103.852424863659,103.852424863659,329741,BALESTIER ROAD,308 BALESTIER ROAD SINGAPORE 329741,30126.3383917436,33958.3540879563
310 BALESTIER ROAD SINGAPORE 329742,310,NIL,1.3234229080628,103.852386398967,103.852386398967,329742,BALESTIER ROAD,310 BALESTIER ROAD SINGAPORE 329742,30122.0576210748,33962.9063927084
312 BALESTIER ROAD SINGAPORE 329743,312,NIL,1.32353610446396,103.852399504897,103.852399504897,329743,BALESTIER ROAD,312 BALESTIER ROAD SINGAPORE 329743,30123.5160838701,33975.4230817463
315 BALESTIER ROAD SINGAPORE 329745,315,NIL,1.32362597011657,103.851721020762,103.851721020762,329745,BALESTIER ROAD,315 BALESTIER ROAD SINGAPORE 329745,30048.0075134663,33985.3593949061
317 BALESTIER ROAD SINGAPORE 329746,317,NIL,1.32366865136523,103.851685670984,103.851685670984,329746,BALESTIER ROAD,317 BALESTIER ROAD SINGAPORE 329746,30044.0734020146,33990.0788394623
319 BALESTIER ROAD SINGAPORE 329747,319,NIL,1.32370558114506,103.851659173372,103.851659173372,329747,BALESTIER ROAD,319 BALESTIER ROAD SINGAPORE 329747,30041.1244528973,33994.1623234134
321 BALESTIER ROAD SINGAPORE 329748,321,NIL,1.32374623789741,103.851619341717,103.851619341717,329748,BALESTIER ROAD,321 BALESTIER ROAD SINGAPORE 329748,30036.6915553417,33998.6579059642
325 BALESTIER ROAD SINGAPORE 329754,325,NIL,1.32379710581798,103.85152766944,103.85152766944,329754,BALESTIER ROAD,325 BALESTIER ROAD SINGAPORE 329754,30026.4893076783,34004.282544842
326 BALESTIER ROAD SINGAPORE 329758,326,NIL,1.32379373211036,103.852068847387,103.852068847387,329758,BALESTIER ROAD,326 BALESTIER ROAD SINGAPORE 329758,30086.7169956984,34003.9099459611
328 BALESTIER ROAD SINGAPORE 329760,328,NIL,1.3238382867713,103.852036230422,103.852036230422,329760,BALESTIER ROAD,328 BALESTIER ROAD SINGAPORE 329760,30083.0870169476,34008.8365445994
329 BALESTIER ROAD SINGAPORE 329761,329,NIL,1.32389817546106,103.851482907604,103.851482907604,329761,BALESTIER ROAD,329 BALESTIER ROAD SINGAPORE 329761,30021.5076818457,34015.4582713973
330 BALESTIER ROAD SINGAPORE 329762,330,NIL,1.32389123579211,103.851994841268,103.851994841268,329762,BALESTIER ROAD,330 BALESTIER ROAD SINGAPORE 329762,30078.4807746494,34014.6913412269
332 BALESTIER ROAD SINGAPORE 329764,332,NIL,1.32392900269158,103.851962908263,103.851962908263,329764,BALESTIER ROAD,332 BALESTIER ROAD SINGAPORE 329764,30074.9269198766,34018.8673846722
333 BALESTIER ROAD SINGAPORE 329765,333,NIL,1.32398269674742,103.851415257669,103.851415257669,329765,BALESTIER ROAD,333 BALESTIER ROAD SINGAPORE 329765,30013.9788538441,34024.8041469976
334 BALESTIER ROAD SINGAPORE 329766,334,NIL,1.32398134035922,103.851935604093,103.851935604093,329766,BALESTIER ROAD,334 BALESTIER ROAD SINGAPORE 329766,30071.8881959198,34024.6545928903
336 BALESTIER ROAD SINGAPORE 329768,336,NIL,1.32401286130914,103.851891849417,103.851891849417,329768,BALESTIER ROAD,336 BALESTIER ROAD SINGAPORE 329768,30067.0187129667,34028.139981484
338 BALESTIER ROAD SINGAPORE 329770,338,NIL,1.32406520992577,103.851864488945,103.851864488945,329770,BALESTIER ROAD,338 BALESTIER ROAD SINGAPORE 329770,30063.9737235373,34033.9284004215
340 BALESTIER ROAD SINGAPORE 329772,340,NIL,1.32409730023278,103.851821548833,103.851821548833,329772,BALESTIER ROAD,340 BALESTIER ROAD SINGAPORE 329772,30059.1948931962,34037.4767464213
341 BALESTIER ROAD CHELSEA GROVE SINGAPORE 329773,341,CHELSEA GROVE,1.3241725848685,103.851208721132,103.851208721132,329773,BALESTIER ROAD,CHELSEA GROVE,29990.9932562048,34045.8008354269
342 BALESTIER ROAD SINGAPORE 329774,342,NIL,1.32416941474156,103.851769354283,103.851769354283,329774,BALESTIER ROAD,342 BALESTIER ROAD SINGAPORE 329774,30053.3861039048,34045.4507559277
346 BALESTIER ROAD RITZ MANSION SINGAPORE 329776,346,RITZ MANSION,1.32528558701147,103.852835009842,103.852835009842,329776,BALESTIER ROAD,RITZ MANSION,30171.9819058301,34168.8722732998
347 BALESTIER ROAD NEW ORCHID HOTEL SINGAPORE 329777,347,NEW ORCHID HOTEL,1.32429128791041,103.851039424924,103.851039424924,329777,BALESTIER ROAD,NEW ORCHID HOTEL,29972.1521930406,34058.9262741543
348 BALESTIER ROAD PRESTIGE HEIGHTS SINGAPORE 329778,348,PRESTIGE HEIGHTS,1.32532977793951,103.852411690265,103.852411690265,329778,BALESTIER ROAD,PRESTIGE HEIGHTS,30124.8706669454,34173.75831284
350 BALESTIER ROAD SHAW PLAZA - TWIN HEIGHTS SINGAPORE 329779,350,SHAW PLAZA - TWIN HEIGHTS,1.32471984327386,103.851722813244,103.851722813244,329779,BALESTIER ROAD,SHAW PLAZA - TWIN HEIGHTS,30048.2061017072,34106.3142834809
352 BALESTIER ROAD SHAW PLAZA - TWIN HEIGHTS SINGAPORE 329780,352,SHAW PLAZA - TWIN HEIGHTS,1.32497382746308,103.851426970348,103.851426970348,329780,BALESTIER ROAD,SHAW PLAZA - TWIN HEIGHTS,30015.2815575954,34134.3983111009
355 BALESTIER ROAD THE INITIAL RESIDENCE SINGAPORE 329782,355,THE INITIAL RESIDENCE,1.32441492849063,103.850876401816,103.850876401816,329782,BALESTIER ROAD,THE INITIAL RESIDENCE,29954.0092609208,34072.5976867713
360 BALESTIER ROAD SINGAPORE 329783,360,NIL,1.32525301846661,103.850995830211,103.850995830211,329783,BALESTIER ROAD,360 BALESTIER ROAD SINGAPORE 329783,29967.2997812312,34165.2694751974
363 BALESTIER ROAD ORANGE VALLEY CARE CENTRE (BALESTIER) SINGAPORE 329784,363,ORANGE VALLEY CARE CENTRE (BALESTIER),1.32445579742712,103.850596256827,103.850596256827,329784,BALESTIER ROAD,ORANGE VALLEY CARE CENTRE (BALESTIER),29922.8319059005,34077.1165453997
365 BALESTIER ROAD SINGAPORE 329785,365,NIL,1.32483838650687,103.850523467503,103.850523467503,329785,BALESTIER ROAD,365 BALESTIER ROAD SINGAPORE 329785,29914.7308919346,34119.4212284703
367 BALESTIER ROAD SINGAPORE 329786,367,NIL,1.3248773092238,103.850472013529,103.850472013529,329786,BALESTIER ROAD,367 BALESTIER ROAD SINGAPORE 329786,29909.0045526307,34123.7250633426
369 BALESTIER ROAD SINGAPORE 329787,369,NIL,1.32491491140831,103.850426859553,103.850426859553,329787,BALESTIER ROAD,369 BALESTIER ROAD SINGAPORE 329787,29903.9793409025,34127.8828854617
371 BALESTIER ROAD SINGAPORE 329788,371,NIL,1.3249548635785,103.850383246597,103.850383246597,329788,BALESTIER ROAD,371 BALESTIER ROAD SINGAPORE 329788,29899.1256275699,34132.3005582225
373 BALESTIER ROAD SINGAPORE 329789,373,NIL,1.32498362287254,103.850330377196,103.850330377196,329789,BALESTIER ROAD,373 BALESTIER ROAD SINGAPORE 329789,29893.2417736789,34135.480573127
375 BALESTIER ROAD SINGAPORE 329790,375,NIL,1.32502425601792,103.850297014404,103.850297014404,329790,BALESTIER ROAD,375 BALESTIER ROAD SINGAPORE 329790,29889.5288001159,34139.9735526294
377 BALESTIER ROAD SINGAPORE 329791,377,NIL,1.32505042950485,103.850262203522,103.850262203522,329791,BALESTIER ROAD,377 BALESTIER ROAD SINGAPORE 329791,29885.6546798078,34142.867656162
379 BALESTIER ROAD SINGAPORE 329792,379,NIL,1.32507663747869,103.850227817192,103.850227817192,329792,BALESTIER ROAD,379 BALESTIER ROAD SINGAPORE 329792,29881.8278078232,34145.7655734587
381 BALESTIER ROAD SINGAPORE 329793,381,NIL,1.32513417802472,103.8501923769,103.8501923769,329793,BALESTIER ROAD,381 BALESTIER ROAD SINGAPORE 329793,29877.8836171329,34152.1280852444
383 BALESTIER ROAD SINGAPORE 329794,383,NIL,1.32517140722777,103.850129410509,103.850129410509,329794,BALESTIER ROAD,383 BALESTIER ROAD SINGAPORE 329794,29870.8760643462,34156.2446521018
387 BALESTIER ROAD REDDOORZ PREMIUM @ BALESTIER SINGAPORE 329795,387,REDDOORZ PREMIUM @ BALESTIER,1.32522194223134,103.849916711001,103.849916711001,329795,BALESTIER ROAD,REDDOORZ PREMIUM @ BALESTIER,29847.2047152687,34161.8323943075
389 BALESTIER ROAD SINGAPORE 329796,389,NIL,1.32525286197724,103.849839768624,103.849839768624,329796,BALESTIER ROAD,389 BALESTIER ROAD SINGAPORE 329796,29838.641781603,34165.2512841392
391 BALESTIER ROAD SINGAPORE 329797,391,NIL,1.32528111207622,103.849792921531,103.849792921531,329797,BALESTIER ROAD,391 BALESTIER ROAD SINGAPORE 329797,29833.4281516755,34168.375000596
393 BALESTIER ROAD SINGAPORE 329798,393,NIL,1.32530922776653,103.84974681067,103.84974681067,329798,BALESTIER ROAD,393 BALESTIER ROAD SINGAPORE 329798,29828.2964571798,34171.483855471
395 BALESTIER ROAD SINGAPORE 329799,395,NIL,1.32533758434354,103.849700306263,103.849700306263,329799,BALESTIER ROAD,395 BALESTIER ROAD SINGAPORE 329799,29823.1209649127,34174.6193461716
397 BALESTIER ROAD SINGAPORE 329800,397,NIL,1.32536369301898,103.849654705338,103.849654705338,329800,BALESTIER ROAD,397 BALESTIER ROAD SINGAPORE 329800,29818.0460228864,34177.5062761921
399 BALESTIER ROAD SINGAPORE 329801,399,NIL,1.32549666542296,103.849520308253,103.849520308253,329801,BALESTIER ROAD,399 BALESTIER ROAD SINGAPORE 329801,29803.088886857,34192.2095849104
400 BALESTIER ROAD BALESTIER PLAZA SINGAPORE 329802,400,BALESTIER PLAZA,1.3257440908954,103.850382551117,103.850382551117,329802,BALESTIER ROAD,BALESTIER PLAZA,29899.047626975,34219.5692694113
401 BALESTIER ROAD SINGAPORE 329803,401,NIL,1.32551046140495,103.849460896393,103.849460896393,329803,BALESTIER ROAD,401 BALESTIER ROAD SINGAPORE 329803,29796.4769366179,34193.7350307535
403 BALESTIER ROAD SINGAPORE 329804,403,NIL,1.3255279112005,103.849397205043,103.849397205043,329804,BALESTIER ROAD,403 BALESTIER ROAD SINGAPORE 329804,29789.3887196546,34195.6644936427
412 BALESTIER ROAD SINGAPORE 329805,412,NIL,1.3258354879741,103.849720419035,103.849720419035,329805,BALESTIER ROAD,412 BALESTIER ROAD SINGAPORE 329805,29825.3589493604,34229.6749924757
414 BALESTIER ROAD SINGAPORE 329806,414,NIL,1.3258354879741,103.849720418491,103.849720418491,329806,BALESTIER ROAD,414 BALESTIER ROAD SINGAPORE 329806,29825.3588888245,34229.6749924757
418 BALESTIER ROAD FRAGRANCE HOTEL - CLASSIC SINGAPORE 329808,418,FRAGRANCE HOTEL - CLASSIC,1.32586440413744,103.849621066763,103.849621066763,329808,BALESTIER ROAD,FRAGRANCE HOTEL - CLASSIC,29814.3020246401,34232.8723206669
424 BALESTIER ROAD GIFFARD MANSIONS SINGAPORE 329810,424,GIFFARD MANSIONS,1.32619717807328,103.84910065649,103.84910065649,329810,BALESTIER ROAD,GIFFARD MANSIONS,29756.3853879804,34269.6683820412
429 BALESTIER ROAD SINGAPORE 329811,429,NIL,1.32584313226818,103.848697894668,103.848697894668,329811,BALESTIER ROAD,429 BALESTIER ROAD SINGAPORE 329811,29711.5623178612,34230.5195297562
431 BALESTIER ROAD SINGAPORE 329812,431,NIL,1.32584313199445,103.848697894396,103.848697894396,329812,BALESTIER ROAD,431 BALESTIER ROAD SINGAPORE 329812,29711.5622875933,34230.5194994882
432 BALESTIER ROAD PUBLIC MANSIONS SINGAPORE 329813,432,PUBLIC MANSIONS,1.32640299982338,103.848659877472,103.848659877472,329813,BALESTIER ROAD,PUBLIC MANSIONS,29707.3310050778,34292.4267881941
434 BALESTIER ROAD PUBLIC MANSIONS SINGAPORE 329815,434,PUBLIC MANSIONS,1.32632314040458,103.848751985971,103.848751985971,329815,BALESTIER ROAD,PUBLIC MANSIONS,29717.581802587,34283.5964066237
435 BALESTIER ROAD FRAGRANCE HOTEL - OASIS SINGAPORE 329816,435,FRAGRANCE HOTEL - OASIS,1.32588859492762,103.848609915903,103.848609915903,329816,BALESTIER ROAD,FRAGRANCE HOTEL - OASIS,29701.7711396851,34235.5464970283
436 BALESTIER ROAD PUBLIC MANSIONS SINGAPORE 329817,436,PUBLIC MANSIONS,1.32632314040458,103.848751985971,103.848751985971,329817,BALESTIER ROAD,PUBLIC MANSIONS,29717.581802587,34283.5964066237
441 BALESTIER ROAD LEONG HIN BUILDING SINGAPORE 329820,441,LEONG HIN BUILDING,1.32595643169692,103.848432197734,103.848432197734,329820,BALESTIER ROAD,LEONG HIN BUILDING,29681.9928586725,34243.0474179499
444B BALESTIER ROAD PUBLIC MANSIONS SINGAPORE 329822,444B,PUBLIC MANSIONS,1.32632314040458,103.848751985971,103.848751985971,329822,BALESTIER ROAD,PUBLIC MANSIONS,29717.581802587,34283.5964066237
446 BALESTIER ROAD PUBLIC MANSIONS SINGAPORE 329824,446,PUBLIC MANSIONS,1.32632314040458,103.848751985971,103.848751985971,329824,BALESTIER ROAD,PUBLIC MANSIONS,29717.581802587,34283.5964066237
449 BALESTIER ROAD SINGAPORE 329826,449,NIL,1.32606677741085,103.848319808845,103.848319808845,329826,BALESTIER ROAD,449 BALESTIER ROAD SINGAPORE 329826,29669.4850381529,34255.2488054018
451 BALESTIER ROAD SINGAPORE 329828,451,NIL,1.32608408083303,103.84828422302,103.84828422302,329828,BALESTIER ROAD,451 BALESTIER ROAD SINGAPORE 329828,29665.5246843593,34257.1621051878
453 BALESTIER ROAD SINGAPORE 329829,453,NIL,1.3261239596532,103.848232673255,103.848232673255,329829,BALESTIER ROAD,453 BALESTIER ROAD SINGAPORE 329829,29659.7876907261,34261.5716661289
455 BALESTIER ROAD SINGAPORE 329831,455,NIL,1.32612395992693,103.848232673255,103.848232673255,329831,BALESTIER ROAD,455 BALESTIER ROAD SINGAPORE 329831,29659.7876907261,34261.5716963969
456 BALESTIER ROAD ASCENT @ 456 SINGAPORE 329832,456,ASCENT @ 456,1.32657360790909,103.848359893837,103.848359893837,329832,BALESTIER ROAD,ASCENT @ 456,29673.9457519855,34311.2915511895
457 BALESTIER ROAD SINGAPORE 329833,457,NIL,1.32617406460469,103.848132745038,103.848132745038,329833,BALESTIER ROAD,457 BALESTIER ROAD SINGAPORE 329833,29648.6666584164,34267.1119481362
459 BALESTIER ROAD SINGAPORE 329835,459,NIL,1.32617406405723,103.84813274531,103.84813274531,329835,BALESTIER ROAD,459 BALESTIER ROAD SINGAPORE 329835,29648.6666886844,34267.1118876003
461 BALESTIER ROAD SINGAPORE 329836,461,NIL,1.32617406405723,103.84813274531,103.84813274531,329836,BALESTIER ROAD,461 BALESTIER ROAD SINGAPORE 329836,29648.6666886844,34267.1118876003
462 BALESTIER ROAD DBS SPC BALESTIER ROAD SINGAPORE 329837,462,DBS SPC BALESTIER ROAD,1.32667468573121,103.848038988668,103.848038988668,329837,BALESTIER ROAD,DBS SPC BALESTIER ROAD,29638.2321947813,34322.4680041764
463 BALESTIER ROAD SINGAPORE 329838,463,NIL,1.32620508098841,103.848044855373,103.848044855373,329838,BALESTIER ROAD,463 BALESTIER ROAD SINGAPORE 329838,29638.8854081379,34270.5415225662
465 BALESTIER ROAD SINGAPORE 329839,465,NIL,1.32622527727978,103.847998607081,103.847998607081,329839,BALESTIER ROAD,465 BALESTIER ROAD SINGAPORE 329839,29633.7384283114,34272.7746944055
467 BALESTIER ROAD SINGAPORE 329840,467,NIL,1.32624500953888,103.847961454966,103.847961454966,329840,BALESTIER ROAD,467 BALESTIER ROAD SINGAPORE 329840,29629.6037611989,34274.9565620124
469 BALESTIER ROAD SINGAPORE 329841,469,NIL,1.32625530831042,103.847895488479,103.847895488479,329841,BALESTIER ROAD,469 BALESTIER ROAD SINGAPORE 329841,29622.2623525523,34276.0953040961
471 BALESTIER ROAD SINGAPORE 329842,471,NIL,1.32633320353638,103.847825011147,103.847825011147,329842,BALESTIER ROAD,471 BALESTIER ROAD SINGAPORE 329842,29614.4188888604,34284.7085128818
473 BALESTIER ROAD SINGAPORE 329843,473,NIL,1.32635986895194,103.847732407861,103.847732407861,329843,BALESTIER ROAD,473 BALESTIER ROAD SINGAPORE 329843,29604.1130641559,34287.6569777112
501 BALESTIER ROAD WAI WING CENTRE SINGAPORE 329844,501,WAI WING CENTRE,1.32622726484507,103.847002245892,103.847002245892,329844,BALESTIER ROAD,WAI WING CENTRE,29522.8535163095,34272.9938346073
505 BALESTIER ROAD SINGAPORE 329846,505,NIL,1.32636799190901,103.846876956263,103.846876956263,329846,BALESTIER ROAD,505 BALESTIER ROAD SINGAPORE 329846,29508.9099642504,34288.554635305
507 BALESTIER ROAD SINGAPORE 329847,507,NIL,1.32636560718633,103.846820128579,103.846820128579,329847,BALESTIER ROAD,507 BALESTIER ROAD SINGAPORE 329847,29502.585620393,34288.2909103632
509 BALESTIER ROAD SINGAPORE 329848,509,NIL,1.32636560718633,103.846820128307,103.846820128307,329848,BALESTIER ROAD,509 BALESTIER ROAD SINGAPORE 329848,29502.5855901251,34288.2909103632
511 BALESTIER ROAD SINGAPORE 329849,511,NIL,1.32636324326684,103.846763155934,103.846763155934,329849,BALESTIER ROAD,511 BALESTIER ROAD SINGAPORE 329849,29496.2451436995,34288.0294857882
513 BALESTIER ROAD SINGAPORE 329850,513,NIL,1.32636242446825,103.846724580999,103.846724580999,329850,BALESTIER ROAD,513 BALESTIER ROAD SINGAPORE 329850,29491.9521447653,34287.9389239792
515 BALESTIER ROAD SINGAPORE 329851,515,NIL,1.32636057836388,103.846683338262,103.846683338262,329851,BALESTIER ROAD,515 BALESTIER ROAD SINGAPORE 329851,29487.3622471783,34287.7347664293
519 BALESTIER ROAD LE SHANTIER SINGAPORE 329852,519,LE SHANTIER,1.32608927617256,103.846533689765,103.846533689765,329852,BALESTIER ROAD,LE SHANTIER,29470.7080458375,34257.7354716044
520 BALESTIER ROAD VIIO @ BALESTIER SINGAPORE 329853,520,VIIO @ BALESTIER,1.32697693485952,103.845903319079,103.845903319079,329853,BALESTIER ROAD,VIIO @ BALESTIER,29400.5536698774,34355.887853574
525 BALESTIER ROAD SINGAPORE 329854,525,NIL,1.32597307241597,103.846384121258,103.846384121258,329854,BALESTIER ROAD,525 BALESTIER ROAD SINGAPORE 329854,29454.0626524799,34244.886167692
529 BALESTIER ROAD SINGAPORE 329856,529,NIL,1.32628498386887,103.846037252047,103.846037252047,329856,BALESTIER ROAD,529 BALESTIER ROAD SINGAPORE 329856,29415.4594411384,34279.3755362947
530 BALESTIER ROAD LITTLE FOOTPRINTS PRESCHOOL @ BALESTIER PTE LTD SINGAPORE 329857,530,LITTLE FOOTPRINTS PRESCHOOL @ BALESTIER PTE LTD,1.32716875295452,103.84551856087,103.84551856087,329857,BALESTIER ROAD,LITTLE FOOTPRINTS PRESCHOOL @ BALESTIER PTE LTD,29357.7338862596,34377.0979010202
531 BALESTIER ROAD SINGAPORE 329858,531,NIL,1.32628373745649,103.845898093402,103.845898093402,329858,BALESTIER ROAD,531 BALESTIER ROAD SINGAPORE 329858,29399.9724943219,34279.237635361
532 BALESTIER ROAD SINGAPORE 329859,532,NIL,1.32673457590711,103.845617912604,103.845617912604,329859,BALESTIER ROAD,532 BALESTIER ROAD SINGAPORE 329859,29368.7909623198,34329.0888834707
534 BALESTIER ROAD SINGAPORE 329860,534,NIL,1.32673207209423,103.845558544401,103.845558544401,329860,BALESTIER ROAD,534 BALESTIER ROAD SINGAPORE 329860,29362.183885226,34328.8119919561
536 BALESTIER ROAD SINGAPORE 329861,536,NIL,1.32673025152226,103.845498168808,103.845498168808,329861,BALESTIER ROAD,536 BALESTIER ROAD SINGAPORE 329861,29355.4646955207,34328.6106493287
541 BALESTIER ROAD SINGAPORE 329863,541,NIL,1.32622323280427,103.845257279522,103.845257279522,329863,BALESTIER ROAD,541 BALESTIER ROAD SINGAPORE 329863,29328.6564331464,34272.5469883643
542 BALESTIER ROAD CALTEX BALESTIER SINGAPORE 329864,542,CALTEX BALESTIER,1.32681464726632,103.845093965563,103.845093965563,329864,BALESTIER ROAD,CALTEX BALESTIER,29310.4809326762,34337.9424805846
543 BALESTIER ROAD SINGAPORE 329865,543,NIL,1.32622323280427,103.84525727925,103.84525727925,329865,BALESTIER ROAD,543 BALESTIER ROAD SINGAPORE 329865,29328.6564028785,34272.5469883643
545 BALESTIER ROAD SINGAPORE 329866,545,NIL,1.3262431727725,103.845109012834,103.845109012834,329866,BALESTIER ROAD,545 BALESTIER ROAD SINGAPORE 329866,29312.1558418227,34274.7517688349
547 BALESTIER ROAD SINGAPORE 329867,547,NIL,1.32624317304623,103.845109012562,103.845109012562,329867,BALESTIER ROAD,547 BALESTIER ROAD SINGAPORE 329867,29312.1558115548,34274.7517991029
551 BALESTIER ROAD SINGAPORE 329868,551,NIL,1.32631410150914,103.844903248295,103.844903248295,329868,BALESTIER ROAD,551 BALESTIER ROAD SINGAPORE 329868,29289.2562960619,34282.5945968982
553 BALESTIER ROAD SINGAPORE 329869,553,NIL,1.32632066284266,103.844854472455,103.844854472455,329869,BALESTIER ROAD,553 BALESTIER ROAD SINGAPORE 329869,29283.8280358622,34283.3200902008
554 BALESTIER ROAD SINGAPORE 329870,554,NIL,1.3267782094454,103.845007658139,103.845007658139,329870,BALESTIER ROAD,554 BALESTIER ROAD SINGAPORE 329870,29300.8758117948,34333.9133276641
555 BALESTIER ROAD SINGAPORE 329871,555,NIL,1.32632769447736,103.844799486628,103.844799486628,329871,BALESTIER ROAD,555 BALESTIER ROAD SINGAPORE 329871,29277.7086667893,34284.0975838993
556 BALESTIER ROAD SINGAPORE 329872,556,NIL,1.32678416038283,103.844953336459,103.844953336459,329872,BALESTIER ROAD,556 BALESTIER ROAD SINGAPORE 329872,29294.830357139,34334.5713233612
557 BALESTIER ROAD SINGAPORE 329873,557,NIL,1.32633356301422,103.844745658589,103.844745658589,329873,BALESTIER ROAD,557 BALESTIER ROAD SINGAPORE 329873,29271.7181485239,34284.7464689333
558 BALESTIER ROAD SINGAPORE 329874,558,NIL,1.32679278162568,103.844890102463,103.844890102463,329874,BALESTIER ROAD,558 BALESTIER ROAD SINGAPORE 329874,29287.7930509252,34335.524583241
559 BALESTIER ROAD SINGAPORE 329875,559,NIL,1.32634053469867,103.844690740211,103.844690740211,329875,BALESTIER ROAD,559 BALESTIER ROAD SINGAPORE 329875,29265.606285912,34285.5173339434
560 BALESTIER ROAD SINGAPORE 329876,560,NIL,1.32697917569245,103.844652596814,103.844652596814,329876,BALESTIER ROAD,560 BALESTIER ROAD SINGAPORE 329876,29261.3609893201,34356.1349613946
561 BALESTIER ROAD SINGAPORE 329877,561,NIL,1.32634717269609,103.844636983433,103.844636983433,329877,BALESTIER ROAD,561 BALESTIER ROAD SINGAPORE 329877,29259.6236978583,34286.2513022795
562 BALESTIER ROAD SINGAPORE 329878,562,NIL,1.32697545986365,103.84451205241,103.84451205241,329878,BALESTIER ROAD,562 BALESTIER ROAD SINGAPORE 329878,29245.7198271258,34355.7240129784
563 BALESTIER ROAD SINGAPORE 329879,563,NIL,1.32635354900972,103.84458190105,103.84458190105,329879,BALESTIER ROAD,563 BALESTIER ROAD SINGAPORE 329879,29253.4935836522,34286.9563344251
564 BALESTIER ROAD SINGAPORE 329880,564,NIL,1.32696702348033,103.844376442416,103.844376442416,329880,BALESTIER ROAD,564 BALESTIER ROAD SINGAPORE 329880,29230.6278169611,34354.7910931855
565B BALESTIER ROAD SINGAPORE 329881,565B,NIL,1.32635877261104,103.844531594803,103.844531594803,329881,BALESTIER ROAD,565B BALESTIER ROAD SINGAPORE 329881,29247.8950055083,34287.5339080896
566 BALESTIER ROAD SINGAPORE 329883,566,NIL,1.32696018158396,103.844240800609,103.844240800609,329883,BALESTIER ROAD,566 BALESTIER ROAD SINGAPORE 329883,29215.5322654415,34354.0344843958
567 BALESTIER ROAD SINGAPORE 329884,567,NIL,1.32640386337721,103.844325277744,103.844325277744,329884,BALESTIER ROAD,567 BALESTIER ROAD SINGAPORE 329884,29224.9339854717,34292.519710904
568 BALESTIER ROAD SINGAPORE 329885,568,NIL,1.32695258581689,103.844105773461,103.844105773461,329885,BALESTIER ROAD,568 BALESTIER ROAD SINGAPORE 329885,29200.5051195659,34353.1945175789
569 BALESTIER ROAD SINGAPORE 329886,569,NIL,1.32638768862012,103.84423645848,103.84423645848,329886,BALESTIER ROAD,569 BALESTIER ROAD SINGAPORE 329886,29215.049309493,34290.7311454788
571 BALESTIER ROAD SINGAPORE 329887,571,NIL,1.32638415105319,103.844200888033,103.844200888033,329887,BALESTIER ROAD,571 BALESTIER ROAD SINGAPORE 329887,29211.0906809755,34290.3399620559
573 BALESTIER ROAD SINGAPORE 329888,573,NIL,1.32638492080161,103.844136164407,103.844136164407,329888,BALESTIER ROAD,573 BALESTIER ROAD SINGAPORE 329888,29203.8875970142,34290.425045358
575 BALESTIER ROAD SINGAPORE 329890,575,NIL,1.32641844509789,103.844084924592,103.844084924592,329890,BALESTIER ROAD,575 BALESTIER ROAD SINGAPORE 329890,29198.1851088814,34294.1319653243
577 BALESTIER ROAD SINGAPORE 329892,577,NIL,1.32636736824015,103.844007322488,103.844007322488,329892,BALESTIER ROAD,577 BALESTIER ROAD SINGAPORE 329892,29189.5488056233,34288.484110903
579 BALESTIER ROAD SINGAPORE 329894,579,NIL,1.32640792631353,103.843970321373,103.843970321373,329894,BALESTIER ROAD,579 BALESTIER ROAD SINGAPORE 329894,29185.4309372427,34292.9687969778
586 BALESTIER ROAD EASTPAC BUILDING SINGAPORE 329898,586,EASTPAC BUILDING,1.32683293706625,103.843349694845,103.843349694845,329898,BALESTIER ROAD,EASTPAC BUILDING,29116.3613052825,34339.9640186802
588 BALESTIER ROAD SINGAPORE 329899,588,NIL,1.32678473474844,103.843248941209,103.843248941209,329899,BALESTIER ROAD,588 BALESTIER ROAD SINGAPORE 329899,29105.1484701792,34334.6340083554
592 BALESTIER ROAD VALUE HOTEL - THOMSON SINGAPORE 329901,592,VALUE HOTEL - THOMSON,1.32695574408137,103.842719924274,103.842719924274,329901,BALESTIER ROAD,VALUE HOTEL - THOMSON,29046.2741847821,34353.5431139488
592A BALESTIER ROAD SINGAPORE 329902,592A,NIL,1.32674586776917,103.842595335842,103.842595335842,329902,BALESTIER ROAD,592A BALESTIER ROAD SINGAPORE 329902,29032.4088451937,34330.336015204
601 BALESTIER ROAD SINGAPORE 329903,601,NIL,1.3263112325765,103.843395235659,103.843395235659,329903,BALESTIER ROAD,601 BALESTIER ROAD SINGAPORE 329903,29121.4297699602,34282.2766317297
603 BALESTIER ROAD SINGAPORE 329904,603,NIL,1.32636918096473,103.843340811659,103.843340811659,329904,BALESTIER ROAD,603 BALESTIER ROAD SINGAPORE 329904,29115.3729042746,34288.6842428111
605 BALESTIER ROAD SINGAPORE 329905,605,NIL,1.32630094883001,103.843297064863,103.843297064863,329905,BALESTIER ROAD,605 BALESTIER ROAD SINGAPORE 329905,29110.5043596299,34281.1394635811
607 BALESTIER ROAD SINGAPORE 329906,607,NIL,1.32629665087488,103.843247743667,103.843247743667,329906,BALESTIER ROAD,607 BALESTIER ROAD SINGAPORE 329906,29105.015412122,34280.6641957015
609 BALESTIER ROAD SINGAPORE 329907,609,NIL,1.32629241697179,103.843198539693,103.843198539693,329907,BALESTIER ROAD,609 BALESTIER ROAD SINGAPORE 329907,29099.539510116,34280.19601053
611 BALESTIER ROAD SINGAPORE 329908,611,NIL,1.32628825724885,103.843149451036,103.843149451036,329908,BALESTIER ROAD,611 BALESTIER ROAD SINGAPORE 329908,29094.076441735,34279.7360279802
613 BALESTIER ROAD SINGAPORE 329909,613,NIL,1.32628371813092,103.843100412964,103.843100412964,329909,BALESTIER ROAD,613 BALESTIER ROAD SINGAPORE 329909,29088.619003199,34279.2340940069
615 BALESTIER ROAD SINGAPORE 329910,615,NIL,1.32627984801614,103.843051159492,103.843051159492,329910,BALESTIER ROAD,615 BALESTIER ROAD SINGAPORE 329910,29083.13759242,34278.8061349858
617 BALESTIER ROAD SINGAPORE 329911,617,NIL,1.32627556976477,103.843001852168,103.843001852168,329911,BALESTIER ROAD,617 BALESTIER ROAD SINGAPORE 329911,29077.6501885792,34278.3330463991
619 BALESTIER ROAD SINGAPORE 329912,619,NIL,1.32627104104596,103.842952750455,103.842952750455,329912,BALESTIER ROAD,619 BALESTIER ROAD SINGAPORE 329912,29072.1856673351,34277.8322626092
621 BALESTIER ROAD SINGAPORE 329913,621,NIL,1.32626676689744,103.842903746383,103.842903746383,329913,BALESTIER ROAD,621 BALESTIER ROAD SINGAPORE 329913,29066.732012297,34277.3596280441
623 BALESTIER ROAD SINGAPORE 329914,623,NIL,1.32626266520016,103.842854616659,103.842854616659,329914,BALESTIER ROAD,623 BALESTIER ROAD SINGAPORE 329914,29061.2643734505,34276.9060623068
625 BALESTIER ROAD SINGAPORE 329915,625,NIL,1.32625847207531,103.842805439883,103.842805439883,329915,BALESTIER ROAD,625 BALESTIER ROAD SINGAPORE 329915,29055.7914982429,34276.4423870649
627 BALESTIER ROAD SINGAPORE 329916,627,NIL,1.32625410540297,103.842756206536,103.842756206536,329916,BALESTIER ROAD,627 BALESTIER ROAD SINGAPORE 329916,29050.3123272937,34275.9595219195
629 BALESTIER ROAD SINGAPORE 329917,629,NIL,1.32625735646474,103.842701370547,103.842701370547,329917,BALESTIER ROAD,629 BALESTIER ROAD SINGAPORE 329917,29044.2096358808,34276.3189844955
631 BALESTIER ROAD SINGAPORE 329918,631,NIL,1.32625425166876,103.842660153104,103.842660153104,329918,BALESTIER ROAD,631 BALESTIER ROAD SINGAPORE 329918,29039.6225532163,34275.9756547548
633 BALESTIER ROAD SINGAPORE 329919,633,NIL,1.32625121563773,103.842603383082,103.842603383082,329919,BALESTIER ROAD,633 BALESTIER ROAD SINGAPORE 329919,29033.3046261715,34275.6399222799
635 BALESTIER ROAD SINGAPORE 329920,635,NIL,1.32624684728212,103.842563974535,103.842563974535,329920,BALESTIER ROAD,635 BALESTIER ROAD SINGAPORE 329920,29028.9188558664,34275.1568755284
637 BALESTIER ROAD SINGAPORE 329921,637,NIL,1.32624366699463,103.842506390223,103.842506390223,329921,BALESTIER ROAD,637 BALESTIER ROAD SINGAPORE 329921,29022.5103064785,34274.8051918261
639 BALESTIER ROAD SINGAPORE 329922,639,NIL,1.3262419336172,103.842459823866,103.842459823866,329922,BALESTIER ROAD,639 BALESTIER ROAD SINGAPORE 329922,29017.3279433781,34274.6135046836
320 BALESTIER ROAD COLIWOO BALESTIER 320 SINGAPORE 329924,320,COLIWOO BALESTIER 320,1.32374586689567,103.852212547759,103.852212547759,329924,BALESTIER ROAD,COLIWOO BALESTIER 320,30102.7094481112,33998.6173771322
201 BALESTIER ROAD SINGAPORE 329926,201,NIL,1.32005187342709,103.852519734445,103.852519734445,329926,BALESTIER ROAD,201 BALESTIER ROAD SINGAPORE 329926,30136.8994058184,33590.154780902
565 BALESTIER ROAD MOE HERITAGE CENTRE SINGAPORE 329927,565,MOE HERITAGE CENTRE,1.32583085133662,103.844215043783,103.844215043783,329927,BALESTIER ROAD,MOE HERITAGE CENTRE,29212.6663414035,34229.1589233521
221 BALESTIER ROAD ROCCA BALESTIER SINGAPORE 329928,221,ROCCA BALESTIER,1.32129563232502,103.852526109528,103.852526109528,329928,BALESTIER ROAD,ROCCA BALESTIER,30137.6078279773,33727.683267178
245 BALESTIER ROAD SCENIC HEIGHTS SINGAPORE 329929,245,SCENIC HEIGHTS,1.3216258845396,103.852170059769,103.852170059769,329929,BALESTIER ROAD,SCENIC HEIGHTS,30097.9827392381,33764.2005604226
411 BALESTIER ROAD SINGAPORE 329930,411,NIL,1.32553664342364,103.849333260971,103.849333260971,329930,BALESTIER ROAD,411 BALESTIER ROAD SINGAPORE 329930,29782.2723837346,34196.6300120559
5 AVA ROAD SINGAPORE 329946,5,NIL,1.32216663647199,103.852429293529,103.852429293529,329946,AVA ROAD,5 AVA ROAD SINGAPORE 329946,30126.8324257741,33823.9943568967
7 AVA ROAD SINGAPORE 329947,7,NIL,1.3221597580849,103.852361812417,103.852361812417,329947,AVA ROAD,7 AVA ROAD SINGAPORE 329947,30119.3224547263,33823.2337224651
9 AVA ROAD SINGAPORE 329948,9,NIL,1.32215289830512,103.852294940526,103.852294940526,329948,AVA ROAD,9 AVA ROAD SINGAPORE 329948,30111.880283962,33822.4751462564
10 AVA ROAD AVA TOWERS SINGAPORE 329949,10,AVA TOWERS,1.32222530186955,103.851774865079,103.851774865079,329949,AVA ROAD,AVA TOWERS,30054.0009979941,33830.4807252698
11 AVA ROAD SAMANTABHADRA VIHARA (DONG XUN GE) SINGAPORE 329950,11,SAMANTABHADRA VIHARA (DONG XUN GE),1.32217177127983,103.85212775944,103.85212775944,329950,AVA ROAD,SAMANTABHADRA VIHARA (DONG XUN GE),30093.2746754428,33824.5618815906
2 AVA ROAD VICTORY POINT SINGAPORE 329951,2,VICTORY POINT,1.3224312092858,103.852488874961,103.852488874961,329951,AVA ROAD,VICTORY POINT,30133.4630210912,33853.2495133411
4 AH HOOD ROAD THE BELLEFORTE SINGAPORE 329973,4,THE BELLEFORTE,1.32700964332176,103.84499124829,103.84499124829,329973,AH HOOD ROAD,THE BELLEFORTE,29299.049441657,34359.5040906612
6 AH HOOD ROAD THE BELLEFORTE SINGAPORE 329974,6,THE BELLEFORTE,1.32723427058795,103.845140012266,103.845140012266,329974,AH HOOD ROAD,THE BELLEFORTE,29315.605241783,34384.3423007801
9 AH HOOD ROAD EASB EAST ASIA INSTITUTE OF MANAGEMENT SINGAPORE 329975,9,EASB EAST ASIA INSTITUTE OF MANAGEMENT,1.32817916093854,103.845610984656,103.845610984656,329975,AH HOOD ROAD,EASB EAST ASIA INSTITUTE OF MANAGEMENT,29368.0191590032,34488.8236878775
30 AH HOOD ROAD NADIA MANSIONS SINGAPORE 329976,30,NADIA MANSIONS,1.32801029525715,103.847841048909,103.847841048909,329976,AH HOOD ROAD,NADIA MANSIONS,29616.2026416762,34470.1527307816
32 AH HOOD ROAD NADIA MANSIONS SINGAPORE 329977,32,NADIA MANSIONS,1.32814908980309,103.848401404479,103.848401404479,329977,AH HOOD ROAD,NADIA MANSIONS,29678.564404157,34485.5002935342
31 AH HOOD ROAD HOMETEAMNS-JOM BALESTIER SINGAPORE 329979,31,HOMETEAMNS-JOM BALESTIER,1.3290393738761,103.848481401952,103.848481401952,329979,AH HOOD ROAD,HOMETEAMNS-JOM BALESTIER,29687.4667024557,34583.9433994871
36 AH HOOD ROAD CASA FORTUNA SINGAPORE 329980,36,CASA FORTUNA,1.32849358847465,103.848169401956,103.848169401956,329980,AH HOOD ROAD,CASA FORTUNA,29652.7446638625,34523.5930353291
38 AH HOOD ROAD CASA FORTUNA SINGAPORE 329981,38,CASA FORTUNA,1.32847281017419,103.848358641437,103.848358641437,329981,AH HOOD ROAD,CASA FORTUNA,29673.8050966654,34521.2956045605
16 AH HOOD ROAD DBS NTUC ZHONGSHAN PARK SINGAPORE 329982,16,DBS NTUC ZHONGSHAN PARK,1.32708485462602,103.846476460209,103.846476460209,329982,AH HOOD ROAD,DBS NTUC ZHONGSHAN PARK,29464.3383908076,34367.8213996384
18 AH HOOD ROAD HIAP HOE BUILDING AT ZHONGSHAN PARK SINGAPORE 329983,18,HIAP HOE BUILDING AT ZHONGSHAN PARK,1.32710813506067,103.846374256983,103.846374256983,329983,AH HOOD ROAD,HIAP HOE BUILDING AT ZHONGSHAN PARK,29452.9641970824,34370.3955705818
20 AH HOOD ROAD RAMADA SINGAPORE AT ZHONGSHAN PARK SINGAPORE 329984,20,RAMADA SINGAPORE AT ZHONGSHAN PARK,1.32702991607724,103.846490871841,103.846490871841,329984,AH HOOD ROAD,RAMADA SINGAPORE AT ZHONGSHAN PARK,29465.9422912654,34361.7465850394
