ADDRESS,BLK_NO,BUILDING,LATITUDE,LONGITUDE,LONGTITUDE,POSTAL,ROAD_NAME,SEARCHVAL,X,Y
61A PRINSEP STREET SINGAPORE 187936,61A,NIL,1.300917622698,103.850408968104,103.850408968104,187936,PRINSEP STREET,61A PRINSEP STREET SINGAPORE 187936,29902.0063223839,31474.3859434631
120A PRINSEP STREET SINGAPORE 187937,120A,NIL,1.30168781720695,103.851727965229,103.851727965229,187937,PRINSEP STREET,120A PRINSEP STREET SINGAPORE 187937,30048.7982040048,31559.5511205886
1 MCNALLY STREET INSTITUTE OF CONTEMPORARY ARTS SINGAPORE 187940,1,INSTITUTE OF CONTEMPORARY ARTS,1.30281272179086,103.851686608385,103.851686608385,187940,MCNALLY STREET,INSTITUTE OF CONTEMPORARY ARTS,30044.1946555572,31683.9372483343
87 PRINSEP STREET SMU RESIDENCES @ PRINSEP SINGAPORE 187945,87,SMU RESIDENCES @ PRINSEP,1.30226421347535,103.850845034537,103.850845034537,187945,PRINSEP STREET,SMU RESIDENCES @ PRINSEP,29950.5355557697,31623.285354523
85 PRINSEP STREET SMU RESIDENCES @ PRINSEP SINGAPORE 187946,85,SMU RESIDENCES @ PRINSEP,1.30235251565667,103.85111274124,103.85111274124,187946,PRINSEP STREET,SMU RESIDENCES @ PRINSEP,29980.3288164297,31633.0495639257
83 PRINSEP STREET SMU RESIDENCES @ PRINSEP SINGAPORE 187947,83,SMU RESIDENCES @ PRINSEP,1.30198333363526,103.851190107246,103.851190107246,187947,PRINSEP STREET,SMU RESIDENCES @ PRINSEP,29988.9392405618,31592.2273764312
10 PRINSEP LINK SUNSHINE PLAZA SINGAPORE 187948,10,SUNSHINE PLAZA,1.30047107224304,103.850687337448,103.850687337448,187948,PRINSEP LINK,SUNSHINE PLAZA,29932.9866630975,31425.0089038536
11 PRINSEP LINK SINGAPORE 187949,11,NIL,1.30010338585037,103.850293565959,103.850293565959,187949,PRINSEP LINK,11 PRINSEP LINK SINGAPORE 187949,29889.1637076968,31384.3517374061
24 WATERLOO STREET MAGHAIN ABOTH SYNAGOGUE SINGAPORE 187950,24,MAGHAIN ABOTH SYNAGOGUE,1.2982732827961,103.850599503474,103.850599503474,187950,WATERLOO STREET,MAGHAIN ABOTH SYNAGOGUE,29923.2131916918,31181.9885943793
42 WATERLOO STREET SINGAPORE 187951,42,NIL,1.29839675246549,103.850923236615,103.850923236615,187951,WATERLOO STREET,42 WATERLOO STREET SINGAPORE 187951,29959.2417175341,31195.6414829902
48 WATERLOO STREET SINGAPORE CALLIGRAPHY CENTRE SINGAPORE 187952,48,SINGAPORE CALLIGRAPHY CENTRE,1.29853192894491,103.850920945647,103.850920945647,187952,WATERLOO STREET,SINGAPORE CALLIGRAPHY CENTRE,29958.9866492348,31210.588600317
54 WATERLOO STREET YMS ARTS CENTRE SINGAPORE 187953,54,YMS ARTS CENTRE,1.29856914520252,103.85102806479,103.85102806479,187953,WATERLOO STREET,YMS ARTS CENTRE,29970.9080275698,31214.7038656529
55 WATERLOO STREET APOSTOLIC NUNCIATURE SINGAPORE 187954,55,APOSTOLIC NUNCIATURE,1.29826166207725,103.851521091878,103.851521091878,187954,WATERLOO STREET,APOSTOLIC NUNCIATURE,30025.7777981851,31180.7043540981
56 WATERLOO STREET SINGAPORE 187955,56,NIL,1.29860560431042,103.851057719161,103.851057719161,187955,WATERLOO STREET,56 WATERLOO STREET SINGAPORE 187955,29974.2082669064,31218.7353492081
58 WATERLOO STREET SINGAPORE 187956,58,NIL,1.29864667718144,103.851088206071,103.851088206071,187956,WATERLOO STREET,58 WATERLOO STREET SINGAPORE 187956,29977.6011565411,31223.2769996282
60 WATERLOO STREET DANCE ENSEMBLE SINGAPORE SINGAPORE 187957,60,DANCE ENSEMBLE SINGAPORE,1.29880924946558,103.851193167464,103.851193167464,187957,WATERLOO STREET,DANCE ENSEMBLE SINGAPORE,29989.2822978897,31241.2534881048
152 WATERLOO STREET KRISHNAN TEMPLE SINGAPORE 187961,152,KRISHNAN TEMPLE,1.30051473190425,103.852696918565,103.852696918565,187961,WATERLOO STREET,KRISHNAN TEMPLE,30156.634948438,31429.8381909244
155 WATERLOO STREET STAMFORD ARTS CENTRE SINGAPORE 187962,155,STAMFORD ARTS CENTRE,1.30019655731165,103.852975337136,103.852975337136,187962,WATERLOO STREET,STAMFORD ARTS CENTRE,30187.6207071207,31394.6563211232
166 WATERLOO STREET WATERLOO VIEW SINGAPORE 187963,166,WATERLOO VIEW,1.30076378356785,103.852719817474,103.852719817474,187963,WATERLOO STREET,WATERLOO VIEW,30159.1831797194,31457.3770618904
178 WATERLOO STREET KWAN IM THONG HOOD CHO TEMPLE SINGAPORE 187964,178,KWAN IM THONG HOOD CHO TEMPLE,1.30094934166518,103.852967460404,103.852967460404,187964,WATERLOO STREET,KWAN IM THONG HOOD CHO TEMPLE,30186.743450149,31477.8953345679
190 WATERLOO STREET SOUTH EAST ASIA HOTEL SINGAPORE 187965,190,SOUTH EAST ASIA HOTEL,1.30108679043057,103.853135261391,103.853135261391,187965,WATERLOO STREET,SOUTH EAST ASIA HOTEL,30205.4180696709,31493.0938577671
192 WATERLOO STREET SKYLINE SINGAPORE 187966,192,SKYLINE,1.30121688920281,103.85319686723,103.85319686723,187966,WATERLOO STREET,SKYLINE,30212.2741311984,31507.4795645326
96 WATERLOO STREET SINGAPORE COUNCIL OF WOMEN'S ORGANIZATION CENTRE SINGAPORE 187967,96,SINGAPORE COUNCIL OF WOMEN'S ORGANIZATION CENTRE,1.29946458489738,103.851752461642,103.851752461642,187967,WATERLOO STREET,SINGAPORE COUNCIL OF WOMEN'S ORGANIZATION CENTRE,30051.5262271091,31313.7175533678
26 WATERLOO STREET MAGHAIN ABOTH SYNAGOGUE SINGAPORE 187968,26,MAGHAIN ABOTH SYNAGOGUE,1.29824645337658,103.850683146965,103.850683146965,187968,WATERLOO STREET,MAGHAIN ABOTH SYNAGOGUE,29932.5219890121,31179.0219990276
51 WATERLOO STREET SINGAPORE 187969,51,NIL,1.2980788026172,103.85145640738,103.85145640738,187969,WATERLOO STREET,51 WATERLOO STREET SINGAPORE 187969,30018.5791333495,31160.4846448116
2 VICTORIA STREET SINGAPORE 187995,2,NIL,1.29469228201557,103.851511840883,103.851511840883,187995,VICTORIA STREET,2 VICTORIA STREET SINGAPORE 187995,30024.751077909,30786.0206823628
30 VICTORIA STREET CHIJMES SINGAPORE 187996,30,CHIJMES,1.29559445902598,103.852159961756,103.852159961756,187996,VICTORIA STREET,CHIJMES,30096.8805306107,30885.7792954259
31 VICTORIA STREET CATHEDRAL OF THE GOOD SHEPHERD SINGAPORE 187997,31,CATHEDRAL OF THE GOOD SHEPHERD,1.29574753484832,103.850640281189,103.850640281189,187997,VICTORIA STREET,CATHEDRAL OF THE GOOD SHEPHERD,29927.7532984456,30902.7044254895
87 VICTORIA STREET VICTORIA HOTEL SINGAPORE 188016,87,VICTORIA HOTEL,1.29704749404358,103.852507024237,103.852507024237,188016,VICTORIA STREET,VICTORIA HOTEL,30135.504324181,31046.4487146325
89 VICTORIA STREET VICTORIA HOTEL SINGAPORE 188017,89,VICTORIA HOTEL,1.29709983994672,103.852442334665,103.852442334665,188017,VICTORIA STREET,VICTORIA HOTEL,30128.3049026458,31052.2368006241
101 VICTORIA STREET HOTEL GRAND PACIFIC SINGAPORE 188018,101,HOTEL GRAND PACIFIC,1.29737837980367,103.852676714704,103.852676714704,188018,VICTORIA STREET,HOTEL GRAND PACIFIC,30154.3890943136,31083.0365020111
143 VICTORIA STREET SAINT JOSEPH'S CHURCH SINGAPORE 188020,143,SAINT JOSEPH'S CHURCH,1.29839117931603,103.85305404718,103.85305404718,188020,VICTORIA STREET,SAINT JOSEPH'S CHURCH,30196.3819868835,31195.0269823857
200 VICTORIA STREET BUGIS JUNCTION SINGAPORE 188021,200,BUGIS JUNCTION,1.29901677414964,103.855482356252,103.855482356252,188021,VICTORIA STREET,BUGIS JUNCTION,30466.6305875434,31264.2042775638
220 VICTORIA STREET BRAS BASAH BUGIS SINGAPORE 188022,220,BRAS BASAH BUGIS,1.30068760710961,103.856241188732,103.856241188732,188022,VICTORIA STREET,BRAS BASAH BUGIS,30551.0801992659,31448.9571444467
229 VICTORIA STREET BUGIS VILLAGE SINGAPORE 188023,229,BUGIS VILLAGE,1.30006293744531,103.854954705133,103.854954705133,188023,VICTORIA STREET,BUGIS VILLAGE,30407.906734026,31379.8831236288
230 VICTORIA STREET BUGIS JUNCTION SINGAPORE 188024,230,BUGIS JUNCTION,1.30011789343093,103.856191571652,103.856191571652,188024,VICTORIA STREET,BUGIS JUNCTION,30545.5588347474,31385.9610861
231 VICTORIA STREET BUGIS VILLAGE SINGAPORE 188025,231,BUGIS VILLAGE,1.30006293717158,103.854954704861,103.854954704861,188025,VICTORIA STREET,BUGIS VILLAGE,30407.9067037581,31379.8830933608
233 VICTORIA STREET BUGIS VILLAGE SINGAPORE 188026,233,BUGIS VILLAGE,1.30006293717158,103.854954704861,103.854954704861,188026,VICTORIA STREET,BUGIS VILLAGE,30407.9067037581,31379.8830933608
235 VICTORIA STREET BUGIS VILLAGE SINGAPORE 188027,235,BUGIS VILLAGE,1.30006293717158,103.854954704861,103.854954704861,188027,VICTORIA STREET,BUGIS VILLAGE,30407.9067037581,31379.8830933608
237 VICTORIA STREET BUGIS VILLAGE SINGAPORE 188028,237,BUGIS VILLAGE,1.30006293717158,103.854954704861,103.854954704861,188028,VICTORIA STREET,BUGIS VILLAGE,30407.9067037581,31379.8830933608
239 VICTORIA STREET BUGIS VILLAGE SINGAPORE 188029,239,BUGIS VILLAGE,1.30006293717158,103.854954704861,103.854954704861,188029,VICTORIA STREET,BUGIS VILLAGE,30407.9067037581,31379.8830933608
241 VICTORIA STREET BUGIS VILLAGE SINGAPORE 188030,241,BUGIS VILLAGE,1.30043728822248,103.855285774584,103.855285774584,188030,VICTORIA STREET,BUGIS VILLAGE,30444.7514360491,31421.2772246767
243 VICTORIA STREET BUGIS VILLAGE SINGAPORE 188031,243,BUGIS VILLAGE,1.30043428650572,103.855281319121,103.855281319121,188031,VICTORIA STREET,BUGIS VILLAGE,30444.2555859396,31420.9453059677
245 VICTORIA STREET BUGIS VILLAGE SINGAPORE 188032,245,BUGIS VILLAGE,1.30043428650572,103.855281319121,103.855281319121,188032,VICTORIA STREET,BUGIS VILLAGE,30444.2555859396,31420.9453059677
247 VICTORIA STREET BUGIS VILLAGE SINGAPORE 188033,247,BUGIS VILLAGE,1.30043428650572,103.855281319121,103.855281319121,188033,VICTORIA STREET,BUGIS VILLAGE,30444.2555859396,31420.9453059677
249 VICTORIA STREET BUGIS VILLAGE SINGAPORE 188034,249,BUGIS VILLAGE,1.30043428650572,103.855281319121,103.855281319121,188034,VICTORIA STREET,BUGIS VILLAGE,30444.2555859396,31420.9453059677
251 VICTORIA STREET BUGIS VILLAGE SINGAPORE 188035,251,BUGIS VILLAGE,1.30043428650572,103.855281319121,103.855281319121,188035,VICTORIA STREET,BUGIS VILLAGE,30444.2555859396,31420.9453059677
320 VICTORIA STREET BUGIS MRT STATION SINGAPORE 188045,320,BUGIS MRT STATION,1.3004650853709,103.855706731205,103.855706731205,188045,VICTORIA STREET,BUGIS MRT STATION,30491.6001001745,31424.3513016403
390 VICTORIA STREET THE ARK SINGAPORE 188061,390,THE ARK,1.30189677580549,103.857847794036,103.857847794036,188061,VICTORIA STREET,THE ARK,30729.8796261642,31582.662481701
750 VICTORIA STREET SINGAPORE 188062,750,NIL,1.300604509746,103.856536008081,103.856536008081,188062,VICTORIA STREET,750 VICTORIA STREET SINGAPORE 188062,30583.891026563,31439.7689650413
141 VICTORIA STREET NAFA CAMPUS V SINGAPORE 188063,141,NAFA CAMPUS V,1.29796335079291,103.853022620038,103.853022620038,188063,VICTORIA STREET,NAFA CAMPUS V,30192.884793777,31147.7198793776
100 VICTORIA STREET CENTRAL PUBLIC LIBRARY SINGAPORE 188064,100,CENTRAL PUBLIC LIBRARY,1.29743229408405,103.854071363949,103.854071363949,188064,VICTORIA STREET,CENTRAL PUBLIC LIBRARY,30309.6011657892,31088.9992948025
81 VICTORIA STREET SINGAPORE MANAGEMENT UNIVERSITY (ADMIN BLDG) SINGAPORE 188065,81,SINGAPORE MANAGEMENT UNIVERSITY (ADMIN BLDG),1.29684671398423,103.852207943172,103.852207943172,188065,VICTORIA STREET,SINGAPORE MANAGEMENT UNIVERSITY (ADMIN BLDG),30102.2194094546,31024.2472393811
98 VICTORIA STREET INFORMATICS ACADEMY SINGAPORE 188066,98,INFORMATICS ACADEMY,1.29762767084737,103.854548604259,103.854548604259,188066,VICTORIA STREET,INFORMATICS ACADEMY,30362.7136075376,31110.6034919322
QUEEN STREET ALBERT MALL TRISHAW PARK SINGAPORE 188067,,ALBERT MALL TRISHAW PARK,1.29966016502847,103.853518084567,103.853518084567,188067,QUEEN STREET,ALBERT MALL TRISHAW PARK,30248.024100787,31335.3452989887
2 TAN QUEE LAN STREET BLUEWATERS POD SINGAPORE 188091,2,BLUEWATERS POD,1.29800183242195,103.856934786617,103.856934786617,188091,TAN QUEE LAN STREET,BLUEWATERS POD,30628.2741818065,31151.9787057582
3 TAN QUEE LAN STREET SINGAPORE 188092,3,NIL,1.29803369901061,103.85690938616,103.85690938616,188092,TAN QUEE LAN STREET,3 TAN QUEE LAN STREET SINGAPORE 188092,30625.4473034674,31155.5023228154
4 TAN QUEE LAN STREET SINGAPORE 188093,4,NIL,1.29806294928038,103.856881734572,103.856881734572,188093,TAN QUEE LAN STREET,4 TAN QUEE LAN STREET SINGAPORE 188093,30622.3698970266,31158.7366384845
5 TAN QUEE LAN STREET BEACH ROAD CONSERVATION AREA SINGAPORE 188094,5,BEACH ROAD CONSERVATION AREA,1.29809172791057,103.856853797138,103.856853797138,188094,TAN QUEE LAN STREET,BEACH ROAD CONSERVATION AREA,30619.2606789358,31161.918802416
6 TAN QUEE LAN STREET SINGAPORE 188095,6,NIL,1.29812653435105,103.856832619603,103.856832619603,188095,TAN QUEE LAN STREET,6 TAN QUEE LAN STREET SINGAPORE 188095,30616.9037715793,31165.7674976178
7 TAN QUEE LAN STREET BEACH ROAD CONSERVATION AREA SINGAPORE 188096,7,BEACH ROAD CONSERVATION AREA,1.29815108795374,103.856800246005,103.856800246005,188096,TAN QUEE LAN STREET,BEACH ROAD CONSERVATION AREA,30613.3008524058,31168.4824752212
9 TAN QUEE LAN STREET TANQUEELAN SUITES SINGAPORE 188098,9,TANQUEELAN SUITES,1.29831083277688,103.856652273902,103.856652273902,188098,TAN QUEE LAN STREET,TANQUEELAN SUITES,30596.8327083606,31186.1460835505
18 TAN QUEE LAN STREET MIDTOWN MODERN SINGAPORE 188105,18,MIDTOWN MODERN,1.29904107981669,103.856651031974,103.856651031974,188105,TAN QUEE LAN STREET,MIDTOWN MODERN,30596.6937480476,31266.8930430934
20 TAN QUEE LAN STREET GUOCO MIDTOWN II SINGAPORE 188107,20,GUOCO MIDTOWN II,1.29879338614448,103.856983503203,103.856983503203,188107,TAN QUEE LAN STREET,GUOCO MIDTOWN II,30633.6950868862,31239.5046948101
21 TAN QUEE LAN STREET HERITAGE PLACE SINGAPORE 188108,21,HERITAGE PLACE,1.29857357837909,103.856415377083,103.856415377083,188108,TAN QUEE LAN STREET,HERITAGE PLACE,30570.4679324841,31215.1988985259
29 TAN QUEE LAN STREET BEACH ROAD CONSERVATION AREA SINGAPORE 188115,29,BEACH ROAD CONSERVATION AREA,1.29878766623715,103.856213381856,103.856213381856,188115,TAN QUEE LAN STREET,BEACH ROAD CONSERVATION AREA,30547.9874469573,31238.8714280557
30 TAN QUEE LAN STREET BEACH ROAD CONSERVATION AREA SINGAPORE 188116,30,BEACH ROAD CONSERVATION AREA,1.29886581156874,103.856238715871,103.856238715871,188116,TAN QUEE LAN STREET,BEACH ROAD CONSERVATION AREA,30550.8068188364,31247.5123623144
31 TAN QUEE LAN STREET SINGAPORE 188117,31,NIL,1.29888262132496,103.856199003586,103.856199003586,188117,TAN QUEE LAN STREET,31 TAN QUEE LAN STREET SINGAPORE 188117,30546.3871786576,31249.3710586596
16 TAN QUEE LAN STREET MIDTOWN MODERN SINGAPORE 188144,16,MIDTOWN MODERN,1.29850522262382,103.857088439281,103.857088439281,188144,TAN QUEE LAN STREET,MIDTOWN MODERN,30645.373837064,31207.641164599
1A SHORT STREET CAMPUS 1A SINGAPORE 188210,1A,CAMPUS 1A,1.30268589204783,103.850321999904,103.850321999904,188210,SHORT STREET,CAMPUS 1A,29892.3262277069,31669.9120029882
2 SHORT STREET SINGAPORE 188211,2,NIL,1.30192990502775,103.850410118825,103.850410118825,188211,SHORT STREET,2 SHORT STREET SINGAPORE 188211,29902.1336295232,31586.3189146686
4 SHORT STREET SINGAPORE 188212,4,NIL,1.30196409214886,103.850441095811,103.850441095811,188212,SHORT STREET,4 SHORT STREET SINGAPORE 188212,29905.5810620645,31590.0991739593
6 SHORT STREET SINGAPORE 188213,6,NIL,1.30200026302391,103.850470393114,103.850470393114,188213,SHORT STREET,6 SHORT STREET SINGAPORE 188213,29908.8415595386,31594.0987853277
8 SHORT STREET SINGAPORE 188214,8,NIL,1.30219456441246,103.850553874773,103.850553874773,188214,SHORT STREET,8 SHORT STREET SINGAPORE 188214,29918.1321658008,31615.5836963337
89 SHORT STREET SINGAPORE 188216,89,NIL,1.30395273627612,103.851477771616,103.851477771616,188216,SHORT STREET,89 SHORT STREET SINGAPORE 188216,30020.9521130044,31809.9940174427
1 SHORT STREET SINGAPORE 188218,1,NIL,1.30216649837414,103.850220866477,103.850220866477,188218,SHORT STREET,1 SHORT STREET SINGAPORE 188218,29881.0713806422,31612.4800475519
1 SELEGIE ROAD GR.ID SINGAPORE 188306,1,GR.ID,1.30004685562709,103.849246371869,103.849246371869,188306,SELEGIE ROAD,GR.ID,29772.6204382833,31378.1001577806
35 SELEGIE ROAD DBS PARKLANE SHOPPING MALL SINGAPORE 188307,35,DBS PARKLANE SHOPPING MALL,1.30065102658844,103.84944198056,103.84944198056,188307,SELEGIE ROAD,DBS PARKLANE SHOPPING MALL,29794.38950512,31444.9064104538
139 SELEGIE ROAD SINGAPORE 188309,139,NIL,1.30277824339757,103.849850993328,103.849850993328,188309,SELEGIE ROAD,139 SELEGIE ROAD SINGAPORE 188309,29839.9074070742,31680.1233915836
141 SELEGIE ROAD SINGAPORE 188310,141,NIL,1.30282416618175,103.849855256512,103.849855256512,188310,SELEGIE ROAD,141 SELEGIE ROAD SINGAPORE 188310,29840.3818274504,31685.2012998704
145 SELEGIE ROAD SELEGIE COURT SINGAPORE 188312,145,SELEGIE COURT,1.30302468204801,103.849871365075,103.849871365075,188312,SELEGIE ROAD,SELEGIE COURT,29842.1744185183,31707.3733243756
147 SELEGIE ROAD SELEGIE COURT SINGAPORE 188313,147,SELEGIE COURT,1.30302468177428,103.849871364803,103.849871364803,188313,SELEGIE ROAD,SELEGIE COURT,29842.1743882503,31707.3732941076
149 SELEGIE ROAD SELEGIE COURT SINGAPORE 188314,149,SELEGIE COURT,1.30302468177428,103.849871364803,103.849871364803,188314,SELEGIE ROAD,SELEGIE COURT,29842.1743882503,31707.3732941076
151 SELEGIE ROAD SELEGIE COURT SINGAPORE 188315,151,SELEGIE COURT,1.30302468177428,103.849871364803,103.849871364803,188315,SELEGIE ROAD,SELEGIE COURT,29842.1743882503,31707.3732941076
153 SELEGIE ROAD SELEGIE COURT SINGAPORE 188316,153,SELEGIE COURT,1.30302468177428,103.849871364803,103.849871364803,188316,SELEGIE ROAD,SELEGIE COURT,29842.1743882503,31707.3732941076
159 SELEGIE ROAD HOTEL 81 - SELEGIE SINGAPORE 188317,159,HOTEL 81 - SELEGIE,1.30329354655003,103.849891021414,103.849891021414,188317,SELEGIE ROAD,HOTEL 81 - SELEGIE,29844.3617948974,31737.1029920019
161 SELEGIE ROAD HOTEL 81 - SELEGIE SINGAPORE 188318,161,HOTEL 81 - SELEGIE,1.30328440610428,103.849884117894,103.849884117894,188318,SELEGIE ROAD,HOTEL 81 - SELEGIE,29843.5935026668,31736.092283491
163 SELEGIE ROAD HOTEL 81 - SELEGIE SINGAPORE 188319,163,HOTEL 81 - SELEGIE,1.30329354655003,103.849891021414,103.849891021414,188319,SELEGIE ROAD,HOTEL 81 - SELEGIE,29844.3617948974,31737.1029920019
165 SELEGIE ROAD HOTEL 81 - SELEGIE SINGAPORE 188320,165,HOTEL 81 - SELEGIE,1.30329354655003,103.849891021414,103.849891021414,188320,SELEGIE ROAD,HOTEL 81 - SELEGIE,29844.3617948974,31737.1029920019
167 SELEGIE ROAD SINGAPORE 188321,167,NIL,1.30341761135575,103.849892623867,103.849892623867,188321,SELEGIE ROAD,167 SELEGIE ROAD SINGAPORE 188321,29844.5400430541,31750.8214410674
169 SELEGIE ROAD SINGAPORE 188322,169,NIL,1.30348518911335,103.849903184158,103.849903184158,188322,SELEGIE ROAD,169 SELEGIE ROAD SINGAPORE 188322,29845.7152580572,31758.2938495465
171 SELEGIE ROAD SINGAPORE 188323,171,NIL,1.30353297081338,103.84994938786,103.84994938786,188323,SELEGIE ROAD,171 SELEGIE ROAD SINGAPORE 188323,29850.8572739353,31763.5773379803
173 SELEGIE ROAD SINGAPORE 188324,173,NIL,1.30358336087168,103.849919559408,103.849919559408,188324,SELEGIE ROAD,173 SELEGIE ROAD SINGAPORE 188324,29847.5376025531,31769.1491894946
175 SELEGIE ROAD SINGAPORE 188325,175,NIL,1.30362607491651,103.849930012109,103.849930012109,188325,SELEGIE ROAD,175 SELEGIE ROAD SINGAPORE 188325,29848.7008617036,31773.8722964786
183 SELEGIE ROAD IBIS BUDGET SINGAPORE SELEGIE SINGAPORE 188329,183,IBIS BUDGET SINGAPORE SELEGIE,1.30378282384935,103.849952212566,103.849952212566,188329,SELEGIE ROAD,IBIS BUDGET SINGAPORE SELEGIE,29851.1714556068,31791.2048033345
207 SELEGIE ROAD SINGAPORE 188333,207,NIL,1.30454806334874,103.850224358686,103.850224358686,188333,SELEGIE ROAD,207 SELEGIE ROAD SINGAPORE 188333,29881.4582660096,31875.8212521821
209 SELEGIE ROAD SINGAPORE 188334,209,NIL,1.3045480638962,103.850224358958,103.850224358958,188334,SELEGIE ROAD,209 SELEGIE ROAD SINGAPORE 188334,29881.4582962776,31875.8213127181
211 SELEGIE ROAD SINGAPORE 188335,211,NIL,1.3045480638962,103.850224358958,103.850224358958,188335,SELEGIE ROAD,211 SELEGIE ROAD SINGAPORE 188335,29881.4582962776,31875.8213127181
213 SELEGIE ROAD SINGAPORE 188336,213,NIL,1.3045480638962,103.850224358958,103.850224358958,188336,SELEGIE ROAD,213 SELEGIE ROAD SINGAPORE 188336,29881.4582962776,31875.8213127181
215 SELEGIE ROAD SINGAPORE 188337,215,NIL,1.3045480638962,103.850224358958,103.850224358958,188337,SELEGIE ROAD,215 SELEGIE ROAD SINGAPORE 188337,29881.4582962776,31875.8213127181
217 SELEGIE ROAD SINGAPORE 188338,217,NIL,1.3045480638962,103.850224358958,103.850224358958,188338,SELEGIE ROAD,217 SELEGIE ROAD SINGAPORE 188338,29881.4582962776,31875.8213127181
219 SELEGIE ROAD SINGAPORE 188339,219,NIL,1.3045480638962,103.850224358958,103.850224358958,188339,SELEGIE ROAD,219 SELEGIE ROAD SINGAPORE 188339,29881.4582962776,31875.8213127181
221 SELEGIE ROAD SINGAPORE 188340,221,NIL,1.3045480638962,103.850224358958,103.850224358958,188340,SELEGIE ROAD,221 SELEGIE ROAD SINGAPORE 188340,29881.4582962776,31875.8213127181
223 SELEGIE ROAD SINGAPORE 188341,223,NIL,1.3045480638962,103.850224358958,103.850224358958,188341,SELEGIE ROAD,223 SELEGIE ROAD SINGAPORE 188341,29881.4582962776,31875.8213127181
225 SELEGIE ROAD SINGAPORE 188342,225,NIL,1.3045480638962,103.850224358958,103.850224358958,188342,SELEGIE ROAD,225 SELEGIE ROAD SINGAPORE 188342,29881.4582962776,31875.8213127181
227 SELEGIE ROAD SINGAPORE 188343,227,NIL,1.30468122613304,103.850318932379,103.850318932379,188343,SELEGIE ROAD,227 SELEGIE ROAD SINGAPORE 188343,29891.9833519878,31890.545778757
229 SELEGIE ROAD SINGAPORE 188344,229,NIL,1.30468122640676,103.850318932923,103.850318932923,188344,SELEGIE ROAD,229 SELEGIE ROAD SINGAPORE 188344,29891.9834125238,31890.5458090249
231 SELEGIE ROAD SINGAPORE 188345,231,NIL,1.30472239511158,103.850346324311,103.850346324311,188345,SELEGIE ROAD,231 SELEGIE ROAD SINGAPORE 188345,29895.0317919673,31895.0980532411
233 SELEGIE ROAD SINGAPORE 188346,233,NIL,1.30476735862053,103.850367212331,103.850367212331,188346,SELEGIE ROAD,233 SELEGIE ROAD SINGAPORE 188346,29897.3564033853,31900.069902515
235 SELEGIE ROAD SINGAPORE 188347,235,NIL,1.30484910311541,103.850383024243,103.850383024243,188347,SELEGIE ROAD,235 SELEGIE ROAD SINGAPORE 188347,29899.116062887,31909.1088002231
237 SELEGIE ROAD SINGAPORE 188348,237,NIL,1.30484910311541,103.850383024515,103.850383024515,188348,SELEGIE ROAD,237 SELEGIE ROAD SINGAPORE 188348,29899.116093155,31909.1088002231
239 SELEGIE ROAD SINGAPORE 188349,239,NIL,1.30484910311541,103.850383024515,103.850383024515,188349,SELEGIE ROAD,239 SELEGIE ROAD SINGAPORE 188349,29899.116093155,31909.1088002231
30 SELEGIE ROAD SELEGIE ARTS CENTRE SINGAPORE 188351,30,SELEGIE ARTS CENTRE,1.30017473955629,103.849883077182,103.849883077182,188351,SELEGIE ROAD,SELEGIE ARTS CENTRE,29843.4799371921,31392.241359774
3 SEAH STREET SINGAPORE 188379,3,NIL,1.29564011998325,103.854878102849,103.854878102849,188379,SEAH STREET,3 SEAH STREET SINGAPORE 188379,30399.3857517857,30890.8306586929
25 SEAH STREET SINGAPORE 188381,25,NIL,1.29636575576618,103.854584160765,103.854584160765,188381,SEAH STREET,25 SEAH STREET SINGAPORE 188381,30366.6719031082,30971.067451369
26 SEAH STREET MINT MUSEUM OF TOYS SINGAPORE 188382,26,MINT MUSEUM OF TOYS,1.29628457784359,103.854609889909,103.854609889909,188382,SEAH STREET,MINT MUSEUM OF TOYS,30369.5354057075,30962.0912386533
27 SEAH STREET SINGAPORE 188383,27,NIL,1.29629320863563,103.854675582955,103.854675582955,188383,SEAH STREET,27 SEAH STREET SINGAPORE 188383,30376.8464555666,30963.0456487164
28 SEAH STREET SINGAPORE 188384,28,NIL,1.29626759206218,103.854718860132,103.854718860132,188384,SEAH STREET,28 SEAH STREET SINGAPORE 188384,30381.6628484754,30960.2131405324
29 SEAH STREET SINGAPORE 188385,29,NIL,1.29622779920378,103.854753552696,103.854753552696,188385,SEAH STREET,29 SEAH STREET SINGAPORE 188385,30385.5238627465,30955.8130837381
30 SEAH STREET SINGAPORE 188386,30,NIL,1.29617557017968,103.854779854031,103.854779854031,188386,SEAH STREET,30 SEAH STREET SINGAPORE 188386,30388.4510189164,30950.0378919095
31 SEAH STREET SINGAPORE 188387,31,NIL,1.29609893173639,103.854785968927,103.854785968927,188387,SEAH STREET,31 SEAH STREET SINGAPORE 188387,30389.1316247983,30941.5636131689
32 SEAH STREET SINGAPORE 188388,32,NIL,1.2961280603066,103.854870840722,103.854870840722,188388,SEAH STREET,32 SEAH STREET SINGAPORE 188388,30398.5770820649,30944.7845806554
33 SEAH STREET SINGAPORE 188389,33,NIL,1.29609951915216,103.854915814153,103.854915814153,188389,SEAH STREET,33 SEAH STREET SINGAPORE 188389,30403.5822563879,30941.6286893338
34 SEAH STREET SINGAPORE 188390,34,NIL,1.2960671490602,103.854956108562,103.854956108562,188390,SEAH STREET,34 SEAH STREET SINGAPORE 188390,30408.0667003198,30938.0494094547
35 SEAH STREET SINGAPORE 188391,35,NIL,1.29603492731614,103.854998112852,103.854998112852,188391,SEAH STREET,35 SEAH STREET SINGAPORE 188391,30412.741439065,30934.4865348227
36 SEAH STREET SINGAPORE 188392,36,NIL,1.29600117350906,103.855037663677,103.855037663677,188392,SEAH STREET,36 SEAH STREET SINGAPORE 188392,30417.1431303294,30930.754250288
38 SEAH STREET SINGAPORE 188394,38,NIL,1.2959706801533,103.855075084997,103.855075084997,188394,SEAH STREET,38 SEAH STREET SINGAPORE 188394,30421.3078232808,30927.382487705
39 SEAH STREET HERITAGE COLLECTION ON SEAH SINGAPORE 188395,39,HERITAGE COLLECTION ON SEAH,1.29589846763238,103.855088780025,103.855088780025,188395,SEAH STREET,HERITAGE COLLECTION ON SEAH,30422.8320281366,30919.3976119924
41 SEAH STREET NAUMI SINGAPORE 188396,41,NAUMI,1.29586809259505,103.855181681794,103.855181681794,188396,SEAH STREET,NAUMI,30433.1712081591,30916.0389857162
149 ROCHOR ROAD FU LU SHOU COMPLEX SINGAPORE 188425,149,FU LU SHOU COMPLEX,1.3014529932479,103.854495182879,103.854495182879,188425,ROCHOR ROAD,FU LU SHOU COMPLEX,30356.7647380177,31533.5879100524
151 ROCHOR ROAD BUGIS VILLAGE SINGAPORE 188426,151,BUGIS VILLAGE,1.30089884673539,103.855242163313,103.855242163313,188426,ROCHOR ROAD,BUGIS VILLAGE,30439.8974503046,31472.3139486387
152 ROCHOR ROAD BUGIS VILLAGE SINGAPORE 188427,152,BUGIS VILLAGE,1.30090252607461,103.855262679246,103.855262679246,188427,ROCHOR ROAD,BUGIS VILLAGE,30442.1806853879,31472.7208108753
153 ROCHOR ROAD BUGIS VILLAGE SINGAPORE 188428,153,BUGIS VILLAGE,1.30090252607461,103.855262679246,103.855262679246,188428,ROCHOR ROAD,BUGIS VILLAGE,30442.1806853879,31472.7208108753
154 ROCHOR ROAD BUGIS VILLAGE SINGAPORE 188429,154,BUGIS VILLAGE,1.30090252607461,103.855262679246,103.855262679246,188429,ROCHOR ROAD,BUGIS VILLAGE,30442.1806853879,31472.7208108753
155 ROCHOR ROAD BUGIS VILLAGE SINGAPORE 188430,155,BUGIS VILLAGE,1.30090252607461,103.855262679246,103.855262679246,188430,ROCHOR ROAD,BUGIS VILLAGE,30442.1806853879,31472.7208108753
156 ROCHOR ROAD BUGIS VILLAGE SINGAPORE 188431,156,BUGIS VILLAGE,1.30090252607461,103.855262679246,103.855262679246,188431,ROCHOR ROAD,BUGIS VILLAGE,30442.1806853879,31472.7208108753
157 ROCHOR ROAD BUGIS VILLAGE SINGAPORE 188432,157,BUGIS VILLAGE,1.30090252607461,103.855262679246,103.855262679246,188432,ROCHOR ROAD,BUGIS VILLAGE,30442.1806853879,31472.7208108753
158 ROCHOR ROAD BUGIS VILLAGE SINGAPORE 188433,158,BUGIS VILLAGE,1.30090252607461,103.855262679246,103.855262679246,188433,ROCHOR ROAD,BUGIS VILLAGE,30442.1806853879,31472.7208108753
159 ROCHOR ROAD BUGIS VILLAGE SINGAPORE 188434,159,BUGIS VILLAGE,1.30090252607461,103.855262679246,103.855262679246,188434,ROCHOR ROAD,BUGIS VILLAGE,30442.1806853879,31472.7208108753
160 ROCHOR ROAD BUGIS VILLAGE SINGAPORE 188435,160,BUGIS VILLAGE,1.30090252607461,103.855262679246,103.855262679246,188435,ROCHOR ROAD,BUGIS VILLAGE,30442.1806853879,31472.7208108753
161 ROCHOR ROAD BUGIS VILLAGE SINGAPORE 188436,161,BUGIS VILLAGE,1.30090252607461,103.855262679246,103.855262679246,188436,ROCHOR ROAD,BUGIS VILLAGE,30442.1806853879,31472.7208108753
162 ROCHOR ROAD BUGIS VILLAGE SINGAPORE 188437,162,BUGIS VILLAGE,1.30090252607461,103.855262679246,103.855262679246,188437,ROCHOR ROAD,BUGIS VILLAGE,30442.1806853879,31472.7208108753
163 ROCHOR ROAD BUGIS VILLAGE SINGAPORE 188438,163,BUGIS VILLAGE,1.30090252607461,103.855262679246,103.855262679246,188438,ROCHOR ROAD,BUGIS VILLAGE,30442.1806853879,31472.7208108753
164 ROCHOR ROAD BUGIS VILLAGE SINGAPORE 188439,164,BUGIS VILLAGE,1.30090252607461,103.855262679246,103.855262679246,188439,ROCHOR ROAD,BUGIS VILLAGE,30442.1806853879,31472.7208108753
165 ROCHOR ROAD BUGIS VILLAGE SINGAPORE 188440,165,BUGIS VILLAGE,1.30090252607461,103.855262679246,103.855262679246,188440,ROCHOR ROAD,BUGIS VILLAGE,30442.1806853879,31472.7208108753
166 ROCHOR ROAD BUGIS VILLAGE SINGAPORE 188441,166,BUGIS VILLAGE,1.30090252607461,103.855262679246,103.855262679246,188441,ROCHOR ROAD,BUGIS VILLAGE,30442.1806853879,31472.7208108753
191 ROCHOR ROAD BUGIS MRT STATION (DT14) SINGAPORE 188476,191,BUGIS MRT STATION (DT14),1.29931350344582,103.857125959023,103.857125959023,188476,ROCHOR ROAD,BUGIS MRT STATION (DT14),30649.548609254,31297.0167393312
1 ROCHOR CANAL ROAD DBS SIM LIM SQUARE SINGAPORE 188504,1,DBS SIM LIM SQUARE,1.30290658774258,103.853031869482,103.853031869482,188504,ROCHOR CANAL ROAD,DBS SIM LIM SQUARE,30193.90990985,31694.3175928146
11 ROCHOR CANAL ROAD SINGAPORE 188505,11,NIL,1.3035276709674,103.852562541239,103.852562541239,188505,ROCHOR CANAL ROAD,11 ROCHOR CANAL ROAD SINGAPORE 188505,30141.6774189239,31762.9933777712
A QUEEN STREET CATHEDRAL OF THE GOOD SHEPHERD SINGAPORE 188533,A,CATHEDRAL OF THE GOOD SHEPHERD,1.29608932061278,103.851224756863,103.851224756863,188533,QUEEN STREET,CATHEDRAL OF THE GOOD SHEPHERD,29992.8000429571,30940.4977866579
1 QUEEN STREET KUM YAN METHODIST CHURCH SINGAPORE 188534,1,KUM YAN METHODIST CHURCH,1.29690024371783,103.851818657988,103.851818657988,188534,QUEEN STREET,KUM YAN METHODIST CHURCH,30058.8953612288,31030.1659619883
8 QUEEN STREET 8Q SINGAPORE 188535,8,8Q,1.29719230839993,103.852067493578,103.852067493578,188535,QUEEN STREET,8Q,30086.5883264998,31062.4611741826
14 QUEEN STREET GRACE (SCC) CHURCH SINGAPORE 188536,14,GRACE (SCC) CHURCH,1.29779295896183,103.852441487236,103.852441487236,188536,QUEEN STREET,GRACE (SCC) CHURCH,30128.2100125169,31128.8783319257
15 QUEEN STREET TAN CHONG TOWER SINGAPORE 188537,15,TAN CHONG TOWER,1.29801020033006,103.852687751472,103.852687751472,188537,QUEEN STREET,TAN CHONG TOWER,30155.6168545373,31152.8999723792
52 QUEEN STREET SINGAPORE 188539,52,NIL,1.30045194505102,103.854416018869,103.854416018869,188539,QUEEN STREET,52 QUEEN STREET SINGAPORE 188539,30347.9554229649,31422.8970763627
62 QUEEN STREET BUGIS VILLAGE SINGAPORE 188541,62,BUGIS VILLAGE,1.30061951050718,103.854631979777,103.854631979777,188541,QUEEN STREET,BUGIS VILLAGE,30371.9897759715,31441.4258042034
63 QUEEN STREET BUGIS VILLAGE SINGAPORE 188542,63,BUGIS VILLAGE,1.30061951050718,103.854631980049,103.854631980049,188542,QUEEN STREET,BUGIS VILLAGE,30371.9898062395,31441.4258042034
64 QUEEN STREET BUGIS VILLAGE SINGAPORE 188543,64,BUGIS VILLAGE,1.30089374009976,103.854880058736,103.854880058736,188543,QUEEN STREET,BUGIS VILLAGE,30399.598475175,31471.7489361856
65 QUEEN STREET BUGIS VILLAGE SINGAPORE 188544,65,BUGIS VILLAGE,1.30089736824545,103.854869709434,103.854869709434,188544,QUEEN STREET,BUGIS VILLAGE,30398.4466875913,31472.1501080431
66 QUEEN STREET BUGIS VILLAGE SINGAPORE 188545,66,BUGIS VILLAGE,1.30089736824545,103.854869709434,103.854869709434,188545,QUEEN STREET,BUGIS VILLAGE,30398.4466875913,31472.1501080431
67 QUEEN STREET BUGIS VILLAGE SINGAPORE 188546,67,BUGIS VILLAGE,1.30089736824545,103.854869709434,103.854869709434,188546,QUEEN STREET,BUGIS VILLAGE,30398.4466875913,31472.1501080431
217 QUEEN STREET CHINA CULTURAL CENTRE SINGAPORE 188548,217,CHINA CULTURAL CENTRE,1.2981079713914,103.852045585688,103.852045585688,188548,QUEEN STREET,CHINA CULTURAL CENTRE,30084.1494231755,31163.7104551755
218 QUEEN STREET OXFORD HOTEL SINGAPORE 188549,218,OXFORD HOTEL,1.29800826390063,103.851820814059,103.851820814059,188549,QUEEN STREET,OXFORD HOTEL,30059.1344177648,31152.6851302311
222 QUEEN STREET SINGAPORE 188550,222,NIL,1.29778864264783,103.851757262584,103.851757262584,188550,QUEEN STREET,222 QUEEN STREET SINGAPORE 188550,30052.0618796172,31128.4004912674
225A QUEEN STREET CHURCH OF SAINTS PETER & PAUL SINGAPORE 188551,225A,CHURCH OF SAINTS PETER & PAUL,1.29781585257343,103.851335379951,103.851335379951,188551,QUEEN STREET,CHURCH OF SAINTS PETER & PAUL,30005.1100622034,31131.4088867046
225B QUEEN STREET SINGAPORE 188552,225B,NIL,1.29743589243922,103.851544890256,103.851544890256,188552,QUEEN STREET,225B QUEEN STREET SINGAPORE 188552,30028.42700346,31089.395018423
12 QUEEN STREET HOTEL GRAND PACIFIC SINGAPORE 188553,12,HOTEL GRAND PACIFIC,1.29755506526153,103.852228303832,103.852228303832,188553,QUEEN STREET,HOTEL GRAND PACIFIC,30104.4847864285,31102.5730931722
225C QUEEN STREET SINGAPORE 188554,225C,NIL,1.29755155245443,103.851408176609,103.851408176609,188554,QUEEN STREET,225C QUEEN STREET SINGAPORE 188554,30013.2118934048,31102.183998242
70A QUEEN STREET TEMPORARY SITE OFFICE SINGAPORE 188557,70A,TEMPORARY SITE OFFICE,1.30163434641341,103.855615207555,103.855615207555,188557,QUEEN STREET,TEMPORARY SITE OFFICE,30481.4131983789,31553.6420837361
5 PURVIS STREET TALIB COURT SINGAPORE 188584,5,TALIB COURT,1.29682153641965,103.85497956159,103.85497956159,188584,PURVIS STREET,TALIB COURT,30410.6761031961,31021.4657024816
6 PURVIS STREET THE POST SINGAPORE 188585,6,THE POST,1.29676543138483,103.855095142029,103.855095142029,188585,PURVIS STREET,THE POST,30423.5392395761,31015.2620068062
7 PURVIS STREET BEACH ROAD CONSERVATION AREA SINGAPORE 188586,7,BEACH ROAD CONSERVATION AREA,1.29674959280256,103.85514042372,103.85514042372,188586,PURVIS STREET,BEACH ROAD CONSERVATION AREA,30428.5787075255,31013.5107012689
8 PURVIS STREET TAN SEE SWAN & SONS BUILDING SINGAPORE 188587,8,TAN SEE SWAN & SONS BUILDING,1.29671852403796,103.855180216904,103.855180216904,188587,PURVIS STREET,TAN SEE SWAN & SONS BUILDING,30433.0073675625,31010.0753153842
9 PURVIS STREET SINGAPORE 188588,9,NIL,1.29669777606947,103.855255063985,103.855255063985,188588,PURVIS STREET,9 PURVIS STREET SINGAPORE 188588,30441.3372074859,31007.7811838258
11 PURVIS STREET BEACH ROAD CONSERVATION AREA SINGAPORE 188590,11,BEACH ROAD CONSERVATION AREA,1.29662801513891,103.855295737475,103.855295737475,188590,PURVIS STREET,BEACH ROAD CONSERVATION AREA,30445.863875255,31000.0674184449
12 PURVIS STREET BEACH ROAD CONSERVATION AREA SINGAPORE 188591,12,BEACH ROAD CONSERVATION AREA,1.2966216643103,103.855352620443,103.855352620443,188591,PURVIS STREET,BEACH ROAD CONSERVATION AREA,30452.194454317,30999.3652314898
13 PURVIS STREET HOTEL NUVE HERITAGE SINGAPORE 188592,13,HOTEL NUVE HERITAGE,1.29651405065924,103.855342374363,103.855342374363,188592,PURVIS STREET,HOTEL NUVE HERITAGE,30451.0542593701,30987.4658579789
14 PURVIS STREET HOTEL KAI SINGAPORE 188593,14,HOTEL KAI,1.29652179100276,103.85540531479,103.85540531479,188593,PURVIS STREET,HOTEL KAI,30458.0589669663,30988.3218062911
15 PURVIS STREET BEACH ROAD CONSERVATION AREA SINGAPORE 188594,15,BEACH ROAD CONSERVATION AREA,1.29650534581856,103.855451065621,103.855451065621,188594,PURVIS STREET,BEACH ROAD CONSERVATION AREA,30463.1506471876,30986.5034269001
16 PURVIS STREET SINGAPORE 188595,16,NIL,1.29644422137834,103.855466970773,103.855466970773,188595,PURVIS STREET,16 PURVIS STREET SINGAPORE 188595,30464.9208096787,30979.7446164042
17 PURVIS STREET SINGAPORE 188596,17,NIL,1.29646823225185,103.855547492366,103.855547492366,188596,PURVIS STREET,17 PURVIS STREET SINGAPORE 188596,30473.8821305465,30982.3996936679
18 PURVIS STREET SINGAPORE 188597,18,NIL,1.29639328606048,103.855549533128,103.855549533128,188597,PURVIS STREET,18 PURVIS STREET SINGAPORE 188597,30474.109322032,30974.1125316024
19 PURVIS STREET SINGAPORE 188598,19,NIL,1.29632906871432,103.855626912954,103.855626912954,188598,PURVIS STREET,19 PURVIS STREET SINGAPORE 188598,30482.7210779553,30967.0117836948
23 PURVIS STREET BEACH ROAD CONSERVATION AREA SINGAPORE 188600,23,BEACH ROAD CONSERVATION AREA,1.29607084469305,103.85543297333,103.85543297333,188600,PURVIS STREET,BEACH ROAD CONSERVATION AREA,30461.1375538586,30938.458511522
24 PURVIS STREET BEACH ROAD CONSERVATION AREA SINGAPORE 188601,24,BEACH ROAD CONSERVATION AREA,1.29610008684227,103.855393082778,103.855393082778,188601,PURVIS STREET,BEACH ROAD CONSERVATION AREA,30456.6980578825,30941.6919191517
25 PURVIS STREET BEACH ROAD CONSERVATION AREA SINGAPORE 188602,25,BEACH ROAD CONSERVATION AREA,1.29613016468677,103.85535443378,103.85535443378,188602,PURVIS STREET,BEACH ROAD CONSERVATION AREA,30452.3967352519,30945.0177349336
26 PURVIS STREET BEACH ROAD CONSERVATION AREA SINGAPORE 188603,26,BEACH ROAD CONSERVATION AREA,1.29616081189132,103.855316238977,103.855316238977,188603,PURVIS STREET,BEACH ROAD CONSERVATION AREA,30448.1459601549,30948.4065081235
27 PURVIS STREET AN CHUAN BUILDING SINGAPORE 188604,27,AN CHUAN BUILDING,1.2962029218516,103.855256498183,103.855256498183,188604,PURVIS STREET,AN CHUAN BUILDING,30441.4972948516,30953.0627531298
28 PURVIS STREET AN CHUAN BUILDING SINGAPORE 188605,28,AN CHUAN BUILDING,1.2962045420753,103.855256704895,103.855256704895,188605,PURVIS STREET,AN CHUAN BUILDING,30441.5202985192,30953.2419093251
30 PURVIS STREET SINGAPORE 188607,30,NIL,1.29627387187555,103.855184573332,103.855184573332,188607,PURVIS STREET,30 PURVIS STREET SINGAPORE 188607,30433.4926238777,30960.9079723656
31 PURVIS STREET BEACH ROAD CONSERVATION AREA SINGAPORE 188608,31,BEACH ROAD CONSERVATION AREA,1.29632360061568,103.855127958906,103.855127958906,188608,PURVIS STREET,BEACH ROAD CONSERVATION AREA,30427.1918890476,30966.4066661634
36 PURVIS STREET TALIB CENTRE SINGAPORE 188613,36,TALIB CENTRE,1.29641313378931,103.854868602361,103.854868602361,188613,PURVIS STREET,TALIB CENTRE,30398.3277041465,30976.3065366708
30 PRINSEP STREET INCOME AT PRINSEP SINGAPORE 188647,30,INCOME AT PRINSEP,1.29902392986197,103.849437036689,103.849437036689,188647,PRINSEP STREET,INCOME AT PRINSEP,29793.8404438961,31264.9904279038
36 PRINSEP STREET SINGAPORE 188648,36,NIL,1.29921365788375,103.849628513346,103.849628513346,188648,PRINSEP STREET,36 PRINSEP STREET SINGAPORE 188648,29815.1499519367,31285.9697122425
77 PRINSEP STREET PRINSEP STREET PRESBYTERIAN CHURCH SINGAPORE 188649,77,PRINSEP STREET PRESBYTERIAN CHURCH,1.30176806545836,103.851100829683,103.851100829683,188649,PRINSEP STREET,PRINSEP STREET PRESBYTERIAN CHURCH,29979.0036235666,31568.424058944
104 PRINSEP STREET KENG SOON BUILDING SINGAPORE 188653,104,KENG SOON BUILDING,1.30143623601063,103.851511559413,103.851511559413,188653,PRINSEP STREET,KENG SOON BUILDING,30024.7143931128,31531.7323918454
110 PRINSEP STREET SINGAPORE 188654,110,NIL,1.30160405211216,103.851625001879,103.851625001879,188654,PRINSEP STREET,110 PRINSEP STREET SINGAPORE 188654,30037.3393809972,31550.2887240872
128 PRINSEP STREET SIN THAI HIN BUILDING SINGAPORE 188655,128,SIN THAI HIN BUILDING,1.30185625720282,103.851832282533,103.851832282533,188655,PRINSEP STREET,SIN THAI HIN BUILDING,30060.4076405,31578.1764335651
144 PRINSEP STREET SINGAPORE LIFE CHURCH SINGAPORE 188657,144,SINGAPORE LIFE CHURCH,1.3023169758111,103.852124958709,103.852124958709,188657,PRINSEP STREET,SINGAPORE LIFE CHURCH,30092.9794717971,31629.1205677632
138 PRINSEP STREET SINGAPORE 188659,138,NIL,1.30209131060406,103.85198096735,103.85198096735,188659,PRINSEP STREET,138 PRINSEP STREET SINGAPORE 188659,30076.9547234457,31604.1675511841
62 PRINSEP STREET SINGAPORE 188660,62,NIL,1.29973686514306,103.849911763508,103.849911763508,188660,PRINSEP STREET,62 PRINSEP STREET SINGAPORE 188660,29846.6727857227,31343.8234822992
68 PRINSEP STREET SINGAPORE 188661,68,NIL,1.29977395515209,103.850115966966,103.850115966966,188661,PRINSEP STREET,68 PRINSEP STREET SINGAPORE 188661,29869.3987748651,31347.9248546287
70 PRINSEP STREET SINGAPORE 188662,70,NIL,1.29981051223709,103.850150054202,103.850150054202,188662,PRINSEP STREET,70 PRINSEP STREET SINGAPORE 188662,29873.1923520686,31351.9671741221
76 PRINSEP STREET SINGAPORE 188663,76,NIL,1.29990867899812,103.850258461306,103.850258461306,188663,PRINSEP STREET,76 PRINSEP STREET SINGAPORE 188663,29885.2570190383,31362.8220297843
60 PRINSEP STREET SINGAPORE 188664,60,NIL,1.29970279376036,103.849887319583,103.849887319583,188664,PRINSEP STREET,60 PRINSEP STREET SINGAPORE 188664,29843.9524204182,31340.0560263675
38 PRINSEP STREET SINGAPORE 188665,38,NIL,1.29928320721565,103.849700824179,103.849700824179,188665,PRINSEP STREET,38 PRINSEP STREET SINGAPORE 188665,29823.1974521074,31293.6601712778
40 PRINSEP STREET SINGAPORE 188666,40,NIL,1.2993184793875,103.849737436377,103.849737436377,188666,PRINSEP STREET,40 PRINSEP STREET SINGAPORE 188666,29827.2720372714,31297.5604128558
64 PRINSEP STREET SINGAPORE 188667,64,NIL,1.29969277900223,103.850046990128,103.850046990128,188667,PRINSEP STREET,64 PRINSEP STREET SINGAPORE 188667,29861.7223299062,31338.9487629868
66 PRINSEP STREET SINGAPORE 188668,66,NIL,1.29973598695883,103.850084013881,103.850084013881,188668,PRINSEP STREET,66 PRINSEP STREET SINGAPORE 188668,29865.8427105304,31343.7265036795
74 PRINSEP STREET SINGAPORE 188669,74,NIL,1.29988651352712,103.850209351005,103.850209351005,188669,PRINSEP STREET,74 PRINSEP STREET SINGAPORE 188669,29879.7914989507,31360.3710495345
42 PRINSEP STREET SINGAPORE 188670,42,NIL,1.29936481893833,103.849761619011,103.849761619011,188670,PRINSEP STREET,42 PRINSEP STREET SINGAPORE 188670,29829.9633150436,31302.6844192836
72 PRINSEP STREET SINGAPORE 188671,72,NIL,1.29985015898744,103.850177933983,103.850177933983,188671,PRINSEP STREET,72 PRINSEP STREET SINGAPORE 188671,29876.2950928109,31356.3511283491
50 PRINSEP STREET PRINSEP PLACE SINGAPORE 188672,50,PRINSEP PLACE,1.29953466307853,103.849728550018,103.849728550018,188672,PRINSEP STREET,PRINSEP PLACE,29826.282909831,31321.4648859445
44 PRINSEP STREET PRINSEP PLACE SINGAPORE 188673,44,PRINSEP PLACE,1.29943059843284,103.849831300681,103.849831300681,188673,PRINSEP STREET,PRINSEP PLACE,29837.7182146152,31309.9580276459
44A PRINSEP STREET PRINSEP PLACE SINGAPORE 188674,44A,PRINSEP PLACE,1.29953466307853,103.849728550018,103.849728550018,188674,PRINSEP STREET,PRINSEP PLACE,29826.282909831,31321.4648859445
46 PRINSEP STREET PRINSEP PLACE SINGAPORE 188675,46,PRINSEP PLACE,1.29953466307853,103.849728550018,103.849728550018,188675,PRINSEP STREET,PRINSEP PLACE,29826.282909831,31321.4648859445
46A PRINSEP STREET PRINSEP PLACE SINGAPORE 188676,46A,PRINSEP PLACE,1.29953466307853,103.849728550018,103.849728550018,188676,PRINSEP STREET,PRINSEP PLACE,29826.282909831,31321.4648859445
48 PRINSEP STREET PRINSEP PLACE SINGAPORE 188677,48,PRINSEP PLACE,1.29953466307853,103.849728550018,103.849728550018,188677,PRINSEP STREET,PRINSEP PLACE,29826.282909831,31321.4648859445
48A PRINSEP STREET PRINSEP PLACE SINGAPORE 188678,48A,PRINSEP PLACE,1.29953466307853,103.849728550018,103.849728550018,188678,PRINSEP STREET,PRINSEP PLACE,29826.282909831,31321.4648859445
48B PRINSEP STREET PRINSEP PLACE SINGAPORE 188679,48B,PRINSEP PLACE,1.29953466307853,103.849728550018,103.849728550018,188679,PRINSEP STREET,PRINSEP PLACE,29826.282909831,31321.4648859445
50A PRINSEP STREET PRINSEP PLACE SINGAPORE 188680,50A,PRINSEP PLACE,1.29953466307853,103.849728550018,103.849728550018,188680,PRINSEP STREET,PRINSEP PLACE,29826.282909831,31321.4648859445
50B PRINSEP STREET PRINSEP PLACE SINGAPORE 188681,50B,PRINSEP PLACE,1.29940119244176,103.849989822546,103.849989822546,188681,PRINSEP STREET,PRINSEP PLACE,29855.3603024092,31306.7065802999
52 PRINSEP STREET PRINSEP PLACE SINGAPORE 188682,52,PRINSEP PLACE,1.2993782213553,103.849984116708,103.849984116708,188682,PRINSEP STREET,PRINSEP PLACE,29854.7253103787,31304.1665516421
52A PRINSEP STREET PRINSEP PLACE SINGAPORE 188683,52A,PRINSEP PLACE,1.29939013931823,103.849998784475,103.849998784475,188683,PRINSEP STREET,PRINSEP PLACE,29856.3576930081,31305.4843893852
54 PRINSEP STREET PRINSEP PLACE SINGAPORE 188684,54,PRINSEP PLACE,1.29939013931823,103.849998784475,103.849998784475,188684,PRINSEP STREET,PRINSEP PLACE,29856.3576930081,31305.4843893852
56 PRINSEP STREET PRINSEP PLACE SINGAPORE 188685,56,PRINSEP PLACE,1.29953466307853,103.849728550018,103.849728550018,188685,PRINSEP STREET,PRINSEP PLACE,29826.282909831,31321.4648859445
58 PRINSEP STREET PRINSEP PLACE SINGAPORE 188686,58,PRINSEP PLACE,1.29953466307853,103.849728550018,103.849728550018,188686,PRINSEP STREET,PRINSEP PLACE,29826.282909831,31321.4648859445
50 OPHIR ROAD CHURCH OF OUR LADY OF LOURDES SINGAPORE 188690,50,CHURCH OF OUR LADY OF LOURDES,1.30320219891947,103.856056391101,103.856056391101,188690,OPHIR ROAD,CHURCH OF OUR LADY OF LOURDES,30530.5113790547,31727.0075903218
328 NORTH BRIDGE ROAD RAFFLES HOTEL SINGAPORE 188719,328,RAFFLES HOTEL,1.2957639685708,103.854027818424,103.854027818424,188719,NORTH BRIDGE ROAD,RAFFLES HOTEL,30304.7564420477,30904.5244090818
331 NORTH BRIDGE ROAD HIGH COMMISSION OF THE REPUBLIC OF SOUTH AFRICA SINGAPORE 188720,331,HIGH COMMISSION OF THE REPUBLIC OF SOUTH AFRICA,1.29604208403261,103.85324556132,103.85324556132,188720,NORTH BRIDGE ROAD,HIGH COMMISSION OF THE REPUBLIC OF SOUTH AFRICA,30217.6978512006,30935.2762870546
333 NORTH BRIDGE ROAD SINGAPORE 188721,333,NIL,1.29613874144379,103.853609529481,103.853609529481,188721,NORTH BRIDGE ROAD,333 NORTH BRIDGE ROAD SINGAPORE 188721,30258.2042225543,30945.9644871969
402 NORTH BRIDGE ROAD JUNXIN BUILDING SINGAPORE 188722,402,JUNXIN BUILDING,1.29645016225217,103.854409510357,103.854409510357,188722,NORTH BRIDGE ROAD,JUNXIN BUILDING,30347.2347725406,30980.4005236123
408 NORTH BRIDGE ROAD LUBRITRADE BUILDING SINGAPORE 188725,408,LUBRITRADE BUILDING,1.29657467706947,103.854477083688,103.854477083688,188725,NORTH BRIDGE ROAD,LUBRITRADE BUILDING,30354.7549741669,30994.168793777
410 NORTH BRIDGE ROAD SINGAPORE 188726,410,NIL,1.29672135210088,103.854590228958,103.854590228958,188726,NORTH BRIDGE ROAD,410 NORTH BRIDGE ROAD SINGAPORE 188726,30367.3469094131,31010.3874690998
420 NORTH BRIDGE ROAD BERITH BIBLE-PRESBYTERIAN CHURCH SINGAPORE 188727,420,BERITH BIBLE-PRESBYTERIAN CHURCH,1.29721595747338,103.854944618825,103.854944618825,188727,NORTH BRIDGE ROAD,BERITH BIBLE-PRESBYTERIAN CHURCH,30406.7869094322,31065.0787191466
450 NORTH BRIDGE ROAD SINGAPORE 188732,450,NIL,1.29767961022163,103.855323459046,103.855323459046,188732,NORTH BRIDGE ROAD,450 NORTH BRIDGE ROAD SINGAPORE 188732,30448.9480314553,31116.3474169355
452 NORTH BRIDGE ROAD CHAN BROTHERS BUILDING SINGAPORE 188733,452,CHAN BROTHERS BUILDING,1.29776122705905,103.855315935124,103.855315935124,188733,NORTH BRIDGE ROAD,CHAN BROTHERS BUILDING,30448.11060715,31125.372179497
460 NORTH BRIDGE ROAD SINGAPORE 188734,460,NIL,1.29785906921886,103.855424853911,103.855424853911,188734,NORTH BRIDGE ROAD,460 NORTH BRIDGE ROAD SINGAPORE 188734,30460.232208197,31136.1911675967
470 NORTH BRIDGE ROAD BUGIS CUBE SINGAPORE 188735,470,BUGIS CUBE,1.29819500487878,103.855655544739,103.855655544739,188735,NORTH BRIDGE ROAD,BUGIS CUBE,30485.9057238624,31173.3374295421
490 NORTH BRIDGE ROAD BACKPACKER COZY CORNER GUESTHOUSE SINGAPORE 188736,490,BACKPACKER COZY CORNER GUESTHOUSE,1.2983701959167,103.85577638338,103.85577638338,188736,NORTH BRIDGE ROAD,BACKPACKER COZY CORNER GUESTHOUSE,30499.3538192958,31192.709272068
492 NORTH BRIDGE ROAD BACKPACKER COZY CORNER GUESTHOUSE SINGAPORE 188737,492,BACKPACKER COZY CORNER GUESTHOUSE,1.29841101035596,103.855803460656,103.855803460656,188737,NORTH BRIDGE ROAD,BACKPACKER COZY CORNER GUESTHOUSE,30502.3672392182,31197.2223495115
494 NORTH BRIDGE ROAD SINGAPORE 188738,494,NIL,1.29844696956138,103.855834084394,103.855834084394,188738,NORTH BRIDGE ROAD,494 NORTH BRIDGE ROAD SINGAPORE 188738,30505.7753536496,31201.1985637285
496 NORTH BRIDGE ROAD SINGAPORE 188739,496,NIL,1.29850520002898,103.85585644394,103.85585644394,188739,NORTH BRIDGE ROAD,496 NORTH BRIDGE ROAD SINGAPORE 188739,30508.2637148583,31207.637411369
516 NORTH BRIDGE ROAD SINGAPORE 188740,516,NIL,1.2986170335478,103.855957540738,103.855957540738,188740,NORTH BRIDGE ROAD,516 NORTH BRIDGE ROAD SINGAPORE 188740,30519.5147784259,31220.003486922
520 NORTH BRIDGE ROAD WISMA ALSAGOFF SINGAPORE 188742,520,WISMA ALSAGOFF,1.29871978649599,103.85606111485,103.85606111485,188742,NORTH BRIDGE ROAD,WISMA ALSAGOFF,30531.0415530568,31231.3654826488
530 NORTH BRIDGE ROAD BUGIS POINT SINGAPORE 188747,530,BUGIS POINT,1.29884443612115,103.856138980534,103.856138980534,188747,NORTH BRIDGE ROAD,BUGIS POINT,30539.7071859911,31245.1486749295
534 NORTH BRIDGE ROAD SINGAPORE 188749,534,NIL,1.2989648592953,103.85615792768,103.85615792768,188749,NORTH BRIDGE ROAD,534 NORTH BRIDGE ROAD SINGAPORE 188749,30541.8157142736,31258.4644690063
585 NORTH BRIDGE ROAD 24 HOUR WALK-IN CLINIC ACCIDENT & EMERGENCY (RAFFLES HOSPITAL) SINGAPORE 188770,585,24 HOUR WALK-IN CLINIC ACCIDENT & EMERGENCY (RAFFLES HOSPITAL),1.30114329771677,103.857243718624,103.857243718624,188770,NORTH BRIDGE ROAD,24 HOUR WALK-IN CLINIC ACCIDENT & EMERGENCY (RAFFLES HOSPITAL),30662.6522853011,31499.3461032882
600 NORTH BRIDGE ROAD CONSULATE-GENERAL OF THE SULTANATE OF OMAN SINGAPORE 188778,600,CONSULATE-GENERAL OF THE SULTANATE OF OMAN,1.30014384594801,103.857516785143,103.857516785143,188778,NORTH BRIDGE ROAD,CONSULATE-GENERAL OF THE SULTANATE OF OMAN,30693.0431872997,31388.8321556952
660 NORTH BRIDGE ROAD KAMPONG GLAM CONSERVATION AREA SINGAPORE 188797,660,KAMPONG GLAM CONSERVATION AREA,1.30140177405083,103.858240245882,103.858240245882,188797,NORTH BRIDGE ROAD,KAMPONG GLAM CONSERVATION AREA,30773.5565082757,31527.9281603117
662 NORTH BRIDGE ROAD KAMPONG GLAM CONSERVATION AREA SINGAPORE 188798,662,KAMPONG GLAM CONSERVATION AREA,1.30142785014864,103.858265554998,103.858265554998,188798,NORTH BRIDGE ROAD,KAMPONG GLAM CONSERVATION AREA,30776.3731560363,31530.8115489781
664 NORTH BRIDGE ROAD KAMPONG GLAM CONSERVATION AREA SINGAPORE 188799,664,KAMPONG GLAM CONSERVATION AREA,1.301450968845,103.858289887979,103.858289887979,188799,NORTH BRIDGE ROAD,KAMPONG GLAM CONSERVATION AREA,30779.0811720043,31533.367922347
666 NORTH BRIDGE ROAD KAMPONG GLAM CONSERVATION AREA SINGAPORE 188800,666,KAMPONG GLAM CONSERVATION AREA,1.30147743777218,103.858312878813,103.858312878813,188800,NORTH BRIDGE ROAD,KAMPONG GLAM CONSERVATION AREA,30781.6398154711,31536.2947455682
668 NORTH BRIDGE ROAD KAMPONG GLAM CONSERVATION AREA SINGAPORE 188801,668,KAMPONG GLAM CONSERVATION AREA,1.30150734150738,103.858335163916,103.858335163916,188801,NORTH BRIDGE ROAD,KAMPONG GLAM CONSERVATION AREA,30784.1199135212,31539.6013714485
670 NORTH BRIDGE ROAD KAMPONG GLAM CONSERVATION AREA SINGAPORE 188802,670,KAMPONG GLAM CONSERVATION AREA,1.30153585958821,103.858359245378,103.858359245378,188802,NORTH BRIDGE ROAD,KAMPONG GLAM CONSERVATION AREA,30786.7999316035,31542.7547807973
672 NORTH BRIDGE ROAD KAMPONG GLAM CONSERVATION AREA SINGAPORE 188803,672,KAMPONG GLAM CONSERVATION AREA,1.30156677957915,103.858392962818,103.858392962818,188803,NORTH BRIDGE ROAD,KAMPONG GLAM CONSERVATION AREA,30790.5523443492,31546.173791701
674 NORTH BRIDGE ROAD KAMPONG GLAM CONSERVATION AREA SINGAPORE 188804,674,KAMPONG GLAM CONSERVATION AREA,1.30164991942774,103.858444541694,103.858444541694,188804,NORTH BRIDGE ROAD,KAMPONG GLAM CONSERVATION AREA,30796.2925161207,31555.3670258597
676 NORTH BRIDGE ROAD KAMPONG GLAM CONSERVATION AREA SINGAPORE 188805,676,KAMPONG GLAM CONSERVATION AREA,1.30168496079618,103.858472750937,103.858472750937,188805,NORTH BRIDGE ROAD,KAMPONG GLAM CONSERVATION AREA,30799.4319113921,31559.2417515274
678 NORTH BRIDGE ROAD KAMPONG GLAM CONSERVATION AREA SINGAPORE 188806,678,KAMPONG GLAM CONSERVATION AREA,1.30172151625029,103.858494091823,103.858494091823,188806,NORTH BRIDGE ROAD,KAMPONG GLAM CONSERVATION AREA,30801.8069190029,31563.2838894129
680 NORTH BRIDGE ROAD KAMPONG GLAM CONSERVATION AREA SINGAPORE 188807,680,KAMPONG GLAM CONSERVATION AREA,1.30177539699389,103.858497200721,103.858497200721,188807,NORTH BRIDGE ROAD,KAMPONG GLAM CONSERVATION AREA,30802.1528517883,31569.241748523
3 NEW BUGIS STREET DBS NEW BUGIS STREET SINGAPORE 188867,3,DBS NEW BUGIS STREET,1.30048327348075,103.854903071386,103.854903071386,188867,NEW BUGIS STREET,DBS NEW BUGIS STREET,30402.1599638332,31426.3616708498
3 MILLER STREET SIAKSON BUILDING SINGAPORE 188899,3,SIAKSON BUILDING,1.29680275099132,103.853007829165,103.853007829165,188899,MILLER STREET,SIAKSON BUILDING,30191.2396985944,31019.3867157511
21 MIDDLE ROAD SPCC BUILDING SINGAPORE 188931,21,SPCC BUILDING,1.29675138541291,103.855862427294,103.855862427294,188931,MIDDLE ROAD,SPCC BUILDING,30508.9313357752,31013.7096224576
23 MIDDLE ROAD POPULOUS HOTEL SINGAPORE 188933,23,POPULOUS HOTEL,1.29677607297868,103.855724564005,103.855724564005,188933,MIDDLE ROAD,POPULOUS HOTEL,30493.588343489,31016.4393103011
30 MIDDLE ROAD THE M SINGAPORE 188940,30,THE M,1.29751049338808,103.856297302855,103.856297302855,188940,MIDDLE ROAD,THE M,30557.3283888763,31097.6483106148
32 MIDDLE ROAD THE M SINGAPORE 188941,32,THE M,1.29722844847129,103.856121181592,103.856121181592,188941,MIDDLE ROAD,THE M,30537.7279322678,31066.4610579629
33 MIDDLE ROAD IBIS BUDGET SINGAPORE BUGIS SINGAPORE 188942,33,IBIS BUDGET SINGAPORE BUGIS,1.29695378285903,103.855573911793,103.855573911793,188942,MIDDLE ROAD,IBIS BUDGET SINGAPORE BUGIS,30476.8219084647,31036.0894064028
34 MIDDLE ROAD MILIEU @ MIDDLE ROAD SINGAPORE 188943,34,MILIEU @ MIDDLE ROAD,1.29752602067445,103.855590946264,103.855590946264,188943,MIDDLE ROAD,MILIEU @ MIDDLE ROAD,30478.7171382653,31099.364535559
36 MIDDLE ROAD THE M SINGAPORE 188945,36,THE M,1.29771485668813,103.855719676504,103.855719676504,188945,MIDDLE ROAD,THE M,30493.0434895139,31120.2451765388
37 MIDDLE ROAD UWEEI BUILDING SINGAPORE 188946,37,UWEEI BUILDING,1.29696035261373,103.855462301977,103.855462301977,188946,MIDDLE ROAD,UWEEI BUILDING,30464.4007149143,31036.815747207
38 MIDDLE ROAD THE M SINGAPORE 188947,38,THE M,1.29797640452787,103.855893476029,103.855893476029,188947,MIDDLE ROAD,THE M,30512.3855786128,31149.1659625676
41 MIDDLE ROAD BOON SING BUILDING SINGAPORE 188950,41,BOON SING BUILDING,1.29702264914261,103.855388118587,103.855388118587,188950,MIDDLE ROAD,BOON SING BUILDING,30456.144698604,31043.7041046731
43 MIDDLE ROAD BOON SING BUILDING SINGAPORE 188952,43,BOON SING BUILDING,1.29702150960937,103.855386164193,103.855386164193,188952,MIDDLE ROAD,BOON SING BUILDING,30455.9271928733,31043.5780990571
45 MIDDLE ROAD ACADEMIES AUSTRALASIA COLLEGE SINGAPORE 188954,45,ACADEMIES AUSTRALASIA COLLEGE,1.29714835246401,103.85533277219,103.85533277219,188954,MIDDLE ROAD,ACADEMIES AUSTRALASIA COLLEGE,30449.9850125778,31057.6036773529
51 MIDDLE ROAD FM BUILDING SINGAPORE 188959,51,FM BUILDING,1.29728420559016,103.855270437304,103.855270437304,188959,MIDDLE ROAD,FM BUILDING,30443.0475604413,31072.6255565993
80 MIDDLE ROAD INTERCONTINENTAL SINGAPORE SINGAPORE 188966,80,INTERCONTINENTAL SINGAPORE,1.29845047417026,103.854897087094,103.854897087094,188966,MIDDLE ROAD,INTERCONTINENTAL SINGAPORE,30401.4958842704,31201.5851766858
108 MIDDLE ROAD BERNHARD SCHULTE HOUSE SINGAPORE 188967,108,BERNHARD SCHULTE HOUSE,1.29889429202314,103.854009552971,103.854009552971,188967,MIDDLE ROAD,BERNHARD SCHULTE HOUSE,30302.7208293388,31250.6594456546
110 MIDDLE ROAD CHIAT HONG BUILDING SINGAPORE 188968,110,CHIAT HONG BUILDING,1.29897911217927,103.853856405515,103.853856405515,188968,MIDDLE ROAD,CHIAT HONG BUILDING,30285.6768066352,31260.0382830892
111 MIDDLE ROAD NATIONAL DESIGN CENTRE SINGAPORE 188969,111,NATIONAL DESIGN CENTRE,1.29876171976331,103.853379709042,103.853379709042,188969,MIDDLE ROAD,NATIONAL DESIGN CENTRE,30232.6249311231,31235.9997228328
112 MIDDLE ROAD MIDLAND HOUSE SINGAPORE 188970,112,MIDLAND HOUSE,1.29907467931026,103.853742666239,103.853742666239,188970,MIDDLE ROAD,MIDLAND HOUSE,30273.0185542367,31270.6055020988
114 MIDDLE ROAD LEE KAI HOUSE SINGAPORE 188971,114,LEE KAI HOUSE,1.29916936364979,103.853628620164,103.853628620164,188971,MIDDLE ROAD,LEE KAI HOUSE,30260.3261595527,31281.0751068629
116 MIDDLE ROAD ICB ENTERPRISE HOUSE SINGAPORE 188972,116,ICB ENTERPRISE HOUSE,1.29927530958541,103.85352044032,103.85352044032,188972,MIDDLE ROAD,ICB ENTERPRISE HOUSE,30248.2866150094,31292.7899667453
122 MIDDLE ROAD MERCURE SINGAPORE BUGIS SINGAPORE 188973,122,MERCURE SINGAPORE BUGIS,1.29963654752349,103.853083048987,103.853083048987,188973,MIDDLE ROAD,MERCURE SINGAPORE BUGIS,30199.6085539479,31332.7334141377
133 MIDDLE ROAD BOC PLAZA SINGAPORE 188974,133,BOC PLAZA,1.29907672930674,103.852810840216,103.852810840216,188974,MIDDLE ROAD,BOC PLAZA,30169.314630569,31270.8313617948
135 MIDDLE ROAD BYLANDS BUILDING SINGAPORE 188975,135,BYLANDS BUILDING,1.299261802228,103.852615487322,103.852615487322,188975,MIDDLE ROAD,BYLANDS BUILDING,30147.5734405443,31291.2956061214
141 MIDDLE ROAD GSM BUILDING SINGAPORE 188976,141,GSM BUILDING,1.29941850585143,103.852403130809,103.852403130809,188976,MIDDLE ROAD,GSM BUILDING,30123.9399264464,31308.6229068842
155 MIDDLE ROAD SINGAPORE 188977,155,NIL,1.29965755929059,103.852080535349,103.852080535349,188977,MIDDLE ROAD,155 MIDDLE ROAD SINGAPORE 188977,30088.0377391679,31335.0559370648
161 MIDDLE ROAD SINGAPORE 188978,161,NIL,1.29979909673076,103.852010855683,103.852010855683,188978,MIDDLE ROAD,161 MIDDLE ROAD SINGAPORE 188978,30080.2829001313,31350.7063612621
190 MIDDLE ROAD FORTUNE CENTRE SINGAPORE 188979,190,FORTUNE CENTRE,1.30041423392971,103.852292796726,103.852292796726,188979,MIDDLE ROAD,FORTUNE CENTRE,30111.6599027719,31418.7253007032
200 MIDDLE ROAD HOTEL G SINGAPORE SINGAPORE 188980,200,HOTEL G SINGAPORE,1.30092960029232,103.851518859038,103.851518859038,188980,MIDDLE ROAD,HOTEL G SINGAPORE,30025.5271792794,31475.7112271301
250 MIDDLE ROAD SINGAPORE 188983,250,NIL,1.30147214912597,103.850636711607,103.850636711607,188983,MIDDLE ROAD,250 MIDDLE ROAD SINGAPORE 188983,29927.3517028373,31535.7027946096
252 MIDDLE ROAD SINGAPORE 188984,252,NIL,1.30167008959003,103.850788301508,103.850788301508,188984,MIDDLE ROAD,252 MIDDLE ROAD SINGAPORE 188984,29944.2221386535,31557.5901487283
254 MIDDLE ROAD SINGAPORE 188985,254,NIL,1.3018731119061,103.850624119061,103.850624119061,188985,MIDDLE ROAD,254 MIDDLE ROAD SINGAPORE 188985,29925.9499622434,31580.0391858201
256 MIDDLE ROAD SINGAPORE 188986,256,NIL,1.3018370935039,103.85059455849,103.85059455849,188986,MIDDLE ROAD,256 MIDDLE ROAD SINGAPORE 188986,29922.6601653611,31576.0564337187
258 MIDDLE ROAD SINGAPORE 188987,258,NIL,1.3018001520599,103.850567008327,103.850567008327,188987,MIDDLE ROAD,258 MIDDLE ROAD SINGAPORE 188987,29919.5941094141,31571.9716179743
260 MIDDLE ROAD ELIAS BUILDING SINGAPORE 188988,260,ELIAS BUILDING,1.30163169709728,103.850481883874,103.850481883874,188988,MIDDLE ROAD,ELIAS BUILDING,29910.1206542626,31553.3446705285
262 MIDDLE ROAD ELIAS BUILDING SINGAPORE 188989,262,ELIAS BUILDING,1.3016723700478,103.850432656469,103.850432656469,188989,MIDDLE ROAD,ELIAS BUILDING,29904.642058406,31557.8420388885
264 MIDDLE ROAD ELIAS BUILDING SINGAPORE 188990,264,ELIAS BUILDING,1.30170641313531,103.850390685764,103.850390685764,188990,MIDDLE ROAD,ELIAS BUILDING,29899.9710728908,31561.6063166838
266 MIDDLE ROAD ELIAS BUILDING SINGAPORE 188991,266,ELIAS BUILDING,1.30174137815216,103.850349101808,103.850349101808,188991,MIDDLE ROAD,ELIAS BUILDING,29895.3431284484,31565.4725370482
268 MIDDLE ROAD ELIAS BUILDING SINGAPORE 188992,268,ELIAS BUILDING,1.30178650025376,103.850314949001,103.850314949001,188992,MIDDLE ROAD,ELIAS BUILDING,29891.5421961248,31570.4618812148
270 MIDDLE ROAD ELIAS BUILDING SINGAPORE 188993,270,ELIAS BUILDING,1.30183200017447,103.85027072862,103.85027072862,188993,MIDDLE ROAD,ELIAS BUILDING,29886.6208338486,31575.4929952007
210 MIDDLE ROAD DBS MIDDLE ROAD 210 SINGAPORE 188994,210,DBS MIDDLE ROAD 210,1.30116888567599,103.851282489716,103.851282489716,188994,MIDDLE ROAD,DBS MIDDLE ROAD 210,29999.2212140951,31502.1699850969
31 MIDDLE ROAD HOTEL 81 - BUGIS SINGAPORE 188995,31,HOTEL 81 - BUGIS,1.29687854339598,103.855618619106,103.855618619106,188995,MIDDLE ROAD,HOTEL 81 - BUGIS,30481.7975109685,31027.7698575929
1 LIANG SEAH STREET LIANG SEAH PLACE SINGAPORE 189022,1,LIANG SEAH PLACE,1.29791406660777,103.856334179264,103.856334179264,189022,LIANG SEAH STREET,LIANG SEAH PLACE,30561.4320010366,31142.2733978517
2 LIANG SEAH STREET SINGAPORE 189023,2,NIL,1.2978332047163,103.85675737035,103.85675737035,189023,LIANG SEAH STREET,2 LIANG SEAH STREET SINGAPORE 189023,30608.5294982567,31133.3325381428
8 LIANG SEAH STREET SINGAPORE 189029,8,NIL,1.29798277931997,103.856632698216,103.856632698216,189029,LIANG SEAH STREET,8 LIANG SEAH STREET SINGAPORE 189029,30594.6544426447,31149.8716000728
12 LIANG SEAH STREET SINGAPORE 189033,12,NIL,1.29801985757677,103.85659983736,103.85659983736,189033,LIANG SEAH STREET,12 LIANG SEAH STREET SINGAPORE 189033,30590.9972832436,31153.9714892711
14 LIANG SEAH STREET SINGAPORE 189035,14,NIL,1.29805602293591,103.856566739608,103.856566739608,189035,LIANG SEAH STREET,14 LIANG SEAH STREET SINGAPORE 189035,30587.3137604296,31157.9704347439
16 LIANG SEAH STREET SINGAPORE 189037,16,NIL,1.29809269524496,103.856533979376,103.856533979376,189037,LIANG SEAH STREET,16 LIANG SEAH STREET SINGAPORE 189037,30583.6678001825,31162.0254365224
18 LIANG SEAH STREET BEACH ROAD CONSERVATION AREA SINGAPORE 189039,18,BEACH ROAD CONSERVATION AREA,1.29812910750831,103.856501106544,103.856501106544,189039,LIANG SEAH STREET,BEACH ROAD CONSERVATION AREA,30580.009308991,31166.0516837165
20 LIANG SEAH STREET SINGAPORE 189041,20,NIL,1.29816566211072,103.856468412942,103.856468412942,189041,LIANG SEAH STREET,20 LIANG SEAH STREET SINGAPORE 189041,30576.3707643999,31170.093670262
22 LIANG SEAH STREET SINGAPORE 189043,22,NIL,1.29820219317297,103.856435577642,103.856435577642,189043,LIANG SEAH STREET,22 LIANG SEAH STREET SINGAPORE 189043,30572.7164501902,31174.133053761
24 LIANG SEAH STREET BEACH ROAD CONSERVATION AREA SINGAPORE 189045,24,BEACH ROAD CONSERVATION AREA,1.29829387846733,103.856427141926,103.856427141926,189045,LIANG SEAH STREET,BEACH ROAD CONSERVATION AREA,30571.7775373356,31184.2711332999
26 LIANG SEAH STREET BEACH ROAD CONSERVATION AREA SINGAPORE 189047,26,BEACH ROAD CONSERVATION AREA,1.29825336861688,103.856349395857,103.856349395857,189047,LIANG SEAH STREET,BEACH ROAD CONSERVATION AREA,30563.1251315102,31179.7916835845
28 LIANG SEAH STREET SINGAPORE 189049,28,NIL,1.29831197605382,103.85633710791,103.85633710791,189049,LIANG SEAH STREET,28 LIANG SEAH STREET SINGAPORE 189049,30561.7575332019,31186.2721799705
30 LIANG SEAH STREET SINGAPORE 189051,30,NIL,1.29834832043135,103.856303960653,103.856303960653,189051,LIANG SEAH STREET,30 LIANG SEAH STREET SINGAPORE 189051,30558.068501614,31190.2909207046
32 LIANG SEAH STREET SINGAPORE 189053,32,NIL,1.29839044578188,103.856270070966,103.856270070966,189053,LIANG SEAH STREET,32 LIANG SEAH STREET SINGAPORE 189053,30554.2968384307,31194.9488909878
33 LIANG SEAH STREET BEACH ROAD CONSERVATION AREA SINGAPORE 189054,33,BEACH ROAD CONSERVATION AREA,1.29826253557949,103.856027271015,103.856027271015,189054,LIANG SEAH STREET,BEACH ROAD CONSERVATION AREA,30527.2754894514,31180.8049951438
35 LIANG SEAH STREET BEACH ROAD CONSERVATION AREA SINGAPORE 189056,35,BEACH ROAD CONSERVATION AREA,1.29826253557949,103.856027271015,103.856027271015,189056,LIANG SEAH STREET,BEACH ROAD CONSERVATION AREA,30527.2754894514,31180.8049951438
36 LIANG SEAH STREET HEAP SENG HOUSE SINGAPORE 189057,36,HEAP SENG HOUSE,1.29843669600918,103.856176597033,103.856176597033,189057,LIANG SEAH STREET,HEAP SENG HOUSE,30543.8939745715,31200.062908981
37 LIANG SEAH STREET BEACH ROAD CONSERVATION AREA SINGAPORE 189058,37,BEACH ROAD CONSERVATION AREA,1.29830128795667,103.855996931335,103.855996931335,189058,LIANG SEAH STREET,BEACH ROAD CONSERVATION AREA,30523.8989142599,31185.0900033303
2 HAJI LANE KAMPONG GLAM CONSERVATION AREA SINGAPORE 189195,2,KAMPONG GLAM CONSERVATION AREA,1.30038404223474,103.859482395978,103.859482395978,189195,HAJI LANE,KAMPONG GLAM CONSERVATION AREA,30911.7977753012,31415.3940064143
3 HAJI LANE KAMPONG GLAM CONSERVATION AREA SINGAPORE 189196,3,KAMPONG GLAM CONSERVATION AREA,1.30032428122905,103.859341043633,103.859341043633,189196,HAJI LANE,KAMPONG GLAM CONSERVATION AREA,30896.0665961234,31408.7857791372
4 HAJI LANE SINGAPORE 189197,4,NIL,1.30041587790759,103.859457860127,103.859457860127,189197,HAJI LANE,4 HAJI LANE SINGAPORE 189197,30909.0671188813,31418.9142031893
5 HAJI LANE KAMPONG GLAM CONSERVATION AREA SINGAPORE 189198,5,KAMPONG GLAM CONSERVATION AREA,1.30032428150278,103.859341043633,103.859341043633,189198,HAJI LANE,KAMPONG GLAM CONSERVATION AREA,30896.0665961234,31408.7858094051
7 HAJI LANE KAMPONG GLAM CONSERVATION AREA SINGAPORE 189200,7,KAMPONG GLAM CONSERVATION AREA,1.30039120126761,103.859288781736,103.859288781736,189200,HAJI LANE,KAMPONG GLAM CONSERVATION AREA,30890.2502398361,31416.1853931174
8 HAJI LANE SINGAPORE 189201,8,NIL,1.30047425443042,103.859409313002,103.859409313002,189201,HAJI LANE,8 HAJI LANE SINGAPORE 189201,30903.6641929839,31425.3691231292
9 HAJI LANE KAMPONG GLAM CONSERVATION AREA SINGAPORE 189202,9,KAMPONG GLAM CONSERVATION AREA,1.30042361699877,103.859262308092,103.859262308092,189202,HAJI LANE,KAMPONG GLAM CONSERVATION AREA,30887.3039240334,31419.7697277479
10 HAJI LANE KAMPONG GLAM CONSERVATION AREA SINGAPORE 189203,10,KAMPONG GLAM CONSERVATION AREA,1.30050432534903,103.859384499992,103.859384499992,189203,HAJI LANE,KAMPONG GLAM CONSERVATION AREA,30900.9026934896,31428.6941822115
11 HAJI LANE KAMPONG GLAM CONSERVATION AREA SINGAPORE 189204,11,KAMPONG GLAM CONSERVATION AREA,1.30045605462542,103.859236112674,103.859236112674,189204,HAJI LANE,KAMPONG GLAM CONSERVATION AREA,30884.3885723772,31423.356483819
12 HAJI LANE KAMPONG GLAM CONSERVATION AREA SINGAPORE 189205,12,KAMPONG GLAM CONSERVATION AREA,1.30053673613468,103.859359887993,103.859359887993,189205,HAJI LANE,KAMPONG GLAM CONSERVATION AREA,30898.1635620352,31432.2779720202
13 HAJI LANE KAMPONG GLAM CONSERVATION AREA SINGAPORE 189206,13,KAMPONG GLAM CONSERVATION AREA,1.30045605489918,103.859236112946,103.859236112946,189206,HAJI LANE,KAMPONG GLAM CONSERVATION AREA,30884.3886026451,31423.3565140869
14 HAJI LANE KAMPONG GLAM CONSERVATION AREA SINGAPORE 189207,14,KAMPONG GLAM CONSERVATION AREA,1.30056711307723,103.85933594475,103.85933594475,189207,HAJI LANE,KAMPONG GLAM CONSERVATION AREA,30895.4988595527,31435.6368707083
15 HAJI LANE KAMPONG GLAM CONSERVATION AREA SINGAPORE 189208,15,KAMPONG GLAM CONSERVATION AREA,1.30048900002993,103.859209583824,103.859209583824,189208,HAJI LANE,KAMPONG GLAM CONSERVATION AREA,30881.4361121738,31426.9993869998
16 HAJI LANE KAMPONG GLAM CONSERVATION AREA SINGAPORE 189209,16,KAMPONG GLAM CONSERVATION AREA,1.30059683525091,103.859311945473,103.859311945473,189209,HAJI LANE,KAMPONG GLAM CONSERVATION AREA,30892.8279218655,31438.9233683813
17 HAJI LANE KAMPONG GLAM CONSERVATION AREA SINGAPORE 189210,17,KAMPONG GLAM CONSERVATION AREA,1.30052235465113,103.859184390629,103.859184390629,189210,HAJI LANE,KAMPONG GLAM CONSERVATION AREA,30878.6322980383,31430.6875408161
18 HAJI LANE KAMPONG GLAM CONSERVATION AREA SINGAPORE 189211,18,KAMPONG GLAM CONSERVATION AREA,1.30062791020141,103.859289032192,103.859289032192,189211,HAJI LANE,KAMPONG GLAM CONSERVATION AREA,30890.2778442372,31442.3594504278
19 HAJI LANE KAMPONG GLAM CONSERVATION AREA SINGAPORE 189212,19,KAMPONG GLAM CONSERVATION AREA,1.3005537720671,103.859158887638,103.859158887638,189212,HAJI LANE,KAMPONG GLAM CONSERVATION AREA,30875.7940086694,31434.1614881102
20 HAJI LANE KAMPONG GLAM CONSERVATION AREA SINGAPORE 189213,20,KAMPONG GLAM CONSERVATION AREA,1.30065772271424,103.859264286898,103.859264286898,189213,HAJI LANE,KAMPONG GLAM CONSERVATION AREA,30887.5238814708,31445.6559365354
21 HAJI LANE KAMPONG GLAM CONSERVATION AREA SINGAPORE 189214,21,KAMPONG GLAM CONSERVATION AREA,1.30058566688213,103.859132508631,103.859132508631,189214,HAJI LANE,KAMPONG GLAM CONSERVATION AREA,30872.8582261242,31437.6882227696
22 HAJI LANE KAMPONG GLAM CONSERVATION AREA SINGAPORE 189215,22,KAMPONG GLAM CONSERVATION AREA,1.30068838269242,103.859240668662,103.859240668662,189215,HAJI LANE,KAMPONG GLAM CONSERVATION AREA,30884.8953492288,31449.0461323187
23 HAJI LANE KAMPONG GLAM CONSERVATION AREA SINGAPORE 189216,23,KAMPONG GLAM CONSERVATION AREA,1.30061964014775,103.8591064726,103.8591064726,189216,HAJI LANE,KAMPONG GLAM CONSERVATION AREA,30869.9606115073,31441.4447822291
24 HAJI LANE KAMPONG GLAM CONSERVATION AREA SINGAPORE 189217,24,KAMPONG GLAM CONSERVATION AREA,1.30071819547628,103.859216140943,103.859216140943,189217,HAJI LANE,KAMPONG GLAM CONSERVATION AREA,30882.1656008493,31452.3426486943
25 HAJI LANE KAMPONG GLAM CONSERVATION AREA SINGAPORE 189218,25,KAMPONG GLAM CONSERVATION AREA,1.30068585067441,103.859053357781,103.859053357781,189218,HAJI LANE,KAMPONG GLAM CONSERVATION AREA,30864.0493348232,31448.7659415938
26 HAJI LANE KAMPONG GLAM CONSERVATION AREA SINGAPORE 189219,26,KAMPONG GLAM CONSERVATION AREA,1.30078486853238,103.859170939141,103.859170939141,189219,HAJI LANE,KAMPONG GLAM CONSERVATION AREA,30877.1349711521,31459.7149609514
27 HAJI LANE KAMPONG GLAM CONSERVATION AREA SINGAPORE 189220,27,KAMPONG GLAM CONSERVATION AREA,1.3007150368561,103.859031329745,103.859031329745,189220,HAJI LANE,KAMPONG GLAM CONSERVATION AREA,30861.5977794817,31451.9931745548
28 HAJI LANE KAMPONG GLAM CONSERVATION AREA SINGAPORE 189221,28,KAMPONG GLAM CONSERVATION AREA,1.30081749009626,103.859145752462,103.859145752462,189221,HAJI LANE,KAMPONG GLAM CONSERVATION AREA,30874.3318834472,31463.3220571075
29 HAJI LANE KAMPONG GLAM CONSERVATION AREA SINGAPORE 189222,29,KAMPONG GLAM CONSERVATION AREA,1.30073962867776,103.859011824469,103.859011824469,189222,HAJI LANE,KAMPONG GLAM CONSERVATION AREA,30859.4269899577,31454.7123896759
30 HAJI LANE KAMPONG GLAM CONSERVATION AREA SINGAPORE 189223,30,KAMPONG GLAM CONSERVATION AREA,1.30084991840451,103.859120559798,103.859120559798,189223,HAJI LANE,KAMPONG GLAM CONSERVATION AREA,30871.5281298477,31466.9077840671
31 HAJI LANE KAMPONG GLAM CONSERVATION AREA SINGAPORE 189224,31,KAMPONG GLAM CONSERVATION AREA,1.30076444550199,103.858992881088,103.858992881088,189224,HAJI LANE,KAMPONG GLAM CONSERVATION AREA,30857.318734088,31457.4564850796
32 HAJI LANE KAMPONG GLAM CONSERVATION AREA SINGAPORE 189225,32,KAMPONG GLAM CONSERVATION AREA,1.30088259225877,103.859094602351,103.859094602351,189225,HAJI LANE,KAMPONG GLAM CONSERVATION AREA,30868.6392626781,31470.5206614062
33 HAJI LANE KAMPONG GLAM CONSERVATION AREA SINGAPORE 189226,33,KAMPONG GLAM CONSERVATION AREA,1.30078879150744,103.858973736715,103.858973736715,189226,HAJI LANE,KAMPONG GLAM CONSERVATION AREA,30855.1881101783,31460.1485195514
34 HAJI LANE KAMPONG GLAM CONSERVATION AREA SINGAPORE 189227,34,KAMPONG GLAM CONSERVATION AREA,1.30091408383164,103.859071420906,103.859071420906,189227,HAJI LANE,KAMPONG GLAM CONSERVATION AREA,30866.0593408179,31474.0028113257
35 HAJI LANE KAMPONG GLAM CONSERVATION AREA SINGAPORE 189228,35,KAMPONG GLAM CONSERVATION AREA,1.30081938032625,103.858948760519,103.858948760519,189228,HAJI LANE,KAMPONG GLAM CONSERVATION AREA,30852.4084498938,31463.5308456589
36 HAJI LANE KAMPONG GLAM CONSERVATION AREA SINGAPORE 189229,36,KAMPONG GLAM CONSERVATION AREA,1.30094410603002,103.859045876012,103.859045876012,189229,HAJI LANE,KAMPONG GLAM CONSERVATION AREA,30863.2163901795,31477.3224827088
37 HAJI LANE KAMPONG GLAM CONSERVATION AREA SINGAPORE 189230,37,KAMPONG GLAM CONSERVATION AREA,1.3008529197329,103.858921779378,103.858921779378,189230,HAJI LANE,KAMPONG GLAM CONSERVATION AREA,30849.4056540327,31467.2394303642
38 HAJI LANE KAMPONG GLAM CONSERVATION AREA SINGAPORE 189231,38,KAMPONG GLAM CONSERVATION AREA,1.30097874063621,103.85901958161,103.85901958161,189231,HAJI LANE,KAMPONG GLAM CONSERVATION AREA,30860.2900209771,31481.152169615
39 HAJI LANE KAMPONG GLAM CONSERVATION AREA SINGAPORE 189232,39,KAMPONG GLAM CONSERVATION AREA,1.3008849798729,103.858896113477,103.858896113477,189232,HAJI LANE,KAMPONG GLAM CONSERVATION AREA,30846.5492341416,31470.7844468858
40 HAJI LANE KAMPONG GLAM CONSERVATION AREA SINGAPORE 189233,40,KAMPONG GLAM CONSERVATION AREA,1.30101300406422,103.858992897741,103.858992897741,189233,HAJI LANE,KAMPONG GLAM CONSERVATION AREA,30857.3203080231,31484.9408131372
41 HAJI LANE KAMPONG GLAM CONSERVATION AREA SINGAPORE 189234,41,KAMPONG GLAM CONSERVATION AREA,1.30091950691418,103.858868476077,103.858868476077,189234,HAJI LANE,KAMPONG GLAM CONSERVATION AREA,30843.4734016359,31474.6022384744
42 HAJI LANE KAMPONG GLAM CONSERVATION AREA SINGAPORE 189235,42,KAMPONG GLAM CONSERVATION AREA,1.30104630259956,103.858964621196,103.858964621196,189235,HAJI LANE,KAMPONG GLAM CONSERVATION AREA,30854.1733457558,31488.622762017
43 HAJI LANE KAMPONG GLAM CONSERVATION AREA SINGAPORE 189236,43,KAMPONG GLAM CONSERVATION AREA,1.30095364416269,103.858840519107,103.858840519107,189236,HAJI LANE,KAMPONG GLAM CONSERVATION AREA,30840.3620042494,31478.3769284561
44 HAJI LANE KAMPONG GLAM CONSERVATION AREA SINGAPORE 189237,44,KAMPONG GLAM CONSERVATION AREA,1.30107919736623,103.858937540233,103.858937540233,189237,HAJI LANE,KAMPONG GLAM CONSERVATION AREA,30851.1594415456,31492.2600656208
45 HAJI LANE KAMPONG GLAM CONSERVATION AREA SINGAPORE 189238,45,KAMPONG GLAM CONSERVATION AREA,1.3009888166791,103.858811563466,103.858811563466,189238,HAJI LANE,KAMPONG GLAM CONSERVATION AREA,30837.1394628277,31482.2660919521
46 HAJI LANE KAMPONG GLAM CONSERVATION AREA SINGAPORE 189239,46,KAMPONG GLAM CONSERVATION AREA,1.3011079992215,103.858915936736,103.858915936736,189239,HAJI LANE,KAMPONG GLAM CONSERVATION AREA,30848.7551345266,31495.4448023308
47 HAJI LANE KAMPONG GLAM CONSERVATION AREA SINGAPORE 189240,47,KAMPONG GLAM CONSERVATION AREA,1.30102884552274,103.85877954493,103.85877954493,189240,HAJI LANE,KAMPONG GLAM CONSERVATION AREA,30833.576043372,31486.6922397483
48 HAJI LANE KAMPONG GLAM CONSERVATION AREA SINGAPORE 189241,48,KAMPONG GLAM CONSERVATION AREA,1.30113203044889,103.858895278835,103.858895278835,189241,HAJI LANE,KAMPONG GLAM CONSERVATION AREA,30846.4560692878,31498.1020286214
49 HAJI LANE KAMPONG GLAM CONSERVATION AREA SINGAPORE 189242,49,KAMPONG GLAM CONSERVATION AREA,1.30106157824425,103.858751801713,103.858751801713,189242,HAJI LANE,KAMPONG GLAM CONSERVATION AREA,30830.4884366216,31490.3116247039
50 HAJI LANE KAMPONG GLAM CONSERVATION AREA SINGAPORE 189243,50,KAMPONG GLAM CONSERVATION AREA,1.30115642683656,103.858874554576,103.858874554576,189243,HAJI LANE,KAMPONG GLAM CONSERVATION AREA,30844.1496186601,31500.7996324021
51 HAJI LANE KAMPONG GLAM CONSERVATION AREA SINGAPORE 189244,51,KAMPONG GLAM CONSERVATION AREA,1.30109233483773,103.858728947435,103.858728947435,189244,HAJI LANE,KAMPONG GLAM CONSERVATION AREA,30827.9449271457,31493.7125050873
52 HAJI LANE KAMPONG GLAM CONSERVATION AREA SINGAPORE 189245,52,KAMPONG GLAM CONSERVATION AREA,1.30118089740435,103.858853962767,103.858853962767,189245,HAJI LANE,KAMPONG GLAM CONSERVATION AREA,30841.8579085413,31503.5054388065
53 HAJI LANE KAMPONG GLAM CONSERVATION AREA SINGAPORE 189246,53,KAMPONG GLAM CONSERVATION AREA,1.30112562814197,103.858703364492,103.858703364492,189246,HAJI LANE,KAMPONG GLAM CONSERVATION AREA,30825.0977389896,31497.3938788753
54 HAJI LANE KAMPONG GLAM CONSERVATION AREA SINGAPORE 189247,54,KAMPONG GLAM CONSERVATION AREA,1.30120425005522,103.85883252022,103.85883252022,189247,HAJI LANE,KAMPONG GLAM CONSERVATION AREA,30839.4715201687,31506.0876307655
55 HAJI LANE KAMPONG GLAM CONSERVATION AREA SINGAPORE 189248,55,KAMPONG GLAM CONSERVATION AREA,1.30115552251036,103.858677128239,103.858677128239,189248,HAJI LANE,KAMPONG GLAM CONSERVATION AREA,30822.1778471358,31500.6994151082
56 HAJI LANE KAMPONG GLAM CONSERVATION AREA SINGAPORE 189249,56,KAMPONG GLAM CONSERVATION AREA,1.30123140702059,103.858813636419,103.858813636419,189249,HAJI LANE,KAMPONG GLAM CONSERVATION AREA,30837.3698929874,31509.0904871617
57 HAJI LANE KAMPONG GLAM CONSERVATION AREA SINGAPORE 189250,57,KAMPONG GLAM CONSERVATION AREA,1.30118567799413,103.858653426219,103.858653426219,189250,HAJI LANE,KAMPONG GLAM CONSERVATION AREA,30819.5399923548,31504.0338269994
58 HAJI LANE KAMPONG GLAM CONSERVATION AREA SINGAPORE 189251,58,KAMPONG GLAM CONSERVATION AREA,1.30125685565526,103.858791124228,103.858791124228,189251,HAJI LANE,KAMPONG GLAM CONSERVATION AREA,30834.864460635,31511.9044410717
59 HAJI LANE KAMPONG GLAM CONSERVATION AREA SINGAPORE 189252,59,KAMPONG GLAM CONSERVATION AREA,1.30121588164863,103.858630323623,103.858630323623,189252,HAJI LANE,KAMPONG GLAM CONSERVATION AREA,30816.9688482098,31507.3735660538
60 HAJI LANE KAMPONG GLAM CONSERVATION AREA SINGAPORE 189253,60,KAMPONG GLAM CONSERVATION AREA,1.3012821660428,103.858769777162,103.858769777162,189253,HAJI LANE,KAMPONG GLAM CONSERVATION AREA,30832.4886963256,31514.7031096518
61 HAJI LANE KAMPONG GLAM CONSERVATION AREA SINGAPORE 189254,61,KAMPONG GLAM CONSERVATION AREA,1.30124478181363,103.858604536112,103.858604536112,189254,HAJI LANE,KAMPONG GLAM CONSERVATION AREA,30814.09889853,31510.56916897
62 HAJI LANE KAMPONG GLAM CONSERVATION AREA SINGAPORE 189255,62,KAMPONG GLAM CONSERVATION AREA,1.30130732724014,103.85874897322,103.85874897322,189255,HAJI LANE,KAMPONG GLAM CONSERVATION AREA,30830.1733771786,31517.485282179
63 HAJI LANE KAMPONG GLAM CONSERVATION AREA SINGAPORE 189256,63,KAMPONG GLAM CONSERVATION AREA,1.3012758780964,103.858582870894,103.858582870894,189256,HAJI LANE,KAMPONG GLAM CONSERVATION AREA,30811.6877206787,31514.0076119211
64 HAJI LANE KAMPONG GLAM CONSERVATION AREA SINGAPORE 189257,64,KAMPONG GLAM CONSERVATION AREA,1.30133269592808,103.858728053965,103.858728053965,189257,HAJI LANE,KAMPONG GLAM CONSERVATION AREA,30827.8452244075,31520.2903978378
65 HAJI LANE KAMPONG GLAM CONSERVATION AREA SINGAPORE 189258,65,KAMPONG GLAM CONSERVATION AREA,1.30130486064838,103.858557696405,103.858557696405,189258,HAJI LANE,KAMPONG GLAM CONSERVATION AREA,30808.8859950341,31517.2123255003
66 HAJI LANE KAMPONG GLAM CONSERVATION AREA SINGAPORE 189259,66,KAMPONG GLAM CONSERVATION AREA,1.30135771725078,103.858706930999,103.858706930999,189259,HAJI LANE,KAMPONG GLAM CONSERVATION AREA,30825.4944009157,31523.0571034253
67 HAJI LANE KAMPONG GLAM CONSERVATION AREA SINGAPORE 189260,67,KAMPONG GLAM CONSERVATION AREA,1.30133565118527,103.858534614484,103.858534614484,189260,HAJI LANE,KAMPONG GLAM CONSERVATION AREA,30806.3171512559,31520.6169591136
68 HAJI LANE KAMPONG GLAM CONSERVATION AREA SINGAPORE 189261,68,KAMPONG GLAM CONSERVATION AREA,1.30138343329897,103.85868665795,103.85868665795,189261,HAJI LANE,KAMPONG GLAM CONSERVATION AREA,30823.2381648738,31525.9006291553
69 HAJI LANE SINGAPORE 189262,69,NIL,1.30136721120431,103.858509642095,103.858509642095,189262,HAJI LANE,69 HAJI LANE SINGAPORE 189262,30803.5379147232,31524.106676029
70 HAJI LANE KAMPONG GLAM CONSERVATION AREA SINGAPORE 189263,70,KAMPONG GLAM CONSERVATION AREA,1.30140842971779,103.85866492631,103.85866492631,189263,HAJI LANE,KAMPONG GLAM CONSERVATION AREA,30820.8196016345,31528.6645803563
71 HAJI LANE KAMPONG GLAM CONSERVATION AREA SINGAPORE 189264,71,KAMPONG GLAM CONSERVATION AREA,1.30139816080661,103.858483870375,103.858483870375,189264,HAJI LANE,KAMPONG GLAM CONSERVATION AREA,30800.6697205864,31527.528895339
72 HAJI LANE KAMPONG GLAM CONSERVATION AREA SINGAPORE 189265,72,KAMPONG GLAM CONSERVATION AREA,1.30143357996519,103.858644099793,103.858644099793,189265,HAJI LANE,KAMPONG GLAM CONSERVATION AREA,30818.5017702458,31531.4455421641
73 HAJI LANE KAMPONG GLAM CONSERVATION AREA SINGAPORE 189266,73,KAMPONG GLAM CONSERVATION AREA,1.30142848163461,103.858459039941,103.858459039941,189266,HAJI LANE,KAMPONG GLAM CONSERVATION AREA,30797.9062839411,31530.8815890923
74 HAJI LANE KAMPONG GLAM CONSERVATION AREA SINGAPORE 189267,74,KAMPONG GLAM CONSERVATION AREA,1.3014585654228,103.858623511249,103.858623511249,189267,HAJI LANE,KAMPONG GLAM CONSERVATION AREA,30816.210423342,31534.2082826458
75 HAJI LANE KAMPONG GLAM CONSERVATION AREA SINGAPORE 189268,75,KAMPONG GLAM CONSERVATION AREA,1.30145910904345,103.858434193192,103.858434193192,189268,HAJI LANE,KAMPONG GLAM CONSERVATION AREA,30795.1410312168,31534.2681829855
76 HAJI LANE KAMPONG GLAM CONSERVATION AREA SINGAPORE 189269,76,KAMPONG GLAM CONSERVATION AREA,1.30148305898642,103.858602493257,103.858602493257,189269,HAJI LANE,KAMPONG GLAM CONSERVATION AREA,30813.8712832928,31536.9166315608
78 HAJI LANE KAMPONG GLAM CONSERVATION AREA SINGAPORE 189270,78,KAMPONG GLAM CONSERVATION AREA,1.30151014017585,103.858578666911,103.858578666911,189270,HAJI LANE,KAMPONG GLAM CONSERVATION AREA,30811.2195960432,31539.9111037254
80 HAJI LANE KAMPONG GLAM CONSERVATION AREA SINGAPORE 189271,80,KAMPONG GLAM CONSERVATION AREA,1.30153879451911,103.858553774451,103.858553774451,189271,HAJI LANE,KAMPONG GLAM CONSERVATION AREA,30808.4492582977,31543.0795259941
82 HAJI LANE KAMPONG GLAM CONSERVATION AREA SINGAPORE 189272,82,KAMPONG GLAM CONSERVATION AREA,1.30156615490692,103.858530821952,103.858530821952,189272,HAJI LANE,KAMPONG GLAM CONSERVATION AREA,30805.8948220797,31546.1048715021
84 HAJI LANE KAMPONG GLAM CONSERVATION AREA SINGAPORE 189273,84,KAMPONG GLAM CONSERVATION AREA,1.3015931747707,103.858507872168,103.858507872168,189273,HAJI LANE,KAMPONG GLAM CONSERVATION AREA,30803.3406885415,31549.0925636385
1 FRASER STREET DUO RESIDENCES SINGAPORE 189350,1,DUO RESIDENCES,1.29916295967817,103.857859536947,103.857859536947,189350,FRASER STREET,DUO RESIDENCES,30731.1894428916,31280.3711643666
3 FRASER STREET DUO RESIDENCES SINGAPORE 189352,3,DUO RESIDENCES,1.2991629599519,103.857859536675,103.857859536675,189352,FRASER STREET,DUO RESIDENCES,30731.1894126236,31280.3711946346
5 FRASER STREET ANDAZ SINGAPORE SINGAPORE 189354,5,ANDAZ SINGAPORE,1.29915739776463,103.858020324447,103.858020324447,189354,FRASER STREET,ANDAZ SINGAPORE,30749.0836629895,31279.7563308124
7 FRASER STREET DUO GALLERIA SINGAPORE 189356,7,DUO GALLERIA,1.29953434891664,103.85840168774,103.85840168774,189356,FRASER STREET,DUO GALLERIA,30791.5255810972,31321.438068511
51 BRAS BASAH ROAD LAZADA ONE SINGAPORE 189554,51,LAZADA ONE,1.2978504278957,103.850255895979,103.850255895979,189554,BRAS BASAH ROAD,LAZADA ONE,29884.9730448145,31135.2312184926
71 BRAS BASAH ROAD FORMER SAINT JOSEPH'S INSTITUTION SINGAPORE 189555,71,FORMER SAINT JOSEPH'S INSTITUTION,1.29725759853987,103.851023580389,103.851023580389,189555,BRAS BASAH ROAD,FORMER SAINT JOSEPH'S INSTITUTION,29970.4099678984,31069.6797856204
73 BRAS BASAH ROAD NTUC TRADE UNION HOUSE SINGAPORE 189556,73,NTUC TRADE UNION HOUSE,1.2967452026769,103.851524792638,103.851524792638,189556,BRAS BASAH ROAD,NTUC TRADE UNION HOUSE,30026.1908653583,31013.0220852066
75 BRAS BASAH ROAD INCOME CENTRE SINGAPORE 189557,75,INCOME CENTRE,1.29658947305348,103.851739244258,103.851739244258,189557,BRAS BASAH ROAD,INCOME CENTRE,30050.0575640034,30995.8024779297
76 BRAS BASAH ROAD CARLTON HOTEL SINGAPORE 189558,76,CARLTON HOTEL,1.2959264465239,103.852518903928,103.852518903928,189558,BRAS BASAH ROAD,CARLTON HOTEL,30136.8273680173,30922.4890627768
9 BRAS BASAH ROAD RENDEZVOUS GRAND HOTEL SINGAPORE SINGAPORE 189559,9,RENDEZVOUS GRAND HOTEL SINGAPORE,1.29862529263979,103.849332451138,103.849332451138,189559,BRAS BASAH ROAD,RENDEZVOUS GRAND HOTEL SINGAPORE,29782.2012842409,31220.9111026805
"80 BRAS BASAH ROAD FAIRMONT, SINGAPORE SINGAPORE 189560",80,"FAIRMONT, SINGAPORE",1.29400429821115,103.853966128792,103.853966128792,189560,BRAS BASAH ROAD,"FAIRMONT, SINGAPORE",30297.8925108444,30709.9490669258
65 BRAS BASAH ROAD DBS BRAS BASAH MRT STATION SINGAPORE 189561,65,DBS BRAS BASAH MRT STATION,1.29685734391919,103.850836643979,103.850836643979,189561,BRAS BASAH ROAD,DBS BRAS BASAH MRT STATION,29949.6059049172,31025.4215463456
90 BRAS BASAH ROAD DBS ESPLANADE MRT STATION SINGAPORE 189562,90,DBS ESPLANADE MRT STATION,1.29309408587041,103.855583933723,103.855583933723,189562,BRAS BASAH ROAD,DBS ESPLANADE MRT STATION,30477.9410066269,30609.303995423
25 BENCOOLEN STREET STRAND HOTEL SINGAPORE 189619,25,STRAND HOTEL,1.29865276076724,103.849738602104,103.849738602104,189619,BENCOOLEN STREET,STRAND HOTEL,29827.4022501372,31223.9486764539
27 BENCOOLEN STREET BENCOOLEN HOUSE SINGAPORE 189620,27,BENCOOLEN HOUSE,1.29884981472614,103.849840386467,103.849840386467,189620,BENCOOLEN STREET,BENCOOLEN HOUSE,29838.7298008995,31245.7379623055
30 BENCOOLEN STREET 30 BENCOOLEN SINGAPORE 189621,30,30 BENCOOLEN,1.29850072449923,103.850402268993,103.850402268993,189621,BENCOOLEN STREET,30 BENCOOLEN,29901.2625774881,31207.1377777625
41 BENCOOLEN STREET HOTEL MI SINGAPORE 189623,41,HOTEL MI,1.29896833452516,103.850049207644,103.850049207644,189623,BENCOOLEN STREET,HOTEL MI,29861.9696496017,31258.8434241638
47 BENCOOLEN STREET HOTEL BENCOOLEN SINGAPORE 189626,47,HOTEL BENCOOLEN,1.29918072326174,103.850110685174,103.850110685174,189626,BENCOOLEN STREET,HOTEL BENCOOLEN,29868.811394373,31282.3283224609
48 BENCOOLEN STREET V HOTEL BENCOOLEN SINGAPORE 189627,48,V HOTEL BENCOOLEN,1.29898113696919,103.850780545726,103.850780545726,189627,BENCOOLEN STREET,V HOTEL BENCOOLEN,29943.361044785,31260.2596025858
51 BENCOOLEN STREET MASJID BENCOOLEN SINGAPORE 189630,51,MASJID BENCOOLEN,1.2993605331112,103.850376020549,103.850376020549,189630,BENCOOLEN STREET,MASJID BENCOOLEN,29898.3407182153,31302.2109674811
127 BENCOOLEN STREET SINGAPORE 189637,127,NIL,1.30080135899297,103.851688039914,103.851688039914,189637,BENCOOLEN STREET,127 BENCOOLEN STREET SINGAPORE 189637,30044.3555904264,31461.5311005116
129 BENCOOLEN STREET SINGAPORE 189638,129,NIL,1.30085864248148,103.851734088917,103.851734088917,189638,BENCOOLEN STREET,129 BENCOOLEN STREET SINGAPORE 189638,30049.4803838218,31467.8652511947
131 BENCOOLEN STREET SINGAPORE 189639,131,NIL,1.30091358090205,103.85177968344,103.85177968344,189639,BENCOOLEN STREET,131 BENCOOLEN STREET SINGAPORE 189639,30054.5545994164,31473.9400960635
169 BENCOOLEN STREET HAWAII HOSTEL SINGAPORE 189640,169,HAWAII HOSTEL,1.30151962007268,103.85220559565,103.85220559565,189640,BENCOOLEN STREET,HAWAII HOSTEL,30101.9542921856,31540.9531396013
171 BENCOOLEN STREET HAWAII HOSTEL SINGAPORE 189641,171,HAWAII HOSTEL,1.30156897191699,103.852244676978,103.852244676978,189641,BENCOOLEN STREET,HAWAII HOSTEL,30106.3036501054,31546.4102451894
173 BENCOOLEN STREET SUMMER VIEW HOTEL SINGAPORE 189642,173,SUMMER VIEW HOTEL,1.30165379986545,103.852242511084,103.852242511084,189642,BENCOOLEN STREET,SUMMER VIEW HOTEL,30106.0625353474,31555.7900814675
180 BENCOOLEN STREET THE BENCOOLEN SINGAPORE 189646,180,THE BENCOOLEN,1.30163231806657,103.853342606199,103.853342606199,189646,BENCOOLEN STREET,THE BENCOOLEN,30228.493200006,31553.4156792182
180A BENCOOLEN STREET THE BENCOOLEN SINGAPORE 189647,180A,THE BENCOOLEN,1.30166188823652,103.85335612315,103.85335612315,189647,BENCOOLEN STREET,THE BENCOOLEN,30229.9974885285,31556.6854084264
180B BENCOOLEN STREET THE BENCOOLEN SINGAPORE 189648,180B,THE BENCOOLEN,1.30163231806657,103.853342606199,103.853342606199,189648,BENCOOLEN STREET,THE BENCOOLEN,30228.493200006,31553.4156792182
175 BENCOOLEN STREET BURLINGTON SQUARE SINGAPORE 189649,175,BURLINGTON SQUARE,1.3021280372895,103.852604729752,103.852604729752,189649,BENCOOLEN STREET,BURLINGTON SQUARE,30146.3737992775,31608.2291211151
175A BENCOOLEN STREET BURLINGTON SQUARE SINGAPORE 189650,175A,BURLINGTON SQUARE,1.3022432704693,103.852700214718,103.852700214718,189650,BENCOOLEN STREET,BURLINGTON SQUARE,30157.000313269,31620.9710947555
175B BENCOOLEN STREET BURLINGTON SQUARE SINGAPORE 189651,175B,BURLINGTON SQUARE,1.3022432704693,103.852700214718,103.852700214718,189651,BENCOOLEN STREET,BURLINGTON SQUARE,30157.000313269,31620.9710947555
91 BENCOOLEN STREET SUNSHINE PLAZA SINGAPORE 189652,91,SUNSHINE PLAZA,1.30036996547834,103.851068824633,103.851068824633,189652,BENCOOLEN STREET,SUNSHINE PLAZA,29975.4428374264,31413.8293332644
77 BENCOOLEN STREET SINGAPORE 189653,77,NIL,1.29971736529324,103.850631961642,103.850631961642,189653,BENCOOLEN STREET,77 BENCOOLEN STREET SINGAPORE 189653,29926.8244042927,31341.667826768
38 BENCOOLEN STREET NAFA CAMPUS 2 SINGAPORE 189654,38,NAFA CAMPUS 2,1.29870922065727,103.850556589903,103.850556589903,189654,BENCOOLEN STREET,NAFA CAMPUS 2,29918.4369643973,31230.1923258677
80 BENCOOLEN STREET NAFA CAMPUS 1 SINGAPORE 189655,80,NAFA CAMPUS 1,1.29987414708767,103.851465787683,103.851465787683,189655,BENCOOLEN STREET,NAFA CAMPUS 1,30019.6216535121,31359.0046014097
151 BENCOOLEN STREET LEE FOUNDATION THEATRE SINGAPORE 189656,151,LEE FOUNDATION THEATRE,1.30134244089363,103.851991217081,103.851991217081,189656,BENCOOLEN STREET,LEE FOUNDATION THEATRE,30078.096038308,31521.361400174
170 BENCOOLEN STREET IBIS SINGAPORE ON BENCOOLEN SINGAPORE 189657,170,IBIS SINGAPORE ON BENCOOLEN,1.30096317431434,103.85242267458,103.85242267458,189657,BENCOOLEN STREET,IBIS SINGAPORE ON BENCOOLEN,30126.1136822328,31479.424412569
31 BENCOOLEN STREET BENCOOLEN MRT STATION (DT21) SINGAPORE 189658,31,BENCOOLEN MRT STATION (DT21),1.29891843369422,103.850353762717,103.850353762717,189658,BENCOOLEN STREET,BENCOOLEN MRT STATION (DT21),29895.8639496444,31253.3258734122
1 BEACH ROAD RAFFLES HOTEL SINGAPORE 189673,1,RAFFLES HOTEL,1.29509740789339,103.85406834457,103.85406834457,189673,BEACH ROAD,RAFFLES HOTEL,30309.2672493933,30830.8195986319
3 BEACH ROAD RAFFLES HOTEL SINGAPORE SINGAPORE 189674,3,RAFFLES HOTEL SINGAPORE,1.294801401498,103.854467487996,103.854467487996,189674,BEACH ROAD,RAFFLES HOTEL SINGAPORE,30353.6886936361,30798.0891025625
11 BEACH ROAD SINGAPORE 189675,11,NIL,1.29539967795236,103.855216515356,103.855216515356,189675,BEACH ROAD,11 BEACH ROAD SINGAPORE 189675,30437.0483249966,30864.244139567
15 BEACH ROAD BEACH CENTRE SINGAPORE 189677,15,BEACH CENTRE,1.29579601677989,103.855495433165,103.855495433165,189677,BEACH ROAD,BEACH CENTRE,30468.0890503386,30908.0695164073
37 BEACH ROAD SINGAPORE 189678,37,NIL,1.29614540183827,103.855748567523,103.855748567523,189678,BEACH ROAD,37 BEACH ROAD SINGAPORE 189678,30496.2603405556,30946.7029654644
41 BEACH ROAD SINGAPORE 189680,41,NIL,1.2962268269966,103.855810046747,103.855810046747,189680,BEACH ROAD,41 BEACH ROAD SINGAPORE 189680,30503.1023577396,30955.7066009715
43 BEACH ROAD EVERSHINE & CENTURY COMPLEX SINGAPORE 189681,43,EVERSHINE & CENTURY COMPLEX,1.2962665837244,103.855838016599,103.855838016599,189681,BEACH ROAD,EVERSHINE & CENTURY COMPLEX,30506.2151171844,30960.1027229279
45 BEACH ROAD EVERSHINE & CENTURY COMPLEX SINGAPORE 189682,45,EVERSHINE & CENTURY COMPLEX,1.29630550856942,103.855866866815,103.855866866815,189682,BEACH ROAD,EVERSHINE & CENTURY COMPLEX,30509.4258540934,30964.4068604801
47 BEACH ROAD KHENG CHIU BUILDING SINGAPORE 189683,47,KHENG CHIU BUILDING,1.29639385865128,103.855925028878,103.855925028878,189683,BEACH ROAD,KHENG CHIU BUILDING,30515.8986926796,30974.17621544
47A BEACH ROAD KHENG CHIU BUILDING SINGAPORE 189684,47A,KHENG CHIU BUILDING,1.2964086401921,103.855929479543,103.855929479543,189684,BEACH ROAD,KHENG CHIU BUILDING,30516.3939979644,30975.8106865603
49 BEACH ROAD HEXAGON HOUSE SINGAPORE 189685,49,HEXAGON HOUSE,1.29645600654058,103.856005037059,103.856005037059,189685,BEACH ROAD,HEXAGON HOUSE,30524.8028373253,30981.0482887309
67 BEACH ROAD BULKHAUL HOUSE SINGAPORE 189688,67,BULKHAUL HOUSE,1.29695965625237,103.856315239551,103.856315239551,189688,BEACH ROAD,BULKHAUL HOUSE,30559.3251374941,31036.7395929601
75 BEACH ROAD 75BR SINGAPORE 189689,75,75BR,1.29706194380845,103.85642247488,103.85642247488,189689,BEACH ROAD,75BR,30571.2593797222,31048.0501331165
81 BEACH ROAD PARK VIEW HOTEL SINGAPORE 189692,81,PARK VIEW HOTEL,1.29720616210322,103.856494298869,103.856494298869,189692,BEACH ROAD,PARK VIEW HOTEL,30579.2526093982,31063.9971230179
85 BEACH ROAD ST SIGNATURE BUGIS BEACH SINGAPORE 189694,85,ST SIGNATURE BUGIS BEACH,1.29728160067594,103.856588173659,103.856588173659,189694,BEACH ROAD,ST SIGNATURE BUGIS BEACH,30589.6999671934,31072.33882799
87 BEACH ROAD CHYE SING BUILDING SINGAPORE 189695,87,CHYE SING BUILDING,1.2973703489709,103.856681241367,103.856681241367,189695,BEACH ROAD,CHYE SING BUILDING,30600.057489614,31082.1522531342
89 BEACH ROAD CHYE SING BUILDING SINGAPORE 189696,89,CHYE SING BUILDING,1.297402484453,103.856646123929,103.856646123929,189696,BEACH ROAD,CHYE SING BUILDING,30596.1491967523,31085.7055933513
91 BEACH ROAD CHYE SING BUILDING SINGAPORE 189697,91,CHYE SING BUILDING,1.297402484453,103.856646123929,103.856646123929,189697,BEACH ROAD,CHYE SING BUILDING,30596.1491967523,31085.7055933513
93 BEACH ROAD CHYE SING BUILDING SINGAPORE 189698,93,CHYE SING BUILDING,1.297402484453,103.856646123929,103.856646123929,189698,BEACH ROAD,CHYE SING BUILDING,30596.1491967523,31085.7055933513
95 BEACH ROAD HOTEL CALMO BUGIS SINGAPORE 189699,95,HOTEL CALMO BUGIS,1.29748606543756,103.856744639451,103.856744639451,189699,BEACH ROAD,HOTEL CALMO BUGIS,30607.1130171549,31094.9476497676
97 BEACH ROAD HOTEL CALMO BUGIS SINGAPORE 189700,97,HOTEL CALMO BUGIS,1.29750992857317,103.85672423884,103.85672423884,189700,BEACH ROAD,HOTEL CALMO BUGIS,30604.8425854277,31097.5862915162
100 BEACH ROAD CARNIVAL CINEMAS SHAW TOWERS SINGAPORE 189702,100,CARNIVAL CINEMAS SHAW TOWERS,1.29648054791056,103.856857357863,103.856857357863,189702,BEACH ROAD,CARNIVAL CINEMAS SHAW TOWERS,30619.6586121172,30983.7628123146
101 BEACH ROAD THE 101 SINGAPORE 189703,101,THE 101,1.29775785594429,103.85695558852,103.85695558852,189703,BEACH ROAD,THE 101,30630.5895009534,31125.0010637473
103 BEACH ROAD LION PEAK HOTEL BUGIS SINGAPORE 189704,103,LION PEAK HOTEL BUGIS,1.29789093080656,103.857087526796,103.857087526796,189704,BEACH ROAD,LION PEAK HOTEL BUGIS,30645.2729236064,31139.7159348354
150 BEACH ROAD GATEWAY WEST SINGAPORE 189720,150,GATEWAY WEST,1.29835114702678,103.858853820405,103.858853820405,189720,BEACH ROAD,GATEWAY WEST,30841.8452262562,31190.6061920226
152 BEACH ROAD EMBASSY OF MEXICO SINGAPORE 189721,152,EMBASSY OF MEXICO,1.29875874537227,103.859429839576,103.859429839576,189721,BEACH ROAD,EMBASSY OF MEXICO,30905.9505759384,31235.676975321
241 BEACH ROAD SINGAPORE 189753,241,NIL,1.30019055719254,103.859473674038,103.859473674038,189753,BEACH ROAD,241 BEACH ROAD SINGAPORE 189753,30910.8273232067,31393.9994150717
243 BEACH ROAD KAMPONG GLAM CONSERVATION AREA SINGAPORE 189754,243,KAMPONG GLAM CONSERVATION AREA,1.30024893968556,103.859535195942,103.859535195942,189754,BEACH ROAD,KAMPONG GLAM CONSERVATION AREA,30917.6740924632,31400.4551219791
245 BEACH ROAD KAMPONG GLAM CONSERVATION AREA SINGAPORE 189755,245,KAMPONG GLAM CONSERVATION AREA,1.30027746257295,103.859569734708,103.859569734708,189755,BEACH ROAD,KAMPONG GLAM CONSERVATION AREA,30921.5179145196,31403.6090761498
247 BEACH ROAD KAMPONG GLAM CONSERVATION AREA SINGAPORE 189756,247,KAMPONG GLAM CONSERVATION AREA,1.30030621184638,103.859603377058,103.859603377058,189756,BEACH ROAD,KAMPONG GLAM CONSERVATION AREA,30925.2619733019,31406.7880619448
249 BEACH ROAD KAMPONG GLAM CONSERVATION AREA SINGAPORE 189757,249,KAMPONG GLAM CONSERVATION AREA,1.30033071358233,103.859639179091,103.859639179091,189757,BEACH ROAD,KAMPONG GLAM CONSERVATION AREA,30929.2463901425,31409.4973794352
28 BEACH ROAD SOUTH BEACH RESIDENCES SINGAPORE 189762,28,SOUTH BEACH RESIDENCES,1.29438518375248,103.8560297971,103.8560297971,189762,BEACH ROAD,SOUTH BEACH RESIDENCES,30527.5604625177,30752.0673900209
30 BEACH ROAD JW MARRIOTT SINGAPORE SOUTH BEACH SINGAPORE 189763,30,JW MARRIOTT SINGAPORE SOUTH BEACH,1.29465290739595,103.855516049506,103.855516049506,189763,BEACH ROAD,JW MARRIOTT SINGAPORE SOUTH BEACH,30470.3845742233,30781.6703861356
32 BEACH ROAD SOUTH BEACH SINGAPORE 189764,32,SOUTH BEACH,1.29415243891628,103.855108379944,103.855108379944,189764,BEACH ROAD,SOUTH BEACH,30425.01498539,30726.3307656087
34 BEACH ROAD SOUTH BEACH SINGAPORE 189765,34,SOUTH BEACH,1.29517649071159,103.855976594659,103.855976594659,189765,BEACH ROAD,SOUTH BEACH,30521.6387131112,30839.5659865458
36 BEACH ROAD SOUTH BEACH SINGAPORE 189766,36,SOUTH BEACH,1.29578101285494,103.856177264026,103.856177264026,189766,BEACH ROAD,SOUTH BEACH,30543.97085525,30906.411133578
38 BEACH ROAD SOUTH BEACH TOWER SINGAPORE 189767,38,SOUTH BEACH TOWER,1.29517743280373,103.856409470929,103.856409470929,189767,BEACH ROAD,SOUTH BEACH TOWER,30569.8140532319,30839.6705926973
26 BEACH ROAD DBS SOUTH BEACH AVENUE SINGAPORE 189768,26,DBS SOUTH BEACH AVENUE,1.29443171770814,103.85601091893,103.85601091893,189768,BEACH ROAD,DBS SOUTH BEACH AVENUE,30525.4594406961,30757.2128564473
120 BEACH ROAD MIDTOWN HOUSE @ OLD POLICE STATION SINGAPORE 189769,120,MIDTOWN HOUSE @ OLD POLICE STATION,1.29714146369253,103.857338603824,103.857338603824,189769,BEACH ROAD,MIDTOWN HOUSE @ OLD POLICE STATION,30673.2163564423,31056.8439812288
122 BEACH ROAD MIDTOWN BAY SINGAPORE 189770,122,MIDTOWN BAY,1.29635666439809,103.85736876917,103.85736876917,189770,BEACH ROAD,MIDTOWN BAY,30676.5743168239,30970.0649454799
124 BEACH ROAD GUOCO MIDTOWN SINGAPORE 189771,124,GUOCO MIDTOWN,1.29689022053872,103.857518538897,103.857518538897,189771,BEACH ROAD,GUOCO MIDTOWN,30693.2418058096,31029.0629966613
126 BEACH ROAD GUOCO MIDTOWN SINGAPORE 189772,126,GUOCO MIDTOWN,1.29682022653429,103.857738598748,103.857738598748,189772,BEACH ROAD,GUOCO MIDTOWN,30717.73260001,31021.3236548342
128 BEACH ROAD GUOCO MIDTOWN OFFICE SINGAPORE 189773,128,GUOCO MIDTOWN OFFICE,1.29726827466637,103.858149299317,103.858149299317,189773,BEACH ROAD,GUOCO MIDTOWN OFFICE,30763.4394649863,31070.866956478
130 BEACH ROAD GUOCO MIDTOWN SINGAPORE 189774,130,GUOCO MIDTOWN,1.29762738757906,103.857712874744,103.857712874744,189774,BEACH ROAD,GUOCO MIDTOWN,30714.8688855348,31110.5753427073
8 BALI LANE SINGAPORE 189845,8,NIL,1.30048902647465,103.859060359055,103.859060359055,189845,BALI LANE,8 BALI LANE SINGAPORE 189845,30864.8287354037,31427.0021413863
9 BALI LANE KAMPONG GLAM CONSERVATION AREA SINGAPORE 189846,9,KAMPONG GLAM CONSERVATION AREA,1.30052850102094,103.859027483541,103.859027483541,189846,BALI LANE,KAMPONG GLAM CONSERVATION AREA,30861.1699415324,31431.3669965137
11 BALI LANE KAMPONG GLAM CONSERVATION AREA SINGAPORE 189848,11,KAMPONG GLAM CONSERVATION AREA,1.30063100774606,103.85894459936,103.85894459936,189848,BALI LANE,KAMPONG GLAM CONSERVATION AREA,30851.9455616185,31442.7015694492
13 BALI LANE KAMPONG GLAM CONSERVATION AREA SINGAPORE 189849,13,KAMPONG GLAM CONSERVATION AREA,1.30068185898339,103.858904185995,103.858904185995,189849,BALI LANE,KAMPONG GLAM CONSERVATION AREA,30847.4478603099,31448.3243922479
14 BALI LANE KAMPONG GLAM CONSERVATION AREA SINGAPORE 189850,14,KAMPONG GLAM CONSERVATION AREA,1.30071362129317,103.858879362659,103.858879362659,189850,BALI LANE,KAMPONG GLAM CONSERVATION AREA,30844.6852106322,31451.8364772014
15 BALI LANE KAMPONG GLAM CONSERVATION AREA SINGAPORE 189851,15,KAMPONG GLAM CONSERVATION AREA,1.30074482109687,103.858853030419,103.858853030419,189851,BALI LANE,KAMPONG GLAM CONSERVATION AREA,30841.754634181,31455.2863614503
16 BALI LANE KAMPONG GLAM CONSERVATION AREA SINGAPORE 189852,16,KAMPONG GLAM CONSERVATION AREA,1.300775602893,103.858828374063,103.858828374063,189852,BALI LANE,KAMPONG GLAM CONSERVATION AREA,30839.0105690444,31458.6900264882
17 BALI LANE KAMPONG GLAM CONSERVATION AREA SINGAPORE 189853,17,KAMPONG GLAM CONSERVATION AREA,1.30080679146815,103.858802528106,103.858802528106,189853,BALI LANE,KAMPONG GLAM CONSERVATION AREA,30836.1341117481,31462.1386697479
18 BALI LANE KAMPONG GLAM CONSERVATION AREA SINGAPORE 189854,18,KAMPONG GLAM CONSERVATION AREA,1.3008386367286,103.858776665838,103.858776665838,189854,BALI LANE,KAMPONG GLAM CONSERVATION AREA,30833.2558383727,31465.6599259023
19 BALI LANE KAMPONG GLAM CONSERVATION AREA SINGAPORE 189855,19,KAMPONG GLAM CONSERVATION AREA,1.30087019537916,103.858751910218,103.858751910218,189855,BALI LANE,KAMPONG GLAM CONSERVATION AREA,30830.500725423,31469.1494914759
20 BALI LANE KAMPONG GLAM CONSERVATION AREA SINGAPORE 189856,20,KAMPONG GLAM CONSERVATION AREA,1.30090471752515,103.858720966731,103.858720966731,189856,BALI LANE,KAMPONG GLAM CONSERVATION AREA,30827.0569553068,31472.9667382427
21 BALI LANE KAMPONG GLAM CONSERVATION AREA SINGAPORE 189857,21,KAMPONG GLAM CONSERVATION AREA,1.30094730550014,103.858688653675,103.858688653675,189857,BALI LANE,KAMPONG GLAM CONSERVATION AREA,30823.4607556257,31477.6758614182
22 BALI LANE KAMPONG GLAM CONSERVATION AREA SINGAPORE 189858,22,KAMPONG GLAM CONSERVATION AREA,1.30098498160579,103.858656798297,103.858656798297,189858,BALI LANE,KAMPONG GLAM CONSERVATION AREA,30819.9154969612,31481.8418558929
23 BALI LANE KAMPONG GLAM CONSERVATION AREA SINGAPORE 189859,23,KAMPONG GLAM CONSERVATION AREA,1.30102006952333,103.858629160626,103.858629160626,189859,BALI LANE,KAMPONG GLAM CONSERVATION AREA,30816.8396341875,31485.7216665819
24 BALI LANE KAMPONG GLAM CONSERVATION AREA SINGAPORE 189860,24,KAMPONG GLAM CONSERVATION AREA,1.30105496308352,103.858602184932,103.858602184932,189860,BALI LANE,KAMPONG GLAM CONSERVATION AREA,30813.837443687,31489.5799870025
25 BALI LANE KAMPONG GLAM CONSERVATION AREA SINGAPORE 189861,25,KAMPONG GLAM CONSERVATION AREA,1.3010886957502,103.858574384608,103.858574384608,189861,BALI LANE,KAMPONG GLAM CONSERVATION AREA,30810.7434806591,31493.3099409025
26 BALI LANE KAMPONG GLAM CONSERVATION AREA SINGAPORE 189862,26,KAMPONG GLAM CONSERVATION AREA,1.30112271281741,103.858547355598,103.858547355598,189862,BALI LANE,KAMPONG GLAM CONSERVATION AREA,30807.7353576338,31497.0713432394
27 BALI LANE KAMPONG GLAM CONSERVATION AREA SINGAPORE 189863,27,KAMPONG GLAM CONSERVATION AREA,1.30115935583925,103.858516879101,103.858516879101,189863,BALI LANE,KAMPONG GLAM CONSERVATION AREA,30804.3435576456,31501.1231063437
28 BALI LANE KAMPONG GLAM CONSERVATION AREA SINGAPORE 189864,28,KAMPONG GLAM CONSERVATION AREA,1.30119688327379,103.858488208775,103.858488208775,189864,BALI LANE,KAMPONG GLAM CONSERVATION AREA,30801.1527673388,31505.2726653032
29 BALI LANE KAMPONG GLAM CONSERVATION AREA SINGAPORE 189865,29,KAMPONG GLAM CONSERVATION AREA,1.3012292273119,103.858458416786,103.858458416786,189865,BALI LANE,KAMPONG GLAM CONSERVATION AREA,30797.8371518664,31508.8490697239
30 BALI LANE KAMPONG GLAM CONSERVATION AREA SINGAPORE 189866,30,KAMPONG GLAM CONSERVATION AREA,1.30126242290152,103.858431759822,103.858431759822,189866,BALI LANE,KAMPONG GLAM CONSERVATION AREA,30794.8704354418,31512.5196378417
31 BALI LANE KAMPONG GLAM CONSERVATION AREA SINGAPORE 189867,31,KAMPONG GLAM CONSERVATION AREA,1.301293852073,103.858407008272,103.858407008272,189867,BALI LANE,KAMPONG GLAM CONSERVATION AREA,30792.1157765118,31515.9948866609
32 BALI LANE KAMPONG GLAM CONSERVATION AREA SINGAPORE 189868,32,KAMPONG GLAM CONSERVATION AREA,1.30132396352387,103.858379242447,103.858379242447,189868,BALI LANE,KAMPONG GLAM CONSERVATION AREA,30789.0256575178,31519.3244254049
33 BALI LANE KAMPONG GLAM CONSERVATION AREA SINGAPORE 189869,33,KAMPONG GLAM CONSERVATION AREA,1.30135453209263,103.858353066028,103.858353066028,189869,BALI LANE,KAMPONG GLAM CONSERVATION AREA,30786.1124246214,31522.7045116834
60 ALBERT STREET DBS OG ALBERT COMPLEX SINGAPORE 189969,60,DBS OG ALBERT COMPLEX,1.30237807553016,103.853794531128,103.853794531128,189969,ALBERT STREET,DBS OG ALBERT COMPLEX,30278.7876924695,31635.8781070039
175 ALBERT STREET PARC SOVEREIGN HOTEL SINGAPORE 189970,175,PARC SOVEREIGN HOTEL,1.30362460410901,103.851207543221,103.851207543221,189970,ALBERT STREET,PARC SOVEREIGN HOTEL,29990.8784194747,31773.7106351778
180 ALBERT STREET ALBERT COURT SINGAPORE 189971,180,ALBERT COURT,1.30390260693982,103.850716665613,103.850716665613,189971,ALBERT STREET,ALBERT COURT,29936.2480080752,31804.4503756892
