ADDRESS,BLK_NO,BUILDING,LATITUDE,LONGITUDE,LONGTITUDE,POSTAL,ROAD_NAME,SEARCHVAL,X,Y
8 SLIM BARRACKS RISE ONE-NORTH EDEN SINGAPORE 138492,8,ONE-NORTH EDEN,1.30326050404129,103.789209731059,103.789209731059,138492,SLIM BARRACKS RISE,ONE-NORTH EDEN,23091.086677406,31733.4862706289
10 SLIM BARRACKS RISE ONE-NORTH EDEN SINGAPORE 138493,10,ONE-NORTH EDEN,1.3034460248358,103.789068096096,103.789068096096,138493,SLIM BARRACKS RISE,ONE-NORTH EDEN,23075.324352473,31754.0004873965
1 MEDIA CLOSE SINGAPORE 138497,1,NIL,1.29187189623857,103.793700619096,103.793700619096,138497,MEDIA CLOSE,1 MEDIA CLOSE SINGAPORE 138497,23590.8619993264,30474.1841142196
3 MEDIA CLOSE SINGAPORE 138498,3,NIL,1.29182856460326,103.7929073299,103.7929073299,138498,MEDIA CLOSE,3 MEDIA CLOSE SINGAPORE 138498,23502.5756482566,30469.3941149935
1 STARS AVENUE DBS MEDIACORP STAR AVENUE SINGAPORE 138507,1,DBS MEDIACORP STAR AVENUE,1.29568999351784,103.792293326229,103.792293326229,138507,STARS AVENUE,DBS MEDIACORP STAR AVENUE,23434.2492163684,30896.3722119555
1 FUSIONOPOLIS PLACE GALAXIS SINGAPORE 138522,1,GALAXIS,1.29997429634718,103.78843336158,103.78843336158,138522,FUSIONOPOLIS PLACE,GALAXIS,23004.6773348097,31370.1157663558
3 FUSIONOPOLIS PLACE GALAXIS SINGAPORE 138523,3,GALAXIS,1.29986251400969,103.788101008571,103.788101008571,138523,FUSIONOPOLIS PLACE,GALAXIS,22967.689192811,31357.7561076172
16 COLLEGE AVENUE WEST YALE-NUS COLLEGE SINGAPORE 138527,16,YALE-NUS COLLEGE,1.30630452078538,103.771789872765,103.771789872765,138527,COLLEGE AVENUE WEST,YALE-NUS COLLEGE,21152.4225927256,32070.1188250519
18 COLLEGE AVENUE WEST YALE-NUS COLLEGE CAMPUS SINGAPORE 138528,18,YALE-NUS COLLEGE CAMPUS,1.30714440669788,103.77197858734,103.77197858734,138528,COLLEGE AVENUE WEST,YALE-NUS COLLEGE CAMPUS,21173.4270600257,32162.9886266291
20 COLLEGE AVENUE WEST YALE-NUS COLLEGE CAMPUS SINGAPORE 138529,20,YALE-NUS COLLEGE CAMPUS,1.30705741093022,103.772529916797,103.772529916797,138529,COLLEGE AVENUE WEST,YALE-NUS COLLEGE CAMPUS,21234.7847124143,32153.3675847892
22 COLLEGE AVENUE WEST YALE-NUS COLLEGE CAMPUS SINGAPORE 138530,22,YALE-NUS COLLEGE CAMPUS,1.30756333329947,103.77262245701,103.77262245701,138530,COLLEGE AVENUE WEST,YALE-NUS COLLEGE CAMPUS,21245.0849375417,32209.3096592613
24 COLLEGE AVENUE WEST YALE-NUS COLLEGE CAMPUS SINGAPORE 138531,24,YALE-NUS COLLEGE CAMPUS,1.30769533190976,103.7726333349,103.7726333349,138531,COLLEGE AVENUE WEST,YALE-NUS COLLEGE CAMPUS,21246.2958990335,32223.9053652976
26 COLLEGE AVENUE WEST YALE-NUS COLLEGE CAMPUS SINGAPORE 138532,26,YALE-NUS COLLEGE CAMPUS,1.30789140001494,103.772683674139,103.772683674139,138532,COLLEGE AVENUE WEST,YALE-NUS COLLEGE CAMPUS,21251.8987146961,32245.5854442641
28 COLLEGE AVENUE WEST YALE-NUS COLLEGE CAMPUS SINGAPORE 138533,28,YALE-NUS COLLEGE CAMPUS,1.30798323455178,103.772253905877,103.772253905877,138533,COLLEGE AVENUE WEST,YALE-NUS COLLEGE CAMPUS,21204.0697311135,32255.7412003037
21A ONE-NORTH CRESCENT TEMPORARY SITE OFFICE SINGAPORE 138537,21A,TEMPORARY SITE OFFICE,1.29802897840495,103.791495343619,103.791495343619,138537,ONE-NORTH CRESCENT,TEMPORARY SITE OFFICE,23345.445010365,31155.0066240467
1 ONE-NORTH CRESCENT RAZER SEA HQ SINGAPORE 138538,1,RAZER SEA HQ,1.29750106627809,103.791030218041,103.791030218041,138538,ONE-NORTH CRESCENT,RAZER SEA HQ,23293.6796754999,31096.6336672641
1 FUSIONOPOLIS LINK NEXUS @ONE-NORTH SINGAPORE 138542,1,NEXUS @ONE-NORTH,1.29919702323894,103.789626074941,103.789626074941,138542,FUSIONOPOLIS LINK,NEXUS @ONE-NORTH,23137.4141873876,31284.1665576492
3 FUSIONOPOLIS LINK NATIONAL HEALTHCARE GROUP SINGAPORE 138543,3,NATIONAL HEALTHCARE GROUP,1.29872899118332,103.789833255717,103.789833255717,138543,FUSIONOPOLIS LINK,NATIONAL HEALTHCARE GROUP,23160.4706726447,31232.4135721214
70 BIOPOLIS STREET SINGAPORE 138547,70,NIL,1.30291803162987,103.7919357017,103.7919357017,138547,BIOPOLIS STREET,70 BIOPOLIS STREET SINGAPORE 138547,23394.4618307007,31695.6122755501
1 MEDIA LINK STT MEDIAHUB SINGAPORE 138552,1,STT MEDIAHUB,1.29228000713684,103.791926602073,103.791926602073,138552,MEDIA LINK,STT MEDIAHUB,23393.4298740635,30519.3140714262
21 MEDIA CIRCLE INFINITE STUDIOS SINGAPORE 138562,21,INFINITE STUDIOS,1.292414488569,103.794616839337,103.794616839337,138562,MEDIA CIRCLE,INFINITE STUDIOS,23692.8303568084,30534.1796165369
23 MEDIA CIRCLE INFINITE STUDIOS SINGAPORE 138563,23,INFINITE STUDIOS,1.29237174215513,103.794705941627,103.794705941627,138563,MEDIA CIRCLE,INFINITE STUDIOS,23702.746602294,30529.4527865928
31 MEDIA CIRCLE SINGAPORE 138564,31,NIL,1.29505731783147,103.792814457872,103.792814457872,138564,MEDIA CIRCLE,31 MEDIA CIRCLE SINGAPORE 138564,23492.2454880932,30826.413246097
29 MEDIA CIRCLE ALICE@MEDIAPOLIS SINGAPORE 138565,29,ALICE@MEDIAPOLIS,1.29378180909359,103.793017097396,103.793017097396,138565,MEDIA CIRCLE,ALICE@MEDIAPOLIS,23514.7952570347,30685.373673711
21 BIOPOLIS ROAD NUCLEOS SINGAPORE 138567,21,NUCLEOS,1.30186075571076,103.792148179891,103.792148179891,138567,BIOPOLIS ROAD,NUCLEOS,23418.1068163645,31578.7037321106
28 BIOPOLIS ROAD WILMAR INTERNATIONAL SINGAPORE 138568,28,WILMAR INTERNATIONAL,1.3006816455866,103.791381984701,103.791381984701,138568,BIOPOLIS ROAD,WILMAR INTERNATIONAL,23332.834036557,31448.3251792155
"1 TECHNOLOGY DRIVE SCHOOL OF SCIENCE AND TECHNOLOGY, SINGAPORE SINGAPORE 138572",1,"SCHOOL OF SCIENCE AND TECHNOLOGY, SINGAPORE",1.31316278617555,103.773954126122,103.773954126122,138572,TECHNOLOGY DRIVE,"SCHOOL OF SCIENCE AND TECHNOLOGY, SINGAPORE",21393.3020779798,32828.4651476387
1 FUSIONOPOLIS VIEW ECLIPSE SINGAPORE 138577,1,ECLIPSE,1.30001193345346,103.789466045211,103.789466045211,138577,FUSIONOPOLIS VIEW,ECLIPSE,23119.6058678273,31374.2754650898
41 ROCHESTER DRIVE PARK AVENUE ROCHESTER SINGAPORE 138582,41,PARK AVENUE ROCHESTER,1.30598108225334,103.787702992693,103.787702992693,138582,ROCHESTER DRIVE,PARK AVENUE ROCHESTER,22923.4058311097,32034.3168853354
9 NORTH BUONA VISTA DRIVE THE METROPOLIS SINGAPORE 138588,9,THE METROPOLIS,1.30630784634257,103.791311770125,103.791311770125,138588,NORTH BUONA VISTA DRIVE,THE METROPOLIS,23325.0301633868,32070.4417844377
11 NORTH BUONA VISTA DRIVE CONSULATE OF THE REPUBLIC OF SAN MARINO SINGAPORE 138589,11,CONSULATE OF THE REPUBLIC OF SAN MARINO,1.3056671789506,103.791709613782,103.791709613782,138589,NORTH BUONA VISTA DRIVE,CONSULATE OF THE REPUBLIC OF SAN MARINO,23369.3053224655,31999.5993264038
16 COLLEGE AVENUE EAST UNIVERSITY TOWN (CHUA THIAN POH HALL) SINGAPORE 138592,16,UNIVERSITY TOWN (CHUA THIAN POH HALL),1.3070013088908,103.773300877066,103.773300877066,138592,COLLEGE AVENUE EAST,UNIVERSITY TOWN (CHUA THIAN POH HALL),21320.5853355899,32147.1620427668
18 COLLEGE AVENUE EAST UNIVERSITY TOWN (CINNAMON COLLEGE) SINGAPORE 138593,18,UNIVERSITY TOWN (CINNAMON COLLEGE),1.30679812221605,103.773062347728,103.773062347728,138593,COLLEGE AVENUE EAST,UNIVERSITY TOWN (CINNAMON COLLEGE),21294.0386793986,32124.6953291725
20 COLLEGE AVENUE EAST UNIVERSITY TOWN (CINNAMON COLLEGE) SINGAPORE 138594,20,UNIVERSITY TOWN (CINNAMON COLLEGE),1.30656420614108,103.773158114376,103.773158114376,138594,COLLEGE AVENUE EAST,UNIVERSITY TOWN (CINNAMON COLLEGE),21304.6960061975,32098.8298236877
22 COLLEGE AVENUE EAST UNIVERSITY TOWN (CINNAMON COLLEGE) SINGAPORE 138595,22,UNIVERSITY TOWN (CINNAMON COLLEGE),1.30675511748531,103.77345174607,103.77345174607,138595,COLLEGE AVENUE EAST,UNIVERSITY TOWN (CINNAMON COLLEGE),21337.3750164257,32119.9390484784
24 COLLEGE AVENUE EAST UNIVERSITY TOWN SINGAPORE 138596,24,UNIVERSITY TOWN,1.30645649483485,103.773618205718,103.773618205718,138596,COLLEGE AVENUE EAST,UNIVERSITY TOWN,21355.8996580886,32086.9184337873
26 COLLEGE AVENUE EAST UNIVERSITY TOWN (TEMBUSU COLLEGE) SINGAPORE 138597,26,UNIVERSITY TOWN (TEMBUSU COLLEGE),1.3061552947293,103.773762837459,103.773762837459,138597,COLLEGE AVENUE EAST,UNIVERSITY TOWN (TEMBUSU COLLEGE),21371.9950519139,32053.612876296
28 COLLEGE AVENUE EAST UNIVERSITY TOWN (TEMBUSU COLLEGE) SINGAPORE 138598,28,UNIVERSITY TOWN (TEMBUSU COLLEGE),1.30592592436954,103.773852990137,103.773852990137,138598,COLLEGE AVENUE EAST,UNIVERSITY TOWN (TEMBUSU COLLEGE),21382.0276172608,32028.2500312161
30 COLLEGE AVENUE EAST UNIVERSITY TOWN (TEMBUSU COLLEGE) SINGAPORE 138599,30,UNIVERSITY TOWN (TEMBUSU COLLEGE),1.30590900675049,103.773481723266,103.773481723266,138599,COLLEGE AVENUE EAST,UNIVERSITY TOWN (TEMBUSU COLLEGE),21340.7089742962,32026.3803475928
36 COLLEGE AVENUE EAST UNIVERSITY TOWN (UTOWN RESIDENCE NORTH TOWER) SINGAPORE 138600,36,UNIVERSITY TOWN (UTOWN RESIDENCE NORTH TOWER),1.3053214796692,103.773948937801,103.773948937801,138600,COLLEGE AVENUE EAST,UNIVERSITY TOWN (UTOWN RESIDENCE NORTH TOWER),21392.7041339614,31961.4133592192
38 COLLEGE AVENUE EAST UNIVERSITY TOWN (UTOWN RESIDENCE SOUTH TOWER) SINGAPORE 138601,38,UNIVERSITY TOWN (UTOWN RESIDENCE SOUTH TOWER),1.30473601105044,103.773991794709,103.773991794709,138601,COLLEGE AVENUE EAST,UNIVERSITY TOWN (UTOWN RESIDENCE SOUTH TOWER),21397.4721889002,31896.6751059964
1 CREATE WAY UNIVERSITY TOWN (CREATE) SINGAPORE 138602,1,UNIVERSITY TOWN (CREATE),1.30399654877953,103.774032940413,103.774032940413,138602,CREATE WAY,UNIVERSITY TOWN (CREATE),21402.049404202,31814.9090234432
2 COLLEGE AVENUE WEST DBS NUS EDUSPORT COMPLEX SINGAPORE 138607,2,DBS NUS EDUSPORT COMPLEX,1.30479483284214,103.772461624378,103.772461624378,138607,COLLEGE AVENUE WEST,DBS NUS EDUSPORT COMPLEX,21227.1783378385,31903.1833883915
8 COLLEGE AVENUE WEST THE NGEE ANN KONGSI AUDITORIUM SINGAPORE 138608,8,THE NGEE ANN KONGSI AUDITORIUM,1.30547903926184,103.773230602745,103.773230602745,138608,COLLEGE AVENUE WEST,THE NGEE ANN KONGSI AUDITORIUM,21312.7604261711,31978.8373964578
10 COLLEGE AVENUE WEST YALE-NUS COLLEGE CAMPUS SINGAPORE 138609,10,YALE-NUS COLLEGE CAMPUS,1.3055311451546,103.772048529232,103.772048529232,138609,COLLEGE AVENUE WEST,YALE-NUS COLLEGE CAMPUS,21181.206597737,31984.6021761
12 COLLEGE AVENUE WEST YALE-NUS COLLEGE CAMPUS SINGAPORE 138610,12,YALE-NUS COLLEGE CAMPUS,1.30638712623098,103.77206806682,103.77206806682,138610,COLLEGE AVENUE WEST,YALE-NUS COLLEGE CAMPUS,21183.3832592499,32079.2521588709
14 COLLEGE AVENUE WEST YALE-NUS COLLEGE CAMPUS SINGAPORE 138611,14,YALE-NUS COLLEGE CAMPUS,1.30608809537109,103.771993013067,103.771993013067,138611,COLLEGE AVENUE WEST,YALE-NUS COLLEGE CAMPUS,21175.0296589592,32046.187050242
2 COLLEGE AVENUE EAST UNIVERSITY TOWN SINGAPORE 138612,2,UNIVERSITY TOWN,1.30833708306266,103.772955615513,103.772955615513,138612,COLLEGE AVENUE EAST,UNIVERSITY TOWN,21282.1644585822,32294.8660803456
4 COLLEGE AVENUE EAST UNIVERSITY TOWN SINGAPORE 138613,4,UNIVERSITY TOWN,1.30786795470428,103.773233860492,103.773233860492,138613,COLLEGE AVENUE EAST,UNIVERSITY TOWN,21313.1293020891,32242.9915083274
6 COLLEGE AVENUE EAST UNIVERSITY TOWN (RESIDENTIAL COLLEGE 4) SINGAPORE 138614,6,UNIVERSITY TOWN (RESIDENTIAL COLLEGE 4),1.30822042654265,103.773315219931,103.773315219931,138614,COLLEGE AVENUE EAST,UNIVERSITY TOWN (RESIDENTIAL COLLEGE 4),21322.1847866531,32281.9658354167
8 COLLEGE AVENUE EAST UNIVERSITY TOWN (COLLEGE OF ALICE & PETER TAN) SINGAPORE 138615,8,UNIVERSITY TOWN (COLLEGE OF ALICE & PETER TAN),1.30758769690881,103.773154242968,103.773154242968,138615,COLLEGE AVENUE EAST,UNIVERSITY TOWN (COLLEGE OF ALICE & PETER TAN),21304.2678655675,32212.0022385586
10 COLLEGE AVENUE EAST UNIVERSITY TOWN SINGAPORE 138616,10,UNIVERSITY TOWN,1.30730393810343,103.773110099135,103.773110099135,138616,COLLEGE AVENUE EAST,UNIVERSITY TOWN,21299.3543124311,32180.6257504728
1 VISTA EXCHANGE GREEN DBS THE STAR VISTA SINGAPORE 138617,1,DBS THE STAR VISTA,1.30681500712523,103.788462732266,103.788462732266,138617,VISTA EXCHANGE GREEN,DBS THE STAR VISTA,23007.9595041601,32126.5265119188
1 BIOPOLIS DRIVE AMNIOS SINGAPORE 138622,1,AMNIOS,1.30116372601549,103.792988147205,103.792988147205,138622,BIOPOLIS DRIVE,AMNIOS,23511.5863664728,31501.6282487251
3 BIOPOLIS DRIVE MINDCHAMPS PRESCHOOL@FUSION PTE. LTD. SINGAPORE 138623,3,MINDCHAMPS PRESCHOOL@FUSION PTE. LTD.,1.30160387201158,103.793236804083,103.793236804083,138623,BIOPOLIS DRIVE,MINDCHAMPS PRESCHOOL@FUSION PTE. LTD.,23539.2604142539,31550.2968964428
1 FUSIONOPOLIS WALK LEARNING VISION @ WORK PTE. LTD. SINGAPORE 138628,1,LEARNING VISION @ WORK PTE. LTD.,1.29806429260644,103.790115604433,103.790115604433,138628,FUSIONOPOLIS WALK,LEARNING VISION @ WORK PTE. LTD.,23191.8923205612,31158.9140694048
"1 FUSIONOPOLIS WAY AGENCY FOR SCIENCE, TECHNOLOGY AND RESEARCH (A*STAR) SINGAPORE 138632",1,"AGENCY FOR SCIENCE, TECHNOLOGY AND RESEARCH (A*STAR)",1.2995985718601,103.787640882653,103.787640882653,138632,FUSIONOPOLIS WAY,"AGENCY FOR SCIENCE, TECHNOLOGY AND RESEARCH (A*STAR)",22916.4807585794,31328.5716571808
3 FUSIONOPOLIS WAY CITADINES FUSIONOPOLIS SINGAPORE SINGAPORE 138633,3,CITADINES FUSIONOPOLIS SINGAPORE,1.29882455014415,103.787758941598,103.787758941598,138633,FUSIONOPOLIS WAY,CITADINES FUSIONOPOLIS SINGAPORE,22929.6181228915,31242.9840600751
2 FUSIONOPOLIS WAY INNOVIS SINGAPORE 138634,2,INNOVIS,1.29843333801848,103.788556167194,103.788556167194,138634,FUSIONOPOLIS WAY,INNOVIS,23018.3414831106,31199.7242405098
4 FUSIONOPOLIS WAY KINESIS SINGAPORE 138635,4,KINESIS,1.29828408456842,103.7891106927,103.7891106927,138635,FUSIONOPOLIS WAY,KINESIS,23080.0549659161,31183.2194722053
6 FUSIONOPOLIS WAY SYNTHESIS SINGAPORE 138636,6,SYNTHESIS,1.29904986699646,103.788930136971,103.788930136971,138636,FUSIONOPOLIS WAY,SYNTHESIS,23059.9622005532,31267.8961240724
31 ROCHESTER DRIVE PARK AVENUE ROCHESTER SINGAPORE 138637,31,PARK AVENUE ROCHESTER,1.30499783151032,103.788718669932,103.788718669932,138637,ROCHESTER DRIVE,PARK AVENUE ROCHESTER,23036.4394370075,31925.5920177251
33 ROCHESTER DRIVE THE ROCHESTER SINGAPORE 138638,33,THE ROCHESTER,1.3053512123807,103.78834737032,103.78834737032,138638,ROCHESTER DRIVE,THE ROCHESTER,22995.1178883165,31964.6678030957
35 ROCHESTER DRIVE BUTTERCUPS KINDERGARTEN (ROCHESTER) SINGAPORE 138639,35,BUTTERCUPS KINDERGARTEN (ROCHESTER),1.30541103549045,103.788371152389,103.788371152389,138639,ROCHESTER DRIVE,BUTTERCUPS KINDERGARTEN (ROCHESTER),22997.7647326887,31971.2826893292
37 ROCHESTER DRIVE PARK AVENUE ROCHESTER SINGAPORE 138640,37,PARK AVENUE ROCHESTER,1.30550746111985,103.787763041491,103.787763041491,138640,ROCHESTER DRIVE,PARK AVENUE ROCHESTER,22930.0877609272,31981.9461605288
39 ROCHESTER DRIVE PARK AVENUE ROCHESTER SINGAPORE 138641,39,PARK AVENUE ROCHESTER,1.30574359803031,103.787725511904,103.787725511904,138641,ROCHESTER DRIVE,PARK AVENUE ROCHESTER,22925.911535874,32008.0570485592
7 ONE-NORTH GATEWAY ONE-NORTH RESIDENCES SINGAPORE 138642,7,ONE-NORTH RESIDENCES,1.30220440131525,103.789907530412,103.789907530412,138642,ONE-NORTH GATEWAY,ONE-NORTH RESIDENCES,23168.743396882,31616.70648719
9 ONE-NORTH GATEWAY ONE-NORTH RESIDENCES SINGAPORE 138643,9,ONE-NORTH RESIDENCES,1.30173334500406,103.790000928613,103.790000928613,138643,ONE-NORTH GATEWAY,ONE-NORTH RESIDENCES,23179.1368776672,31564.6193128545
9 AYER RAJAH AVENUE DBS ONE NORTH MRT STATION SINGAPORE 138647,9,DBS ONE NORTH MRT STATION,1.29968953488969,103.787412789536,103.787412789536,138647,AYER RAJAH AVENUE,DBS ONE NORTH MRT STATION,22891.0962113552,31338.6303437967
8A BIOMEDICAL GROVE IMMUNOS SINGAPORE 138648,8A,IMMUNOS,1.30205007450691,103.79372132126,103.79372132126,138648,BIOMEDICAL GROVE,IMMUNOS,23593.183583946,31599.6348298173
10 CENTRAL EXCHANGE GREEN PIXEL SINGAPORE 138649,10,PIXEL,1.30088350479493,103.789670441748,103.789670441748,138649,CENTRAL EXCHANGE GREEN,PIXEL,23142.3550422452,31470.6489673909
11A NEPAL CIRCUS TEMPORARY FOOD CENTRE SINGAPORE 138660,11A,TEMPORARY FOOD CENTRE,1.30042927069742,103.787234332461,103.787234332461,138660,NEPAL CIRCUS,TEMPORARY FOOD CENTRE,22871.2370240223,31420.4269062113
"11 SLIM BARRACKS RISE CONFUCIUS INSTITUTE, NANYANG TECHNOLOGICAL UNIVERSITY SINGAPORE 138664",11,"CONFUCIUS INSTITUTE, NANYANG TECHNOLOGICAL UNIVERSITY",1.30380338823957,103.790048011544,103.790048011544,138664,SLIM BARRACKS RISE,"CONFUCIUS INSTITUTE, NANYANG TECHNOLOGICAL UNIVERSITY",23184.3807150414,31793.5140083488
8 BIOMEDICAL GROVE NEUROS SINGAPORE 138665,8,NEUROS,1.30224581441781,103.793175529068,103.793175529068,138665,BIOMEDICAL GROVE,NEUROS,23532.442187706,31621.279707117
11 BIOPOLIS WAY ENVIRONMENTAL HEALTH INSTITUTE SINGAPORE 138667,11,ENVIRONMENTAL HEALTH INSTITUTE,1.30451127790759,103.791460014555,103.791460014555,138667,BIOPOLIS WAY,ENVIRONMENTAL HEALTH INSTITUTE,23341.5250945976,31871.7861667369
20 BIOPOLIS WAY BIOMEDICAL RESEARCH COUNCIL SINGAPORE 138668,20,BIOMEDICAL RESEARCH COUNCIL,1.30364449605591,103.791985172112,103.791985172112,138668,BIOPOLIS WAY,BIOMEDICAL RESEARCH COUNCIL,23399.96875739,31775.9409012888
31 BIOPOLIS WAY INSTITUTE OF BIOENGINEERING AND NANOTECHNOLOGY SINGAPORE 138669,31,INSTITUTE OF BIOENGINEERING AND NANOTECHNOLOGY,1.30433643799619,103.792461279914,103.792461279914,138669,BIOPOLIS WAY,INSTITUTE OF BIOENGINEERING AND NANOTECHNOLOGY,23452.9564647768,31852.4514327589
10 BIOPOLIS ROAD CHROMOS SINGAPORE 138670,10,CHROMOS,1.30404295480334,103.791326968787,103.791326968787,138670,BIOPOLIS ROAD,CHROMOS,23326.7174521396,31820.001641972
30 BIOPOLIS STREET BIOINFORMATICS INSTITUTE SINGAPORE 138671,30,BIOINFORMATICS INSTITUTE,1.30323831850192,103.79256511685,103.79256511685,138671,BIOPOLIS STREET,BIOINFORMATICS INSTITUTE,23464.5106016658,31731.0268153436
60 BIOPOLIS STREET GENOME SINGAPORE 138672,60,GENOME,1.30257157232297,103.79257359459,103.79257359459,138672,BIOPOLIS STREET,GENOME,23465.4529045345,31657.301422663
61 BIOPOLIS DRIVE INSTITUTE OF MOLECULAR AND CELL BIOLOGY SINGAPORE 138673,61,INSTITUTE OF MOLECULAR AND CELL BIOLOGY,1.30290270402394,103.793217851337,103.793217851337,138673,BIOPOLIS DRIVE,INSTITUTE OF MOLECULAR AND CELL BIOLOGY,23537.1534296395,31693.9151194356
30 COMMONWEALTH AVENUE WEST SINGAPORE 138674,30,NIL,1.30843205056142,103.787354117624,103.787354117624,138674,COMMONWEALTH AVENUE WEST,30 COMMONWEALTH AVENUE WEST SINGAPORE 138674,22884.5842059981,32305.3331425991
1 NORTH BUONA VISTA DRIVE DBS MINISTRY OF EDUCATION SINGAPORE 138675,1,DBS MINISTRY OF EDUCATION,1.3051016863664,103.790874313239,103.790874313239,138675,NORTH BUONA VISTA DRIVE,DBS MINISTRY OF EDUCATION,23276.3429916622,31937.0716045685
1 AYER RAJAH AVENUE INSEAD SINGAPORE 138676,1,INSEAD,1.29974697232148,103.786482804797,103.786482804797,138676,AYER RAJAH AVENUE,INSEAD,22787.5973230079,31344.9833817035
200 COMMONWEALTH AVENUE WEST DBS DOVER MRT STATION SINGAPORE 138677,200,DBS DOVER MRT STATION,1.31139153717332,103.778656381761,103.778656381761,138677,COMMONWEALTH AVENUE WEST,DBS DOVER MRT STATION,21916.6142077912,32632.5975139178
6 DOVER RISE HERITAGE VIEW SINGAPORE 138678,6,HERITAGE VIEW,1.3037155308885,103.783858583197,103.783858583197,138678,DOVER RISE,HERITAGE VIEW,22495.5534737054,31783.8118785787
8 DOVER RISE HERITAGE VIEW SINGAPORE 138679,8,HERITAGE VIEW,1.30441893525659,103.783464174682,103.783464174682,138679,DOVER RISE,HERITAGE VIEW,22451.6609322093,31861.5916071422
10 DOVER RISE HERITAGE VIEW SINGAPORE 138680,10,HERITAGE VIEW,1.30441672235897,103.784278626735,103.784278626735,138680,DOVER RISE,HERITAGE VIEW,22542.3020113409,31861.3451349512
34 DOVER RISE DOVER PARKVIEW SINGAPORE 138681,34,DOVER PARKVIEW,1.30562191514323,103.783821726393,103.783821726393,138681,DOVER RISE,DOVER PARKVIEW,22491.4557940699,31994.6101941112
20 DOVER DRIVE SINGAPORE 138682,20,NIL,1.30032426069145,103.780877783369,103.780877783369,138682,DOVER DRIVE,20 DOVER DRIVE SINGAPORE 138682,22163.8097434761,31408.8292439617
10 DOVER DRIVE SINGAPORE 138683,10,NIL,1.30100873824913,103.780125250887,103.780125250887,138683,DOVER DRIVE,10 DOVER DRIVE SINGAPORE 138683,22080.0611987924,31484.5170310978
38 DOVER RISE DOVER PARKVIEW SINGAPORE 138684,38,DOVER PARKVIEW,1.3053498941342,103.784318660605,103.784318660605,138684,DOVER RISE,DOVER PARKVIEW,22546.7594259633,31964.5304167178
36 DOVER RISE DOVER PARKVIEW SINGAPORE 138685,36,DOVER PARKVIEW,1.30538321577642,103.783180652967,103.783180652967,138685,DOVER RISE,DOVER PARKVIEW,22420.1096767867,31968.2174506187
32 DOVER RISE DOVER PARKVIEW SINGAPORE 138686,32,DOVER PARKVIEW,1.30610972119597,103.783359863227,103.783359863227,138686,DOVER RISE,DOVER PARKVIEW,22440.0557332328,32048.5503138751
30 DOVER RISE DOVER PARKVIEW SINGAPORE 138687,30,DOVER PARKVIEW,1.30609394798295,103.78434569653,103.78434569653,138687,DOVER RISE,DOVER PARKVIEW,22549.7698796242,32046.8040328231
4 WOKING ROAD WESSEX SINGAPORE 138688,4,WESSEX,1.29483213801146,103.797148305715,103.797148305715,138688,WOKING ROAD,WESSEX,23974.5645676414,30801.5067211408
6 WOKING ROAD WESSEX SINGAPORE 138689,6,WESSEX,1.29543003087968,103.797255162223,103.797255162223,138689,WOKING ROAD,WESSEX,23986.4577059476,30867.6184749268
8 WOKING ROAD WESSEX SINGAPORE 138690,8,WESSEX,1.29548681690596,103.796751693474,103.796751693474,138690,WOKING ROAD,WESSEX,23930.4261290459,30873.8983853851
10 WOKING ROAD WESSEX SINGAPORE 138691,10,WESSEX,1.29586799283032,103.796306595562,103.796306595562,138691,WOKING ROAD,WESSEX,23880.8912419006,30916.0475818235
12 WOKING ROAD WESSEX SINGAPORE 138692,12,WESSEX,1.29628453229189,103.79662718023,103.79662718023,138692,WOKING ROAD,WESSEX,23916.5701725315,30962.1058580894
14 WOKING ROAD WESSEX SINGAPORE 138693,14,WESSEX,1.29647332961511,103.796190039299,103.796190039299,138693,WOKING ROAD,WESSEX,23867.9205331067,30982.9828063753
15 WOKING ROAD WESSEX SINGAPORE 138694,15,WESSEX,1.29651895993059,103.794194292945,103.794194292945,138694,WOKING ROAD,WESSEX,23645.8115866147,30988.0317179356
16 WOKING ROAD WESSEX SINGAPORE 138695,16,WESSEX,1.29624764255353,103.795820974406,103.795820974406,138695,WOKING ROAD,WESSEX,23826.8464857182,30958.0280947872
17 WOKING ROAD WESSEX SINGAPORE 138696,17,WESSEX,1.29695086773302,103.79385733646,103.79385733646,138696,WOKING ROAD,WESSEX,23608.3120367629,31035.7904495262
19 WOKING ROAD WESSEX SINGAPORE 138697,19,WESSEX,1.29676884103265,103.794647058625,103.794647058625,138697,WOKING ROAD,WESSEX,23696.2008481352,31015.6615139227
20 WOKING ROAD WESSEX SINGAPORE 138698,20,WESSEX,1.29666597185325,103.795198334607,103.795198334607,138698,WOKING ROAD,WESSEX,23757.5528404107,31004.2858370673
21 WOKING ROAD WESSEX SINGAPORE 138699,21,WESSEX,1.29720558426214,103.794354902544,103.794354902544,138699,WOKING ROAD,WESSEX,23663.6871919017,31063.9548386429
22 WOKING ROAD WESSEX SINGAPORE 138700,22,WESSEX,1.29712911160817,103.79518354931,103.79518354931,138700,WOKING ROAD,WESSEX,23755.9081387119,31055.4974797051
23 WOKING ROAD WESSEX SINGAPORE 138701,23,WESSEX,1.29763454937342,103.794188259804,103.794188259804,138701,WOKING ROAD,WESSEX,23645.1420588149,31111.387886731
24 WOKING ROAD WESSEX SINGAPORE 138702,24,WESSEX,1.29759240185792,103.795201126392,103.795201126392,138702,WOKING ROAD,WESSEX,23757.8650849313,31106.7257091999
25 WOKING ROAD WESSEX SINGAPORE 138703,25,WESSEX,1.29738763576464,103.794812826502,103.794812826502,138703,WOKING ROAD,WESSEX,23714.6503949305,31084.0843796078
26 WOKING ROAD WESSEX SINGAPORE 138704,26,WESSEX,1.29798235667794,103.795514478134,103.795514478134,138704,WOKING ROAD,WESSEX,23792.7390082665,31149.8443891555
27 WOKING ROAD WESSEX SINGAPORE 138705,27,WESSEX,1.29793542012075,103.794625735499,103.794625735499,138705,WOKING ROAD,WESSEX,23693.8297450952,31144.6558816545
28 WOKING ROAD WESSEX SINGAPORE 138706,28,WESSEX,1.29823138989393,103.794956449347,103.794956449347,138706,WOKING ROAD,WESSEX,23730.6357646352,31177.3821402062
2 WOKING ROAD WESSEX SINGAPORE 138707,2,WESSEX,1.2944665756186,103.797035560229,103.797035560229,138707,WOKING ROAD,WESSEX,23962.0163998995,30761.0848882645
1 WILTON CLOSE WESSEX SINGAPORE 138751,1,WESSEX,1.29993356808411,103.793971123272,103.793971123272,138751,WILTON CLOSE,WESSEX,23620.9806408118,31365.6019624807
2 WILTON CLOSE WESSEX SINGAPORE 138752,2,WESSEX,1.29993356835783,103.793971123,103.793971123,138752,WILTON CLOSE,WESSEX,23620.9806105439,31365.6019927487
3 WILTON CLOSE WESSEX SINGAPORE 138753,3,WESSEX,1.30016430531827,103.793646456546,103.793646456546,138753,WILTON CLOSE,WESSEX,23584.8485379294,31391.116268551
4 WILTON CLOSE WESSEX SINGAPORE 138754,4,WESSEX,1.300164305592,103.793646456274,103.793646456274,138754,WILTON CLOSE,WESSEX,23584.8485076614,31391.116298819
5 WILTON CLOSE WESSEX SINGAPORE 138755,5,WESSEX,1.30051675624471,103.793859519458,103.793859519458,138755,WILTON CLOSE,WESSEX,23608.5611422695,31430.0881136656
6 WILTON CLOSE WESSEX SINGAPORE 138756,6,WESSEX,1.3005167562447,103.793859519186,103.793859519186,138756,WILTON CLOSE,WESSEX,23608.5611120015,31430.0881136656
7 WILTON CLOSE WESSEX SINGAPORE 138757,7,WESSEX,1.30063043536439,103.794545402522,103.794545402522,138757,WILTON CLOSE,WESSEX,23684.8939704057,31442.6569847092
8 WILTON CLOSE WESSEX SINGAPORE 138758,8,WESSEX,1.30063043563812,103.794545402794,103.794545402794,138758,WILTON CLOSE,WESSEX,23684.8940006737,31442.6570149772
9 WILTON CLOSE WESSEX SINGAPORE 138759,9,WESSEX,1.30049494883124,103.794885976486,103.794885976486,138759,WILTON CLOSE,WESSEX,23722.7965687281,31427.6749986634
10 WILTON CLOSE WESSEX SINGAPORE 138760,10,WESSEX,1.30049494883124,103.794885976758,103.794885976758,138760,WILTON CLOSE,WESSEX,23722.796598996,31427.6749986634
11 WILTON CLOSE WESSEX SINGAPORE 138761,11,WESSEX,1.30016783709052,103.794721007655,103.794721007655,138761,WILTON CLOSE,WESSEX,23704.4364638254,31391.5049397293
12 WILTON CLOSE WESSEX SINGAPORE 138762,12,WESSEX,1.30016783681679,103.794721007927,103.794721007927,138762,WILTON CLOSE,WESSEX,23704.4364940934,31391.5049094614
13 WILTON CLOSE WESSEX SINGAPORE 138763,13,WESSEX,1.29986662542951,103.794416378718,103.794416378718,138763,WILTON CLOSE,WESSEX,23670.5334768714,31358.1990190223
14 WILTON CLOSE WESSEX SINGAPORE 138764,14,WESSEX,1.29986662515577,103.79441637899,103.79441637899,138764,WILTON CLOSE,WESSEX,23670.5335071394,31358.1989887543
1 WHITCHURCH ROAD WESSEX SINGAPORE 138809,1,WESSEX,1.29402868348766,103.797463886688,103.797463886688,138809,WHITCHURCH ROAD,WESSEX,24009.6847210238,30712.664347209
2 WHITCHURCH ROAD WESSEX SINGAPORE 138810,2,WESSEX,1.29409707945529,103.79753793929,103.79753793929,138810,WHITCHURCH ROAD,WESSEX,24017.9262389708,30720.2271056212
3 WHITCHURCH ROAD WESSEX SINGAPORE 138811,3,WESSEX,1.29383809036799,103.79824311466,103.79824311466,138811,WHITCHURCH ROAD,WESSEX,24096.4057330489,30691.5883263946
4 WHITCHURCH ROAD WESSEX SINGAPORE 138812,4,WESSEX,1.29372324953735,103.798242939185,103.798242939185,138812,WHITCHURCH ROAD,WESSEX,24096.3860285906,30678.8898175787
5 WHITCHURCH ROAD WESSEX SINGAPORE 138813,5,WESSEX,1.29343447735616,103.798140023997,103.798140023997,138813,WHITCHURCH ROAD,WESSEX,24084.9320181925,30646.9590319078
6 WHITCHURCH ROAD WESSEX SINGAPORE 138814,6,WESSEX,1.29343333180999,103.798024400834,103.798024400834,138814,WHITCHURCH ROAD,WESSEX,24072.0641600071,30646.8325420041
7 WHITCHURCH ROAD WESSEX SINGAPORE 138815,7,WESSEX,1.2936672314076,103.79767358582,103.79767358582,138815,WHITCHURCH ROAD,WESSEX,24033.0218510255,30672.6965038218
8 WHITCHURCH ROAD WESSEX SINGAPORE 138816,8,WESSEX,1.29374413847021,103.79760665846,103.79760665846,138816,WHITCHURCH ROAD,WESSEX,24025.5735358605,30681.2005965263
9 WHITCHURCH ROAD WESSEX SINGAPORE 138817,9,WESSEX,1.29392767400833,103.797016842976,103.797016842976,138817,WHITCHURCH ROAD,WESSEX,23959.9324794887,30701.4959455058
10 WHITCHURCH ROAD WESSEX SINGAPORE 138818,10,WESSEX,1.293851679234,103.797078205553,103.797078205553,138818,WHITCHURCH ROAD,WESSEX,23966.7614814388,30693.092735989
11 WHITCHURCH ROAD WESSEX SINGAPORE 138819,11,WESSEX,1.29364694863697,103.797251662413,103.797251662413,138819,WHITCHURCH ROAD,WESSEX,23986.0654026102,30670.4544029273
12 WHITCHURCH ROAD WESSEX SINGAPORE 138820,12,WESSEX,1.29357088391985,103.797322764248,103.797322764248,138820,WHITCHURCH ROAD,WESSEX,23993.9783010576,30662.0434448086
13 WHITCHURCH ROAD WESSEX SINGAPORE 138821,13,WESSEX,1.293342941369,103.797520517625,103.797520517625,138821,WHITCHURCH ROAD,WESSEX,24015.9861822864,30636.8384169955
14 WHITCHURCH ROAD WESSEX SINGAPORE 138822,14,WESSEX,1.29326609982031,103.797593790597,103.797593790597,138822,WHITCHURCH ROAD,WESSEX,24024.1407100474,30628.3415583391
15 WHITCHURCH ROAD WESSEX SINGAPORE 138823,15,WESSEX,1.29311547894919,103.7978167888,103.7978167888,138823,WHITCHURCH ROAD,WESSEX,24048.9582471326,30611.6863278858
17 WHITCHURCH ROAD WESSEX SINGAPORE 138824,17,WESSEX,1.29304117524639,103.79814976406,103.79814976406,138824,WHITCHURCH ROAD,WESSEX,24086.015400134,30603.4696902223
18 WHITCHURCH ROAD WESSEX SINGAPORE 138825,18,WESSEX,1.29306644194164,103.798251529696,103.798251529696,138825,WHITCHURCH ROAD,WESSEX,24097.3410742814,30606.2633948512
19 WHITCHURCH ROAD WESSEX SINGAPORE 138826,19,WESSEX,1.29322889813479,103.798473349476,103.798473349476,138826,WHITCHURCH ROAD,WESSEX,24122.027944481,30624.2266259529
20 WHITCHURCH ROAD WESSEX SINGAPORE 138827,20,WESSEX,1.2933283131504,103.798522659399,103.798522659399,138827,WHITCHURCH ROAD,WESSEX,24127.5158628765,30635.2193522789
21 WHITCHURCH ROAD WESSEX SINGAPORE 138828,21,WESSEX,1.29357568917537,103.798621606864,103.798621606864,138828,WHITCHURCH ROAD,WESSEX,24138.5282331249,30662.5727713071
22 WHITCHURCH ROAD WESSEX SINGAPORE 138829,22,WESSEX,1.29368585930793,103.798622269791,103.798622269791,138829,WHITCHURCH ROAD,WESSEX,24138.602177809,30674.7548175193
24 WHITCHURCH ROAD WESSEX SINGAPORE 138830,24,WESSEX,1.29404821415816,103.798545101047,103.798545101047,138830,WHITCHURCH ROAD,WESSEX,24130.0145152006,30714.8222728409
25 WHITCHURCH ROAD WESSEX SINGAPORE 138831,25,WESSEX,1.29425420301887,103.798398348783,103.798398348783,138831,WHITCHURCH ROAD,WESSEX,24113.682577082,30737.5996872876
26 WHITCHURCH ROAD WESSEX SINGAPORE 138832,26,WESSEX,1.29431818084585,103.79830983501,103.79830983501,138832,WHITCHURCH ROAD,WESSEX,24103.8318617819,30744.6741625853
27 WHITCHURCH ROAD WESSEX SINGAPORE 138833,27,WESSEX,1.29445819541762,103.798066645217,103.798066645217,138833,WHITCHURCH ROAD,WESSEX,24076.767169049,30760.1566297412
28 WHITCHURCH ROAD WESSEX SINGAPORE 138834,28,WESSEX,1.29450163949495,103.797963335142,103.797963335142,138834,WHITCHURCH ROAD,WESSEX,24065.2697240943,30764.9606127758
29 WHITCHURCH ROAD WESSEX SINGAPORE 138835,29,WESSEX,1.29450233417122,103.797687264625,103.797687264625,138835,WHITCHURCH ROAD,WESSEX,24034.5454807905,30765.0378566701
30 WHITCHURCH ROAD WESSEX SINGAPORE 138836,30,WESSEX,1.29450480891544,103.797585329384,103.797585329384,138836,WHITCHURCH ROAD,WESSEX,24023.2009799574,30765.3116608504
23 WHITCHURCH ROAD WESSEX SINGAPORE 138837,23,WESSEX,1.29394676564017,103.798579402837,103.798579402837,138837,WHITCHURCH ROAD,WESSEX,24133.8318527713,30703.6045645904
16 WHITCHURCH ROAD WESSEX SINGAPORE 138838,16,WESSEX,1.29305652253734,103.79790829007,103.79790829007,138838,WHITCHURCH ROAD,WESSEX,24059.1414562352,30605.1670884807
9A WHITCHURCH ROAD WESSEX VILLAGE SQUARE SINGAPORE 138839,9A,WESSEX VILLAGE SQUARE,1.29381561718405,103.79632981819,103.79632981819,138839,WHITCHURCH ROAD,WESSEX VILLAGE SQUARE,23883.4724047482,30689.1063819975
3 WEYHILL CLOSE WESSEX SINGAPORE 138883,3,WESSEX,1.29859076620232,103.792999969563,103.792999969563,138883,WEYHILL CLOSE,WESSEX,23512.8975452594,31217.1235185377
4 WEYHILL CLOSE WESSEX SINGAPORE 138884,4,WESSEX,1.29859076592858,103.792999969291,103.792999969291,138884,WEYHILL CLOSE,WESSEX,23512.8975149915,31217.1234882697
5 WEYHILL CLOSE WESSEX SINGAPORE 138885,5,WESSEX,1.29901905892798,103.792969761722,103.792969761722,138885,WEYHILL CLOSE,WESSEX,23509.5364370076,31264.4819863141
6 WEYHILL CLOSE WESSEX SINGAPORE 138886,6,WESSEX,1.29901905892798,103.79296976145,103.79296976145,138886,WEYHILL CLOSE,WESSEX,23509.5364067396,31264.4819863141
7 WEYHILL CLOSE WESSEX SINGAPORE 138887,7,WESSEX,1.29941575194883,103.793128744697,103.793128744697,138887,WEYHILL CLOSE,WESSEX,23527.2305251975,31308.3459851015
8 WEYHILL CLOSE WESSEX SINGAPORE 138888,8,WESSEX,1.29941575194881,103.793128744425,103.793128744425,138888,WEYHILL CLOSE,WESSEX,23527.2304949295,31308.3459851015
9 WEYHILL CLOSE WESSEX SINGAPORE 138889,9,WESSEX,1.29956736637878,103.793527459364,103.793527459364,138889,WEYHILL CLOSE,WESSEX,23571.6041762941,31325.1100289542
10 WEYHILL CLOSE WESSEX SINGAPORE 138890,10,WESSEX,1.29956736610505,103.793527459636,103.793527459636,138890,WEYHILL CLOSE,WESSEX,23571.604206562,31325.1099986862
11 WEYHILL CLOSE WESSEX SINGAPORE 138891,11,WESSEX,1.29916914148933,103.793760748439,103.793760748439,138891,WEYHILL CLOSE,WESSEX,23597.5664787916,31281.0759543665
12 WEYHILL CLOSE WESSEX SINGAPORE 138892,12,WESSEX,1.2991691420368,103.793760748711,103.793760748711,138892,WEYHILL CLOSE,WESSEX,23597.5665090596,31281.0760149024
13 WEYHILL CLOSE WESSEX SINGAPORE 138893,13,WESSEX,1.29878487258693,103.793750928639,103.793750928639,138893,WEYHILL CLOSE,WESSEX,23596.4729570765,31238.585486412
14 WEYHILL CLOSE WESSEX SINGAPORE 138894,14,WESSEX,1.29878487258693,103.793750928911,103.793750928911,138894,WEYHILL CLOSE,WESSEX,23596.4729873445,31238.585486412
15 WEYHILL CLOSE WESSEX SINGAPORE 138895,15,WESSEX,1.29843572840996,103.793645785643,103.793645785643,138895,WEYHILL CLOSE,WESSEX,23584.7708702832,31199.9790969323
16 WEYHILL CLOSE WESSEX SINGAPORE 138896,16,WESSEX,1.29843572840996,103.793645785915,103.793645785915,138896,WEYHILL CLOSE,WESSEX,23584.7709005512,31199.9790969323
1 WESTBOURNE ROAD WESSEX SINGAPORE 138941,1,WESSEX,1.29434937893181,103.796536871071,103.796536871071,138941,WESTBOURNE ROAD,WESSEX,23906.516449864,30748.1266801488
3 WESTBOURNE ROAD WESSEX SINGAPORE 138943,3,WESSEX,1.29476538240555,103.796519399106,103.796519399106,138943,WESTBOURNE ROAD,WESSEX,23904.5726399496,30794.1262365263
5 WESTBOURNE ROAD WESSEX SINGAPORE 138944,5,WESSEX,1.29490267182197,103.796055841838,103.796055841838,138944,WESTBOURNE ROAD,WESSEX,23852.9829804618,30809.3077491187
7 WESTBOURNE ROAD WESSEX SINGAPORE 138945,7,WESSEX,1.29527468237995,103.79634085755,103.79634085755,138945,WESTBOURNE ROAD,WESSEX,23884.7033431102,30850.4423022065
9 WESTBOURNE ROAD WESSEX SINGAPORE 138946,9,WESSEX,1.29578239735612,103.795899124488,103.795899124488,138946,WESTBOURNE ROAD,WESSEX,23835.5431433357,30906.5835400131
11 WESTBOURNE ROAD WESSEX SINGAPORE 138947,11,WESSEX,1.2959172316246,103.794774253874,103.794774253874,138947,WESTBOURNE ROAD,WESSEX,23710.3551258966,30921.4946989771
1 WARWICK ROAD SINGAPORE 138991,1,NIL,1.28750280773684,103.797391683584,103.797391683584,138991,WARWICK ROAD,1 WARWICK ROAD SINGAPORE 138991,24001.6389461281,29991.0666560661
2 WARWICK ROAD SINGAPORE 138992,2,NIL,1.2874214543772,103.797474416114,103.797474416114,138992,WARWICK ROAD,2 WARWICK ROAD SINGAPORE 138992,24010.8462548992,29982.0708902329
3 WARWICK ROAD SINGAPORE 138993,3,NIL,1.2873034371164,103.797646770081,103.797646770081,138993,WARWICK ROAD,3 WARWICK ROAD SINGAPORE 138993,24030.0276210047,29969.0208793208
4 WARWICK ROAD SINGAPORE 138994,4,NIL,1.28725499967658,103.797755190798,103.797755190798,138994,WARWICK ROAD,4 WARWICK ROAD SINGAPORE 138994,24042.0938619096,29963.6647477262
5 WARWICK ROAD SINGAPORE 138995,5,NIL,1.28719764081895,103.797968104973,103.797968104973,138995,WARWICK ROAD,5 WARWICK ROAD SINGAPORE 138995,24065.789334571,29957.3219706677
6 WARWICK ROAD SINGAPORE 138996,6,NIL,1.28724840761786,103.798106331691,103.798106331691,138996,WARWICK ROAD,6 WARWICK ROAD SINGAPORE 138996,24081.1728859553,29962.9352893196
7 WARWICK ROAD SINGAPORE 138997,7,NIL,1.28724840761786,103.798106331691,103.798106331691,138997,WARWICK ROAD,7 WARWICK ROAD SINGAPORE 138997,24081.1728859553,29962.9352893196
8 WARWICK ROAD SINGAPORE 138998,8,NIL,1.28724840761786,103.798106331691,103.798106331691,138998,WARWICK ROAD,8 WARWICK ROAD SINGAPORE 138998,24081.1728859553,29962.9352893196
9 WARWICK ROAD SINGAPORE 138999,9,NIL,1.28724840761786,103.798106331691,103.798106331691,138999,WARWICK ROAD,9 WARWICK ROAD SINGAPORE 138999,24081.1728859553,29962.9352893196
10 WARWICK ROAD SINGAPORE 139000,10,NIL,1.28724840761786,103.798106331691,103.798106331691,139000,WARWICK ROAD,10 WARWICK ROAD SINGAPORE 139000,24081.1728859553,29962.9352893196
11 WARWICK ROAD SINGAPORE 139001,11,NIL,1.28747485694964,103.798316539692,103.798316539692,139001,WARWICK ROAD,11 WARWICK ROAD SINGAPORE 139001,24104.56761593,29987.9745696522
12 WARWICK ROAD SINGAPORE 139002,12,NIL,1.28759768388923,103.79837210912,103.79837210912,139002,WARWICK ROAD,12 WARWICK ROAD SINGAPORE 139002,24110.7522125067,30001.5560560916
13 WARWICK ROAD SINGAPORE 139003,13,NIL,1.28747485722339,103.79831653942,103.79831653942,139003,WARWICK ROAD,13 WARWICK ROAD SINGAPORE 139003,24104.567585662,29987.9745999202
14 WARWICK ROAD SINGAPORE 139004,14,NIL,1.28759768416298,103.79837210912,103.79837210912,139004,WARWICK ROAD,14 WARWICK ROAD SINGAPORE 139004,24110.7522125067,30001.5560863595
15 WARWICK ROAD SINGAPORE 139005,15,NIL,1.28747485722339,103.79831653942,103.79831653942,139005,WARWICK ROAD,15 WARWICK ROAD SINGAPORE 139005,24104.567585662,29987.9745999202
16 WARWICK ROAD SINGAPORE 139006,16,NIL,1.28759768416298,103.79837210912,103.79837210912,139006,WARWICK ROAD,16 WARWICK ROAD SINGAPORE 139006,24110.7522125067,30001.5560863595
17 WARWICK ROAD SINGAPORE 139007,17,NIL,1.28786448390265,103.798462811054,103.798462811054,139007,WARWICK ROAD,17 WARWICK ROAD SINGAPORE 139007,24120.8469785601,30031.0572912451
18 WARWICK ROAD SINGAPORE 139008,18,NIL,1.28786448390267,103.798462811326,103.798462811326,139008,WARWICK ROAD,18 WARWICK ROAD SINGAPORE 139008,24120.8470088281,30031.0572912451
19 WARWICK ROAD SINGAPORE 139009,19,NIL,1.28816118882858,103.798523620362,103.798523620362,139009,WARWICK ROAD,19 WARWICK ROAD SINGAPORE 139009,24127.6149905231,30063.8653036188
20 WARWICK ROAD SINGAPORE 139010,20,NIL,1.28816118882858,103.798523620362,103.798523620362,139010,WARWICK ROAD,20 WARWICK ROAD SINGAPORE 139010,24127.6149905231,30063.8653036188
31A WARWICK ROAD TEMPORARY SITE OFFICE SINGAPORE 139011,31A,TEMPORARY SITE OFFICE,1.28660336343407,103.798674290829,103.798674290829,139011,WARWICK ROAD,TEMPORARY SITE OFFICE,24144.3810017956,29891.6087554209
1 SAINT MARGARET'S ROAD MEDWAY PARK SINGAPORE 139100,1,MEDWAY PARK,1.30646994611141,103.775056633527,103.775056633527,139100,SAINT MARGARET'S ROAD,MEDWAY PARK,21515.9834826151,32088.402049277
2 SAINT MARGARET'S ROAD MEDWAY PARK SINGAPORE 139101,2,MEDWAY PARK,1.30665712957666,103.774730324243,103.774730324243,139101,SAINT MARGARET'S ROAD,MEDWAY PARK,21479.6687427182,32109.1006888691
3 SAINT MARGARET'S ROAD MEDWAY PARK SINGAPORE 139102,3,MEDWAY PARK,1.30701274679967,103.774938451873,103.774938451873,139102,SAINT MARGARET'S ROAD,MEDWAY PARK,21502.8323463695,32148.4224924129
4 SAINT MARGARET'S ROAD MEDWAY PARK SINGAPORE 139103,4,MEDWAY PARK,1.30709229306452,103.774683825698,103.774683825698,139103,SAINT MARGARET'S ROAD,MEDWAY PARK,21474.4950059941,32157.2189738397
5 SAINT MARGARET'S ROAD MEDWAY PARK SINGAPORE 139104,5,MEDWAY PARK,1.30678579697317,103.774339450929,103.774339450929,139104,SAINT MARGARET'S ROAD,MEDWAY PARK,21436.1684742915,32123.3290929236
6 SAINT MARGARET'S ROAD MEDWAY PARK SINGAPORE 139105,6,MEDWAY PARK,1.30693653578488,103.774022977191,103.774022977191,139105,SAINT MARGARET'S ROAD,MEDWAY PARK,21400.9482549541,32139.9978531655
1 SANDWICH ROAD MEDWAY PARK SINGAPORE 139150,1,MEDWAY PARK,1.30389037578061,103.776583410605,103.776583410605,139150,SANDWICH ROAD,MEDWAY PARK,21685.8932934999,31803.162412446
2 SANDWICH ROAD MEDWAY PARK SINGAPORE 139151,2,MEDWAY PARK,1.30426699603938,103.776595192962,103.776595192962,139151,SANDWICH ROAD,MEDWAY PARK,21687.2055013981,31844.8071323987
3 SANDWICH ROAD MEDWAY PARK SINGAPORE 139152,3,MEDWAY PARK,1.30399662251102,103.776345362774,103.776345362774,139152,SANDWICH ROAD,MEDWAY PARK,21659.4009986073,31814.911233006
4 SANDWICH ROAD MEDWAY PARK SINGAPORE 139153,4,MEDWAY PARK,1.30399649032414,103.776011050205,103.776011050205,139153,SANDWICH ROAD,MEDWAY PARK,21622.1950481981,31814.8974610735
5 SANDWICH ROAD MEDWAY PARK SINGAPORE 139154,5,MEDWAY PARK,1.30440431492366,103.776221554218,103.776221554218,139154,SANDWICH ROAD,MEDWAY PARK,21645.6232545627,31859.9920955431
6 SANDWICH ROAD MEDWAY PARK SINGAPORE 139155,6,MEDWAY PARK,1.30461568642459,103.775824205428,103.775824205428,139155,SANDWICH ROAD,MEDWAY PARK,21601.4024870517,31883.3654865883
7 SANDWICH ROAD MEDWAY PARK SINGAPORE 139156,7,MEDWAY PARK,1.30466658996578,103.775606410327,103.775606410327,139156,SANDWICH ROAD,MEDWAY PARK,21577.1640067631,31888.9946959317
8 SANDWICH ROAD MEDWAY PARK SINGAPORE 139157,8,MEDWAY PARK,1.30410220749971,103.775721124557,103.775721124557,139157,SANDWICH ROAD,MEDWAY PARK,21589.9292262159,31826.5878644232
9 SANDWICH ROAD MEDWAY PARK SINGAPORE 139158,9,MEDWAY PARK,1.30428034081381,103.775378588371,103.775378588371,139158,SANDWICH ROAD,MEDWAY PARK,21551.8085168032,31846.285814207
10 SANDWICH ROAD MEDWAY PARK SINGAPORE 139159,10,MEDWAY PARK,1.30447587903693,103.775138793435,103.775138793435,139159,SANDWICH ROAD,MEDWAY PARK,21525.1220225273,31867.9080510549
11 SANDWICH ROAD MEDWAY PARK SINGAPORE 139160,11,MEDWAY PARK,1.30466663366909,103.774836847845,103.774836847845,139160,SANDWICH ROAD,MEDWAY PARK,21491.5187188797,31889.001506228
12 SANDWICH ROAD MEDWAY PARK SINGAPORE 139161,12,MEDWAY PARK,1.30487832301441,103.77535261688,103.77535261688,139161,SANDWICH ROAD,MEDWAY PARK,21548.9196496326,31912.4077077694
13 SANDWICH ROAD MEDWAY PARK SINGAPORE 139162,13,MEDWAY PARK,1.30517061444007,103.775095639739,103.775095639739,139162,SANDWICH ROAD,MEDWAY PARK,21520.3211873611,31944.728466142
14 SANDWICH ROAD MEDWAY PARK SINGAPORE 139163,14,MEDWAY PARK,1.3049544874855,103.774693377678,103.774693377678,139163,SANDWICH ROAD,MEDWAY PARK,21475.5525390767,31920.8312876374
15 SANDWICH ROAD MEDWAY PARK SINGAPORE 139164,15,MEDWAY PARK,1.30528469212207,103.774584031351,103.774584031351,139164,SANDWICH ROAD,MEDWAY PARK,21463.3841437269,31957.3439196125
16 SANDWICH ROAD MEDWAY PARK SINGAPORE 139165,16,MEDWAY PARK,1.30557728914223,103.774824191261,103.774824191261,139165,SANDWICH ROAD,MEDWAY PARK,21490.1124986243,31989.6971857995
18 SANDWICH ROAD MEDWAY PARK SINGAPORE 139167,18,MEDWAY PARK,1.30586155441199,103.775012170881,103.775012170881,139167,SANDWICH ROAD,MEDWAY PARK,21511.0336381653,32021.1293064374
1 ROCHESTER PARK ROCHESTER COMMON SINGAPORE 139212,1,ROCHESTER COMMON,1.30462193287417,103.787905412944,103.787905412944,139212,ROCHESTER PARK,ROCHESTER COMMON,22945.9306289647,31884.0286883805
2 ROCHESTER PARK ROCHESTER COMMON SINGAPORE 139213,2,ROCHESTER COMMON,1.30495677259454,103.787728502541,103.787728502541,139213,ROCHESTER PARK,ROCHESTER COMMON,22926.2427886873,31921.0539086573
3 ROCHESTER PARK ROCHESTER PARK SINGAPORE 139214,3,ROCHESTER PARK,1.30414973641108,103.787122827136,103.787122827136,139214,ROCHESTER PARK,ROCHESTER PARK,22858.8350203736,31831.8172034342
4 ROCHESTER PARK ROCHESTER PARK SINGAPORE 139215,4,ROCHESTER PARK,1.30410781995528,103.786782662968,103.786782662968,139215,ROCHESTER PARK,ROCHESTER PARK,22820.9777634908,31827.1829935201
5 ROCHESTER PARK ROCHESTER PARK SINGAPORE 139216,5,ROCHESTER PARK,1.30398328424329,103.786279242745,103.786279242745,139216,ROCHESTER PARK,ROCHESTER PARK,22764.9514229503,31813.413512636
6 ROCHESTER PARK ROCHESTER PARK SINGAPORE 139217,6,ROCHESTER PARK,1.30433077109083,103.786464271239,103.786464271239,139217,ROCHESTER PARK,ROCHESTER PARK,22785.5441246005,31851.8364478648
7 ROCHESTER PARK ROCHESTER PARK SINGAPORE 139218,7,ROCHESTER PARK,1.30458239573331,103.787011174795,103.787011174795,139218,ROCHESTER PARK,ROCHESTER PARK,22846.4100130582,31879.658687694
8 ROCHESTER PARK ROCHESTER COMMON SINGAPORE 139219,8,ROCHESTER COMMON,1.30487672773842,103.78739103201,103.78739103201,139219,ROCHESTER PARK,ROCHESTER COMMON,22888.6852453798,31912.2036410235
9 ROCHESTER PARK ROCHESTER COMMON SINGAPORE 139220,9,ROCHESTER COMMON,1.30566579714097,103.787086348697,103.787086348697,139220,ROCHESTER PARK,ROCHESTER COMMON,22854.7783841239,31999.4555232134
10 ROCHESTER PARK ROCHESTER PARK SINGAPORE 139221,10,ROCHESTER PARK,1.30625724130935,103.787587170865,103.787587170865,139221,ROCHESTER PARK,ROCHESTER PARK,22910.5164826559,32064.8533763364
12 ROCHESTER PARK ROCHESTER PARK SINGAPORE 139223,12,ROCHESTER PARK,1.30624274086405,103.786875838321,103.786875838321,139223,ROCHESTER PARK,ROCHESTER PARK,22831.3516911585,32063.2514432985
13 ROCHESTER PARK ROCHESTER PARK SINGAPORE 139224,13,ROCHESTER PARK,1.30648772799951,103.786555127628,103.786555127628,139224,ROCHESTER PARK,ROCHESTER PARK,22795.6600479744,32090.3415308688
14 ROCHESTER PARK ROCHESTER PARK SINGAPORE 139225,14,ROCHESTER PARK,1.30645286345432,103.785988277853,103.785988277853,139225,ROCHESTER PARK,ROCHESTER PARK,22732.5748201478,32086.4875690378
17 ROCHESTER PARK ROCHESTER PARK SINGAPORE 139228,17,ROCHESTER PARK,1.30690055159781,103.786506934149,103.786506934149,139228,ROCHESTER PARK,ROCHESTER PARK,22790.2974087633,32135.9895548858
18 ROCHESTER PARK ROCHESTER PARK SINGAPORE 139229,18,ROCHESTER PARK,1.3067487256572,103.786100314752,103.786100314752,139229,ROCHESTER PARK,ROCHESTER PARK,22745.0441095233,32119.2022652198
19 ROCHESTER PARK ROCHESTER PARK SINGAPORE 139230,19,ROCHESTER PARK,1.30655987948421,103.785665779531,103.785665779531,139230,ROCHESTER PARK,ROCHESTER PARK,22696.6839530952,32098.321533436
20 ROCHESTER PARK ROCHESTER PARK SINGAPORE 139231,20,ROCHESTER PARK,1.30697965652995,103.785752264733,103.785752264733,139231,ROCHESTER PARK,ROCHESTER PARK,22706.3098378126,32144.7381523624
21 ROCHESTER PARK ROCHESTER PARK SINGAPORE 139232,21,ROCHESTER PARK,1.30716131316169,103.786190278146,103.786190278146,139232,ROCHESTER PARK,ROCHESTER PARK,22755.0570612168,32164.8238955531
22 ROCHESTER PARK ROCHESTER PARK SINGAPORE 139233,22,ROCHESTER PARK,1.30727286178495,103.78664212216,103.78664212216,139233,ROCHESTER PARK,ROCHESTER PARK,22805.3433510577,32177.1574330218
23 ROCHESTER PARK ROCHESTER PARK SINGAPORE 139234,23,ROCHESTER PARK,1.30723461520818,103.787197551724,103.787197551724,139234,ROCHESTER PARK,ROCHESTER PARK,22867.157444641,32172.9271796178
38 ROCHESTER PARK ROCHESTER PARK SINGAPORE 139242,38,ROCHESTER PARK,1.30611422917896,103.786081728066,103.786081728066,139242,ROCHESTER PARK,ROCHESTER PARK,22742.9742637249,32049.0429253094
39 ROCHESTER PARK ROCHESTER PARK SINGAPORE 139243,39,ROCHESTER PARK,1.30613322247828,103.786448515166,103.786448515166,139243,ROCHESTER PARK,ROCHESTER PARK,22783.7943324624,32051.1423429288
40 ROCHESTER PARK ROCHESTER PARK SINGAPORE 139244,40,ROCHESTER PARK,1.30585401221005,103.786668476603,103.786668476603,139244,ROCHESTER PARK,ROCHESTER PARK,22808.2734432211,32020.2682428379
44 ROCHESTER PARK ROCHESTER PARK SINGAPORE 139248,44,ROCHESTER PARK,1.30457959499382,103.785762450059,103.785762450059,139248,ROCHESTER PARK,ROCHESTER PARK,22707.4383493178,31879.3515887316
45 ROCHESTER PARK ROCHESTER PARK SINGAPORE 139249,45,ROCHESTER PARK,1.30455156540269,103.786071330922,103.786071330922,139249,ROCHESTER PARK,ROCHESTER PARK,22741.8139103018,31876.2515721079
2A ROCHESTER PARK ROCHESTER COMMON SINGAPORE 139252,2A,ROCHESTER COMMON,1.30458326588547,103.787558696291,103.787558696291,139252,ROCHESTER PARK,ROCHESTER COMMON,22907.3441558182,31879.7537896987
8A ROCHESTER PARK ROCHESTER COMMON SINGAPORE 139253,8A,ROCHESTER COMMON,1.30523358500757,103.787505412577,103.787505412577,139253,ROCHESTER PARK,ROCHESTER COMMON,22901.4154750435,31951.6628612112
8B ROCHESTER PARK ROCHESTER PARK SINGAPORE 139254,8B,ROCHESTER PARK,1.30562536783177,103.78745446323,103.78745446323,139254,ROCHESTER PARK,ROCHESTER PARK,22895.7460698178,31994.9843063913
8C ROCHESTER PARK ROCHESTER PARK SINGAPORE 139255,8C,ROCHESTER PARK,1.30594611763944,103.787320999662,103.787320999662,139255,ROCHESTER PARK,ROCHESTER PARK,22880.8934491351,32030.4514519386
9A ROCHESTER PARK ROCHESTER COMMON SINGAPORE 139256,9A,ROCHESTER COMMON,1.305073480278,103.787133497419,103.787133497419,139256,ROCHESTER PARK,ROCHESTER COMMON,22860.0244007939,31933.960055843
9B ROCHESTER PARK ROCHESTER COMMON SINGAPORE 139257,9B,ROCHESTER COMMON,1.30483380904157,103.786881085499,103.786881085499,139257,ROCHESTER PARK,ROCHESTER COMMON,22831.93277591,31907.4589529671
10A ROCHESTER PARK ROCHESTER PARK SINGAPORE 139258,10A,ROCHESTER PARK,1.30652858429477,103.787203506108,103.787203506108,139258,ROCHESTER PARK,ROCHESTER PARK,22867.8186790133,32094.8578772563
10B ROCHESTER PARK ROCHESTER PARK SINGAPORE 139259,10B,ROCHESTER PARK,1.30681034825148,103.7868945733,103.7868945733,139259,ROCHESTER PARK,ROCHESTER PARK,22833.4378816681,32126.0145289749
1 PORTSDOWN ROAD SINGAPORE 139295,1,NIL,1.29221368841371,103.796440026998,103.796440026998,139295,PORTSDOWN ROAD,1 PORTSDOWN ROAD SINGAPORE 139295,23895.7351151351,30511.9731470663
7 PORTSDOWN ROAD WESSEX SINGAPORE 139298,7,WESSEX,1.29358293201226,103.796061314936,103.796061314936,139298,PORTSDOWN ROAD,WESSEX,23853.5899443394,30663.3776877988
95 PORTSDOWN ROAD TANGLIN TRUST SCHOOL SINGAPORE 139299,95,TANGLIN TRUST SCHOOL,1.29678147853575,103.792825944095,103.792825944095,139299,PORTSDOWN ROAD,TANGLIN TRUST SCHOOL,23493.526852916,31017.0620740652
5B PORTSDOWN ROAD WESSEX VILLAGE SQUARE SINGAPORE 139311,5B,WESSEX VILLAGE SQUARE,1.29431403318735,103.795998639475,103.795998639475,139311,PORTSDOWN ROAD,WESSEX VILLAGE SQUARE,23846.6158982115,30744.2192045227
100 NORTH BUONA VISTA ROAD SINGAPORE 139345,100,NIL,1.30768350227128,103.788696211509,103.788696211509,139345,NORTH BUONA VISTA ROAD,100 NORTH BUONA VISTA ROAD SINGAPORE 139345,23033.945294613,32222.5598020814
150 NORTH BUONA VISTA ROAD BUONA VISTA MRT STATION SINGAPORE 139350,150,BUONA VISTA MRT STATION,1.30627534823257,103.790363200126,103.790363200126,139350,NORTH BUONA VISTA ROAD,BUONA VISTA MRT STATION,23219.4630031772,32066.8500946872
1 NEPAL PARK NEPAL PARK SINGAPORE 139391,1,NEPAL PARK,1.30154875430426,103.787627384173,103.787627384173,139391,NEPAL PARK,NEPAL PARK,22914.9824025808,31544.2128803767
2 NEPAL PARK NEPAL PARK SINGAPORE 139392,2,NEPAL PARK,1.30180402968729,103.787553438124,103.787553438124,139392,NEPAL PARK,NEPAL PARK,22906.7533853119,31572.4400755595
3 NEPAL PARK NEPAL PARK SINGAPORE 139393,3,NEPAL PARK,1.30207857477636,103.78747993584,103.78747993584,139393,NEPAL PARK,NEPAL PARK,22898.5737956604,31602.7980157249
4 NEPAL PARK NEPAL PARK SINGAPORE 139394,4,NEPAL PARK,1.3023225480289,103.787407823324,103.787407823324,139394,NEPAL PARK,NEPAL PARK,22890.5488148695,31629.7754761279
6 NEPAL PARK FOUR ACRES SINGAPORE SINGAPORE 139395,6,FOUR ACRES SINGAPORE,1.3017520260764,103.788044583798,103.788044583798,139395,NEPAL PARK,FOUR ACRES SINGAPORE,22961.4133685315,31566.688795438
7 NEPAL PARK UNILEVER FOUR ACRES SINGAPORE CAMPUS SINGAPORE 139396,7,UNILEVER FOUR ACRES SINGAPORE CAMPUS,1.30204321823308,103.787909813959,103.787909813959,139396,NEPAL PARK,UNILEVER FOUR ACRES SINGAPORE CAMPUS,22946.4152799202,31598.8876041044
8 NEPAL PARK SINGAPORE 139397,8,NIL,1.30235220413546,103.787791269323,103.787791269323,139397,NEPAL PARK,8 NEPAL PARK SINGAPORE 139397,22933.2229489489,31633.0539225154
9 NEPAL PARK UNILEVER FOUR ACRES SINGAPORE CAMPUS SINGAPORE 139398,9,UNILEVER FOUR ACRES SINGAPORE CAMPUS,1.30112878239597,103.788219940105,103.788219940105,139398,NEPAL PARK,UNILEVER FOUR ACRES SINGAPORE CAMPUS,22980.9277127255,31497.7733485866
10 NEPAL PARK UNILEVER FOUR ACRES SINGAPORE CAMPUS SINGAPORE 139399,10,UNILEVER FOUR ACRES SINGAPORE CAMPUS,1.30097695455545,103.788435142954,103.788435142954,139399,NEPAL PARK,UNILEVER FOUR ACRES SINGAPORE CAMPUS,23004.8775575217,31480.9845757894
11 NEPAL PARK UNILEVER FOUR ACRES SINGAPORE CAMPUS SINGAPORE 139400,11,UNILEVER FOUR ACRES SINGAPORE CAMPUS,1.30095131708744,103.788808160991,103.788808160991,139400,NEPAL PARK,UNILEVER FOUR ACRES SINGAPORE CAMPUS,23046.3910657652,31478.1489802711
12 NEPAL PARK UNILEVER FOUR ACRES SINGAPORE CAMPUS SINGAPORE 139401,12,UNILEVER FOUR ACRES SINGAPORE CAMPUS,1.30121207130992,103.789106981576,103.789106981576,139401,NEPAL PARK,UNILEVER FOUR ACRES SINGAPORE CAMPUS,23079.6476193909,31506.9812627174
13 NEPAL PARK UNILEVER FOUR ACRES SINGAPORE CAMPUS SINGAPORE 139402,13,UNILEVER FOUR ACRES SINGAPORE CAMPUS,1.30147373353034,103.788742641232,103.788742641232,139402,NEPAL PARK,UNILEVER FOUR ACRES SINGAPORE CAMPUS,23039.1003257241,31535.915245587
14 NEPAL PARK UNILEVER FOUR ACRES SINGAPORE CAMPUS SINGAPORE 139403,14,UNILEVER FOUR ACRES SINGAPORE CAMPUS,1.30165211783906,103.788541174899,103.788541174899,139403,NEPAL PARK,UNILEVER FOUR ACRES SINGAPORE CAMPUS,23016.6792865172,31555.6404668242
15 NEPAL PARK UNILEVER FOUR ACRES SINGAPORE CAMPUS SINGAPORE 139404,15,UNILEVER FOUR ACRES SINGAPORE CAMPUS,1.30181496675354,103.788312589441,103.788312589441,139404,NEPAL PARK,UNILEVER FOUR ACRES SINGAPORE CAMPUS,22991.2401055824,31573.64791945
16 NEPAL PARK UNILEVER FOUR ACRES SINGAPORE CAMPUS SINGAPORE 139405,16,UNILEVER FOUR ACRES SINGAPORE CAMPUS,1.30176217469462,103.789007375462,103.789007375462,139405,NEPAL PARK,UNILEVER FOUR ACRES SINGAPORE CAMPUS,23068.5634232182,31567.8090740498
17 NEPAL PARK UNILEVER FOUR ACRES SINGAPORE CAMPUS SINGAPORE 139406,17,UNILEVER FOUR ACRES SINGAPORE CAMPUS,1.30195363929736,103.78878750077,103.78878750077,139406,NEPAL PARK,UNILEVER FOUR ACRES SINGAPORE CAMPUS,23044.0937258014,31588.9806811567
18 NEPAL PARK UNILEVER FOUR ACRES SINGAPORE CAMPUS SINGAPORE 139407,18,UNILEVER FOUR ACRES SINGAPORE CAMPUS,1.3015885251899,103.788366558051,103.788366558051,139407,NEPAL PARK,UNILEVER FOUR ACRES SINGAPORE CAMPUS,22997.2458789116,31548.6090628672
5 NEPAL PARK ESSEC BUSINESS SCHOOL SINGAPORE 139408,5,ESSEC BUSINESS SCHOOL,1.30292128308417,103.787762455673,103.787762455673,139408,NEPAL PARK,ESSEC BUSINESS SCHOOL,22930.0173878651,31695.9798196759
80 NEPAL PARK SINGAPORE 139409,80,NIL,1.30074755351628,103.788588327315,103.788588327315,139409,NEPAL PARK,80 NEPAL PARK SINGAPORE 139409,23021.9251518473,31455.6182801593
1 MAIDSTONE ROAD MEDWAY PARK SINGAPORE 139451,1,MEDWAY PARK,1.30729861287819,103.777303903344,103.777303903344,139451,MAIDSTONE ROAD,MEDWAY PARK,21766.0859857239,32180.0261114482
2 MAIDSTONE ROAD MEDWAY PARK SINGAPORE 139452,2,MEDWAY PARK,1.30708144425735,103.777051470194,103.777051470194,139452,MAIDSTONE ROAD,MEDWAY PARK,21737.9919696692,32156.0133395139
3 MAIDSTONE ROAD MEDWAY PARK SINGAPORE 139453,3,MEDWAY PARK,1.30690081425463,103.776736931721,103.776736931721,139453,MAIDSTONE ROAD,MEDWAY PARK,21702.9862898001,32136.04098019
4 MAIDSTONE ROAD MEDWAY PARK SINGAPORE 139454,4,MEDWAY PARK,1.3068625066277,103.776420218939,103.776420218939,139454,MAIDSTONE ROAD,MEDWAY PARK,21667.7389806174,32131.8059141748
5 MAIDSTONE ROAD MEDWAY PARK SINGAPORE 139455,5,MEDWAY PARK,1.30710713203739,103.775785461863,103.775785461863,139455,MAIDSTONE ROAD,MEDWAY PARK,21597.0969874403,32158.8569560479
6 MAIDSTONE ROAD MEDWAY PARK SINGAPORE 139456,6,MEDWAY PARK,1.3069751955173,103.775499951853,103.775499951853,139456,MAIDSTONE ROAD,MEDWAY PARK,21565.3220213493,32144.2688170075
7 MAIDSTONE ROAD MEDWAY PARK SINGAPORE 139457,7,MEDWAY PARK,1.3068082352021,103.775253108945,103.775253108945,139457,MAIDSTONE ROAD,MEDWAY PARK,21537.850254504,32125.8078289144
8 MAIDSTONE ROAD MEDWAY PARK SINGAPORE 139458,8,MEDWAY PARK,1.30662952081001,103.775738728085,103.775738728085,139458,MAIDSTONE ROAD,MEDWAY PARK,21591.8947382746,32106.0452569854
9 MAIDSTONE ROAD MEDWAY PARK SINGAPORE 139459,9,MEDWAY PARK,1.30626124406675,103.775590366231,103.775590366231,139459,MAIDSTONE ROAD,MEDWAY PARK,21575.3824937772,32065.3234683927
10 MAIDSTONE ROAD MEDWAY PARK SINGAPORE 139460,10,MEDWAY PARK,1.30604603408587,103.7756084823,103.7756084823,139460,MAIDSTONE ROAD,MEDWAY PARK,21577.3980993489,32041.526597986
11 MAIDSTONE ROAD MEDWAY PARK SINGAPORE 139461,11,MEDWAY PARK,1.30620113244228,103.775052910712,103.775052910712,139461,MAIDSTONE ROAD,MEDWAY PARK,21515.56847829,32058.6780114956
12 MAIDSTONE ROAD MEDWAY PARK SINGAPORE 139462,12,MEDWAY PARK,1.30570843380114,103.775639699869,103.775639699869,139462,MAIDSTONE ROAD,MEDWAY PARK,21580.8714715522,32004.1963975038
13 MAIDSTONE ROAD MEDWAY PARK SINGAPORE 139463,13,MEDWAY PARK,1.30560139034092,103.775938572525,103.775938572525,139463,MAIDSTONE ROAD,MEDWAY PARK,21614.1329891272,31992.3593155034
14 MAIDSTONE ROAD MEDWAY PARK SINGAPORE 139464,14,MEDWAY PARK,1.30512661869691,103.775648999609,103.775648999609,139464,MAIDSTONE ROAD,MEDWAY PARK,21581.9049718566,31939.8622218631
15 MAIDSTONE ROAD MEDWAY PARK SINGAPORE 139465,15,MEDWAY PARK,1.30498373333538,103.775941798788,103.775941798788,139465,MAIDSTONE ROAD,MEDWAY PARK,21614.4904842833,31924.0619408805
16 MAIDSTONE ROAD MEDWAY PARK SINGAPORE 139466,16,MEDWAY PARK,1.30531094728368,103.776097172448,103.776097172448,139466,MAIDSTONE ROAD,MEDWAY PARK,21631.7829768648,31960.2431989685
17 MAIDSTONE ROAD MEDWAY PARK SINGAPORE 139467,17,MEDWAY PARK,1.30526932641478,103.776357915285,103.776357915285,139467,MAIDSTONE ROAD,MEDWAY PARK,21660.801165266,31955.6403164156
18 MAIDSTONE ROAD MEDWAY PARK SINGAPORE 139468,18,MEDWAY PARK,1.30480183963696,103.776342475901,103.776342475901,139468,MAIDSTONE ROAD,MEDWAY PARK,21659.0817319155,31903.9480484631
19 MAIDSTONE ROAD MEDWAY PARK SINGAPORE 139469,19,MEDWAY PARK,1.30471913211827,103.776584876462,103.776584876462,139469,MAIDSTONE ROAD,MEDWAY PARK,21686.0584961548,31894.8020626288
20 MAIDSTONE ROAD MEDWAY PARK SINGAPORE 139470,20,MEDWAY PARK,1.3051355584568,103.776710825465,103.776710825465,139470,MAIDSTONE ROAD,MEDWAY PARK,21700.0765074538,31940.8480500933
21 MAIDSTONE ROAD MEDWAY PARK SINGAPORE 139471,21,MEDWAY PARK,1.30508814330305,103.777039283146,103.777039283146,139471,MAIDSTONE ROAD,MEDWAY PARK,21736.6307276376,31935.604303522
22 MAIDSTONE ROAD MEDWAY PARK SINGAPORE 139472,22,MEDWAY PARK,1.30479580487262,103.777174889366,103.777174889366,139472,MAIDSTONE ROAD,MEDWAY PARK,21751.7217389587,31903.2786720041
23 MAIDSTONE ROAD MEDWAY PARK SINGAPORE 139473,23,MEDWAY PARK,1.30455915565277,103.777050699771,103.777050699771,139473,MAIDSTONE ROAD,MEDWAY PARK,21737.8999852668,31877.1115157921
24 MAIDSTONE ROAD MEDWAY PARK SINGAPORE 139474,24,MEDWAY PARK,1.30415897184021,103.77709608552,103.77709608552,139474,MAIDSTONE ROAD,MEDWAY PARK,21742.9500167416,31832.861115925
25 MAIDSTONE ROAD MEDWAY PARK SINGAPORE 139475,25,MEDWAY PARK,1.3039556903249,103.777042500718,103.777042500718,139475,MAIDSTONE ROAD,MEDWAY PARK,21736.9860132299,31810.3834150527
104 JALAN HANG JEBAT SINGAPORE 139525,104,NIL,1.29075126643079,103.797904324577,103.797904324577,139525,JALAN HANG JEBAT,104 JALAN HANG JEBAT SINGAPORE 139525,24058.6965774102,30350.2637199387
105 JALAN HANG JEBAT SINGAPORE 139526,105,NIL,1.29073419327101,103.798364416355,103.798364416355,139526,JALAN HANG JEBAT,105 JALAN HANG JEBAT SINGAPORE 139526,24109.900834661,30348.3751490954
106 JALAN HANG JEBAT SINGAPORE 139527,106,NIL,1.29005129087789,103.798208436816,103.798208436816,139527,JALAN HANG JEBAT,106 JALAN HANG JEBAT SINGAPORE 139527,24092.540602332,30272.8635518923
107 JALAN HANG JEBAT SINGAPORE 139528,107,NIL,1.29018130083485,103.797773319445,103.797773319445,139528,JALAN HANG JEBAT,107 JALAN HANG JEBAT SINGAPORE 139528,24044.1159448298,30287.2400571909
108 JALAN HANG JEBAT SINGAPORE 139529,108,NIL,1.29018237255262,103.797312992464,103.797312992464,139529,JALAN HANG JEBAT,108 JALAN HANG JEBAT SINGAPORE 139529,23992.8854755051,30287.3592827786
109 JALAN HANG JEBAT SINGAPORE 139530,109,NIL,1.29021217905884,103.796665441497,103.796665441497,139530,JALAN HANG JEBAT,109 JALAN HANG JEBAT SINGAPORE 139530,23920.8186169937,30290.65616237
110 JALAN HANG JEBAT SINGAPORE 139531,110,NIL,1.29011540504457,103.796282540453,103.796282540453,139531,JALAN HANG JEBAT,110 JALAN HANG JEBAT SINGAPORE 139531,23878.2048372738,30279.9560063723
111 JALAN HANG JEBAT SINGAPORE 139532,111,NIL,1.28991236461064,103.795977411722,103.795977411722,139532,JALAN HANG JEBAT,111 JALAN HANG JEBAT SINGAPORE 139532,23844.2462783018,30257.5053348113
100 JALAN HANG JEBAT MASJID HANG JEBAT SINGAPORE 139533,100,MASJID HANG JEBAT,1.28963009167863,103.798585306671,103.798585306671,139533,JALAN HANG JEBAT,MASJID HANG JEBAT,24134.4823722774,30226.2889340911
1 FOLKESTONE ROAD MEDWAY PARK SINGAPORE 139577,1,MEDWAY PARK,1.30747232551056,103.77683617189,103.77683617189,139577,FOLKESTONE ROAD,MEDWAY PARK,21714.0322272424,32199.2355359737
2 FOLKESTONE ROAD MEDWAY PARK SINGAPORE 139578,2,MEDWAY PARK,1.30750519472024,103.776567247288,103.776567247288,139578,FOLKESTONE ROAD,MEDWAY PARK,21684.1034870865,32202.8707208186
3 FOLKESTONE ROAD MEDWAY PARK SINGAPORE 139579,3,MEDWAY PARK,1.30725844190938,103.776140047484,103.776140047484,139579,FOLKESTONE ROAD,MEDWAY PARK,21636.5594765712,32175.5871300269
4 FOLKESTONE ROAD MEDWAY PARK SINGAPORE 139580,4,MEDWAY PARK,1.30737094600116,103.775885272886,103.775885272886,139580,FOLKESTONE ROAD,MEDWAY PARK,21608.2057006797,32188.0279069636
5 FOLKESTONE ROAD MEDWAY PARK SINGAPORE 139581,5,MEDWAY PARK,1.30768069338656,103.776198071617,103.776198071617,139581,FOLKESTONE ROAD,MEDWAY PARK,21643.0180892041,32222.2774017937
6 FOLKESTONE ROAD MEDWAY PARK SINGAPORE 139582,6,MEDWAY PARK,1.30781933840831,103.77587143318,103.77587143318,139582,FOLKESTONE ROAD,MEDWAY PARK,21606.6666039759,32237.6088922471
7 FOLKESTONE ROAD MEDWAY PARK SINGAPORE 139583,7,MEDWAY PARK,1.30760884378155,103.775346694384,103.775346694384,139583,FOLKESTONE ROAD,MEDWAY PARK,21548.2674956555,32214.3348104544
8 FOLKESTONE ROAD MEDWAY PARK SINGAPORE 139584,8,MEDWAY PARK,1.30770778841585,103.775114637864,103.775114637864,139584,FOLKESTONE ROAD,MEDWAY PARK,21522.442004445,32225.2762022801
9 FOLKESTONE ROAD MEDWAY PARK SINGAPORE 139585,9,MEDWAY PARK,1.30793525410129,103.775703839115,103.775703839115,139585,FOLKESTONE ROAD,MEDWAY PARK,21588.0152302654,32250.4266871866
10 FOLKESTONE ROAD MEDWAY PARK SINGAPORE 139586,10,MEDWAY PARK,1.30804650160348,103.775326662291,103.775326662291,139586,FOLKESTONE ROAD,MEDWAY PARK,21546.0392272305,32262.7288367581
11 FOLKESTONE ROAD MEDWAY PARK SINGAPORE 139587,11,MEDWAY PARK,1.30782485195061,103.774847523968,103.774847523968,139587,FOLKESTONE ROAD,MEDWAY PARK,21492.7150004003,32238.2211832888
12 FOLKESTONE ROAD MEDWAY PARK SINGAPORE 139588,12,MEDWAY PARK,1.30792127670092,103.774598538834,103.774598538834,139588,FOLKESTONE ROAD,MEDWAY PARK,21465.0055088103,32248.8839885928
13 FOLKESTONE ROAD MEDWAY PARK SINGAPORE 139589,13,MEDWAY PARK,1.30815508053867,103.7750479242,103.7750479242,139589,FOLKESTONE ROAD,MEDWAY PARK,21515.0185392937,32274.735661611
14 FOLKESTONE ROAD MEDWAY PARK SINGAPORE 139590,14,MEDWAY PARK,1.30830426419094,103.774782659464,103.774782659464,139590,FOLKESTONE ROAD,MEDWAY PARK,21485.4974180749,32291.2323180959
15 FOLKESTONE ROAD MEDWAY PARK SINGAPORE 139591,15,MEDWAY PARK,1.30840425162114,103.774454867527,103.774454867527,139591,FOLKESTONE ROAD,MEDWAY PARK,21449.0174755231,32302.2892730832
16 FOLKESTONE ROAD MEDWAY PARK SINGAPORE 139592,16,MEDWAY PARK,1.30854711148884,103.774215100277,103.774215100277,139592,FOLKESTONE ROAD,MEDWAY PARK,21422.3339777775,32318.0866180733
17 FOLKESTONE ROAD MEDWAY PARK SINGAPORE 139593,17,MEDWAY PARK,1.30803670255218,103.774359540328,103.774359540328,139593,FOLKESTONE ROAD,MEDWAY PARK,21438.4074878516,32261.6478157192
18 FOLKESTONE ROAD MEDWAY PARK SINGAPORE 139594,18,MEDWAY PARK,1.30775094687307,103.774291904534,103.774291904534,139594,FOLKESTONE ROAD,MEDWAY PARK,21430.8795073526,32230.0505832285
19 FOLKESTONE ROAD MEDWAY PARK SINGAPORE 139595,19,MEDWAY PARK,1.30740198351086,103.774245951849,103.774245951849,139595,FOLKESTONE ROAD,MEDWAY PARK,21425.7644905169,32191.464110082
20 FOLKESTONE ROAD MEDWAY PARK SINGAPORE 139596,20,MEDWAY PARK,1.30740126995128,103.773902805747,103.773902805747,139596,FOLKESTONE ROAD,MEDWAY PARK,21387.575496532,32191.3861094881
21 FOLKESTONE ROAD MEDWAY PARK SINGAPORE 139597,21,MEDWAY PARK,1.30782843362607,103.773973474464,103.773973474464,139597,FOLKESTONE ROAD,MEDWAY PARK,21395.4413888007,32238.619509954
22 FOLKESTONE ROAD MEDWAY PARK SINGAPORE 139598,22,MEDWAY PARK,1.30817548047524,103.774003213539,103.774003213539,139598,FOLKESTONE ROAD,MEDWAY PARK,21398.7519797878,32276.9941072147
301 DOVER ROAD DOVER COURT INTERNATIONAL SCHOOL SINGAPORE 139644,301,DOVER COURT INTERNATIONAL SCHOOL,1.3055203912782,103.779042961131,103.779042961131,139644,DOVER ROAD,DOVER COURT INTERNATIONAL SCHOOL,21959.6228030901,31983.3951797131
98 DOVER ROAD ALDERSGATE METHODIST CHURCH SINGAPORE 139647,98,ALDERSGATE METHODIST CHURCH,1.30056570353846,103.784852511668,103.784852511668,139647,DOVER ROAD,ALDERSGATE METHODIST CHURCH,22606.1619784795,31435.5179175325
100 DOVER ROAD COMMIT LEARNING SCHOOLHOUSE @ FAIRFIELD METHODIST SCHOOL (PRIMARY) SINGAPORE 139648,100,COMMIT LEARNING SCHOOLHOUSE @ FAIRFIELD METHODIST SCHOOL (PRIMARY),1.30100441916733,103.785455606827,103.785455606827,139648,DOVER ROAD,COMMIT LEARNING SCHOOLHOUSE @ FAIRFIELD METHODIST SCHOOL (PRIMARY),22673.2819890725,31484.0275675338
102 DOVER ROAD FAIRFIELD METHODIST SCHOOL (SECONDARY) SINGAPORE 139649,102,FAIRFIELD METHODIST SCHOOL (SECONDARY),1.30192088406781,103.784368149041,103.784368149041,139649,DOVER ROAD,FAIRFIELD METHODIST SCHOOL (SECONDARY),22552.2596634282,31585.3678946216
121 DOVER ROAD ANGLO-CHINESE SCHOOL (INDEPENDENT) SINGAPORE 139650,121,ANGLO-CHINESE SCHOOL (INDEPENDENT),1.30244478759311,103.780249819952,103.780249819952,139650,DOVER ROAD,ANGLO-CHINESE SCHOOL (INDEPENDENT),22093.927960977,31643.3077468239
500 DOVER ROAD SINGAPORE 139651,500,NIL,1.31087323423706,103.777439826564,103.777439826564,139651,DOVER ROAD,500 DOVER ROAD SINGAPORE 139651,21781.2217936618,32575.2892031949
1000 DOVER ROAD SINGAPORE 139652,1000,NIL,1.30828686640688,103.777022353741,103.777022353741,139652,DOVER ROAD,1000 DOVER ROAD SINGAPORE 139652,21734.7545666667,32289.3028552048
1002 DOVER ROAD SINGAPORE 139653,1002,NIL,1.30846965545341,103.776508485326,103.776508485326,139653,DOVER ROAD,1002 DOVER ROAD SINGAPORE 139653,21677.566238231,32309.5160266086
1207 DOVER ROAD NELSON MENDELA HOUSE (UWCSEA DOVER CAMPUS) SINGAPORE 139654,1207,NELSON MENDELA HOUSE (UWCSEA DOVER CAMPUS),1.30334355819594,103.775149034421,103.775149034421,139654,DOVER ROAD,NELSON MENDELA HOUSE (UWCSEA DOVER CAMPUS),21526.2588577271,31742.7017517556
119 DOVER ROAD ACS INDEPENDENT BOARDING SCHOOL SINGAPORE 139656,119,ACS INDEPENDENT BOARDING SCHOOL,1.30211028612236,103.781258538496,103.781258538496,139656,DOVER ROAD,ACS INDEPENDENT BOARDING SCHOOL,22206.1884620339,31606.3179400861
1020 DOVER ROAD NEW TOWN SECONDARY SCHOOL SINGAPORE 139657,1020,NEW TOWN SECONDARY SCHOOL,1.30998631560773,103.773248973337,103.773248973337,139657,DOVER ROAD,NEW TOWN SECONDARY SCHOOL,21314.8168329848,32477.2290477697
1010 DOVER ROAD SINGAPORE POLYTECHNIC (SP GRADUATES GUILD CLUB HOUSE) SINGAPORE 139658,1010,SINGAPORE POLYTECHNIC (SP GRADUATES GUILD CLUB HOUSE),1.30964603329964,103.774586761471,103.774586761471,139658,DOVER ROAD,SINGAPORE POLYTECHNIC (SP GRADUATES GUILD CLUB HOUSE),21463.6992637049,32439.5988310333
131 DOVER ROAD SINGAPORE 139659,131,NIL,1.30415613270506,103.779206327383,103.779206327383,139659,DOVER ROAD,131 DOVER ROAD SINGAPORE 139659,21977.800725,31832.5420308411
510 DOVER ROAD DIGIPEN INSTITUTE OF TECHNOLOGY SINGAPORE SINGAPORE 139660,510,DIGIPEN INSTITUTE OF TECHNOLOGY SINGAPORE,1.30797570313315,103.777733041672,103.777733041672,139660,DOVER ROAD,DIGIPEN INSTITUTE OF TECHNOLOGY SINGAPORE,21813.8467755392,32254.8942415845
1 NORTH BUONA VISTA LINK ELEMENTUM SINGAPORE 139691,1,ELEMENTUM,1.30627915004412,103.792697637962,103.792697637962,139691,NORTH BUONA VISTA LINK,ELEMENTUM,23479.2644276489,32067.2661583908
25 DOVER CLOSE EAST ANGLO-CHINESE JUNIOR COLLEGE SINGAPORE 139745,25,ANGLO-CHINESE JUNIOR COLLEGE,1.30328795437358,103.785262975405,103.785262975405,139745,DOVER CLOSE EAST,ANGLO-CHINESE JUNIOR COLLEGE,22651.8486547107,31736.5296255872
30 DOVER AVENUE IMMANUEL CONGREGATION (SINGAPORE) SINGAPORE 139790,30,IMMANUEL CONGREGATION (SINGAPORE),1.30663897387578,103.782412866712,103.782412866712,139790,DOVER AVENUE,IMMANUEL CONGREGATION (SINGAPORE),22334.664914296,32107.0744895041
28 DOVER AVENUE SINGAPORE 139791,28,NIL,1.3063019470699,103.781545028445,103.781545028445,139791,DOVER AVENUE,28 DOVER AVENUE SINGAPORE 139791,22238.081745673,32069.8097586706
1 DEAL ROAD MEDWAY PARK SINGAPORE 139835,1,MEDWAY PARK,1.30677472196733,103.776136859491,103.776136859491,139835,DEAL ROAD,MEDWAY PARK,21636.2034645462,32122.0998495687
2 DEAL ROAD MEDWAY PARK SINGAPORE 139836,2,MEDWAY PARK,1.30631713818915,103.775985241371,103.775985241371,139836,DEAL ROAD,MEDWAY PARK,21619.3286096044,32071.5029496793
3 DEAL ROAD MEDWAY PARK SINGAPORE 139837,3,MEDWAY PARK,1.30618004890571,103.776174315595,103.776174315595,139837,DEAL ROAD,MEDWAY PARK,21640.3704881324,32056.3438353948
4 DEAL ROAD MEDWAY PARK SINGAPORE 139838,4,MEDWAY PARK,1.30648808552668,103.776419589591,103.776419589591,139838,DEAL ROAD,MEDWAY PARK,21667.6680021957,32090.4043369349
5 DEAL ROAD MEDWAY PARK SINGAPORE 139839,5,MEDWAY PARK,1.30634761296495,103.776600699726,103.776600699726,139839,DEAL ROAD,MEDWAY PARK,21687.8235433577,32074.8711406402
6 DEAL ROAD MEDWAY PARK SINGAPORE 139840,6,MEDWAY PARK,1.30590716225006,103.776381422693,103.776381422693,139840,DEAL ROAD,MEDWAY PARK,21663.4189221058,32026.1688954588
7 DEAL ROAD MEDWAY PARK SINGAPORE 139841,7,MEDWAY PARK,1.30589865546811,103.776731259053,103.776731259053,139841,DEAL ROAD,MEDWAY PARK,21702.3524782211,32025.2273795567
8 DEAL ROAD MEDWAY PARK SINGAPORE 139842,8,MEDWAY PARK,1.30629782642232,103.776926359844,103.776926359844,139842,DEAL ROAD,MEDWAY PARK,21724.0663967924,32069.3651825264
9 DEAL ROAD MEDWAY PARK SINGAPORE 139843,9,MEDWAY PARK,1.30630403298147,103.777276238904,103.777276238904,139843,DEAL ROAD,MEDWAY PARK,21763.0047352491,32070.0506010167
10 DEAL ROAD MEDWAY PARK SINGAPORE 139844,10,MEDWAY PARK,1.30588490304249,103.777030188089,103.777030188089,139844,DEAL ROAD,MEDWAY PARK,21735.6205034126,32023.7059593555
11 DEAL ROAD MEDWAY PARK SINGAPORE 139845,11,MEDWAY PARK,1.30590099736896,103.777307079664,103.777307079664,139845,DEAL ROAD,MEDWAY PARK,21766.436034956,32025.4848995637
2 AYER RAJAH CRESCENT SINGAPORE 139935,2,NIL,1.29433954877952,103.789089036107,103.789089036107,139935,AYER RAJAH CRESCENT,2 AYER RAJAH CRESCENT SINGAPORE 139935,23077.6371593764,30747.052953694
2A AYER RAJAH CRESCENT SINGAPORE 139936,2A,NIL,1.29358107151137,103.790708808253,103.790708808253,139936,AYER RAJAH CRESCENT,2A AYER RAJAH CRESCENT SINGAPORE 139936,23257.902313387,30663.1813393887
8 AYER RAJAH CRESCENT SINGAPORE 139939,8,NIL,1.29531498888276,103.787675863975,103.787675863975,139939,AYER RAJAH CRESCENT,8 AYER RAJAH CRESCENT SINGAPORE 139939,22920.365321341,30854.9149113577
10 AYER RAJAH CRESCENT SINGAPORE 139940,10,NIL,1.29569041726748,103.787502523122,103.787502523122,139940,AYER RAJAH CRESCENT,10 AYER RAJAH CRESCENT SINGAPORE 139940,22901.0747483512,30896.4282077253
12 AYER RAJAH CRESCENT GEMALTO BUILDING SINGAPORE 139941,12,GEMALTO BUILDING,1.29607110774778,103.788122554569,103.788122554569,139941,AYER RAJAH CRESCENT,GEMALTO BUILDING,22970.0795765575,30938.5217716079
18 AYER RAJAH CRESCENT SINGAPORE 139942,18,NIL,1.29541337344922,103.789244330544,103.789244330544,139942,AYER RAJAH CRESCENT,18 AYER RAJAH CRESCENT SINGAPORE 139942,23094.922145498,30865.7906821948
26 AYER RAJAH CRESCENT SEAGATE SINGAPORE DESIGN CENTER - THE SHUGART SINGAPORE 139944,26,SEAGATE SINGAPORE DESIGN CENTER - THE SHUGART,1.29553462712562,103.791136473814,103.791136473814,139944,AYER RAJAH CRESCENT,SEAGATE SINGAPORE DESIGN CENTER - THE SHUGART,23305.5013813647,30879.1947074439
36 AYER RAJAH CRESCENT SINGAPORE 139945,36,NIL,1.297135704295,103.788457474851,103.788457474851,139945,AYER RAJAH CRESCENT,36 AYER RAJAH CRESCENT SINGAPORE 139945,23007.355355205,31056.2387426272
37 AYER RAJAH CRESCENT SINGAPORE 139946,37,NIL,1.29691980428811,103.789339805493,103.789339805493,139946,AYER RAJAH CRESCENT,37 AYER RAJAH CRESCENT SINGAPORE 139946,23105.5505663725,31032.3639018945
47 AYER RAJAH CRESCENT SINGAPORE 139947,47,NIL,1.29314294376872,103.788138547178,103.788138547178,139947,AYER RAJAH CRESCENT,47 AYER RAJAH CRESCENT SINGAPORE 139947,22971.8536436195,30614.7403674442
51 AYER RAJAH CRESCENT SINGAPORE 139948,51,NIL,1.29387212848199,103.78801135397,103.78801135397,139948,AYER RAJAH CRESCENT,51 AYER RAJAH CRESCENT SINGAPORE 139948,22957.6995777329,30695.3701293524
55 AYER RAJAH CRESCENT SINGAPORE 139949,55,NIL,1.29438586432012,103.787058032903,103.787058032903,139949,AYER RAJAH CRESCENT,55 AYER RAJAH CRESCENT SINGAPORE 139949,22851.6042412072,30752.1783221811
67 AYER RAJAH CRESCENT JTC LAUNCHPAD @ ONE-NORTH SINGAPORE 139950,67,JTC LAUNCHPAD @ ONE-NORTH,1.29574495205354,103.786598259646,103.786598259646,139950,AYER RAJAH CRESCENT,JTC LAUNCHPAD @ ONE-NORTH,22800.4382426888,30902.4602233954
71 AYER RAJAH CRESCENT JTC LAUNCHPAD @ ONE-NORTH SINGAPORE 139951,71,JTC LAUNCHPAD @ ONE-NORTH,1.29678123825603,103.786756863123,103.786756863123,139951,AYER RAJAH CRESCENT,JTC LAUNCHPAD @ ONE-NORTH,22818.0915296357,31017.0471216813
73 AYER RAJAH CRESCENT JTC LAUNCHPAD @ ONE-NORTH SINGAPORE 139952,73,JTC LAUNCHPAD @ ONE-NORTH,1.29731762569108,103.786838369033,103.786838369033,139952,AYER RAJAH CRESCENT,JTC LAUNCHPAD @ ONE-NORTH,22827.1635102518,31076.3579319399
75 AYER RAJAH CRESCENT JTC LAUNCHPAD @ ONE-NORTH SINGAPORE 139953,75,JTC LAUNCHPAD @ ONE-NORTH,1.29747451217828,103.786237053304,103.786237053304,139953,AYER RAJAH CRESCENT,JTC LAUNCHPAD @ ONE-NORTH,22760.2426932594,31093.706874311
77 AYER RAJAH CRESCENT JTC LAUNCHPAD @ ONE-NORTH SINGAPORE 139954,77,JTC LAUNCHPAD @ ONE-NORTH,1.29814217964867,103.786563330747,103.786563330747,139954,AYER RAJAH CRESCENT,JTC LAUNCHPAD @ ONE-NORTH,22796.5558592211,31167.5334528591
79 AYER RAJAH CRESCENT JTC LAUNCHPAD @ ONE-NORTH SINGAPORE 139955,79,JTC LAUNCHPAD @ ONE-NORTH,1.29795856720987,103.787435440348,103.787435440348,139955,AYER RAJAH CRESCENT,JTC LAUNCHPAD @ ONE-NORTH,22893.6135692922,31147.2287510745
51A AYER RAJAH CRESCENT AYER RAJAH FOOD CENTRE 3 SINGAPORE 139956,51A,AYER RAJAH FOOD CENTRE 3,1.29349975656576,103.788523122911,103.788523122911,139956,AYER RAJAH CRESCENT,AYER RAJAH FOOD CENTRE 3,23014.6542978706,30654.1941393949
73A AYER RAJAH CRESCENT AYER RAJAH FOOD CENTRE 1 SINGAPORE 139957,73A,AYER RAJAH FOOD CENTRE 1,1.29741124785598,103.787526314396,103.787526314396,139957,AYER RAJAH CRESCENT,AYER RAJAH FOOD CENTRE 1,22903.7259513121,31086.7087954041
28 AYER RAJAH CRESCENT SINGAPORE 139959,28,NIL,1.29648809879812,103.790229034383,103.790229034383,139959,AYER RAJAH CRESCENT,28 AYER RAJAH CRESCENT SINGAPORE 139959,23204.5131011959,30984.6264184266
4 AYER RAJAH CRESCENT SINGAPORE 139960,4,NIL,1.29495522873343,103.788293882793,103.788293882793,139960,AYER RAJAH CRESCENT,4 AYER RAJAH CRESCENT SINGAPORE 139960,22989.1447136058,30815.133246338
69 AYER RAJAH CRESCENT AYER RAJAH AMENITY CENTRE SINGAPORE 139961,69,AYER RAJAH AMENITY CENTRE,1.29622467738408,103.786978882649,103.786978882649,139961,AYER RAJAH CRESCENT,AYER RAJAH AMENITY CENTRE,22842.7992242081,30955.5050162002
6 AYER RAJAH CRESCENT SINGAPORE POST AYER RAJAH DELIVERY BASE SINGAPORE 139962,6,SINGAPORE POST AYER RAJAH DELIVERY BASE,1.29516111671144,103.787990904169,103.787990904169,139962,AYER RAJAH CRESCENT,SINGAPORE POST AYER RAJAH DELIVERY BASE,22955.4262402803,30837.8998853825
26A AYER RAJAH CRESCENT SINGAPORE 139963,26A,NIL,1.29593894662169,103.790686930421,103.790686930421,139963,AYER RAJAH CRESCENT,26A AYER RAJAH CRESCENT SINGAPORE 139963,23255.4718850981,30923.90312244
20 AYER RAJAH CRESCENT SINGAPORE 139964,20,NIL,1.29509968153534,103.789762872062,103.789762872062,139964,AYER RAJAH CRESCENT,20 AYER RAJAH CRESCENT SINGAPORE 139964,23152.63068977,30831.103239907
16 AYER RAJAH CRESCENT TEMPCO TECHNOMINIUM SINGAPORE 139965,16,TEMPCO TECHNOMINIUM,1.29565349594601,103.788848134398,103.788848134398,139965,AYER RAJAH CRESCENT,TEMPCO TECHNOMINIUM,23050.8294418259,30892.3429682311
73B AYER RAJAH CRESCENT JTC LAUNCHPAD @ ONE-NORTH SINGAPORE 139966,73B,JTC LAUNCHPAD @ ONE-NORTH,1.29766282324958,103.786770247565,103.786770247565,139966,AYER RAJAH CRESCENT,JTC LAUNCHPAD @ ONE-NORTH,22819.5828937292,31114.5282505769
81 AYER RAJAH CRESCENT JTC LAUNCHPAD @ ONE-NORTH SINGAPORE 139967,81,JTC LAUNCHPAD @ ONE-NORTH,1.2983658686357,103.785946231619,103.785946231619,139967,AYER RAJAH CRESCENT,JTC LAUNCHPAD @ ONE-NORTH,22727.8786516702,31192.2691150494
