ADDRESS,BLK_NO,BUILDING,LATITUDE,LONGITUDE,LONGTITUDE,POSTAL,ROAD_NAME,SEARCHVAL,X,Y
101 BEDOK RESERVOIR ROAD EUNOS VISTA SINGAPORE 470101,101,EUNOS VISTA,1.32844913301985,103.909937396599,103.909937396599,470101,BEDOK RESERVOIR ROAD,EUNOS VISTA,36526.8931885185,34518.8045495022
102 BEDOK RESERVOIR ROAD EUNOS VISTA SINGAPORE 470102,102,EUNOS VISTA,1.32849187727623,103.90926515578,103.90926515578,470102,BEDOK RESERVOIR ROAD,EUNOS VISTA,36452.0794499489,34523.5286855958
103 BEDOK RESERVOIR ROAD EUNOS VISTA SINGAPORE 470103,103,EUNOS VISTA,1.32877022232019,103.909381354431,103.909381354431,470103,BEDOK RESERVOIR ROAD,EUNOS VISTA,36465.0102352723,34554.3070783224
104 BEDOK RESERVOIR ROAD EUNOS VISTA SINGAPORE 470104,104,EUNOS VISTA,1.32924536652386,103.909923721507,103.909923721507,470104,BEDOK RESERVOIR ROAD,EUNOS VISTA,36525.3685599109,34606.848000003
105 BEDOK RESERVOIR ROAD EUNOS VISTA SINGAPORE 470105,105,EUNOS VISTA,1.32914437941094,103.909112780576,103.909112780576,470105,BEDOK RESERVOIR ROAD,EUNOS VISTA,36435.1194209009,34595.6785691865
106 BEDOK RESERVOIR ROAD EUNOS VISTA SINGAPORE 470106,106,EUNOS VISTA,1.32950152189669,103.909381688756,103.909381688756,470106,BEDOK RESERVOIR ROAD,EUNOS VISTA,36465.0449526496,34635.1705090664
107 BEDOK RESERVOIR ROAD EUNOS VISTA SINGAPORE 470107,107,EUNOS VISTA,1.32987028916159,103.909220387915,103.909220387915,470107,BEDOK RESERVOIR ROAD,EUNOS VISTA,36447.092557488,34675.9463865459
108 BEDOK RESERVOIR ROAD CARPE DIEM KINDERCARE PTE. LTD. SINGAPORE 470108,108,CARPE DIEM KINDERCARE PTE. LTD.,1.33023193004172,103.909386972458,103.909386972458,470108,BEDOK RESERVOIR ROAD,CARPE DIEM KINDERCARE PTE. LTD.,36465.6304867947,34715.9353872538
109 BEDOK RESERVOIR ROAD EUNOS VISTA SINGAPORE 470109,109,EUNOS VISTA,1.32963136613535,103.909902161479,103.909902161479,470109,BEDOK RESERVOIR ROAD,EUNOS VISTA,36522.967824514,34649.5298221502
110 BEDOK RESERVOIR ROAD EUNOS VISTA SINGAPORE 470110,110,EUNOS VISTA,1.33014480390561,103.910318002341,103.910318002341,470110,BEDOK RESERVOIR ROAD,EUNOS VISTA,36569.2449080357,34706.3046293911
111 BEDOK RESERVOIR ROAD EUNOS VISTA SINGAPORE 470111,111,EUNOS VISTA,1.32980763743003,103.910093553419,103.910093553419,470111,BEDOK RESERVOIR ROAD,EUNOS VISTA,36544.26719278,34669.0216772314
112 BEDOK RESERVOIR ROAD EUNOS VISTA SINGAPORE 470112,112,EUNOS VISTA,1.32969408806205,103.910490219171,103.910490219171,470112,BEDOK RESERVOIR ROAD,EUNOS VISTA,36588.4124416728,34656.4673348218
113 BEDOK RESERVOIR ROAD EUNOS VISTA SINGAPORE 470113,113,EUNOS VISTA,1.3299667100249,103.910782526741,103.910782526741,470113,BEDOK RESERVOIR ROAD,EUNOS VISTA,36620.9423518125,34686.6135201715
114 BEDOK RESERVOIR ROAD EUNOS VISTA SINGAPORE 470114,114,EUNOS VISTA,1.33056065989658,103.909838947885,103.909838947885,470114,BEDOK RESERVOIR ROAD,EUNOS VISTA,36515.9296102608,34752.2862368561
115 BEDOK RESERVOIR ROAD EUNOS VISTA SINGAPORE 470115,115,EUNOS VISTA,1.33067394377665,103.908738351193,103.908738351193,470115,BEDOK RESERVOIR ROAD,EUNOS VISTA,36393.4440697478,34764.8088281509
116 BEDOK RESERVOIR ROAD EUNOS VISTA SINGAPORE 470116,116,EUNOS VISTA,1.33103784588692,103.908641634756,103.908641634756,470116,BEDOK RESERVOIR ROAD,EUNOS VISTA,36382.6792916069,34805.0469646323
117 BEDOK RESERVOIR ROAD EUNOS VISTA SINGAPORE 470117,117,EUNOS VISTA,1.3314132488271,103.908688936549,103.908688936549,470117,BEDOK RESERVOIR ROAD,EUNOS VISTA,36387.9422280798,34846.5572947375
118 BEDOK RESERVOIR ROAD EUNOS VISTA SINGAPORE 470118,118,EUNOS VISTA,1.33110238852805,103.90914661438,103.90914661438,470118,BEDOK RESERVOIR ROAD,EUNOS VISTA,36438.8781293863,34812.1854869854
119 BEDOK RESERVOIR ROAD EUNOS VISTA SINGAPORE 470119,119,EUNOS VISTA,1.33106966840838,103.909465489436,103.909465489436,470119,BEDOK RESERVOIR ROAD,EUNOS VISTA,36474.3657663595,34808.5685537346
120 BEDOK RESERVOIR ROAD EUNOS VISTA SINGAPORE 470120,120,EUNOS VISTA,1.33089247225844,103.909920867054,103.909920867054,470120,BEDOK RESERVOIR ROAD,EUNOS VISTA,36525.0452373084,34788.9766629655
121 BEDOK RESERVOIR ROAD EUNOS VISTA SINGAPORE 470121,121,EUNOS VISTA,1.33130517787872,103.909992224709,103.909992224709,470121,BEDOK RESERVOIR ROAD,EUNOS VISTA,36532.9851953331,34834.6118230876
122 BEDOK RESERVOIR ROAD EUNOS SPRING SINGAPORE 470122,122,EUNOS SPRING,1.33197886752323,103.910623668728,103.910623668728,470122,BEDOK RESERVOIR ROAD,EUNOS SPRING,36603.2561030313,34909.1072332729
123 BEDOK RESERVOIR ROAD EUNOS SPRING SINGAPORE 470123,123,EUNOS SPRING,1.33231954024354,103.910394882793,103.910394882793,470123,BEDOK RESERVOIR ROAD,EUNOS SPRING,36577.7934038732,34946.7763141021
124 BEDOK RESERVOIR ROAD DBS BEDOK RESERVOIR ROAD SINGAPORE 470124,124,DBS BEDOK RESERVOIR ROAD,1.33262542305518,103.910160875163,103.910160875163,470124,BEDOK RESERVOIR ROAD,DBS BEDOK RESERVOIR ROAD,36551.7497107675,34980.5984855387
125 BEDOK RESERVOIR ROAD EUNOS SPRING SINGAPORE 470125,125,EUNOS SPRING,1.33295993404917,103.909904762523,103.909904762523,470125,BEDOK RESERVOIR ROAD,EUNOS SPRING,36523.245866213,35017.5861432496
126 BEDOK RESERVOIR ROAD EUNOS SPRING SINGAPORE 470126,126,EUNOS SPRING,1.3327387082677,103.910911917656,103.910911917656,470126,BEDOK RESERVOIR ROAD,EUNOS SPRING,36635.3325987756,34993.1276147179
127 BEDOK RESERVOIR ROAD EUNOS SPRING SINGAPORE 470127,127,EUNOS SPRING,1.33284642861815,103.91117129085,103.91117129085,470127,BEDOK RESERVOIR ROAD,EUNOS SPRING,36664.1977825193,35005.0397007819
128 BEDOK RESERVOIR ROAD EUNOS SPRING SINGAPORE 470128,128,EUNOS SPRING,1.33334609718403,103.911344064946,103.911344064946,470128,BEDOK RESERVOIR ROAD,EUNOS SPRING,36683.4240057766,35060.2911506724
129 BEDOK RESERVOIR ROAD EUNOS SPRING SINGAPORE 470129,129,EUNOS SPRING,1.33401866685175,103.912238854136,103.912238854136,470129,BEDOK RESERVOIR ROAD,EUNOS SPRING,36783.0024032639,35134.6637031119
130 BEDOK RESERVOIR ROAD EUNOS SPRING SINGAPORE 470130,130,EUNOS SPRING,1.33343622625478,103.912338037315,103.912338037315,470130,BEDOK RESERVOIR ROAD,EUNOS SPRING,36794.0425292533,35070.2606980763
131 BEDOK RESERVOIR ROAD EUNOS SPRING SINGAPORE 470131,131,EUNOS SPRING,1.3331220560709,103.911711197755,103.911711197755,470131,BEDOK RESERVOIR ROAD,EUNOS SPRING,36724.2828780683,35035.5191063657
132 BEDOK RESERVOIR ROAD EUNOS SPRING SINGAPORE 470132,132,EUNOS SPRING,1.3327954519622,103.911813210599,103.911813210599,470132,BEDOK RESERVOIR ROAD,EUNOS SPRING,36735.6370041203,34999.4052248094
133 BEDOK RESERVOIR ROAD EUNOS SPRING SINGAPORE 470133,133,EUNOS SPRING,1.33235744118922,103.911767964622,103.911767964622,470133,BEDOK RESERVOIR ROAD,EUNOS SPRING,36730.6031357488,34950.9720317367
134 BEDOK RESERVOIR ROAD EUNOS SPRING SINGAPORE 470134,134,EUNOS SPRING,1.33287858460019,103.912838489269,103.912838489269,470134,BEDOK RESERVOIR ROAD,EUNOS SPRING,36849.7396449354,35008.6012738906
135 BEDOK RESERVOIR ROAD EUNOS SPRING SINGAPORE 470135,135,EUNOS SPRING,1.33314106418951,103.912523538101,103.912523538101,470135,BEDOK RESERVOIR ROAD,EUNOS SPRING,36814.6878971951,35037.6238208823
136 BEDOK RESERVOIR ROAD ALJUNIED-HOUGANG TOWN COUNCIL (BEDOK RESERVOIR OFFICE) SINGAPORE 470136,136,ALJUNIED-HOUGANG TOWN COUNCIL (BEDOK RESERVOIR OFFICE),1.33353806122657,103.913536944229,103.913536944229,470136,BEDOK RESERVOIR ROAD,ALJUNIED-HOUGANG TOWN COUNCIL (BEDOK RESERVOIR OFFICE),36927.4680995326,35081.5254125055
137 BEDOK RESERVOIR ROAD EUNOS SPRING SINGAPORE 470137,137,EUNOS SPRING,1.33390202913472,103.913274271807,103.913274271807,470137,BEDOK RESERVOIR ROAD,EUNOS SPRING,36898.234070139,35121.7702079434
138 BEDOK RESERVOIR ROAD EUNOS SPRING SINGAPORE 470138,138,EUNOS SPRING,1.33430111079045,103.91316583986,103.91316583986,470138,BEDOK RESERVOIR ROAD,EUNOS SPRING,36886.1652867235,35165.8982646205
139 BEDOK RESERVOIR ROAD EUNOS SPRING SINGAPORE 470139,139,EUNOS SPRING,1.33462453350019,103.913777679684,103.913777679684,470139,BEDOK RESERVOIR ROAD,EUNOS SPRING,36954.2555375341,35201.6629444491
140 BEDOK RESERVOIR ROAD EUNOS SPRING SINGAPORE 470140,140,EUNOS SPRING,1.33488991400405,103.913386186589,103.913386186589,470140,BEDOK RESERVOIR ROAD,EUNOS SPRING,36910.6854711371,35231.005968852
141 BEDOK RESERVOIR ROAD EUNOS SPRING SINGAPORE 470141,141,EUNOS SPRING,1.33530647237824,103.913462151262,103.913462151262,470141,BEDOK RESERVOIR ROAD,EUNOS SPRING,36919.1380477343,35277.0671811122
142 BEDOK RESERVOIR ROAD EUNOS SPRING SINGAPORE 470142,142,EUNOS SPRING,1.33563649761465,103.913269358016,103.913269358016,470142,BEDOK RESERVOIR ROAD,EUNOS SPRING,36897.6809832724,35313.5590189826
143 BEDOK RESERVOIR ROAD EUNOS SPRING SINGAPORE 470143,143,EUNOS SPRING,1.33498400074179,103.912760136664,103.912760136664,470143,BEDOK RESERVOIR ROAD,EUNOS SPRING,36841.0122955814,35241.4073495809
144 BEDOK RESERVOIR ROAD EUNOS SPRING SINGAPORE 470144,144,EUNOS SPRING,1.33486976872987,103.912526824975,103.912526824975,470144,BEDOK RESERVOIR ROAD,EUNOS SPRING,36815.0475413771,35228.7753092553
145 BEDOK RESERVOIR ROAD EUNOS SPRING SINGAPORE 470145,145,EUNOS SPRING,1.33429019245209,103.912135405976,103.912135405976,470145,BEDOK RESERVOIR ROAD,EUNOS SPRING,36771.48873467,35164.6872728597
146 BEDOK RESERVOIR ROAD EUNOS SPRING SINGAPORE 470146,146,EUNOS SPRING,1.33459969119921,103.912010752027,103.912010752027,470146,BEDOK RESERVOIR ROAD,EUNOS SPRING,36757.6149503132,35198.9096475784
147 BEDOK RESERVOIR ROAD EUNOS SPRING SINGAPORE 470147,147,EUNOS SPRING,1.33488194247883,103.911778859623,103.911778859623,470147,BEDOK RESERVOIR ROAD,EUNOS SPRING,36731.8067421215,35230.1187537126
148 BEDOK RESERVOIR ROAD EUNOS SPRING SINGAPORE 470148,148,EUNOS SPRING,1.33534088461813,103.91190498709,103.91190498709,470148,BEDOK RESERVOIR ROAD,EUNOS SPRING,36745.8417942952,35280.8667211086
149 BEDOK RESERVOIR ROAD EUNOS SPRING SINGAPORE 470149,149,EUNOS SPRING,1.33576929801793,103.912779600202,103.912779600202,470149,BEDOK RESERVOIR ROAD,EUNOS SPRING,36843.1755786464,35328.241654668
150 BEDOK RESERVOIR ROAD EUNOS SPRING SINGAPORE 470150,150,EUNOS SPRING,1.33615375353551,103.912672307759,103.912672307759,470150,BEDOK RESERVOIR ROAD,EUNOS SPRING,36831.2336786184,35370.7524324395
151 BEDOK RESERVOIR ROAD EUNOS SPRING SINGAPORE 470151,151,EUNOS SPRING,1.33557619454702,103.911545779692,103.911545779692,470151,BEDOK RESERVOIR ROAD,EUNOS SPRING,36705.8649310488,35306.884837769
601 BEDOK RESERVOIR ROAD EUNOS RAINBOW SINGAPORE 470601,601,EUNOS RAINBOW,1.33006721315152,103.911619264196,103.911619264196,470601,BEDOK RESERVOIR ROAD,EUNOS RAINBOW,36714.0623485427,34697.7295885328
602 BEDOK RESERVOIR ROAD EUNOS RAINBOW SINGAPORE 470602,602,EUNOS RAINBOW,1.32934898685946,103.911583237057,103.911583237057,470602,BEDOK RESERVOIR ROAD,EUNOS RAINBOW,36710.0554123223,34618.311605351
603 BEDOK RESERVOIR ROAD EUNOS RAINBOW SINGAPORE 470603,603,EUNOS RAINBOW,1.33000183975836,103.912464022386,103.912464022386,470603,BEDOK RESERVOIR ROAD,EUNOS RAINBOW,36808.0755534722,34690.5039246548
604 BEDOK RESERVOIR ROAD EUNOS RAINBOW SINGAPORE 470604,604,EUNOS RAINBOW,1.33079235635694,103.913183390283,103.913183390283,470604,BEDOK RESERVOIR ROAD,EUNOS RAINBOW,36888.1310409261,34777.9178616311
605 BEDOK RESERVOIR ROAD EUNOS RAINBOW SINGAPORE 470605,605,EUNOS RAINBOW,1.33023693207314,103.913508109392,103.913508109392,470605,BEDOK RESERVOIR ROAD,EUNOS RAINBOW,36924.2709529484,34716.5030027535
606 BEDOK RESERVOIR ROAD EUNOS RAINBOW SINGAPORE 470606,606,EUNOS RAINBOW,1.33122227931301,103.913799873642,103.913799873642,470606,BEDOK RESERVOIR ROAD,EUNOS RAINBOW,36956.7377846111,34825.458815081
607 BEDOK RESERVOIR ROAD EUNOS RAINBOW SINGAPORE 470607,607,EUNOS RAINBOW,1.33108483907724,103.912899551537,103.912899551537,470607,BEDOK RESERVOIR ROAD,EUNOS RAINBOW,36856.541647844,34810.2581125852
608 BEDOK RESERVOIR ROAD EUNOS RAINBOW SINGAPORE 470608,608,EUNOS RAINBOW,1.33184129947186,103.913196235939,103.913196235939,470608,BEDOK RESERVOIR ROAD,EUNOS RAINBOW,36889.5568748349,34893.9047752358
609 BEDOK RESERVOIR ROAD EUNOS RAINBOW SINGAPORE 470609,609,EUNOS RAINBOW,1.33183921459218,103.912364855077,103.912364855077,470609,BEDOK RESERVOIR ROAD,EUNOS RAINBOW,36797.0327336323,34893.6712577417
610 BEDOK RESERVOIR ROAD EUNOS RAINBOW SINGAPORE 470610,610,EUNOS RAINBOW,1.33084879115082,103.912214924772,103.912214924772,470610,BEDOK RESERVOIR ROAD,EUNOS RAINBOW,36780.3505344065,34784.1546704806
611 BEDOK RESERVOIR ROAD EUNOS GROVE SINGAPORE 470611,611,EUNOS GROVE,1.33101555033747,103.915165583026,103.915165583026,470611,BEDOK RESERVOIR ROAD,EUNOS GROVE,37108.7280108277,34802.6047620978
612 BEDOK RESERVOIR ROAD EUNOS GROVE SINGAPORE 470612,612,EUNOS GROVE,1.3316586704976,103.915937361546,103.915937361546,470612,BEDOK RESERVOIR ROAD,EUNOS GROVE,37194.6166835679,34873.7206308302
613 BEDOK RESERVOIR ROAD EUNOS GROVE SINGAPORE 470613,613,EUNOS GROVE,1.33189327383579,103.917026960083,103.917026960083,470613,BEDOK RESERVOIR ROAD,EUNOS GROVE,37315.8769458318,34899.665983256
614 BEDOK RESERVOIR ROAD EUNOS GROVE SINGAPORE 470614,614,EUNOS GROVE,1.332409040218,103.916788909074,103.916788909074,470614,BEDOK RESERVOIR ROAD,EUNOS GROVE,37289.3823808404,34956.695949601
615 BEDOK RESERVOIR ROAD EUNOS GROVE SINGAPORE 470615,615,EUNOS GROVE,1.33224981185032,103.915868711978,103.915868711978,470615,BEDOK RESERVOIR ROAD,EUNOS GROVE,37186.9745019665,34939.0858247988
616 BEDOK RESERVOIR ROAD DBS BEDOK RESERVOIR ROAD SINGAPORE 470616,616,DBS BEDOK RESERVOIR ROAD,1.33182713238417,103.914991045591,103.914991045591,470616,BEDOK RESERVOIR ROAD,DBS BEDOK RESERVOIR ROAD,37089.3008081587,34892.3447936233
617 BEDOK RESERVOIR ROAD EUNOS GROVE SINGAPORE 470617,617,EUNOS GROVE,1.33312757781896,103.91651174393,103.91651174393,470617,BEDOK RESERVOIR ROAD,EUNOS GROVE,37258.5340690715,35036.1471972968
618 BEDOK RESERVOIR ROAD EUNOS GROVE SINGAPORE 470618,618,EUNOS GROVE,1.33302040888706,103.917037781105,103.917037781105,470618,BEDOK RESERVOIR ROAD,EUNOS GROVE,37317.0769805824,35024.2989766784
619 BEDOK RESERVOIR ROAD EUNOS HEIGHTS SINGAPORE 470619,619,EUNOS HEIGHTS,1.33345012881091,103.917708768303,103.917708768303,470619,BEDOK RESERVOIR ROAD,EUNOS HEIGHTS,37391.7493071323,35071.8178042304
620 BEDOK RESERVOIR ROAD EUNOS HEIGHTS SINGAPORE 470620,620,EUNOS HEIGHTS,1.33433432226397,103.917712559288,103.917712559288,470620,BEDOK RESERVOIR ROAD,EUNOS HEIGHTS,37392.1678528106,35169.5875080843
621 BEDOK RESERVOIR ROAD EUNOS HEIGHTS SINGAPORE 470621,621,EUNOS HEIGHTS,1.334527450026,103.916865046091,103.916865046091,470621,BEDOK RESERVOIR ROAD,EUNOS HEIGHTS,37297.8477002587,35190.9393913019
622 BEDOK RESERVOIR ROAD EUNOS HEIGHTS SINGAPORE 470622,622,EUNOS HEIGHTS,1.3340607503551,103.916898741089,103.916898741089,470622,BEDOK RESERVOIR ROAD,EUNOS HEIGHTS,37301.5993563039,35139.3342043385
623 BEDOK RESERVOIR ROAD EUNOS HEIGHTS SINGAPORE 470623,623,EUNOS HEIGHTS,1.33365754294799,103.916804692739,103.916804692739,470623,BEDOK RESERVOIR ROAD,EUNOS HEIGHTS,37291.1342614703,35094.7491919119
624 BEDOK RESERVOIR ROAD EUNOS HEIGHTS SINGAPORE 470624,624,EUNOS HEIGHTS,1.33430060482328,103.916398118478,103.916398118478,470624,BEDOK RESERVOIR ROAD,EUNOS HEIGHTS,37245.8843522444,35165.8542247042
625 BEDOK RESERVOIR ROAD EUNOS HEIGHTS SINGAPORE 470625,625,EUNOS HEIGHTS,1.33395544899311,103.916133688599,103.916133688599,470625,BEDOK RESERVOIR ROAD,EUNOS HEIGHTS,37216.4573341869,35127.6876290273
626 BEDOK RESERVOIR ROAD EUNOS HEIGHTS SINGAPORE 470626,626,EUNOS HEIGHTS,1.33436836445678,103.915682191976,103.915682191976,470626,BEDOK RESERVOIR ROAD,EUNOS HEIGHTS,37166.2089095935,35173.3440675437
627 BEDOK RESERVOIR ROAD EUNOS HEIGHTS SINGAPORE 470627,627,EUNOS HEIGHTS,1.33396186689746,103.915599319144,103.915599319144,470627,BEDOK RESERVOIR ROAD,EUNOS HEIGHTS,37156.98752621,35128.3952944875
628 BEDOK RESERVOIR ROAD EUNOS HEIGHTS SINGAPORE 470628,628,EUNOS HEIGHTS,1.33489723692503,103.915006751045,103.915006751045,470628,BEDOK RESERVOIR ROAD,EUNOS HEIGHTS,37091.0374034559,35231.821630476
629 BEDOK RESERVOIR ROAD EUNOS HEIGHTS SINGAPORE 470629,629,EUNOS HEIGHTS,1.33439908281466,103.914501162624,103.914501162624,470629,BEDOK RESERVOIR ROAD,EUNOS HEIGHTS,37034.7724906681,35176.7363820858
630 BEDOK RESERVOIR ROAD PASAR MAKAN @ RESERVOIR SINGAPORE 470630,630,PASAR MAKAN @ RESERVOIR,1.33315929924682,103.914053976702,103.914053976702,470630,BEDOK RESERVOIR ROAD,PASAR MAKAN @ RESERVOIR,36985.0098369457,35039.6456919257
631 BEDOK RESERVOIR ROAD EUNOS GROVE SINGAPORE 470631,631,EUNOS GROVE,1.33295923556348,103.914941831232,103.914941831232,470631,BEDOK RESERVOIR ROAD,EUNOS GROVE,37083.8196092555,35017.5269088056
632 BEDOK RESERVOIR ROAD EUNOS GROVE SINGAPORE 470632,632,EUNOS GROVE,1.33205094618817,103.914145075793,103.914145075793,470632,BEDOK RESERVOIR ROAD,EUNOS GROVE,36995.1522448063,34917.0898994226
701 BEDOK RESERVOIR ROAD RESERVOIR RISE SINGAPORE 470701,701,RESERVOIR RISE,1.33764156135414,103.918906218067,103.918906218067,470701,BEDOK RESERVOIR ROAD,RESERVOIR RISE,37524.9969622027,35535.2900696974
702 BEDOK RESERVOIR ROAD RESERVOIR RISE SINGAPORE 470702,702,RESERVOIR RISE,1.33723650407652,103.918924437798,103.918924437798,470702,BEDOK RESERVOIR ROAD,RESERVOIR RISE,37527.026188367,35490.5009299871
703 BEDOK RESERVOIR ROAD RESERVOIR RISE SINGAPORE 470703,703,RESERVOIR RISE,1.33716507441516,103.919893055357,103.919893055357,470703,BEDOK RESERVOIR ROAD,RESERVOIR RISE,37634.8234330816,35482.6063739378
704 BEDOK RESERVOIR ROAD RESERVOIR RISE SINGAPORE 470704,704,RESERVOIR RISE,1.33635490577951,103.920203566512,103.920203566512,470704,BEDOK RESERVOIR ROAD,RESERVOIR RISE,37669.3832352823,35393.0231911056
705 BEDOK NORTH ROAD RESERVOIR RISE SINGAPORE 470705,705,RESERVOIR RISE,1.33663681806047,103.918995255673,103.918995255673,470705,BEDOK NORTH ROAD,RESERVOIR RISE,37534.9097874062,35424.190920908
706 BEDOK NORTH ROAD RESERVOIR RISE SINGAPORE 470706,706,RESERVOIR RISE,1.33620691149152,103.919016802147,103.919016802147,470706,BEDOK NORTH ROAD,RESERVOIR RISE,37537.3093423517,35376.6540839039
707 BEDOK NORTH ROAD RESERVOIR RISE SINGAPORE 470707,707,RESERVOIR RISE,1.33546649823112,103.919288377804,103.919288377804,470707,BEDOK NORTH ROAD,RESERVOIR RISE,37567.5357378591,35294.7839400228
708 BEDOK NORTH ROAD RESERVOIR RISE SINGAPORE 470708,708,RESERVOIR RISE,1.33503645745879,103.919311961318,103.919311961318,470708,BEDOK NORTH ROAD,RESERVOIR RISE,37570.1620000023,35247.2322717067
709 BEDOK RESERVOIR ROAD BEDOK RESERVOIR GARDEN SINGAPORE 470709,709,BEDOK RESERVOIR GARDEN,1.33541606639526,103.922350069667,103.922350069667,470709,BEDOK RESERVOIR ROAD,BEDOK RESERVOIR GARDEN,37908.2703607762,35289.2195646986
710 BEDOK RESERVOIR ROAD BEDOK RESERVOIR GARDEN SINGAPORE 470710,710,BEDOK RESERVOIR GARDEN,1.3355737307958,103.923820023145,103.923820023145,470710,BEDOK RESERVOIR ROAD,BEDOK RESERVOIR GARDEN,38071.8602469293,35306.6592807546
711 BEDOK RESERVOIR ROAD BEDOK RESERVOIR GARDEN SINGAPORE 470711,711,BEDOK RESERVOIR GARDEN,1.3359734160825,103.923690295889,103.923690295889,470711,BEDOK RESERVOIR ROAD,BEDOK RESERVOIR GARDEN,38057.4213290485,35350.8539572638
712 BEDOK RESERVOIR ROAD BEDOK RESERVOIR GARDEN SINGAPORE 470712,712,BEDOK RESERVOIR GARDEN,1.33590729186163,103.922634043137,103.922634043137,470712,BEDOK RESERVOIR ROAD,BEDOK RESERVOIR GARDEN,37939.8716794448,35343.5379737224
713 BEDOK RESERVOIR ROAD BEDOK RESERVOIR GARDEN SINGAPORE 470713,713,BEDOK RESERVOIR GARDEN,1.33631180600308,103.922392167199,103.922392167199,470713,BEDOK RESERVOIR ROAD,BEDOK RESERVOIR GARDEN,37912.9517887458,35388.2661537137
714 BEDOK RESERVOIR ROAD BEDOK RESERVOIR GARDEN SINGAPORE 470714,714,BEDOK RESERVOIR GARDEN,1.33703060322387,103.923284613437,103.923284613437,470714,BEDOK RESERVOIR ROAD,BEDOK RESERVOIR GARDEN,38012.2688221941,35467.7507869937
715 BEDOK RESERVOIR ROAD BEDOK RESERVOIR GARDEN SINGAPORE 470715,715,BEDOK RESERVOIR GARDEN,1.33742965753386,103.923154915111,103.923154915111,470715,BEDOK RESERVOIR ROAD,BEDOK RESERVOIR GARDEN,37997.8331429884,35511.8756958004
716 BEDOK RESERVOIR ROAD BEDOK RESERVOIR GARDEN SINGAPORE 470716,716,BEDOK RESERVOIR GARDEN,1.33783795176833,103.924973671246,103.924973671246,470716,BEDOK RESERVOIR ROAD,BEDOK RESERVOIR GARDEN,38200.2399324467,35557.0303214137
717 BEDOK RESERVOIR ROAD BEDOK RESERVOIR GARDEN SINGAPORE 470717,717,BEDOK RESERVOIR GARDEN,1.33755208890136,103.925449316134,103.925449316134,470717,BEDOK RESERVOIR ROAD,BEDOK RESERVOIR GARDEN,38253.1753972946,35525.4230096862
718 BEDOK RESERVOIR ROAD BEDOK RESERVOIR GARDEN SINGAPORE 470718,718,BEDOK RESERVOIR GARDEN,1.3366305993765,103.92574851611,103.92574851611,470718,BEDOK RESERVOIR ROAD,BEDOK RESERVOIR GARDEN,38286.4770502159,35423.5305340383
719 BEDOK RESERVOIR ROAD BEDOK RESERVOIR GARDEN SINGAPORE 470719,719,BEDOK RESERVOIR GARDEN,1.33641984694912,103.92483267275,103.92483267275,470719,BEDOK RESERVOIR ROAD,BEDOK RESERVOIR GARDEN,38184.5541249774,35400.2227639817
720 BEDOK RESERVOIR ROAD BEDOK RESERVOIR GARDEN SINGAPORE 470720,720,BEDOK RESERVOIR GARDEN,1.33597277354753,103.924883020541,103.924883020541,470720,BEDOK RESERVOIR ROAD,BEDOK RESERVOIR GARDEN,38190.1591502018,35350.7878217194
721 BEDOK RESERVOIR ROAD BEDOK RESERVOIR GARDEN SINGAPORE 470721,721,BEDOK RESERVOIR GARDEN,1.33629244771801,103.926101654356,103.926101654356,470721,BEDOK RESERVOIR ROAD,BEDOK RESERVOIR GARDEN,38325.7790584974,35386.1408872362
722 BEDOK RESERVOIR ROAD RESERVOIR VIEW SINGAPORE 470722,722,RESERVOIR VIEW,1.33663699329345,103.928207774481,103.928207774481,470722,BEDOK RESERVOIR ROAD,RESERVOIR VIEW,38560.1667876756,35424.2479760572
723 BEDOK RESERVOIR ROAD RESERVOIR VIEW SINGAPORE 470723,723,RESERVOIR VIEW,1.33695439373089,103.928960561768,103.928960561768,470723,BEDOK RESERVOIR ROAD,RESERVOIR VIEW,38643.9427854205,35459.3477893546
724 BEDOK RESERVOIR ROAD RESERVOIR VIEW SINGAPORE 470724,724,RESERVOIR VIEW,1.33714403979137,103.928433830286,103.928433830286,470724,BEDOK RESERVOIR ROAD,RESERVOIR VIEW,38585.3222667994,35480.3156323954
725 BEDOK RESERVOIR ROAD RESERVOIR VIEW SINGAPORE 470725,725,RESERVOIR VIEW,1.33764586553964,103.928990816937,103.928990816937,470725,BEDOK RESERVOIR ROAD,RESERVOIR VIEW,38647.3068902027,35535.8074403424
739 BEDOK RESERVOIR ROAD RESERVOIR VILLAGE SINGAPORE 470739,739,RESERVOIR VILLAGE,1.33788663735454,103.922648407766,103.922648407766,470739,BEDOK RESERVOIR ROAD,RESERVOIR VILLAGE,37941.4623527927,35562.4041900467
740 BEDOK RESERVOIR ROAD RESERVOIR VILLAGE SINGAPORE 470740,740,RESERVOIR VILLAGE,1.3380258563727,103.922835001967,103.922835001967,470740,BEDOK RESERVOIR ROAD,RESERVOIR VILLAGE,37962.2277635578,35577.7990919258
741 BEDOK RESERVOIR ROAD RESERVOIR VILLAGE SINGAPORE 470741,741,RESERVOIR VILLAGE,1.33773088769346,103.922272109998,103.922272109998,470741,BEDOK RESERVOIR ROAD,RESERVOIR VILLAGE,37899.5849931166,35545.180647932
742 BEDOK RESERVOIR ROAD KIDSKINGDOM @ BEDOK RESERVOIR LLP SINGAPORE 470742,742,KIDSKINGDOM @ BEDOK RESERVOIR LLP,1.33808524960901,103.922090734567,103.922090734567,470742,BEDOK RESERVOIR ROAD,KIDSKINGDOM @ BEDOK RESERVOIR LLP,37879.3983970042,35584.3634911627
743 BEDOK RESERVOIR ROAD CHERIE HEARTS HOLDINGS PTE. LTD. SINGAPORE 470743,743,CHERIE HEARTS HOLDINGS PTE. LTD.,1.33849476902923,103.921762627394,103.921762627394,470743,BEDOK RESERVOIR ROAD,CHERIE HEARTS HOLDINGS PTE. LTD.,37842.8818907281,35629.6447882876
744 BEDOK RESERVOIR ROAD RESERVOIR VILLAGE SINGAPORE 470744,744,RESERVOIR VILLAGE,1.33786042639305,103.921663304068,103.921663304068,470744,BEDOK RESERVOIR ROAD,RESERVOIR VILLAGE,37831.8307774616,35559.5019444283
745 BEDOK RESERVOIR ROAD DBS NTUC BEDOK RESERVOIR ROAD SINGAPORE 470745,745,DBS NTUC BEDOK RESERVOIR ROAD,1.33741910491466,103.921782969068,103.921782969068,470745,BEDOK RESERVOIR ROAD,DBS NTUC BEDOK RESERVOIR ROAD,37845.1499918206,35510.7032957207
746 BEDOK RESERVOIR ROAD RESERVOIR VILLAGE SINGAPORE 470746,746,RESERVOIR VILLAGE,1.33728644805587,103.92121574376,103.92121574376,470746,BEDOK RESERVOIR ROAD,RESERVOIR VILLAGE,37782.0242956989,35496.0324948169
747 BEDOK RESERVOIR CRESCENT BELVIA SINGAPORE 470747,747,BELVIA,1.33654252433262,103.922134311843,103.922134311843,470747,BEDOK RESERVOIR CRESCENT,BELVIA,37884.2542593637,35413.7767973579
748 BEDOK RESERVOIR CRESCENT BELVIA SINGAPORE 470748,748,BELVIA,1.33610258444527,103.921882717493,103.921882717493,470748,BEDOK RESERVOIR CRESCENT,BELVIA,37856.2561928174,35365.1294280309
760 BEDOK RESERVOIR VIEW SINGAPORE 470760,760,NIL,1.33646451527196,103.935215785516,103.935215785516,470760,BEDOK RESERVOIR VIEW,760 BEDOK RESERVOIR VIEW SINGAPORE 470760,39340.0861011008,35405.2074468788
761 BEDOK RESERVOIR VIEW LONGVALE SINGAPORE 470761,761,LONGVALE,1.33618197264669,103.934043176152,103.934043176152,470761,BEDOK RESERVOIR VIEW,LONGVALE,39209.5881712781,35373.9599004053
762 BEDOK RESERVOIR VIEW LONGVALE SINGAPORE 470762,762,LONGVALE,1.33621988981785,103.934327587356,103.934327587356,470762,BEDOK RESERVOIR VIEW,LONGVALE,39241.2400072115,35378.1538927648
763 BEDOK RESERVOIR VIEW LONGVALE SINGAPORE 470763,763,LONGVALE,1.33607209475067,103.934830606324,103.934830606324,470763,BEDOK RESERVOIR VIEW,LONGVALE,39297.2214603322,35361.8137520235
764 BEDOK RESERVOIR VIEW LONGVALE SINGAPORE 470764,764,LONGVALE,1.33587226296479,103.935400949109,103.935400949109,470764,BEDOK RESERVOIR VIEW,LONGVALE,39360.6956014819,35339.7199702561
765 BEDOK RESERVOIR VIEW LONGVALE SINGAPORE 470765,765,LONGVALE,1.33596106828604,103.935990113555,103.935990113555,470765,BEDOK RESERVOIR VIEW,LONGVALE,39426.2630763855,35349.5423547253
766 BEDOK RESERVOIR VIEW LONGVALE SINGAPORE 470766,766,LONGVALE,1.33599899207348,103.936274523658,103.936274523658,470766,BEDOK RESERVOIR VIEW,LONGVALE,39457.9147912469,35353.7371037845
767 BEDOK RESERVOIR VIEW LONGVALE SINGAPORE 470767,767,LONGVALE,1.33585118238176,103.936777579151,103.936777579151,470767,BEDOK RESERVOIR VIEW,LONGVALE,39513.9003305454,35337.395389108
768 BEDOK RESERVOIR VIEW LONGVALE SINGAPORE 470768,768,LONGVALE,1.33566434343811,103.937321681832,103.937321681832,470768,BEDOK RESERVOIR VIEW,LONGVALE,39574.4541863585,35316.7382166516
769 BEDOK RESERVOIR VIEW LONGVALE SINGAPORE 470769,769,LONGVALE,1.33577919034865,103.937911555857,103.937911555857,470769,BEDOK RESERVOIR VIEW,LONGVALE,39640.1005093595,35329.4402062874
770 BEDOK RESERVOIR VIEW LONGVALE SINGAPORE 470770,770,LONGVALE,1.33592504234068,103.938460933366,103.938460933366,470770,BEDOK RESERVOIR VIEW,LONGVALE,39701.2398387818,35345.570408294
771 BEDOK RESERVOIR VIEW LONGVALE SINGAPORE 470771,771,LONGVALE,1.33593406213274,103.938866262286,103.938866262286,470771,BEDOK RESERVOIR VIEW,LONGVALE,39746.3486992028,35346.569705775
772 BEDOK RESERVOIR VIEW LONGVALE SINGAPORE 470772,772,LONGVALE,1.3364625679398,103.937895451472,103.937895451472,470772,BEDOK RESERVOIR VIEW,LONGVALE,39638.3050428331,35405.0046513882
773 BEDOK RESERVOIR VIEW LONGVALE SINGAPORE 470773,773,LONGVALE,1.33631602180285,103.93745788464,103.93745788464,470773,BEDOK RESERVOIR VIEW,LONGVALE,39589.6090933932,35388.7982345987
774 BEDOK RESERVOIR VIEW LONGVALE SINGAPORE 470774,774,LONGVALE,1.3365822191075,103.93670727972,103.93670727972,470774,BEDOK RESERVOIR VIEW,LONGVALE,39506.0733326357,35418.229490174
775 BEDOK RESERVOIR VIEW SINGAPORE 470775,775,NIL,1.3365778844156,103.935932127712,103.935932127712,470775,BEDOK RESERVOIR VIEW,775 BEDOK RESERVOIR VIEW SINGAPORE 470775,39419.8070062632,35417.7465644944
101A BEDOK RESERVOIR ROAD SINGAPORE 471101,101A,NIL,1.32808857939361,103.909877642545,103.909877642545,471101,BEDOK RESERVOIR ROAD,101A BEDOK RESERVOIR ROAD SINGAPORE 471101,36520.2444021432,34478.9361364413
609A BEDOK RESERVOIR ROAD GOLDEN CASSIA SINGAPORE 471609,609A,GOLDEN CASSIA,1.33182858762708,103.91189196562,103.91189196562,471609,BEDOK RESERVOIR ROAD,GOLDEN CASSIA,36744.4050336443,34892.4944990706
612A BEDOK RESERVOIR ROAD SINGAPORE 471612,612A,NIL,1.3320448617283,103.916465455603,103.916465455603,471612,BEDOK RESERVOIR ROAD,612A BEDOK RESERVOIR ROAD SINGAPORE 471612,37253.3866957603,34916.4256987888
613A BEDOK RESERVOIR ROAD SINGAPORE 471613,613A,NIL,1.3325695358182,103.917750825052,103.917750825052,471613,BEDOK RESERVOIR ROAD,613A BEDOK RESERVOIR ROAD SINGAPORE 471613,37396.4331262726,34974.4463967755
705A BEDOK NORTH ROAD SINGAPORE 471705,705A,NIL,1.33660847781197,103.919613809616,103.919613809616,471705,BEDOK NORTH ROAD,705A BEDOK NORTH ROAD SINGAPORE 471705,37603.748474651,35421.0596071873
707A BEDOK NORTH ROAD SINGAPORE 471707,707A,NIL,1.33574842481767,103.919488307195,103.919488307195,471707,BEDOK NORTH ROAD,707A BEDOK NORTH ROAD SINGAPORE 471707,37589.7847035788,35325.9587525316
714A BEDOK RESERVOIR ROAD SINGAPORE 471714,714A,NIL,1.33657925310647,103.923466636739,103.923466636739,471714,BEDOK RESERVOIR ROAD,714A BEDOK RESERVOIR ROAD SINGAPORE 471714,38032.5279403962,35417.8434825782
717A BEDOK RESERVOIR ROAD SINGAPORE 471717,717A,NIL,1.3377818871584,103.925989768808,103.925989768808,471717,BEDOK RESERVOIR ROAD,717A BEDOK RESERVOIR ROAD SINGAPORE 471717,38313.3211498829,35550.8352218475
719A BEDOK RESERVOIR ROAD SINGAPORE 471719,719A,NIL,1.33651746345271,103.924322422023,103.924322422023,471719,BEDOK RESERVOIR ROAD,719A BEDOK RESERVOIR ROAD SINGAPORE 471719,38127.7681488497,35411.0146017
724A BEDOK RESERVOIR ROAD SINGAPORE 471724,724A,NIL,1.33693040450501,103.927896303821,103.927896303821,471724,BEDOK RESERVOIR ROAD,724A BEDOK RESERVOIR ROAD SINGAPORE 471724,38525.5021069115,35456.6905933321
739A BEDOK RESERVOIR ROAD RESERVOIR VILLAGE SINGAPORE 471739,739A,RESERVOIR VILLAGE,1.33824203227296,103.923303932165,103.923303932165,471739,BEDOK RESERVOIR ROAD,RESERVOIR VILLAGE,38014.4138839329,35601.7046546619
747A BEDOK RESERVOIR CRESCENT BELVIA SINGAPORE 471747,747A,BELVIA,1.3366395590937,103.921284387946,103.921284387946,471747,BEDOK RESERVOIR CRESCENT,BELVIA,37789.6662351554,35424.5030140877
748A BEDOK RESERVOIR CRESCENT BELVIA SINGAPORE 471748,748A,BELVIA,1.33641902814806,103.920993282716,103.920993282716,471748,BEDOK RESERVOIR CRESCENT,BELVIA,37757.2701397715,35400.1166444309
760A BEDOK RESERVOIR VIEW SINGAPORE 471760,760A,NIL,1.3365378618306,103.934987413858,103.934987413858,471760,BEDOK RESERVOIR VIEW,760A BEDOK RESERVOIR VIEW SINGAPORE 471760,39314.6703778533,35413.3166937381
761A BEDOK RESERVOIR VIEW MULTI STOREY CAR PARK SINGAPORE 471761,761A,MULTI STOREY CAR PARK,1.33592015661861,103.934445713954,103.934445713954,471761,BEDOK RESERVOIR VIEW,MULTI STOREY CAR PARK,39254.38763237,35345.0114191696
765A BEDOK RESERVOIR VIEW MULTI STOREY CAR PARK SINGAPORE 471765,765A,MULTI STOREY CAR PARK,1.33570611944376,103.936338649676,103.936338649676,471765,BEDOK RESERVOIR VIEW,MULTI STOREY CAR PARK,39465.0527082384,35321.3529945221
768A BEDOK RESERVOIR VIEW LONGVALE SINGAPORE 471768,768A,LONGVALE,1.33588509163946,103.937335836526,103.937335836526,471768,BEDOK RESERVOIR VIEW,LONGVALE,39576.0284241913,35341.14752944
769A BEDOK RESERVOIR VIEW MULTI STOREY CAR PARK SINGAPORE 471769,769A,MULTI STOREY CAR PARK,1.33560524563533,103.93836578732,103.93836578732,471769,BEDOK RESERVOIR VIEW,MULTI STOREY CAR PARK,39690.6525823651,35310.2084137201
772A BEDOK RESERVOIR VIEW MULTI STOREY CAR PARK SINGAPORE 471772,772A,MULTI STOREY CAR PARK,1.33681738739659,103.937400963166,103.937400963166,471772,BEDOK RESERVOIR VIEW,MULTI STOREY CAR PARK,39583.2719764467,35444.2364984844
775A BEDOK RESERVOIR VIEW SINGAPORE 471775,775A,NIL,1.33647180543992,103.936354044345,103.936354044345,471775,BEDOK RESERVOIR VIEW,775A BEDOK RESERVOIR VIEW SINGAPORE 471775,39466.762425567,35406.018840719
609B BEDOK RESERVOIR ROAD GOLDEN CASSIA SINGAPORE 472609,609B,GOLDEN CASSIA,1.33183713508573,103.912134214526,103.912134214526,472609,BEDOK RESERVOIR ROAD,GOLDEN CASSIA,36771.3648175448,34893.4404946342
613B BEDOK RESERVOIR ROAD SINGAPORE 472613,613B,NIL,1.3327873115852,103.918222316133,103.918222316133,472613,BEDOK RESERVOIR ROAD,613B BEDOK RESERVOIR ROAD SINGAPORE 472613,37448.904401321,34998.5287548043
747B BEDOK RESERVOIR CRESCENT BELVIA SINGAPORE 472747,747B,BELVIA,1.33666009454076,103.921624733709,103.921624733709,472747,BEDOK RESERVOIR CRESCENT,BELVIA,37827.5430754237,35426.775080286
748B BEDOK RESERVOIR CRESCENT BELVIA SINGAPORE 472748,748B,BELVIA,1.33629391354583,103.921242294579,103.921242294579,472748,BEDOK RESERVOIR CRESCENT,BELVIA,37784.9830516428,35386.2830862235
609C BEDOK RESERVOIR ROAD SINGAPORE 473609,609C,NIL,1.33147457860223,103.911836952987,103.911836952987,473609,BEDOK RESERVOIR ROAD,609C BEDOK RESERVOIR ROAD SINGAPORE 473609,36738.2839392964,34853.3497632332
613C BEDOK RESERVOIR ROAD MULTI STOREY CAR PARK SINGAPORE 473613,613C,MULTI STOREY CAR PARK,1.33311096851505,103.91758473083,103.91758473083,473613,BEDOK RESERVOIR ROAD,MULTI STOREY CAR PARK,37377.9465011973,35034.3146827575
747C BEDOK RESERVOIR CRESCENT BELVIA SINGAPORE 473747,747C,BELVIA,1.33679206446803,103.921982613627,103.921982613627,473747,BEDOK RESERVOIR CRESCENT,BELVIA,37867.3708385825,35441.3690913152
748C BEDOK RESERVOIR CRESCENT BELVIA SINGAPORE 473748,748C,BELVIA,1.33616175628116,103.921492598319,103.921492598319,473748,BEDOK RESERVOIR CRESCENT,BELVIA,37812.8397667054,35371.6707933322
747D BEDOK RESERVOIR CRESCENT BELVIA SINGAPORE 474747,747D,BELVIA,1.33646606389196,103.922031329809,103.922031329809,474747,BEDOK RESERVOIR CRESCENT,BELVIA,37872.7937413491,35405.321769055
