ADDRESS,BLK_NO,BUILDING,LATITUDE,LONGITUDE,LONGTITUDE,POSTAL,ROAD_NAME,SEARCHVAL,X,Y
101 SERANGOON NORTH AVENUE 1 HWI YOH COURT SINGAPORE 550101,101,HWI YOH COURT,1.37103631988089,103.870360910842,103.870360910842,550101,SERANGOON NORTH AVENUE 1,HWI YOH COURT,32122.3612136077,39227.7778674327
102 SERANGOON NORTH AVENUE 1 HWI YOH COURT SINGAPORE 550102,102,HWI YOH COURT,1.37084327297737,103.871153606719,103.871153606719,550102,SERANGOON NORTH AVENUE 1,HWI YOH COURT,32210.5789774274,39206.4330971912
103 SERANGOON NORTH AVENUE 1 AMAZING STAR MONTESSORI HOUSE (SN) SINGAPORE 550103,103,AMAZING STAR MONTESSORI HOUSE (SN),1.37067353047523,103.870263924296,103.870263924296,550103,SERANGOON NORTH AVENUE 1,AMAZING STAR MONTESSORI HOUSE (SN),32111.5684073139,39187.6622860171
104 SERANGOON NORTH AVENUE 1 HWI YOH COURT SINGAPORE 550104,104,HWI YOH COURT,1.37059316193953,103.871086801722,103.871086801722,550104,SERANGOON NORTH AVENUE 1,HWI YOH COURT,32203.1448276788,39178.7769680582
105 SERANGOON NORTH AVENUE 1 HWI YOH COURT SINGAPORE 550105,105,HWI YOH COURT,1.37024745860601,103.870225980491,103.870225980491,550105,SERANGOON NORTH AVENUE 1,HWI YOH COURT,32107.3464473374,39140.5493521262
106 SERANGOON NORTH AVENUE 1 HWI YOH COURT SINGAPORE 550106,106,HWI YOH COURT,1.37024462107298,103.87082295041,103.87082295041,550106,SERANGOON NORTH AVENUE 1,HWI YOH COURT,32173.7819777466,39140.2366233189
107 SERANGOON NORTH AVENUE 1 DISTINCT STUDENT CARE AND ENRICHMENT CENTRE SINGAPORE 550107,107,DISTINCT STUDENT CARE AND ENRICHMENT CENTRE,1.36990039748774,103.870224885633,103.870224885633,550107,SERANGOON NORTH AVENUE 1,DISTINCT STUDENT CARE AND ENRICHMENT CENTRE,32107.2251937948,39102.1730901264
108 SERANGOON NORTH AVENUE 1 HWI YOH COURT SINGAPORE 550108,108,HWI YOH COURT,1.36990140336943,103.87120683593,103.87120683593,550108,SERANGOON NORTH AVENUE 1,HWI YOH COURT,32216.50438926,39102.2860199735
109 SERANGOON NORTH AVENUE 1 HWI YOH VILLE SINGAPORE 550109,109,HWI YOH VILLE,1.36943351823831,103.870511407041,103.870511407041,550109,SERANGOON NORTH AVENUE 1,HWI YOH VILLE,32139.1123633012,39050.5484408494
110 SERANGOON NORTH AVENUE 1 HWI YOH VILLE SINGAPORE 550110,110,HWI YOH VILLE,1.36938351007707,103.8714075184,103.8714075184,550110,SERANGOON NORTH AVENUE 1,HWI YOH VILLE,32238.8388317646,39045.0203568395
111 SERANGOON NORTH AVENUE 1 HWI YOH VILLE SINGAPORE 550111,111,HWI YOH VILLE,1.36904731272801,103.870584006425,103.870584006425,550111,SERANGOON NORTH AVENUE 1,HWI YOH VILLE,32147.1924620904,39007.8439177144
112 SERANGOON NORTH AVENUE 1 HWI YOH VILLE SINGAPORE 550112,112,HWI YOH VILLE,1.36919996934693,103.871588808817,103.871588808817,550112,SERANGOON NORTH AVENUE 1,HWI YOH VILLE,32259.0145919388,39024.7256737575
113 SERANGOON NORTH AVENUE 1 HWI YOH VILLE SINGAPORE 550113,113,HWI YOH VILLE,1.36877682866954,103.870474929987,103.870474929987,550113,SERANGOON NORTH AVENUE 1,HWI YOH VILLE,32135.0540320436,38977.9349728208
114 SERANGOON NORTH AVENUE 1 HWI YOH VILLE SINGAPORE 550114,114,HWI YOH VILLE,1.3688522558684,103.871488888571,103.871488888571,550114,SERANGOON NORTH AVENUE 1,HWI YOH VILLE,32247.8952849051,38986.2771015447
115 SERANGOON NORTH AVENUE 1 HWI YOH VILLE SINGAPORE 550115,115,HWI YOH VILLE,1.3681312354317,103.870576991283,103.870576991283,550115,SERANGOON NORTH AVENUE 1,HWI YOH VILLE,32146.4133339217,38906.5487201903
116 SERANGOON NORTH AVENUE 1 HWI YOH VILLE SINGAPORE 550116,116,HWI YOH VILLE,1.3684875699447,103.871588685744,103.871588685744,550116,SERANGOON NORTH AVENUE 1,HWI YOH VILLE,32259.0021517975,38945.952156486
117 SERANGOON NORTH AVENUE 1 HWI YOH VILLE SINGAPORE 550117,117,HWI YOH VILLE,1.3679757504585,103.870862723896,103.870862723896,550117,SERANGOON NORTH AVENUE 1,HWI YOH VILLE,32178.2122117188,38889.3564751726
118 SERANGOON NORTH AVENUE 1 HWI YOH VILLE SINGAPORE 550118,118,HWI YOH VILLE,1.36759548630876,103.870917753447,103.870917753447,550118,SERANGOON NORTH AVENUE 1,HWI YOH VILLE,32184.3369987598,38847.3088883553
119 SERANGOON NORTH AVENUE 1 HWI YOH VILLE SINGAPORE 550119,119,HWI YOH VILLE,1.36748142862257,103.871491752337,103.871491752337,550119,SERANGOON NORTH AVENUE 1,HWI YOH VILLE,32248.2163979439,38834.6979750842
120 SERANGOON NORTH AVENUE 1 HWI YOH VILLE SINGAPORE 550120,120,HWI YOH VILLE,1.36726629285153,103.871070695868,103.871070695868,550120,SERANGOON NORTH AVENUE 1,HWI YOH VILLE,32201.3582296716,38810.9086111374
121 SERANGOON NORTH AVENUE 1 SINGAPORE 550121,121,NIL,1.36693542180082,103.8712847222,103.8712847222,550121,SERANGOON NORTH AVENUE 1,121 SERANGOON NORTH AVENUE 1 SINGAPORE 550121,32225.1773773143,38774.3229425177
122 SERANGOON NORTH AVENUE 1 SINGAPORE 550122,122,NIL,1.36669092359185,103.871359067279,103.871359067279,550122,SERANGOON NORTH AVENUE 1,122 SERANGOON NORTH AVENUE 1 SINGAPORE 550122,32233.4515241468,38747.2877005339
123 SERANGOON NORTH AVENUE 1 SINGAPORE 550123,123,NIL,1.3669585129808,103.872593551192,103.872593551192,550123,SERANGOON NORTH AVENUE 1,123 SERANGOON NORTH AVENUE 1 SINGAPORE 550123,32370.8343608854,38776.878589455
124 SERANGOON NORTH AVENUE 1 SINGAPORE 550124,124,NIL,1.36618689571987,103.871419458199,103.871419458199,550124,SERANGOON NORTH AVENUE 1,124 SERANGOON NORTH AVENUE 1 SINGAPORE 550124,32240.1731958268,38691.554959435
125 SERANGOON NORTH AVENUE 1 SINGAPORE 550125,125,NIL,1.36645063324257,103.872110832451,103.872110832451,550125,SERANGOON NORTH AVENUE 1,125 SERANGOON NORTH AVENUE 1 SINGAPORE 550125,32317.1144407047,38720.7189487144
126 SERANGOON NORTH AVENUE 1 SINGAPORE 550126,126,NIL,1.36605821730761,103.871874850688,103.871874850688,550126,SERANGOON NORTH AVENUE 1,126 SERANGOON NORTH AVENUE 1 SINGAPORE 550126,32290.8531813314,38677.3271607421
127 SERANGOON NORTH AVENUE 1 SINGAPORE 550127,127,NIL,1.36562823499679,103.87183133243,103.87183133243,550127,SERANGOON NORTH AVENUE 1,127 SERANGOON NORTH AVENUE 1 SINGAPORE 550127,32286.0108790286,38629.7818184346
135 SERANGOON NORTH AVENUE 2 SINGAPORE 550135,135,NIL,1.36725606646986,103.874813498992,103.874813498992,550135,SERANGOON NORTH AVENUE 2,135 SERANGOON NORTH AVENUE 2 SINGAPORE 550135,32617.8874554392,38809.7847003657
136 SERANGOON NORTH AVENUE 2 SINGAPORE 550136,136,NIL,1.36810159794642,103.874987831018,103.874987831018,550136,SERANGOON NORTH AVENUE 2,136 SERANGOON NORTH AVENUE 2 SINGAPORE 550136,32637.2869023671,38903.2796266098
137 SERANGOON NORTH AVENUE 2 SINGAPORE 550137,137,NIL,1.36778495249736,103.875011736305,103.875011736305,550137,SERANGOON NORTH AVENUE 2,137 SERANGOON NORTH AVENUE 2 SINGAPORE 550137,32639.9478818877,38868.2666218895
138 SERANGOON NORTH AVENUE 2 SINGAPORE 550138,138,NIL,1.36822699874589,103.875548830412,103.875548830412,550138,SERANGOON NORTH AVENUE 2,138 SERANGOON NORTH AVENUE 2 SINGAPORE 550138,32699.719158981,38917.1469033491
139 SERANGOON NORTH AVENUE 2 SINGAPORE 550139,139,NIL,1.36878372952822,103.875412429109,103.875412429109,550139,SERANGOON NORTH AVENUE 2,139 SERANGOON NORTH AVENUE 2 SINGAPORE 550139,32684.5382517483,38978.7071090862
140 SERANGOON NORTH AVENUE 2 SINGAPORE 550140,140,NIL,1.36843456862046,103.875006492339,103.875006492339,550140,SERANGOON NORTH AVENUE 2,140 SERANGOON NORTH AVENUE 2 SINGAPORE 550140,32639.3630439062,38940.097874416
141 SERANGOON NORTH AVENUE 2 SINGAPORE 550141,141,NIL,1.36859421304209,103.874523243764,103.874523243764,550141,SERANGOON NORTH AVENUE 2,141 SERANGOON NORTH AVENUE 2 SINGAPORE 550141,32585.5829812409,38957.7496176958
142 SERANGOON NORTH AVENUE 1 SINGAPORE 550142,142,NIL,1.36738923192236,103.873635517365,103.873635517365,550142,SERANGOON NORTH AVENUE 1,142 SERANGOON NORTH AVENUE 1 SINGAPORE 550142,32486.7919448139,38824.5072292537
143 SERANGOON NORTH AVENUE 1 SINGAPORE 550143,143,NIL,1.36736076711937,103.872925371848,103.872925371848,550143,SERANGOON NORTH AVENUE 1,143 SERANGOON NORTH AVENUE 1 SINGAPORE 550143,32407.7613010211,38821.3584206402
144 SERANGOON NORTH AVENUE 1 SINGAPORE 550144,144,NIL,1.36778139173336,103.873041279529,103.873041279529,550144,SERANGOON NORTH AVENUE 1,144 SERANGOON NORTH AVENUE 1 SINGAPORE 550144,32420.6596693341,38867.869172994
145 SERANGOON NORTH AVENUE 1 SINGAPORE 550145,145,NIL,1.36780607446741,103.872379573915,103.872379573915,550145,SERANGOON NORTH AVENUE 1,145 SERANGOON NORTH AVENUE 1 SINGAPORE 550145,32347.0197231723,38870.5972566344
146 SERANGOON NORTH AVENUE 1 SINGAPORE 550146,146,NIL,1.36816861691966,103.87293845884,103.87293845884,550146,SERANGOON NORTH AVENUE 1,146 SERANGOON NORTH AVENUE 1 SINGAPORE 550146,32409.2162527302,38910.6863838341
147 SERANGOON NORTH AVENUE 1 SINGAPORE 550147,147,NIL,1.36847950992102,103.872662860362,103.872662860362,550147,SERANGOON NORTH AVENUE 1,147 SERANGOON NORTH AVENUE 1 SINGAPORE 550147,32378.5448875939,38945.0628528558
148 SERANGOON NORTH AVENUE 1 SINGAPORE 550148,148,NIL,1.36830364245423,103.873673070603,103.873673070603,550148,SERANGOON NORTH AVENUE 1,148 SERANGOON NORTH AVENUE 1 SINGAPORE 550148,32490.9694713904,38925.6181855612
149 SERANGOON NORTH AVENUE 1 GOLDEN GINGER SINGAPORE 550149,149,GOLDEN GINGER,1.36677613527698,103.87356076875,103.87356076875,550149,SERANGOON NORTH AVENUE 1,GOLDEN GINGER,32478.4744542288,38756.7139678989
150 SERANGOON NORTH AVENUE 2 MULTI STOREY CAR PARK SINGAPORE 550150,150,MULTI STOREY CAR PARK,1.36939950575998,103.875014764105,103.875014764105,550150,SERANGOON NORTH AVENUE 2,MULTI STOREY CAR PARK,32640.2817377476,39046.7957556937
151 SERANGOON NORTH AVENUE 2 SINGAPORE 550151,151,NIL,1.36934535015796,103.873778334096,103.873778334096,550151,SERANGOON NORTH AVENUE 2,151 SERANGOON NORTH AVENUE 2 SINGAPORE 550151,32502.6820914419,39040.8051466234
152 SERANGOON NORTH AVENUE 1 SINGAPORE 550152,152,NIL,1.36934726797811,103.872613997697,103.872613997697,550152,SERANGOON NORTH AVENUE 1,152 SERANGOON NORTH AVENUE 1 SINGAPORE 550152,32373.1054887762,39041.0150550902
153 SERANGOON NORTH AVENUE 1 SINGAPORE 550153,153,NIL,1.36995099685808,103.872312298412,103.872312298412,550153,SERANGOON NORTH AVENUE 1,153 SERANGOON NORTH AVENUE 1 SINGAPORE 550153,32339.5289117582,39107.7717893422
154 SERANGOON NORTH AVENUE 1 SINGAPORE 550154,154,NIL,1.37012983399512,103.873115537451,103.873115537451,550154,SERANGOON NORTH AVENUE 1,154 SERANGOON NORTH AVENUE 1 SINGAPORE 550154,32428.9193783384,39127.5481634717
157 SERANGOON NORTH AVENUE 1 SINGAPORE 550157,157,NIL,1.37115656789602,103.869239467549,103.869239467549,550157,SERANGOON NORTH AVENUE 1,157 SERANGOON NORTH AVENUE 1 SINGAPORE 550157,31997.557993046,39241.0723831169
201 SERANGOON CENTRAL SINGAPORE 550201,201,NIL,1.35097779933054,103.873595480638,103.873595480638,550201,SERANGOON CENTRAL,201 SERANGOON CENTRAL SINGAPORE 550201,32482.3665839862,37009.8141771909
202 SERANGOON CENTRAL SINGAPORE 550202,202,NIL,1.35160097991024,103.873747774097,103.873747774097,550202,SERANGOON CENTRAL,202 SERANGOON CENTRAL SINGAPORE 550202,32499.3139912859,37078.7226018701
203 SERANGOON CENTRAL SINGAPORE 550203,203,NIL,1.35207840850205,103.873288881871,103.873288881871,550203,SERANGOON CENTRAL,203 SERANGOON CENTRAL SINGAPORE 550203,32448.2435790589,37131.5133857541
204 SERANGOON CENTRAL SINGAPORE 550204,204,NIL,1.35243827939715,103.873298136881,103.873298136881,550204,SERANGOON CENTRAL,204 SERANGOON CENTRAL SINGAPORE 550204,32449.2729023816,37171.3060985878
205 SERANGOON CENTRAL SINGAPORE 550205,205,NIL,1.35278468169196,103.873446716868,103.873446716868,550205,SERANGOON CENTRAL,205 SERANGOON CENTRAL SINGAPORE 550205,32465.807545187,37209.6097779628
206 SERANGOON CENTRAL SINGAPORE 550206,206,NIL,1.35347506410685,103.873392281903,103.873392281903,550206,SERANGOON CENTRAL,206 SERANGOON CENTRAL SINGAPORE 550206,32459.7482883306,37285.9486596957
207 SERANGOON CENTRAL SINGAPORE 550207,207,NIL,1.35383954328532,103.873319340588,103.873319340588,550207,SERANGOON CENTRAL,207 SERANGOON CENTRAL SINGAPORE 550207,32451.6300821491,37326.2507826947
208 SERANGOON CENTRAL SINGAPORE 550208,208,NIL,1.35411101087629,103.873717631044,103.873717631044,550208,SERANGOON CENTRAL,208 SERANGOON CENTRAL SINGAPORE 550208,32495.954789917,37356.2690252792
209 SERANGOON CENTRAL SINGAPORE 550209,209,NIL,1.35444891059602,103.874262060745,103.874262060745,550209,SERANGOON CENTRAL,209 SERANGOON CENTRAL SINGAPORE 550209,32556.5429998916,37393.633277243
210 SERANGOON CENTRAL SINGAPORE 550210,210,NIL,1.35492978202648,103.873639912916,103.873639912916,550210,SERANGOON CENTRAL,210 SERANGOON CENTRAL SINGAPORE 550210,32487.3041396346,37446.8044388797
211 SERANGOON AVENUE 4 SINGAPORE 550211,211,NIL,1.35631688829829,103.873175455861,103.873175455861,550211,SERANGOON AVENUE 4,211 SERANGOON AVENUE 4 SINGAPORE 550211,32435.6128402576,37600.1827548295
212 SERANGOON AVENUE 4 SINGAPORE 550212,212,NIL,1.35680090852309,103.873051105555,103.873051105555,550212,SERANGOON AVENUE 4,212 SERANGOON AVENUE 4 SINGAPORE 550212,32421.7731981874,37653.7030273899
213 SERANGOON AVENUE 4 SINGAPORE 550213,213,NIL,1.35717269116489,103.873093293448,103.873093293448,550213,SERANGOON AVENUE 4,213 SERANGOON AVENUE 4 SINGAPORE 550213,32426.467550586,37694.8129423391
214 SERANGOON AVENUE 4 SINGAPORE 550214,214,NIL,1.35732435176205,103.873633486803,103.873633486803,550214,SERANGOON AVENUE 4,214 SERANGOON AVENUE 4 SINGAPORE 550214,32486.5845788578,37711.5837964881
215 SERANGOON AVENUE 4 SINGAPORE 550215,215,NIL,1.35786532790131,103.873424839621,103.873424839621,550215,SERANGOON AVENUE 4,215 SERANGOON AVENUE 4 SINGAPORE 550215,32463.3635568414,37771.4018073492
216 SERANGOON AVENUE 4 SINGAPORE 550216,216,NIL,1.35755258004484,103.873140468743,103.873140468743,550216,SERANGOON AVENUE 4,216 SERANGOON AVENUE 4 SINGAPORE 550216,32431.7169270013,37736.8192133568
217 SERANGOON AVENUE 4 SINGAPORE 550217,217,NIL,1.35763504826187,103.87209077271,103.87209077271,550217,SERANGOON AVENUE 4,217 SERANGOON AVENUE 4 SINGAPORE 550217,32314.8977043806,37745.9362327326
218 SERANGOON AVENUE 4 SINGAPORE 550218,218,NIL,1.35801075096415,103.872138225755,103.872138225755,550218,SERANGOON AVENUE 4,218 SERANGOON AVENUE 4 SINGAPORE 550218,32320.1780146761,37787.479615476
219 SERANGOON AVENUE 4 SINGAPORE 550219,219,NIL,1.35835882532411,103.872182035504,103.872182035504,550219,SERANGOON AVENUE 4,219 SERANGOON AVENUE 4 SINGAPORE 550219,32325.0529155973,37825.9679900873
220 SERANGOON AVENUE 4 SINGAPORE 550220,220,NIL,1.35874143844472,103.872227097734,103.872227097734,550220,SERANGOON AVENUE 4,220 SERANGOON AVENUE 4 SINGAPORE 550220,32330.0671400484,37868.2754880805
221 SERANGOON AVENUE 4 SINGAPORE 550221,221,NIL,1.3591460613704,103.871810901097,103.871810901097,550221,SERANGOON AVENUE 4,221 SERANGOON AVENUE 4 SINGAPORE 550221,32283.748559122,37913.0158963352
222 SERANGOON AVENUE 4 SINGAPORE 550222,222,NIL,1.35842952473611,103.8712240101,103.8712240101,550222,SERANGOON AVENUE 4,222 SERANGOON AVENUE 4 SINGAPORE 550222,32218.4356379611,37833.783879647
223 SERANGOON AVENUE 4 BOUNDARY VILLE SINGAPORE 550223,223,BOUNDARY VILLE,1.35756151365917,103.870610329774,103.870610329774,550223,SERANGOON AVENUE 4,BOUNDARY VILLE,32150.1415928155,37737.8025596123
224 SERANGOON AVENUE 4 BOUNDARY VILLE SINGAPORE 550224,224,BOUNDARY VILLE,1.35720575037063,103.87083128115,103.87083128115,550224,SERANGOON AVENUE 4,BOUNDARY VILLE,32174.7315449314,37698.4644416254
225 SERANGOON AVENUE 4 BOUNDARY VILLE SINGAPORE 550225,225,BOUNDARY VILLE,1.3567348101843,103.870113743671,103.870113743671,550225,SERANGOON AVENUE 4,BOUNDARY VILLE,32094.8786713602,37646.3890415356
226 SERANGOON AVENUE 4 BOUNDARY VILLE SINGAPORE 550226,226,BOUNDARY VILLE,1.35682249995275,103.87085702772,103.87085702772,550226,SERANGOON AVENUE 4,BOUNDARY VILLE,32177.5974992374,37656.0866008401
227 SERANGOON AVENUE 4 BOUNDARY VILLE SINGAPORE 550227,227,BOUNDARY VILLE,1.35647098065068,103.871126764494,103.871126764494,550227,SERANGOON AVENUE 4,BOUNDARY VILLE,32207.6167103965,37617.217848476
228 SERANGOON AVENUE 4 BOUNDARY VILLE SINGAPORE 550228,228,BOUNDARY VILLE,1.35636401495724,103.870259853394,103.870259853394,550228,SERANGOON AVENUE 4,BOUNDARY VILLE,32111.1396310572,37605.3886361532
229 SERANGOON AVENUE 4 BOUNDARY VILLE SINGAPORE 550229,229,BOUNDARY VILLE,1.35598199427883,103.870277102674,103.870277102674,550229,SERANGOON AVENUE 4,BOUNDARY VILLE,32113.0599227473,37563.1467591487
230 SERANGOON AVENUE 4 BOUNDARY VILLE SINGAPORE 550230,230,BOUNDARY VILLE,1.35594945338371,103.869580972459,103.869580972459,550230,SERANGOON AVENUE 4,BOUNDARY VILLE,32035.5886552073,37559.5473813284
231 SERANGOON AVENUE 3 SINGAPORE 550231,231,NIL,1.35501762599795,103.868367739693,103.868367739693,550231,SERANGOON AVENUE 3,231 SERANGOON AVENUE 3 SINGAPORE 550231,31900.5712311286,37456.5086571388
232 SERANGOON AVENUE 3 SINGAPORE 550232,232,NIL,1.35474706561703,103.868731989138,103.868731989138,550232,SERANGOON AVENUE 3,232 SERANGOON AVENUE 3 SINGAPORE 550232,31941.1084758257,37426.5920544434
233 SERANGOON AVENUE 3 SINGAPORE 550233,233,NIL,1.3551338137075,103.869137347738,103.869137347738,550233,SERANGOON AVENUE 3,233 SERANGOON AVENUE 3 SINGAPORE 550233,31986.2196366135,37469.3573556915
234 SERANGOON AVENUE 3 SINGAPORE 550234,234,NIL,1.35479953784915,103.869534332454,103.869534332454,550234,SERANGOON AVENUE 3,234 SERANGOON AVENUE 3 SINGAPORE 550234,32030.4000569023,37432.3954863027
235 SERANGOON AVENUE 3 SINGAPORE 550235,235,NIL,1.35511076107735,103.869934707698,103.869934707698,550235,SERANGOON AVENUE 3,235 SERANGOON AVENUE 3 SINGAPORE 550235,32074.9567384971,37466.8096389659
236 SERANGOON AVENUE 3 SINGAPORE 550236,236,NIL,1.35424006743426,103.869821831929,103.869821831929,550236,SERANGOON AVENUE 3,236 SERANGOON AVENUE 3 SINGAPORE 550236,32062.3964030258,37370.5325704608
237 SERANGOON AVENUE 3 SINGAPORE 550237,237,NIL,1.35381198342473,103.87013457465,103.87013457465,550237,SERANGOON AVENUE 3,237 SERANGOON AVENUE 3 SINGAPORE 550237,32097.2018299149,37323.1977419816
238 SERANGOON AVENUE 2 SINGAPORE 550238,238,NIL,1.35354991177886,103.86901411907,103.86901411907,550238,SERANGOON AVENUE 2,238 SERANGOON AVENUE 2 SINGAPORE 550238,31972.5082702581,37294.2173280232
239 SERANGOON AVENUE 2 SINGAPORE 550239,239,NIL,1.35319103281952,103.868691793358,103.868691793358,550239,SERANGOON AVENUE 2,239 SERANGOON AVENUE 2 SINGAPORE 550239,31936.6376524866,37254.5337918065
240 SERANGOON AVENUE 2 SINGAPORE 550240,240,NIL,1.35323767469816,103.869412535838,103.869412535838,550240,SERANGOON AVENUE 2,240 SERANGOON AVENUE 2 SINGAPORE 550240,32016.8480514809,37259.6923945397
241 SERANGOON AVENUE 3 SINGAPORE 550241,241,NIL,1.35288178547102,103.870236774547,103.870236774547,550241,SERANGOON AVENUE 3,241 SERANGOON AVENUE 3 SINGAPORE 550241,32108.5770830195,37220.3413521256
242 SERANGOON AVENUE 3 SINGAPORE 550242,242,NIL,1.35269591874852,103.869711017596,103.869711017596,550242,SERANGOON AVENUE 3,242 SERANGOON AVENUE 3 SINGAPORE 550242,32050.0665885191,37199.7882712651
243 SERANGOON AVENUE 2 SINGAPORE 550243,243,NIL,1.35290196967147,103.868835402916,103.868835402916,550243,SERANGOON AVENUE 2,243 SERANGOON AVENUE 2 SINGAPORE 550243,31952.6202375367,37222.570891805
244 SERANGOON AVENUE 2 SINGAPORE 550244,244,NIL,1.35249536436696,103.868749654582,103.868749654582,550244,SERANGOON AVENUE 2,244 SERANGOON AVENUE 2 SINGAPORE 550244,31943.0780740622,37177.6104050409
245 SERANGOON AVENUE 2 SINGAPORE 550245,245,NIL,1.35244085702094,103.869177479529,103.869177479529,550245,SERANGOON AVENUE 2,245 SERANGOON AVENUE 2 SINGAPORE 550245,31990.6902480768,37171.5839586779
246 SERANGOON AVENUE 3 SINGAPORE 550246,246,NIL,1.35192270531399,103.869660835834,103.869660835834,550246,SERANGOON AVENUE 3,246 SERANGOON AVENUE 3 SINGAPORE 550246,32044.4832049031,37114.2901765872
253 SERANGOON CENTRAL DRIVE SINGAPORE 550253,253,NIL,1.35403939780038,103.870851534185,103.870851534185,550253,SERANGOON CENTRAL DRIVE,253 SERANGOON CENTRAL DRIVE SINGAPORE 550253,32176.9908985756,37348.3452908937
254 SERANGOON CENTRAL DRIVE SINGAPORE 550254,254,NIL,1.35406229913885,103.871216925982,103.871216925982,550254,SERANGOON CENTRAL DRIVE,254 SERANGOON CENTRAL DRIVE SINGAPORE 550254,32217.6548147844,37350.8782368433
255 SERANGOON CENTRAL DRIVE SINGAPORE 550255,255,NIL,1.35506201098257,103.87087185901,103.87087185901,550255,SERANGOON CENTRAL DRIVE,255 SERANGOON CENTRAL DRIVE SINGAPORE 550255,32179.2510694563,37461.4206968769
256 SERANGOON CENTRAL DRIVE SINGAPORE 550256,256,NIL,1.35510216074111,103.871446813638,103.871446813638,550256,SERANGOON CENTRAL DRIVE,256 SERANGOON CENTRAL DRIVE SINGAPORE 550256,32243.2368908711,37465.8612522315
257 SERANGOON CENTRAL DRIVE SINGAPORE 550257,257,NIL,1.35512612578152,103.872029738595,103.872029738595,550257,SERANGOON CENTRAL DRIVE,257 SERANGOON CENTRAL DRIVE SINGAPORE 550257,32308.1097458163,37468.5122130495
258 SERANGOON CENTRAL DRIVE SINGAPORE 550258,258,NIL,1.3551693757779,103.872708662652,103.872708662652,550258,SERANGOON CENTRAL DRIVE,258 SERANGOON CENTRAL DRIVE SINGAPORE 550258,32383.6661699023,37473.295795463
261 SERANGOON CENTRAL DRIVE SINGAPORE 550261,261,NIL,1.35405255194874,103.872524450991,103.872524450991,550261,SERANGOON CENTRAL DRIVE,261 SERANGOON CENTRAL DRIVE SINGAPORE 550261,32363.1675108783,37349.8027548455
262 SERANGOON CENTRAL DRIVE SINGAPORE 550262,262,NIL,1.35323084558357,103.87204354837,103.87204354837,550262,SERANGOON CENTRAL DRIVE,262 SERANGOON CENTRAL DRIVE SINGAPORE 550262,32309.6499624355,37258.9417788126
263 SERANGOON CENTRAL DRIVE SINGAPORE 550263,263,NIL,1.35386322697735,103.871939623369,103.871939623369,550263,SERANGOON CENTRAL DRIVE,263 SERANGOON CENTRAL DRIVE SINGAPORE 550263,32298.0831735302,37328.8671169393
264 SERANGOON CENTRAL BRADDELL HEIGHTS COMMUNITY HUB SINGAPORE 550264,264,BRADDELL HEIGHTS COMMUNITY HUB,1.35238907617629,103.872108792675,103.872108792675,550264,SERANGOON CENTRAL,BRADDELL HEIGHTS COMMUNITY HUB,32316.9124019127,37165.8633097559
265 SERANGOON CENTRAL DRIVE SINGAPORE 550265,265,NIL,1.35296376208898,103.871472206843,103.871472206843,550265,SERANGOON CENTRAL DRIVE,265 SERANGOON CENTRAL DRIVE SINGAPORE 550265,32246.0665841326,37229.4080358446
266 SERANGOON CENTRAL DRIVE SINGAPORE 550266,266,NIL,1.35323198383248,103.871472595608,103.871472595608,550266,SERANGOON CENTRAL DRIVE,266 SERANGOON CENTRAL DRIVE SINGAPORE 550266,32246.1093830615,37259.0666342452
267 SERANGOON AVENUE 3 SINGAPORE 550267,267,NIL,1.3531696660359,103.870953693678,103.870953693678,550267,SERANGOON AVENUE 3,267 SERANGOON AVENUE 3 SINGAPORE 550267,32188.3615812147,37252.1749473009
301 SERANGOON AVENUE 2 CAMELOT INTERNATIONAL INFANT CARE PTE LTD SINGAPORE 550301,301,CAMELOT INTERNATIONAL INFANT CARE PTE LTD,1.35288347756585,103.867822811475,103.867822811475,550301,SERANGOON AVENUE 2,CAMELOT INTERNATIONAL INFANT CARE PTE LTD,31839.9302943265,37220.5245036948
302 SERANGOON AVENUE 2 CHUAN VILLAGE SINGAPORE 550302,302,CHUAN VILLAGE,1.35318021089479,103.867119538611,103.867119538611,550302,SERANGOON AVENUE 2,CHUAN VILLAGE,31761.6635236377,37253.3346650973
303 SERANGOON AVENUE 2 CHUAN VILLAGE SINGAPORE 550303,303,CHUAN VILLAGE,1.35349356621383,103.867045529778,103.867045529778,550303,SERANGOON AVENUE 2,CHUAN VILLAGE,31753.426697229,37287.9837881178
304 SERANGOON AVENUE 2 CHUAN VILLAGE SINGAPORE 550304,304,CHUAN VILLAGE,1.35381345296971,103.867773013876,103.867773013876,550304,SERANGOON AVENUE 2,CHUAN VILLAGE,31834.3869249839,37323.356376484
305 SERANGOON AVENUE 2 CHUAN VILLAGE SINGAPORE 550305,305,CHUAN VILLAGE,1.35384811106518,103.866961802929,103.866961802929,550305,SERANGOON AVENUE 2,CHUAN VILLAGE,31744.1083049579,37327.1874254514
306 SERANGOON AVENUE 2 CHUAN VILLAGE SINGAPORE 550306,306,CHUAN VILLAGE,1.354170253505,103.866885717087,103.866885717087,550306,SERANGOON AVENUE 2,CHUAN VILLAGE,31735.6403219569,37362.8081810176
307 SERANGOON AVENUE 2 CHUAN VILLAGE SINGAPORE 550307,307,CHUAN VILLAGE,1.35462817749301,103.867068733428,103.867068733428,550307,SERANGOON AVENUE 2,CHUAN VILLAGE,31756.0072547169,37413.4433699064
308 SERANGOON AVENUE 2 SINGAPORE 550308,308,NIL,1.35417532963527,103.865967051985,103.865967051985,550308,SERANGOON AVENUE 2,308 SERANGOON AVENUE 2 SINGAPORE 550308,31633.4033361198,37363.3680781797
309 SERANGOON AVENUE 2 SINGAPORE 550309,309,NIL,1.35380565313156,103.865214056968,103.865214056968,550309,SERANGOON AVENUE 2,309 SERANGOON AVENUE 2 SINGAPORE 550309,31549.6040925635,37322.4900159854
310 SERANGOON AVENUE 2 SINGAPORE 550310,310,NIL,1.35362308168848,103.865716642199,103.865716642199,550310,SERANGOON AVENUE 2,310 SERANGOON AVENUE 2 SINGAPORE 550310,31605.5363904787,37302.3029355854
311 SERANGOON AVENUE 2 SINGAPORE 550311,311,NIL,1.35376288054172,103.866326454117,103.866326454117,550311,SERANGOON AVENUE 2,311 SERANGOON AVENUE 2 SINGAPORE 550311,31673.4013264189,37317.7620963939
312 SERANGOON AVENUE 2 SINGAPORE 550312,312,NIL,1.35328810773066,103.865796441043,103.865796441043,550312,SERANGOON AVENUE 2,312 SERANGOON AVENUE 2 SINGAPORE 550312,31614.4175919937,37265.2633380145
313 SERANGOON AVENUE 2 SINGAPORE 550313,313,NIL,1.35323929752374,103.865249340249,103.865249340249,550313,SERANGOON AVENUE 2,313 SERANGOON AVENUE 2 SINGAPORE 550313,31553.5315450588,37259.8653457984
314 SERANGOON AVENUE 2 SINGAPORE 550314,314,NIL,1.35292209672281,103.865518393894,103.865518393894,550314,SERANGOON AVENUE 2,314 SERANGOON AVENUE 2 SINGAPORE 550314,31583.474632239,37224.7912905551
315 SERANGOON AVENUE 2 SINGAPORE 550315,315,NIL,1.35293445761679,103.865970806633,103.865970806633,550315,SERANGOON AVENUE 2,315 SERANGOON AVENUE 2 SINGAPORE 550315,31633.8230319824,37226.1587677915
316 SERANGOON AVENUE 2 SINGAPORE 550316,316,NIL,1.35301133658634,103.86647177389,103.86647177389,550316,SERANGOON AVENUE 2,316 SERANGOON AVENUE 2 SINGAPORE 550316,31689.574902446,37234.6604087912
317 SERANGOON AVENUE 2 SINGAPORE 550317,317,NIL,1.35260972084146,103.866222094228,103.866222094228,550317,SERANGOON AVENUE 2,317 SERANGOON AVENUE 2 SINGAPORE 550317,31661.7889841981,37190.2514046878
318 SERANGOON AVENUE 2 CHUAN VILLAGE SINGAPORE 550318,318,CHUAN VILLAGE,1.35284046238433,103.867164766436,103.867164766436,550318,SERANGOON AVENUE 2,CHUAN VILLAGE,31766.6973920101,37215.7670728173
319 SERANGOON AVENUE 2 CHUAN VILLAGE SINGAPORE 550319,319,CHUAN VILLAGE,1.35252439194918,103.868043877858,103.868043877858,550319,SERANGOON AVENUE 2,CHUAN VILLAGE,31864.5330497995,37180.8189929221
321 SERANGOON AVENUE 2 SINGAPORE 550321,321,NIL,1.35120526890578,103.867769527625,103.867769527625,550321,SERANGOON AVENUE 2,321 SERANGOON AVENUE 2 SINGAPORE 550321,31834.003036147,37034.9566410817
322 SERANGOON AVENUE 3 SINGAPORE 550322,322,NIL,1.35175507137606,103.868662430875,103.868662430875,550322,SERANGOON AVENUE 3,322 SERANGOON AVENUE 3 SINGAPORE 550322,31933.3722515991,37095.7524288874
323 SERANGOON AVENUE 3 SINGAPORE 550323,323,NIL,1.35116857435372,103.869408469694,103.869408469694,550323,SERANGOON AVENUE 3,323 SERANGOON AVENUE 3 SINGAPORE 550323,32016.3989351382,37030.9017906431
324 SERANGOON AVENUE 3 SINGAPORE 550324,324,NIL,1.35125096397791,103.86884445834,103.86884445834,550324,SERANGOON AVENUE 3,324 SERANGOON AVENUE 3 SINGAPORE 550324,31953.6306736367,37040.0110916831
325 SERANGOON AVENUE 3 SINGAPORE 550325,325,NIL,1.35093759016541,103.868683014792,103.868683014792,550325,SERANGOON AVENUE 3,325 SERANGOON AVENUE 3 SINGAPORE 550325,31935.6643249337,37005.3595472239
326 SERANGOON AVENUE 3 SINGAPORE 550326,326,NIL,1.35035198508251,103.868996990604,103.868996990604,550326,SERANGOON AVENUE 3,326 SERANGOON AVENUE 3 SINGAPORE 550326,31970.6072592726,36940.6068259049
327 SERANGOON AVENUE 3 SINGAPORE 550327,327,NIL,1.35059926733191,103.868514945025,103.868514945025,550327,SERANGOON AVENUE 3,327 SERANGOON AVENUE 3 SINGAPORE 550327,31916.9605876114,36967.9492576551
328 SERANGOON AVENUE 3 SINGAPORE 550328,328,NIL,1.35028615875324,103.868352627161,103.868352627161,550328,SERANGOON AVENUE 3,328 SERANGOON AVENUE 3 SINGAPORE 550328,31898.8969273409,36933.3270428739
329 SERANGOON AVENUE 3 SINGAPORE 550329,329,NIL,1.34962634280183,103.868063797378,103.868063797378,550329,SERANGOON AVENUE 3,329 SERANGOON AVENUE 3 SINGAPORE 550329,31866.7544473922,36860.3674907181
330 SERANGOON AVENUE 3 SINGAPORE 550330,330,NIL,1.34993696977745,103.869562944176,103.869562944176,550330,SERANGOON AVENUE 3,330 SERANGOON AVENUE 3 SINGAPORE 550330,32033.5922395373,36894.717475256
331 SERANGOON AVENUE 3 SINGAPORE 550331,331,NIL,1.34964853999772,103.870212188005,103.870212188005,550331,SERANGOON AVENUE 3,331 SERANGOON AVENUE 3 SINGAPORE 550331,32105.8463055287,36862.8254628722
332 SERANGOON AVENUE 3 SINGAPORE 550332,332,NIL,1.35101719466947,103.870185119998,103.870185119998,550332,SERANGOON AVENUE 3,332 SERANGOON AVENUE 3 SINGAPORE 550332,32102.831644618,37014.1642918102
333 SERANGOON AVENUE 3 SINGAPORE 550333,333,NIL,1.35049745808834,103.870440178642,103.870440178642,550333,SERANGOON AVENUE 3,333 SERANGOON AVENUE 3 SINGAPORE 550333,32131.21768618,36956.6948948782
334 SERANGOON AVENUE 3 SINGAPORE 550334,334,NIL,1.35024124933334,103.870832447555,103.870832447555,550334,SERANGOON AVENUE 3,334 SERANGOON AVENUE 3 SINGAPORE 550334,32174.873259631,36928.3653031066
335 SERANGOON AVENUE 3 SINGAPORE 550335,335,NIL,1.3494422140895,103.871067807837,103.871067807837,550335,SERANGOON AVENUE 3,335 SERANGOON AVENUE 3 SINGAPORE 550335,32201.0675964924,36840.0124532767
401 SERANGOON AVENUE 1 SINGAPORE 550401,401,NIL,1.34626598680467,103.873199803702,103.873199803702,550401,SERANGOON AVENUE 1,401 SERANGOON AVENUE 1 SINGAPORE 550401,32438.340712022,36488.8051685281
402 SERANGOON AVENUE 1 SINGAPORE 550402,402,NIL,1.34665824913559,103.87290463863,103.87290463863,550402,SERANGOON AVENUE 1,402 SERANGOON AVENUE 1 SINGAPORE 550402,32405.4913838496,36532.179007588
403 SERANGOON AVENUE 1 SINGAPORE 550403,403,NIL,1.34648328086048,103.872494023433,103.872494023433,550403,SERANGOON AVENUE 1,403 SERANGOON AVENUE 1 SINGAPORE 550403,32359.7947494527,36512.8311675712
404 SERANGOON AVENUE 1 SINGAPORE 550404,404,NIL,1.34709953097526,103.872473185452,103.872473185452,550404,SERANGOON AVENUE 1,404 SERANGOON AVENUE 1 SINGAPORE 550404,32357.4746176964,36580.9729344901
405 SERANGOON AVENUE 1 SINGAPORE 550405,405,NIL,1.34770993817735,103.872811484848,103.872811484848,550405,SERANGOON AVENUE 1,405 SERANGOON AVENUE 1 SINGAPORE 550405,32395.1225109361,36648.469266925
406 SERANGOON AVENUE 1 SINGAPORE 550406,406,NIL,1.34765204915862,103.873129208866,103.873129208866,550406,SERANGOON AVENUE 1,406 SERANGOON AVENUE 1 SINGAPORE 550406,32430.4817813905,36642.0687688198
407 SERANGOON AVENUE 1 SINGAPORE 550407,407,NIL,1.34718613034606,103.872968182223,103.872968182223,550407,SERANGOON AVENUE 1,407 SERANGOON AVENUE 1 SINGAPORE 550407,32412.5621361863,36590.54954293
408 SERANGOON AVENUE 1 SINGAPORE 550408,408,NIL,1.34724731259566,103.873453024365,103.873453024365,550408,SERANGOON AVENUE 1,408 SERANGOON AVENUE 1 SINGAPORE 550408,32466.5195995038,36597.3156480119
409 SERANGOON CENTRAL SINGAPORE 550409,409,NIL,1.34814760717489,103.874419496654,103.874419496654,550409,SERANGOON CENTRAL,409 SERANGOON CENTRAL SINGAPORE 550409,32574.0756083876,36696.8674399406
410 SERANGOON CENTRAL SINGAPORE 550410,410,NIL,1.34777896722642,103.873842922123,103.873842922123,550410,SERANGOON CENTRAL,410 SERANGOON CENTRAL SINGAPORE 550410,32509.9099346139,36656.1040328704
411 SERANGOON CENTRAL SINGAPORE 550411,411,NIL,1.34845728580359,103.873946828694,103.873946828694,550411,SERANGOON CENTRAL,411 SERANGOON CENTRAL SINGAPORE 550411,32521.4723346615,36731.1092467047
412 SERANGOON CENTRAL SINGAPORE 550412,412,NIL,1.34847174655036,103.873273380692,103.873273380692,550412,SERANGOON CENTRAL,412 SERANGOON CENTRAL SINGAPORE 550412,32446.5250234799,36732.7070027608
413 SERANGOON CENTRAL SINGAPORE 550413,413,NIL,1.34914801025152,103.873853061746,103.873853061746,550413,SERANGOON CENTRAL,413 SERANGOON CENTRAL SINGAPORE 550413,32511.0358430715,36807.4858726133
414 SERANGOON CENTRAL SINGAPORE 550414,414,NIL,1.34880894396479,103.874405968198,103.874405968198,550414,SERANGOON CENTRAL,414 SERANGOON CENTRAL SINGAPORE 550414,32572.5688076224,36769.9946767259
415 SERANGOON CENTRAL SINGAPORE 550415,415,NIL,1.34979652655763,103.874499574976,103.874499574976,550415,SERANGOON CENTRAL,415 SERANGOON CENTRAL SINGAPORE 550415,32582.9843537668,36879.1967191007
416 SERANGOON CENTRAL SINGAPORE 550416,416,NIL,1.35020561451168,103.87481852314,103.87481852314,550416,SERANGOON CENTRAL,416 SERANGOON CENTRAL SINGAPORE 550416,32618.4789523771,36924.4321904983
417 SERANGOON CENTRAL SINGAPORE 550417,417,NIL,1.34993639393716,103.875055737858,103.875055737858,550417,SERANGOON CENTRAL,417 SERANGOON CENTRAL SINGAPORE 550417,32644.8788088467,36894.663598245
418 SERANGOON CENTRAL SINGAPORE 550418,418,NIL,1.34968017478362,103.875279710468,103.875279710468,550418,SERANGOON CENTRAL,418 SERANGOON CENTRAL SINGAPORE 550418,32669.8049474582,36866.3326141443
419 SERANGOON CENTRAL SINGAPORE 550419,419,NIL,1.34920192004095,103.875859701938,103.875859701938,550419,SERANGOON CENTRAL,419 SERANGOON CENTRAL SINGAPORE 550419,32734.352451846,36813.4507538974
420 SERANGOON CENTRAL SINGAPORE 550420,420,NIL,1.34914910857959,103.875117043231,103.875117043231,550420,SERANGOON CENTRAL,420 SERANGOON CENTRAL SINGAPORE 550420,32651.7029073834,36807.6096989345
421 SERANGOON CENTRAL SINGAPORE 550421,421,NIL,1.348845490498,103.875224639926,103.875224639926,550421,SERANGOON CENTRAL,421 SERANGOON CENTRAL SINGAPORE 550421,32663.6777995136,36774.0373594351
422 SERANGOON CENTRAL SINGAPORE 550422,422,NIL,1.34885014270392,103.87600083488,103.87600083488,550422,SERANGOON CENTRAL,422 SERANGOON CENTRAL SINGAPORE 550422,32750.0596587807,36774.5532772169
423 SERANGOON CENTRAL SINGAPORE 550423,423,NIL,1.3484907716087,103.875588802735,103.875588802735,550423,SERANGOON CENTRAL,423 SERANGOON CENTRAL SINGAPORE 550423,32704.2057519397,36734.8150467556
424 SERANGOON CENTRAL SINGAPORE 550424,424,NIL,1.34814738936672,103.875590835007,103.875590835007,550424,SERANGOON CENTRAL,424 SERANGOON CENTRAL SINGAPORE 550424,32704.4325802103,36696.8455864564
425 SERANGOON AVENUE 1 SINGAPORE 550425,425,NIL,1.34812643498708,103.876605097771,103.876605097771,550425,SERANGOON AVENUE 1,425 SERANGOON AVENUE 1 SINGAPORE 550425,32817.30882286,36694.5305397213
426 SERANGOON AVENUE 1 SINGAPORE 550426,426,NIL,1.34779505728772,103.876022094599,103.876022094599,550426,SERANGOON AVENUE 1,426 SERANGOON AVENUE 1 SINGAPORE 550426,32752.4276744872,36657.8873316664
427 SERANGOON CENTRAL SINGAPORE 550427,427,NIL,1.34778813419006,103.875198480006,103.875198480006,550427,SERANGOON CENTRAL,427 SERANGOON CENTRAL SINGAPORE 550427,32660.768501455,36657.1202198863
500 SERANGOON NORTH AVENUE 4 SINGAPORE 550500,500,NIL,1.37452601630701,103.875744233814,103.875744233814,550500,SERANGOON NORTH AVENUE 4,500 SERANGOON NORTH AVENUE 4 SINGAPORE 550500,32721.4528728137,39613.6607899554
501 SERANGOON NORTH AVENUE 4 SINGAPORE 550501,501,NIL,1.37418391177285,103.876105569742,103.876105569742,550501,SERANGOON NORTH AVENUE 4,501 SERANGOON NORTH AVENUE 4 SINGAPORE 550501,32761.6657960648,39575.8333167676
502 SERANGOON NORTH AVENUE 4 SINGAPORE 550502,502,NIL,1.37448766567895,103.876464914567,103.876464914567,550502,SERANGOON NORTH AVENUE 4,502 SERANGOON NORTH AVENUE 4 SINGAPORE 550502,32801.6558561521,39609.4216074962
503 SERANGOON NORTH AVENUE 4 SINGAPORE 550503,503,NIL,1.37400147807724,103.876535806284,103.876535806284,550503,SERANGOON NORTH AVENUE 4,503 SERANGOON NORTH AVENUE 4 SINGAPORE 550503,32809.5462049516,39555.6615822352
504 SERANGOON NORTH AVENUE 4 SINGAPORE 550504,504,NIL,1.37387843222693,103.876307853422,103.876307853422,550504,SERANGOON NORTH AVENUE 4,504 SERANGOON NORTH AVENUE 4 SINGAPORE 550504,32784.1780932425,39542.0553365871
505 SERANGOON NORTH AVENUE 4 SINGAPORE 550505,505,NIL,1.37324463481653,103.876301643689,103.876301643689,550505,SERANGOON NORTH AVENUE 4,505 SERANGOON NORTH AVENUE 4 SINGAPORE 550505,32783.4882858936,39471.9732103031
506 SERANGOON NORTH AVENUE 4 SINGAPORE 550506,506,NIL,1.37281631901907,103.876339684598,103.876339684598,550506,SERANGOON NORTH AVENUE 4,506 SERANGOON NORTH AVENUE 4 SINGAPORE 550506,32787.7226254754,39424.612290822
507 SERANGOON NORTH AVENUE 4 SINGAPORE 550507,507,NIL,1.37195725612878,103.875267195326,103.875267195326,550507,SERANGOON NORTH AVENUE 4,507 SERANGOON NORTH AVENUE 4 SINGAPORE 550507,32668.3693369897,39329.619341528
508 SERANGOON NORTH AVENUE 4 SINGAPORE 550508,508,NIL,1.37184770991728,103.875761256028,103.875761256028,550508,SERANGOON NORTH AVENUE 4,508 SERANGOON NORTH AVENUE 4 SINGAPORE 550508,32723.3524914719,39317.5072446279
509 SERANGOON NORTH AVENUE 4 SINGAPORE 550509,509,NIL,1.37189519100427,103.876252083471,103.876252083471,550509,SERANGOON NORTH AVENUE 4,509 SERANGOON NORTH AVENUE 4 SINGAPORE 550509,32777.9755174834,39322.7584371232
510 SERANGOON NORTH AVENUE 4 SINGAPORE 550510,510,NIL,1.3705945092529,103.875781975365,103.875781975365,550510,SERANGOON NORTH AVENUE 4,510 SERANGOON NORTH AVENUE 4 SINGAPORE 550510,32725.6607581778,39178.9346945211
511 SERANGOON NORTH AVENUE 4 SINGAPORE 550511,511,NIL,1.3711995231746,103.87563237216,103.87563237216,550511,SERANGOON NORTH AVENUE 4,511 SERANGOON NORTH AVENUE 4 SINGAPORE 550511,32709.0105522107,39245.8337791003
512 SERANGOON NORTH AVENUE 4 SINGAPORE 550512,512,NIL,1.37151235781968,103.875246643629,103.875246643629,550512,SERANGOON NORTH AVENUE 4,512 SERANGOON NORTH AVENUE 4 SINGAPORE 550512,32666.08304484,39280.4246967882
514 SERANGOON NORTH AVENUE 4 SINGAPORE 550514,514,NIL,1.37089010645534,103.874391232178,103.874391232178,550514,SERANGOON NORTH AVENUE 4,514 SERANGOON NORTH AVENUE 4 SINGAPORE 550514,32570.8873303225,39211.6176395863
515 SERANGOON NORTH AVENUE 4 SINGAPORE 550515,515,NIL,1.37105729858031,103.873688060002,103.873688060002,550515,SERANGOON NORTH AVENUE 4,515 SERANGOON NORTH AVENUE 4 SINGAPORE 550515,32492.6324852202,39230.103568498
516 SERANGOON NORTH AVENUE 4 SINGAPORE 550516,516,NIL,1.37123838088051,103.873306943445,103.873306943445,550516,SERANGOON NORTH AVENUE 4,516 SERANGOON NORTH AVENUE 4 SINGAPORE 550516,32450.2185044605,39250.1260213349
517 SERANGOON NORTH AVENUE 4 SINGAPORE 550517,517,NIL,1.37132342766086,103.874085635267,103.874085635267,550517,SERANGOON NORTH AVENUE 4,517 SERANGOON NORTH AVENUE 4 SINGAPORE 550517,32536.8772855103,39259.5315248631
518 SERANGOON NORTH AVENUE 4 SINGAPORE 550518,518,NIL,1.37164118155193,103.874103124013,103.874103124013,550518,SERANGOON NORTH AVENUE 4,518 SERANGOON NORTH AVENUE 4 SINGAPORE 550518,32538.8229720397,39294.667175455
519 SERANGOON NORTH AVENUE 4 SINGAPORE 550519,519,NIL,1.37199223431895,103.874590319684,103.874590319684,550519,SERANGOON NORTH AVENUE 4,519 SERANGOON NORTH AVENUE 4 SINGAPORE 550519,32593.0412545726,39333.4857435003
520 SERANGOON NORTH AVENUE 4 SINGAPORE 550520,520,NIL,1.37203549075077,103.873724425334,103.873724425334,550520,SERANGOON NORTH AVENUE 4,520 SERANGOON NORTH AVENUE 4 SINGAPORE 550520,32496.677680172,39338.267176887
521 SERANGOON NORTH AVENUE 4 SINGAPORE 550521,521,NIL,1.37335579110496,103.873242699243,103.873242699243,550521,SERANGOON NORTH AVENUE 4,521 SERANGOON NORTH AVENUE 4 SINGAPORE 550521,32443.0649994565,39484.2584098037
522 SERANGOON NORTH AVENUE 4 SINGAPORE 550522,522,NIL,1.37263476681332,103.873398297569,103.873398297569,550522,SERANGOON NORTH AVENUE 4,522 SERANGOON NORTH AVENUE 4 SINGAPORE 550522,32460.3825236605,39404.5314813126
523 SERANGOON NORTH AVENUE 4 SINGAPORE 550523,523,NIL,1.37301246682554,103.872876048422,103.872876048422,550523,SERANGOON NORTH AVENUE 4,523 SERANGOON NORTH AVENUE 4 SINGAPORE 550523,32402.2618807908,39446.2946701534
524 SERANGOON NORTH AVENUE 4 SINGAPORE 550524,524,NIL,1.37269507866103,103.872856788426,103.872856788426,550524,SERANGOON NORTH AVENUE 4,524 SERANGOON NORTH AVENUE 4 SINGAPORE 550524,32400.1190588837,39411.1994575895
525 SERANGOON NORTH AVENUE 4 SINGAPORE 550525,525,NIL,1.37214320446568,103.87273701463,103.87273701463,550525,SERANGOON NORTH AVENUE 4,525 SERANGOON NORTH AVENUE 4 SINGAPORE 550525,32386.7907035938,39350.1757821329
526 SERANGOON NORTH AVENUE 4 SINGAPORE 550526,526,NIL,1.37177912019467,103.872785610012,103.872785610012,550526,SERANGOON NORTH AVENUE 4,526 SERANGOON NORTH AVENUE 4 SINGAPORE 550526,32392.199440944,39309.9172752984
527 SERANGOON NORTH AVENUE 4 SINGAPORE 550527,527,NIL,1.37132989972491,103.872922899677,103.872922899677,550527,SERANGOON NORTH AVENUE 4,527 SERANGOON NORTH AVENUE 4 SINGAPORE 550527,32407.4789310005,39260.2450017761
528 SERANGOON NORTH AVENUE 4 SINGAPORE 550528,528,NIL,1.371418523926,103.872179843498,103.872179843498,550528,SERANGOON NORTH AVENUE 4,528 SERANGOON NORTH AVENUE 4 SINGAPORE 550528,32324.7856493015,39270.0432626605
529 SERANGOON NORTH AVENUE 4 SINGAPORE 550529,529,NIL,1.37280032208417,103.872107966128,103.872107966128,550529,SERANGOON NORTH AVENUE 4,529 SERANGOON NORTH AVENUE 4 SINGAPORE 550529,32316.7840959299,39422.8353785705
530 SERANGOON NORTH AVENUE 4 SINGAPORE 550530,530,NIL,1.37339499084047,103.872462890152,103.872462890152,550530,SERANGOON NORTH AVENUE 4,530 SERANGOON NORTH AVENUE 4 SINGAPORE 550530,32356.2817261899,39488.5914835483
531 SERANGOON NORTH AVENUE 4 SINGAPORE 550531,531,NIL,1.37481936231407,103.875125282456,103.875125282456,550531,SERANGOON NORTH AVENUE 4,531 SERANGOON NORTH AVENUE 4 SINGAPORE 550531,32652.5706299413,39646.0962942541
532 SERANGOON NORTH AVENUE 4 SINGAPORE 550532,532,NIL,1.3748688262284,103.874126764503,103.874126764503,550532,SERANGOON NORTH AVENUE 4,532 SERANGOON NORTH AVENUE 4 SINGAPORE 550532,32541.4477813197,39651.5638422966
533 SERANGOON NORTH AVENUE 4 SINGAPORE 550533,533,NIL,1.37453577975309,103.874598251793,103.874598251793,550533,SERANGOON NORTH AVENUE 4,533 SERANGOON NORTH AVENUE 4 SINGAPORE 550533,32593.9191471729,39614.7381485682
534 SERANGOON NORTH AVENUE 4 SINGAPORE 550534,534,NIL,1.37421846169094,103.874578898537,103.874578898537,550534,SERANGOON NORTH AVENUE 4,534 SERANGOON NORTH AVENUE 4 SINGAPORE 550534,32591.7659736155,39579.6506846063
535 SERANGOON NORTH AVENUE 4 SINGAPORE 550535,535,NIL,1.37380603093526,103.873980237636,103.873980237636,550535,SERANGOON NORTH AVENUE 4,535 SERANGOON NORTH AVENUE 4 SINGAPORE 550535,32525.1431449233,39534.0450357683
536 SERANGOON NORTH AVENUE 4 SINGAPORE 550536,536,NIL,1.3738757370708,103.875172781418,103.875172781418,550536,SERANGOON NORTH AVENUE 4,536 SERANGOON NORTH AVENUE 4 SINGAPORE 550536,32657.8585072327,39541.7550781891
537 SERANGOON NORTH AVENUE 4 SINGAPORE 550537,537,NIL,1.37386057751621,103.873017935039,103.873017935039,550537,SERANGOON NORTH AVENUE 4,537 SERANGOON NORTH AVENUE 4 SINGAPORE 550537,32418.0505691376,39540.0747208055
538 SERANGOON NORTH AVENUE 4 SINGAPORE 550538,538,NIL,1.37491459857485,103.873217877598,103.873217877598,550538,SERANGOON NORTH AVENUE 4,538 SERANGOON NORTH AVENUE 4 SINGAPORE 550538,32440.2997770002,39656.6234081872
539 SERANGOON NORTH AVENUE 4 SINGAPORE 550539,539,NIL,1.37496192242403,103.872188582292,103.872188582292,550539,SERANGOON NORTH AVENUE 4,539 SERANGOON NORTH AVENUE 4 SINGAPORE 550539,32325.7518033423,39661.8543514013
540 SERANGOON NORTH AVENUE 4 SINGAPORE 550540,540,NIL,1.37461893085731,103.872573520638,103.872573520638,550540,SERANGOON NORTH AVENUE 4,540 SERANGOON NORTH AVENUE 4 SINGAPORE 550540,32368.5913216844,39623.9287796784
541 SERANGOON NORTH AVENUE 4 SINGAPORE 550541,541,NIL,1.3743011567015,103.872556024989,103.872556024989,550541,SERANGOON NORTH AVENUE 4,541 SERANGOON NORTH AVENUE 4 SINGAPORE 550541,32366.6448481875,39588.7908892576
542 SERANGOON NORTH AVENUE 4 SINGAPORE 550542,542,NIL,1.37409116805565,103.871889651813,103.871889651813,550542,SERANGOON NORTH AVENUE 4,542 SERANGOON NORTH AVENUE 4 SINGAPORE 550542,32292.4860785175,39565.5702001899
543 SERANGOON NORTH AVENUE 3 SINGAPORE 550543,543,NIL,1.37439339964871,103.871263247965,103.871263247965,550543,SERANGOON NORTH AVENUE 3,543 SERANGOON NORTH AVENUE 3 SINGAPORE 550543,32222.7744928906,39598.9883243125
544 SERANGOON NORTH AVENUE 3 SINGAPORE 550544,544,NIL,1.37440959294033,103.870931188069,103.870931188069,550544,SERANGOON NORTH AVENUE 3,544 SERANGOON NORTH AVENUE 3 SINGAPORE 550544,32185.8202813026,39600.7783123329
545 SERANGOON NORTH AVENUE 3 SINGAPORE 550545,545,NIL,1.37502513517102,103.87107476216,103.87107476216,550545,SERANGOON NORTH AVENUE 3,545 SERANGOON NORTH AVENUE 3 SINGAPORE 550545,32201.7972365078,39668.8421089258
546 SERANGOON NORTH AVENUE 3 SINGAPORE 550546,546,NIL,1.37482523313127,103.870146844732,103.870146844732,550546,SERANGOON NORTH AVENUE 3,546 SERANGOON NORTH AVENUE 3 SINGAPORE 550546,32098.5318051195,39646.7363410387
547 SERANGOON NORTH AVENUE 3 SINGAPORE 550547,547,NIL,1.37375213159225,103.87064478064,103.87064478064,550547,SERANGOON NORTH AVENUE 3,547 SERANGOON NORTH AVENUE 3 SINGAPORE 550547,32153.9477917682,39528.0790648386
548 SERANGOON NORTH AVENUE 3 SINGAPORE 550548,548,NIL,1.37315869844339,103.870675913355,103.870675913355,550548,SERANGOON NORTH AVENUE 3,548 SERANGOON NORTH AVENUE 3 SINGAPORE 550548,32157.4135061717,39462.4602857009
549 SERANGOON NORTH AVENUE 3 SINGAPORE 550549,549,NIL,1.37267603966139,103.871093152446,103.871093152446,550549,SERANGOON NORTH AVENUE 3,549 SERANGOON NORTH AVENUE 3 SINGAPORE 550549,32203.8479529405,39409.091050379
550 SERANGOON NORTH AVENUE 3 SINGAPORE 550550,550,NIL,1.37270991331545,103.870604794931,103.870604794931,550550,SERANGOON NORTH AVENUE 3,550 SERANGOON NORTH AVENUE 3 SINGAPORE 550550,32149.4996694168,39412.8357750569
551 SERANGOON NORTH AVENUE 3 SINGAPORE 550551,551,NIL,1.37235594099349,103.870847793487,103.870847793487,550551,SERANGOON NORTH AVENUE 3,551 SERANGOON NORTH AVENUE 3 SINGAPORE 550551,32176.5430534892,39373.695730757
552 SERANGOON NORTH AVENUE 3 SINGAPORE 550552,552,NIL,1.37232463489768,103.871285200803,103.871285200803,550552,SERANGOON NORTH AVENUE 3,552 SERANGOON NORTH AVENUE 3 SINGAPORE 550552,32225.2212053547,39370.234828962
553 SERANGOON NORTH AVENUE 3 SINGAPORE 550553,553,NIL,1.37171071388476,103.871233716329,103.871233716329,550553,SERANGOON NORTH AVENUE 3,553 SERANGOON NORTH AVENUE 3 SINGAPORE 550553,32219.492686756,39302.3504609764
554 SERANGOON NORTH AVENUE 3 SINGAPORE 550554,554,NIL,1.37196720849201,103.870390127568,103.870390127568,550554,SERANGOON NORTH AVENUE 3,554 SERANGOON NORTH AVENUE 3 SINGAPORE 550554,32125.6110870196,39330.7108655572
135A SERANGOON NORTH AVENUE 2 SINGAPORE 551135,135A,NIL,1.36744124433254,103.875214638519,103.875214638519,551135,SERANGOON NORTH AVENUE 2,135A SERANGOON NORTH AVENUE 2 SINGAPORE 551135,32662.5291295322,38830.2615059055
141A SERANGOON NORTH AVENUE 1 MULTI STOREY CAR PARK SINGAPORE 551141,141A,MULTI STOREY CAR PARK,1.36785968178624,103.874445762144,103.874445762144,551141,SERANGOON NORTH AVENUE 1,MULTI STOREY CAR PARK,32576.9616000988,38876.5287220646
149A SERANGOON NORTH AVENUE 1 GOLDEN GINGER SINGAPORE 551149,149A,GOLDEN GINGER,1.36700481675918,103.873272091323,103.873272091323,551149,SERANGOON NORTH AVENUE 1,GOLDEN GINGER,32446.3476833627,38781.9998717643
151A SERANGOON NORTH AVENUE 2 SINGAPORE 551151,151A,NIL,1.36953424620889,103.873492369263,103.873492369263,551151,SERANGOON NORTH AVENUE 2,151A SERANGOON NORTH AVENUE 2 SINGAPORE 551151,32470.8573042499,39061.691780664
152A SERANGOON NORTH AVENUE 1 SINGAPORE 551152,152A,NIL,1.36978741062913,103.872742681692,103.872742681692,551152,SERANGOON NORTH AVENUE 1,152A SERANGOON NORTH AVENUE 1 SINGAPORE 551152,32387.4256653562,39089.6840357576
153A SERANGOON NORTH AVENUE 1 SINGAPORE 551153,153A,NIL,1.36965187438477,103.871952820503,103.871952820503,551153,SERANGOON NORTH AVENUE 1,153A SERANGOON NORTH AVENUE 1 SINGAPORE 551153,32299.523899287,39074.695693437
157A SERANGOON NORTH AVENUE 1 SINGAPORE 551157,157A,NIL,1.3712845683801,103.869490759237,103.869490759237,551157,SERANGOON NORTH AVENUE 1,157A SERANGOON NORTH AVENUE 1 SINGAPORE 551157,32025.523491242,39255.2264490034
202A SERANGOON CENTRAL SINGAPORE 551202,202A,NIL,1.35177929136076,103.873255435228,103.873255435228,551202,SERANGOON CENTRAL,202A SERANGOON CENTRAL SINGAPORE 551202,32444.5218883175,37098.4384702984
208A SERANGOON CENTRAL SINGAPORE 551208,208A,NIL,1.3544588833669,103.873571636102,103.873571636102,551208,SERANGOON CENTRAL,208A SERANGOON CENTRAL SINGAPORE 551208,32479.7065730412,37394.7347291708
212A SERANGOON AVENUE 4 SINGAPORE 551212,212A,NIL,1.35652651743538,103.873197646404,103.873197646404,551212,SERANGOON AVENUE 4,212A SERANGOON AVENUE 4 SINGAPORE 551212,32438.0820115656,37623.3625215832
215A SERANGOON AVENUE 4 SINGAPORE 551215,215A,NIL,1.35790318644396,103.872967260567,103.872967260567,551215,SERANGOON AVENUE 4,215A SERANGOON AVENUE 4 SINGAPORE 551215,32412.440216748,37775.5871733334
223A SERANGOON AVENUE 4 SINGAPORE 551223,223A,NIL,1.35784166371874,103.871144562235,103.871144562235,551223,SERANGOON AVENUE 4,223A SERANGOON AVENUE 4 SINGAPORE 551223,32209.5950258123,37768.781053979
232A SERANGOON AVENUE 2 SINGAPORE 551232,232A,NIL,1.35425419082461,103.868542956652,103.868542956652,551232,SERANGOON AVENUE 2,232A SERANGOON AVENUE 2 SINGAPORE 551232,31920.0721060699,37372.0921585914
234A SERANGOON AVENUE 2 SINGAPORE 551234,234A,NIL,1.35429542901204,103.869169644979,103.869169644979,551234,SERANGOON AVENUE 2,234A SERANGOON AVENUE 2 SINGAPORE 551234,31989.8153217398,37376.653089717
236A SERANGOON AVENUE 2 SINGAPORE 551236,236A,NIL,1.35387693926748,103.869510740238,103.869510740238,551236,SERANGOON AVENUE 2,236A SERANGOON AVENUE 2 SINGAPORE 551236,32027.7760345908,37330.3791843336
238A SERANGOON AVENUE 2 MULTI STOREY CAR PARK SINGAPORE 551238,238A,MULTI STOREY CAR PARK,1.35391111924878,103.868602093981,103.868602093981,551238,SERANGOON AVENUE 2,MULTI STOREY CAR PARK,31926.6539699333,37334.1571432576
254A SERANGOON CENTRAL DRIVE SINGAPORE 551254,254A,NIL,1.35398521044813,103.871359513778,103.871359513778,551254,SERANGOON CENTRAL DRIVE,254A SERANGOON CENTRAL DRIVE SINGAPORE 551254,32233.5233500721,37342.3544094116
256A SERANGOON CENTRAL DRIVE SINGAPORE 551256,256A,NIL,1.35521630116707,103.871627642881,103.871627642881,551256,SERANGOON CENTRAL DRIVE,256A SERANGOON CENTRAL DRIVE SINGAPORE 551256,32263.3609230611,37478.482638225
257A SERANGOON CENTRAL DRIVE MULTI STOREY CAR PARK SINGAPORE 551257,257A,MULTI STOREY CAR PARK,1.35520852789432,103.87236555832,103.87236555832,551257,SERANGOON CENTRAL DRIVE,MULTI STOREY CAR PARK,32345.4825030835,37477.6244198158
306A SERANGOON AVENUE 2 SINGAPORE 551306,306A,NIL,1.35435133753441,103.866734472157,103.866734472157,551306,SERANGOON AVENUE 2,306A SERANGOON AVENUE 2 SINGAPORE 551306,31718.808205408,37382.8312997501
334A SERANGOON AVENUE 3 SINGAPORE 551334,334A,NIL,1.35050607936522,103.870984540013,103.870984540013,551334,SERANGOON AVENUE 3,334A SERANGOON AVENUE 3 SINGAPORE 551334,32191.7989950543,36957.6491233334
410A SERANGOON CENTRAL MULTI STOREY CAR PARK SINGAPORE 551410,410A,MULTI STOREY CAR PARK,1.34820820469065,103.873594145652,103.873594145652,551410,SERANGOON CENTRAL,MULTI STOREY CAR PARK,32482.2230834756,36703.5664711688
506A SERANGOON NORTH AVENUE 4 SINGAPORE 551506,506A,NIL,1.37302429036592,103.875829212325,103.875829212325,551506,SERANGOON NORTH AVENUE 4,506A SERANGOON NORTH AVENUE 4 SINGAPORE 551506,32730.9128889805,39447.6076952871
512A SERANGOON NORTH AVENUE 4 MULTI STOREY CAR PARK SINGAPORE 551512,512A,MULTI STOREY CAR PARK,1.37096043211136,103.875105987065,103.875105987065,551512,SERANGOON NORTH AVENUE 4,MULTI STOREY CAR PARK,32650.4307440287,39219.3952704147
535A SERANGOON NORTH AVENUE 4 SINGAPORE 551535,535A,NIL,1.3735653538544,103.874537236943,103.874537236943,551535,SERANGOON NORTH AVENUE 4,535A SERANGOON NORTH AVENUE 4 SINGAPORE 551535,32587.1307951249,39507.4332428761
542A SERANGOON NORTH AVENUE 4 MULTI STOREY CAR PARK SINGAPORE 551542,542A,MULTI STOREY CAR PARK,1.37352816200599,103.87169704269,103.87169704269,551542,SERANGOON NORTH AVENUE 4,MULTI STOREY CAR PARK,32271.0520479912,39503.3154955674
546A SERANGOON NORTH AVENUE 3 MULTI STOREY CAR PARK SINGAPORE 551546,546A,MULTI STOREY CAR PARK,1.37404886396678,103.870134120792,103.870134120792,551546,SERANGOON NORTH AVENUE 3,MULTI STOREY CAR PARK,32097.1171098286,39560.8893473111
550A SERANGOON NORTH AVENUE 3 MULTI STOREY CAR PARK SINGAPORE 551550,550A,MULTI STOREY CAR PARK,1.37256061020502,103.870003321094,103.870003321094,551550,SERANGOON NORTH AVENUE 3,MULTI STOREY CAR PARK,32082.5632341458,39396.3255585153
152B SERANGOON NORTH AVENUE 1 SINGAPORE 552152,152B,NIL,1.36979940374161,103.87303579046,103.87303579046,552152,SERANGOON NORTH AVENUE 1,152B SERANGOON NORTH AVENUE 1 SINGAPORE 552152,32420.0451081926,39091.0107117519
157B SERANGOON NORTH AVENUE 1 SINGAPORE 552157,157B,NIL,1.37127827424629,103.869305077827,103.869305077827,552157,SERANGOON NORTH AVENUE 1,157B SERANGOON NORTH AVENUE 1 SINGAPORE 552157,32004.8594176862,39254.5301643051
208B SERANGOON CENTRAL SINGAPORE 552208,208B,NIL,1.35460222235219,103.873610464866,103.873610464866,552208,SERANGOON CENTRAL,208B SERANGOON CENTRAL SINGAPORE 552208,32484.0275093252,37410.5844983067
223B SERANGOON AVENUE 4 SINGAPORE 552223,223B,NIL,1.3575727871164,103.870993616964,103.870993616964,552223,SERANGOON AVENUE 4,223B SERANGOON AVENUE 4 SINGAPORE 552223,32192.797021281,37739.0497821495
506B SERANGOON NORTH AVENUE 4 SINGAPORE 552506,506B,NIL,1.37247361637556,103.875802118899,103.875802118899,552506,SERANGOON NORTH AVENUE 4,506B SERANGOON NORTH AVENUE 4 SINGAPORE 552506,32727.8988031624,39386.7168962806
542B SERANGOON NORTH AVENUE 3 SINGAPORE 552542,542B,NIL,1.37368393003779,103.871416978631,103.871416978631,552542,SERANGOON NORTH AVENUE 3,542B SERANGOON NORTH AVENUE 3 SINGAPORE 552542,32239.8840760468,39520.5390376821
157C SERANGOON NORTH AVENUE 1 SINGAPORE 553157,157C,NIL,1.37145323053141,103.869106725692,103.869106725692,553157,SERANGOON NORTH AVENUE 1,157C SERANGOON NORTH AVENUE 1 SINGAPORE 553157,31982.7849468933,39273.8756131511
2T BURGHLEY DRIVE SINGAPORE 554294,2T,NIL,1.35689677020878,103.864979101095,103.864979101095,554294,BURGHLEY DRIVE,2T BURGHLEY DRIVE SINGAPORE 554294,31523.4517071284,37664.2896784469
2S BURGHLEY DRIVE SINGAPORE 554295,2S,NIL,1.35692136939035,103.864923679171,103.864923679171,554295,BURGHLEY DRIVE,2S BURGHLEY DRIVE SINGAPORE 554295,31517.2838487467,37667.0096502677
2R BURGHLEY DRIVE SINGAPORE 554296,2R,NIL,1.35695086229401,103.86487374745,103.86487374745,554296,BURGHLEY DRIVE,2R BURGHLEY DRIVE SINGAPORE 554296,31511.7269798834,37670.2707531005
2Q BURGHLEY DRIVE SINGAPORE 554297,2Q,NIL,1.35694536573021,103.864811760138,103.864811760138,554297,BURGHLEY DRIVE,2Q BURGHLEY DRIVE SINGAPORE 554297,31504.8285129108,37669.6628811844
2P BURGHLEY DRIVE SINGAPORE 554298,2P,NIL,1.35696952668179,103.864754803708,103.864754803708,554298,BURGHLEY DRIVE,2P BURGHLEY DRIVE SINGAPORE 554298,31498.4898825651,37672.3343939632
1 CHUAN LANE SINGAPORE 554299,1,NIL,1.35003368803957,103.859112177356,103.859112177356,554299,CHUAN LANE,1 CHUAN LANE SINGAPORE 554299,30870.5386391925,36905.3972608987
18A BERWICK DRIVE SINGAPORE 554300,18A,NIL,1.36475615353343,103.861205803958,103.861205803958,554300,BERWICK DRIVE,18A BERWICK DRIVE SINGAPORE 554300,31103.5170910489,38533.3351584189
20A BERWICK DRIVE SINGAPORE 554301,20A,NIL,1.36462872242784,103.861134836226,103.861134836226,554301,BERWICK DRIVE,20A BERWICK DRIVE SINGAPORE 554301,31095.6193871293,38519.2443828862
25A TAVISTOCK AVENUE SERANGOON GARDEN ESTATE SINGAPORE 554302,25A,SERANGOON GARDEN ESTATE,1.36906399860565,103.862562369343,103.862562369343,554302,TAVISTOCK AVENUE,SERANGOON GARDEN ESTATE,31254.4809299381,39009.6765835937
68A BERWICK DRIVE SERANGOON GARDEN ESTATE SINGAPORE 554303,68A,SERANGOON GARDEN ESTATE,1.36181097415553,103.85941839328,103.85941839328,554303,BERWICK DRIVE,SERANGOON GARDEN ESTATE,30904.6030150354,38207.6699657496
32 SERANGOON NORTH AVENUE 1 AFFINITY AT SERANGOON SINGAPORE 554304,32,AFFINITY AT SERANGOON,1.36597024605313,103.874441963922,103.874441963922,554304,SERANGOON NORTH AVENUE 1,AFFINITY AT SERANGOON,32576.5424793288,38667.6044790111
32A SERANGOON NORTH AVENUE 1 AFFINITY AT SERANGOON SINGAPORE 554305,32A,AFFINITY AT SERANGOON,1.36594090151071,103.874400941431,103.874400941431,554305,SERANGOON NORTH AVENUE 1,AFFINITY AT SERANGOON,32571.9772198806,38664.3596300855
34 SERANGOON NORTH AVENUE 1 AFFINITY AT SERANGOON SINGAPORE 554306,34,AFFINITY AT SERANGOON,1.36591217970356,103.874360270077,103.874360270077,554306,SERANGOON NORTH AVENUE 1,AFFINITY AT SERANGOON,32567.4510363992,38661.1836408209
34A SERANGOON NORTH AVENUE 1 AFFINITY AT SERANGOON SINGAPORE 554307,34A,AFFINITY AT SERANGOON,1.36588359667132,103.874320000438,103.874320000438,554307,SERANGOON NORTH AVENUE 1,AFFINITY AT SERANGOON,32562.9695587298,38658.0229974259
36 SERANGOON NORTH AVENUE 1 AFFINITY AT SERANGOON SINGAPORE 554308,36,AFFINITY AT SERANGOON,1.36585485268443,103.874279675858,103.874279675858,554308,SERANGOON NORTH AVENUE 1,AFFINITY AT SERANGOON,32558.4819669286,38654.8445564564
36A SERANGOON NORTH AVENUE 1 AFFINITY AT SERANGOON SINGAPORE 554309,36A,AFFINITY AT SERANGOON,1.36582612402805,103.874239223449,103.874239223449,554309,SERANGOON NORTH AVENUE 1,AFFINITY AT SERANGOON,32553.9801491741,38651.6678104922
38 SERANGOON NORTH AVENUE 1 AFFINITY AT SERANGOON SINGAPORE 554310,38,AFFINITY AT SERANGOON,1.36579775231737,103.874198835234,103.874198835234,554310,SERANGOON NORTH AVENUE 1,AFFINITY AT SERANGOON,32549.4854746638,38648.5305339806
38A SERANGOON NORTH AVENUE 1 AFFINITY AT SERANGOON SINGAPORE 554311,38A,AFFINITY AT SERANGOON,1.36576912931061,103.874158955888,103.874158955888,554311,SERANGOON NORTH AVENUE 1,AFFINITY AT SERANGOON,32545.0474315509,38645.3654714599
40 SERANGOON NORTH AVENUE 1 AFFINITY AT SERANGOON SINGAPORE 554312,40,AFFINITY AT SERANGOON,1.3657404789372,103.874118645184,103.874118645184,554312,SERANGOON NORTH AVENUE 1,AFFINITY AT SERANGOON,32540.5613834169,38642.197382139
40A SERANGOON NORTH AVENUE 1 AFFINITY AT SERANGOON SINGAPORE 554313,40A,AFFINITY AT SERANGOON,1.36571155729817,103.874078086704,103.874078086704,554313,SERANGOON NORTH AVENUE 1,AFFINITY AT SERANGOON,32536.0477611488,38638.9992972482
42 SERANGOON NORTH AVENUE 1 AFFINITY AT SERANGOON SINGAPORE 554314,42,AFFINITY AT SERANGOON,1.36568309360788,103.874037846175,103.874037846175,554314,SERANGOON NORTH AVENUE 1,AFFINITY AT SERANGOON,32531.5695221536,38635.8518506922
42A SERANGOON NORTH AVENUE 1 AFFINITY AT SERANGOON SINGAPORE 554315,42A,AFFINITY AT SERANGOON,1.36565442270983,103.873997098948,103.873997098948,554315,SERANGOON NORTH AVENUE 1,AFFINITY AT SERANGOON,32527.0348939048,38632.6814912744
44 SERANGOON NORTH AVENUE 1 AFFINITY AT SERANGOON SINGAPORE 554316,44,AFFINITY AT SERANGOON,1.36562560811021,103.873955830609,103.873955830609,554316,SERANGOON NORTH AVENUE 1,AFFINITY AT SERANGOON,32522.4422722002,38629.4952411652
46 SERANGOON NORTH AVENUE 1 AFFINITY AT SERANGOON SINGAPORE 554317,46,AFFINITY AT SERANGOON,1.36527819362642,103.87377606409,103.87377606409,554317,SERANGOON NORTH AVENUE 1,AFFINITY AT SERANGOON,32502.4370418461,38591.0795702506
46A SERANGOON NORTH AVENUE 1 AFFINITY AT SERANGOON SINGAPORE 554318,46A,AFFINITY AT SERANGOON,1.36530787514726,103.873816973696,103.873816973696,554318,SERANGOON NORTH AVENUE 1,AFFINITY AT SERANGOON,32506.9897400802,38594.3616790641
48 SERANGOON NORTH AVENUE 1 AFFINITY AT SERANGOON SINGAPORE 554319,48,AFFINITY AT SERANGOON,1.36533613354034,103.873857313484,103.873857313484,554319,SERANGOON NORTH AVENUE 1,AFFINITY AT SERANGOON,32511.4790268894,38597.4864246324
48A SERANGOON NORTH AVENUE 1 AFFINITY AT SERANGOON SINGAPORE 554320,48A,AFFINITY AT SERANGOON,1.36536482333625,103.873897612212,103.873897612212,554320,SERANGOON NORTH AVENUE 1,AFFINITY AT SERANGOON,32515.9637432331,38600.658872541
50 SERANGOON NORTH AVENUE 1 AFFINITY AT SERANGOON SINGAPORE 554321,50,AFFINITY AT SERANGOON,1.36539335108039,103.8739379841,103.8739379841,554321,SERANGOON NORTH AVENUE 1,AFFINITY AT SERANGOON,32520.4566016644,38603.8134018034
50A SERANGOON NORTH AVENUE 1 AFFINITY AT SERANGOON SINGAPORE 554322,50A,AFFINITY AT SERANGOON,1.36542207645666,103.873978487902,103.873978487902,554322,SERANGOON NORTH AVENUE 1,AFFINITY AT SERANGOON,32524.9641400669,38606.9897845518
52 SERANGOON NORTH AVENUE 1 AFFINITY AT SERANGOON SINGAPORE 554323,52,AFFINITY AT SERANGOON,1.36545062691548,103.874019077375,103.874019077375,554323,SERANGOON NORTH AVENUE 1,AFFINITY AT SERANGOON,32529.4812128851,38610.1468260568
52A SERANGOON NORTH AVENUE 1 AFFINITY AT SERANGOON SINGAPORE 554324,52A,AFFINITY AT SERANGOON,1.36547946397487,103.874059487076,103.874059487076,554324,SERANGOON NORTH AVENUE 1,AFFINITY AT SERANGOON,32533.9782785662,38613.3355581425
54 SERANGOON NORTH AVENUE 1 AFFINITY AT SERANGOON SINGAPORE 554325,54,AFFINITY AT SERANGOON,1.36550776753609,103.874099443109,103.874099443109,554325,SERANGOON NORTH AVENUE 1,AFFINITY AT SERANGOON,32538.4248572504,38616.4652979262
54A SERANGOON NORTH AVENUE 1 AFFINITY AT SERANGOON SINGAPORE 554326,54A,AFFINITY AT SERANGOON,1.36553620850939,103.874139461429,103.874139461429,554326,SERANGOON NORTH AVENUE 1,AFFINITY AT SERANGOON,32542.878367302,38619.6102322377
56 SERANGOON NORTH AVENUE 1 AFFINITY AT SERANGOON SINGAPORE 554327,56,AFFINITY AT SERANGOON,1.36556491608676,103.874180120807,103.874180120807,554327,SERANGOON NORTH AVENUE 1,AFFINITY AT SERANGOON,32547.4032189921,38622.7846475672
56A SERANGOON NORTH AVENUE 1 AFFINITY AT SERANGOON SINGAPORE 554328,56A,AFFINITY AT SERANGOON,1.36559360779159,103.874220506303,103.874220506303,554328,SERANGOON NORTH AVENUE 1,AFFINITY AT SERANGOON,32551.8975908225,38625.9573073518
58 SERANGOON NORTH AVENUE 1 AFFINITY AT SERANGOON SINGAPORE 554329,58,AFFINITY AT SERANGOON,1.3656222162786,103.874261026157,103.874261026157,554329,SERANGOON NORTH AVENUE 1,AFFINITY AT SERANGOON,32556.406915037,38629.1207656693
58A SERANGOON NORTH AVENUE 1 AFFINITY AT SERANGOON SINGAPORE 554330,58A,AFFINITY AT SERANGOON,1.36565096135647,103.874301612104,103.874301612104,554330,SERANGOON NORTH AVENUE 1,AFFINITY AT SERANGOON,32560.9235943705,38632.2993277125
60 SERANGOON NORTH AVENUE 1 AFFINITY AT SERANGOON SINGAPORE 554331,60,AFFINITY AT SERANGOON,1.36567965579716,103.874341956535,103.874341956535,554331,SERANGOON NORTH AVENUE 1,AFFINITY AT SERANGOON,32565.4133957354,38635.4722901769
60A SERANGOON NORTH AVENUE 1 AFFINITY AT SERANGOON SINGAPORE 554332,60A,AFFINITY AT SERANGOON,1.36570810908072,103.874382174764,103.874382174764,554332,SERANGOON NORTH AVENUE 1,AFFINITY AT SERANGOON,32569.889152756,38638.6185865477
62 SERANGOON NORTH AVENUE 1 AFFINITY AT SERANGOON SINGAPORE 554333,62,AFFINITY AT SERANGOON,1.36573663763964,103.874422420465,103.874422420465,554333,SERANGOON NORTH AVENUE 1,AFFINITY AT SERANGOON,32574.3679668419,38641.7732066158
62A SERANGOON NORTH AVENUE 1 AFFINITY AT SERANGOON SINGAPORE 554334,62A,AFFINITY AT SERANGOON,1.36576515634408,103.874462627819,103.874462627819,554334,SERANGOON NORTH AVENUE 1,AFFINITY AT SERANGOON,32578.8425131431,38644.9267370347
64 SERANGOON NORTH AVENUE 1 AFFINITY AT SERANGOON SINGAPORE 554335,64,AFFINITY AT SERANGOON,1.36579434950749,103.87450387523,103.87450387523,554335,SERANGOON NORTH AVENUE 1,AFFINITY AT SERANGOON,32583.4328042138,38648.1548477672
18 SERANGOON NORTH AVENUE 1 AFFINITY AT SERANGOON SINGAPORE 554336,18,AFFINITY AT SERANGOON,1.36565982088201,103.873224518821,103.873224518821,554336,SERANGOON NORTH AVENUE 1,AFFINITY AT SERANGOON,32441.0559015013,38633.2769533172
20 SERANGOON NORTH AVENUE 1 AFFINITY AT SERANGOON SINGAPORE 554337,20,AFFINITY AT SERANGOON,1.36556375666326,103.87364194752,103.87364194752,554337,SERANGOON NORTH AVENUE 1,AFFINITY AT SERANGOON,32487.5109304991,38622.6554335449
22 SERANGOON NORTH AVENUE 1 AFFINITY AT SERANGOON SINGAPORE 554338,22,AFFINITY AT SERANGOON,1.3659402631259,103.872779450275,103.872779450275,554338,SERANGOON NORTH AVENUE 1,AFFINITY AT SERANGOON,32391.5245557111,38664.2860183492
24 SERANGOON NORTH AVENUE 1 AFFINITY AT SERANGOON SINGAPORE 554339,24,AFFINITY AT SERANGOON,1.3660829321479,103.873205253663,103.873205253663,554339,SERANGOON NORTH AVENUE 1,AFFINITY AT SERANGOON,32438.9111424433,38680.0624178946
26 SERANGOON NORTH AVENUE 1 AFFINITY AT SERANGOON SINGAPORE 554340,26,AFFINITY AT SERANGOON,1.36618702976306,103.873674807486,103.873674807486,554340,SERANGOON NORTH AVENUE 1,AFFINITY AT SERANGOON,32491.1666975729,38691.5738769248
28 SERANGOON NORTH AVENUE 1 AFFINITY AT SERANGOON SINGAPORE 554341,28,AFFINITY AT SERANGOON,1.36632326642545,103.874053900969,103.874053900969,554341,SERANGOON NORTH AVENUE 1,AFFINITY AT SERANGOON,32533.3550305134,38706.638948584
30 SERANGOON NORTH AVENUE 1 AFFINITY AT SERANGOON SINGAPORE 554342,30,AFFINITY AT SERANGOON,1.36629534739616,103.874480824591,103.874480824591,554342,SERANGOON NORTH AVENUE 1,AFFINITY AT SERANGOON,32580.8665937502,38703.5526130889
1 SERANGOON NORTH VIEW THE GARDEN RESIDENCES SINGAPORE 554343,1,THE GARDEN RESIDENCES,1.36620695987025,103.870405307735,103.870405307735,554343,SERANGOON NORTH VIEW,THE GARDEN RESIDENCES,32127.3103013579,38693.7717865631
3 SERANGOON NORTH VIEW THE GARDEN RESIDENCES SINGAPORE 554344,3,THE GARDEN RESIDENCES,1.36558300312261,103.870850408279,103.870850408279,554344,SERANGOON NORTH VIEW,THE GARDEN RESIDENCES,32176.8457635939,38624.7785812616
5 SERANGOON NORTH VIEW THE GARDEN RESIDENCES SINGAPORE 554345,5,THE GARDEN RESIDENCES,1.36569670247513,103.87054909555,103.87054909555,554345,SERANGOON NORTH VIEW,THE GARDEN RESIDENCES,32143.3130448852,38637.3503580317
7 SERANGOON NORTH VIEW THE GARDEN RESIDENCES SINGAPORE 554346,7,THE GARDEN RESIDENCES,1.36581171448743,103.870131733341,103.870131733341,554346,SERANGOON NORTH VIEW,THE GARDEN RESIDENCES,32096.8654012755,38650.0670881737
9 SERANGOON NORTH VIEW THE GARDEN RESIDENCES SINGAPORE 554347,9,THE GARDEN RESIDENCES,1.36592297734678,103.869788583125,103.869788583125,554347,SERANGOON NORTH VIEW,THE GARDEN RESIDENCES,32058.6766797034,38662.3693890832
11 SERANGOON NORTH VIEW THE GARDEN RESIDENCES SINGAPORE 554348,11,THE GARDEN RESIDENCES,1.36598986764592,103.870735807413,103.870735807413,554348,SERANGOON NORTH VIEW,THE GARDEN RESIDENCES,32164.0913498113,38669.7673988603
35A TAVISTOCK AVENUE SINGAPORE 554349,35A,NIL,1.3695566247323,103.862948718035,103.862948718035,554349,TAVISTOCK AVENUE,35A TAVISTOCK AVENUE SINGAPORE 554349,31297.4762073243,39064.1492079943
3 CHUAN LANE AUSTRALIAN INTERNATIONAL SCHOOL SINGAPORE 554350,3,AUSTRALIAN INTERNATIONAL SCHOOL,1.35074297502508,103.858620146674,103.858620146674,554350,CHUAN LANE,AUSTRALIAN INTERNATIONAL SCHOOL,30815.7803152939,36983.8260258343
53A TAVISTOCK AVENUE SERANGOON GARDEN ESTATE SINGAPORE 554351,53A,SERANGOON GARDEN ESTATE,1.37002800790921,103.864180066022,103.864180066022,554351,TAVISTOCK AVENUE,SERANGOON GARDEN ESTATE,31434.5096909953,39116.2740962375
9B BERWICK DRIVE SINGAPORE 554352,9B,NIL,1.3632548313499,103.860665566404,103.860665566404,554352,BERWICK DRIVE,9B BERWICK DRIVE SINGAPORE 554352,31043.3969451748,38367.3258917909
9A BERWICK DRIVE SINGAPORE 554353,9A,NIL,1.36333252208355,103.860723497857,103.860723497857,554353,BERWICK DRIVE,9A BERWICK DRIVE SINGAPORE 554353,31049.8439349029,38375.9166114647
46A BERWICK DRIVE SERANGOON GARDEN ESTATE SINGAPORE 554356,46A,SERANGOON GARDEN ESTATE,1.36322513327484,103.85993513528,103.85993513528,554356,BERWICK DRIVE,SERANGOON GARDEN ESTATE,30962.1086124759,38364.0411193948
5A BRIGHTON CRESCENT SINGAPORE 554357,5A,NIL,1.36271036815286,103.870296273058,103.870296273058,554357,BRIGHTON CRESCENT,5A BRIGHTON CRESCENT SINGAPORE 554357,32115.1819808185,38307.1362203583
64A BERWICK DRIVE SERANGOON GARDEN ESTATE SINGAPORE 554358,64A,SERANGOON GARDEN ESTATE,1.36210384207722,103.859461494644,103.859461494644,554358,BERWICK DRIVE,SERANGOON GARDEN ESTATE,30909.399340271,38240.053863138
62A BERWICK DRIVE SERANGOON GARDEN ESTATE SINGAPORE 554359,62A,SERANGOON GARDEN ESTATE,1.36224582589648,103.85948912454,103.85948912454,554359,BERWICK DRIVE,SERANGOON GARDEN ESTATE,30912.4740528613,38255.7537452187
15 SERANGOON NORTH AVENUE 5 SINGAPORE 554360,15,NIL,1.37598331035084,103.870647299542,103.870647299542,554360,SERANGOON NORTH AVENUE 5,15 SERANGOON NORTH AVENUE 5 SINGAPORE 554360,32154.2242595311,39774.7915235031
2C BERWICK DRIVE SERANGOON GARDEN ESTATE SINGAPORE 554361,2C,SERANGOON GARDEN ESTATE,1.36581246835985,103.861703919991,103.861703919991,554361,BERWICK DRIVE,SERANGOON GARDEN ESTATE,31158.9501185725,38650.1377336476
2B BERWICK DRIVE SERANGOON GARDEN ESTATE SINGAPORE 554362,2B,SERANGOON GARDEN ESTATE,1.3658614505561,103.861735393391,103.861735393391,554362,BERWICK DRIVE,SERANGOON GARDEN ESTATE,31162.4526691129,38655.5539774578
32A BERWICK DRIVE SERANGOON GARDEN ESTATE SINGAPORE 554363,32A,SERANGOON GARDEN ESTATE,1.36387092640729,103.860669945134,103.860669945134,554363,BERWICK DRIVE,SERANGOON GARDEN ESTATE,31043.8834727453,38435.450557299
33A BRIGHTON AVENUE SINGAPORE 554364,33A,NIL,1.35960392326892,103.87331768641,103.87331768641,554364,BRIGHTON AVENUE,33A BRIGHTON AVENUE SINGAPORE 554364,32451.435459014,37963.6466660984
31A BRIGHTON AVENUE SINGAPORE 554365,31A,NIL,1.35976171417517,103.873196402078,103.873196402078,554365,BRIGHTON AVENUE,31A BRIGHTON AVENUE SINGAPORE 554365,32437.9376332834,37981.0941610243
1A BERWICK DRIVE SERANGOON GARDEN ESTATE SINGAPORE 554366,1A,SERANGOON GARDEN ESTATE,1.36569349303677,103.862055366392,103.862055366392,554366,BERWICK DRIVE,SERANGOON GARDEN ESTATE,31198.0620741844,38636.9825112242
49A TAVISTOCK AVENUE SERANGOON GARDEN ESTATE SINGAPORE 554367,49A,SERANGOON GARDEN ESTATE,1.36994114070273,103.863905702998,103.863905702998,554367,TAVISTOCK AVENUE,SERANGOON GARDEN ESTATE,31403.9765294725,39106.6683699973
3A BERWICK DRIVE SERANGOON GARDEN ESTATE SINGAPORE 554368,3A,SERANGOON GARDEN ESTATE,1.36555134746332,103.861960597292,103.861960597292,554368,BERWICK DRIVE,SERANGOON GARDEN ESTATE,31187.5155887418,38621.2646499593
23A SERANGOON NORTH AVENUE 5 K&S CORPORATE HEADQUARTERS SINGAPORE 554369,23A,K&S CORPORATE HEADQUARTERS,1.37566301377903,103.874054629927,103.874054629927,554369,SERANGOON NORTH AVENUE 5,K&S CORPORATE HEADQUARTERS,32533.4185932791,39739.3809488155
7A BERWICK DRIVE SERANGOON GARDEN ESTATE SINGAPORE 554370,7A,SERANGOON GARDEN ESTATE,1.36477365759955,103.861629606543,103.861629606543,554370,BERWICK DRIVE,SERANGOON GARDEN ESTATE,31150.6812686371,38535.2712197285
72A BERWICK DRIVE SERANGOON GARDEN ESTATE SINGAPORE 554371,72A,SERANGOON GARDEN ESTATE,1.36152266829762,103.859372146549,103.859372146549,554371,BERWICK DRIVE,SERANGOON GARDEN ESTATE,30899.4566405676,38175.790514579
26 SERANGOON GARDEN RISE HAUS@SERANGOON GARDEN SINGAPORE 554372,26,HAUS@SERANGOON GARDEN,1.36474036516913,103.860993989348,103.860993989348,554372,SERANGOON GARDEN RISE,HAUS@SERANGOON GARDEN,31079.944657742,38531.5890892409
24 SERANGOON GARDEN RISE HAUS@SERANGOON GARDEN SINGAPORE 554373,24,HAUS@SERANGOON GARDEN,1.36475812117473,103.86094206613,103.86094206613,554373,SERANGOON GARDEN RISE,HAUS@SERANGOON GARDEN,31074.1661969703,38533.5523917377
22 SERANGOON GARDEN RISE HAUS@SERANGOON GARDEN SINGAPORE 554374,22,HAUS@SERANGOON GARDEN,1.36477847542867,103.860892088947,103.860892088947,554374,SERANGOON GARDEN RISE,HAUS@SERANGOON GARDEN,31068.6043036226,38535.8029979337
20 SERANGOON GARDEN RISE HAUS@SERANGOON GARDEN SINGAPORE 554375,20,HAUS@SERANGOON GARDEN,1.36479882968159,103.860842111764,103.860842111764,554375,SERANGOON GARDEN RISE,HAUS@SERANGOON GARDEN,31063.042410274,38538.0536041316
18 SERANGOON GARDEN RISE HAUS@SERANGOON GARDEN SINGAPORE 554376,18,HAUS@SERANGOON GARDEN,1.36481918365973,103.860792134307,103.860792134307,554376,SERANGOON GARDEN RISE,HAUS@SERANGOON GARDEN,31057.4804866584,38540.3041800614
16 SERANGOON GARDEN RISE HAUS@SERANGOON GARDEN SINGAPORE 554377,16,HAUS@SERANGOON GARDEN,1.36483953845803,103.860742157122,103.860742157122,554377,SERANGOON GARDEN RISE,HAUS@SERANGOON GARDEN,31051.9185933108,38542.5548467934
14 SERANGOON GARDEN RISE HAUS@SERANGOON GARDEN SINGAPORE 554378,14,HAUS@SERANGOON GARDEN,1.36485989270785,103.860692179936,103.860692179936,554378,SERANGOON GARDEN RISE,HAUS@SERANGOON GARDEN,31046.3566999622,38544.8054529913
12 SERANGOON GARDEN RISE HAUS@SERANGOON GARDEN SINGAPORE 554379,12,HAUS@SERANGOON GARDEN,1.36488024695662,103.860642202749,103.860642202749,554379,SERANGOON GARDEN RISE,HAUS@SERANGOON GARDEN,31040.7948066145,38547.0560591891
10 SERANGOON GARDEN RISE HAUS@SERANGOON GARDEN SINGAPORE 554380,10,HAUS@SERANGOON GARDEN,1.36490060120436,103.860592225561,103.860592225561,554380,SERANGOON GARDEN RISE,HAUS@SERANGOON GARDEN,31035.2329132669,38549.3066653851
8 SERANGOON GARDEN RISE HAUS@SERANGOON GARDEN SINGAPORE 554381,8,HAUS@SERANGOON GARDEN,1.36492095517736,103.8605422481,103.8605422481,554381,SERANGOON GARDEN RISE,HAUS@SERANGOON GARDEN,31029.6709896503,38551.557241315
6 SERANGOON GARDEN RISE HAUS@SERANGOON GARDEN SINGAPORE 554382,6,HAUS@SERANGOON GARDEN,1.36494130914933,103.860492270638,103.860492270638,554382,SERANGOON GARDEN RISE,HAUS@SERANGOON GARDEN,31024.1090660347,38553.8078172449
4 SERANGOON GARDEN RISE HAUS@SERANGOON GARDEN SINGAPORE 554383,4,HAUS@SERANGOON GARDEN,1.36496166339397,103.860442293176,103.860442293176,554383,SERANGOON GARDEN RISE,HAUS@SERANGOON GARDEN,31018.547142419,38556.0584234428
2 SERANGOON GARDEN RISE HAUS@SERANGOON GARDEN SINGAPORE 554384,2,HAUS@SERANGOON GARDEN,1.36498203817943,103.860391266419,103.860391266419,554384,SERANGOON GARDEN RISE,HAUS@SERANGOON GARDEN,31012.8684449214,38558.3112997375
25 SERANGOON GARDEN RISE HAUS@SERANGOON GARDEN SINGAPORE 554385,25,HAUS@SERANGOON GARDEN,1.36504765462396,103.861158317138,103.861158317138,554385,SERANGOON GARDEN RISE,HAUS@SERANGOON GARDEN,31098.2319984119,38565.5678066909
23 SERANGOON GARDEN RISE HAUS@SERANGOON GARDEN SINGAPORE 554386,23,HAUS@SERANGOON GARDEN,1.36509874635326,103.861107205881,103.861107205881,554386,SERANGOON GARDEN RISE,HAUS@SERANGOON GARDEN,31092.5438573044,38571.2172047794
21 SERANGOON GARDEN RISE HAUS@SERANGOON GARDEN SINGAPORE 554387,21,HAUS@SERANGOON GARDEN,1.36513048602993,103.861029288193,103.861029288193,554387,SERANGOON GARDEN RISE,HAUS@SERANGOON GARDEN,31083.8725037212,38574.7267169561
19 SERANGOON GARDEN RISE HAUS@SERANGOON GARDEN SINGAPORE 554388,19,HAUS@SERANGOON GARDEN,1.3651275811632,103.860959563462,103.860959563462,554388,SERANGOON GARDEN RISE,HAUS@SERANGOON GARDEN,31076.1129731471,38574.4054223076
17 SERANGOON GARDEN RISE HAUS@SERANGOON GARDEN SINGAPORE 554389,17,HAUS@SERANGOON GARDEN,1.36514793350148,103.860909585727,103.860909585727,554389,SERANGOON GARDEN RISE,HAUS@SERANGOON GARDEN,31070.5510192635,38576.6558166295
15 SERANGOON GARDEN RISE HAUS@SERANGOON GARDEN SINGAPORE 554390,15,HAUS@SERANGOON GARDEN,1.36516828693368,103.86085960636,103.86085960636,554390,SERANGOON GARDEN RISE,HAUS@SERANGOON GARDEN,31064.988883771,38578.9063320234
13 SERANGOON GARDEN RISE HAUS@SERANGOON GARDEN SINGAPORE 554391,13,HAUS@SERANGOON GARDEN,1.36518864583942,103.860809631072,103.860809631072,554391,SERANGOON GARDEN RISE,HAUS@SERANGOON GARDEN,31059.4272022992,38581.1574527752
11 SERANGOON GARDEN RISE HAUS@SERANGOON GARDEN SINGAPORE 554392,11,HAUS@SERANGOON GARDEN,1.36520899707969,103.860759652248,103.860759652248,554392,SERANGOON GARDEN RISE,HAUS@SERANGOON GARDEN,31053.8651273437,38583.4077260252
9 SERANGOON GARDEN RISE HAUS@SERANGOON GARDEN SINGAPORE 554393,9,HAUS@SERANGOON GARDEN,1.36522935187742,103.860709675598,103.860709675598,554393,SERANGOON GARDEN RISE,HAUS@SERANGOON GARDEN,31048.3032945311,38585.658392759
7 SERANGOON GARDEN RISE HAUS@SERANGOON GARDEN SINGAPORE 554394,7,HAUS@SERANGOON GARDEN,1.36524971214872,103.860659702755,103.860659702755,554394,SERANGOON GARDEN RISE,HAUS@SERANGOON GARDEN,31042.7418854712,38587.9096648507
5 SERANGOON GARDEN RISE HAUS@SERANGOON GARDEN SINGAPORE 554395,5,HAUS@SERANGOON GARDEN,1.36527006338589,103.8606097242,103.8606097242,554395,SERANGOON GARDEN RISE,HAUS@SERANGOON GARDEN,31037.1798407836,38590.1599381007
3 SERANGOON GARDEN RISE HAUS@SERANGOON GARDEN SINGAPORE 554396,3,HAUS@SERANGOON GARDEN,1.36529041818053,103.860559746732,103.860559746732,554396,SERANGOON GARDEN RISE,HAUS@SERANGOON GARDEN,31031.617917167,38592.4106048346
1 SERANGOON GARDEN RISE HAUS@SERANGOON GARDEN SINGAPORE 554397,1,HAUS@SERANGOON GARDEN,1.36531324233969,103.860507850209,103.860507850209,554397,SERANGOON GARDEN RISE,HAUS@SERANGOON GARDEN,31025.8424226586,38594.9343190491
13 SERANGOON GARDEN CLOSE HAUS@SERANGOON GARDEN SINGAPORE 554398,13,HAUS@SERANGOON GARDEN,1.36359919917066,103.860240568681,103.860240568681,554398,SERANGOON GARDEN CLOSE,HAUS@SERANGOON GARDEN,30996.0992857786,38405.4038022757
11 SERANGOON GARDEN CLOSE HAUS@SERANGOON GARDEN SINGAPORE 554399,11,HAUS@SERANGOON GARDEN,1.36360742308861,103.860177340594,103.860177340594,554399,SERANGOON GARDEN CLOSE,HAUS@SERANGOON GARDEN,30989.0627362635,38406.3130827732
9 SERANGOON GARDEN CLOSE HAUS@SERANGOON GARDEN SINGAPORE 554400,9,HAUS@SERANGOON GARDEN,1.36364205649351,103.860136773223,103.860136773223,554400,SERANGOON GARDEN CLOSE,HAUS@SERANGOON GARDEN,30984.5480243489,38410.1426183414
7 SERANGOON GARDEN CLOSE HAUS@SERANGOON GARDEN SINGAPORE 554401,7,HAUS@SERANGOON GARDEN,1.36366243810364,103.860086807207,103.860086807207,554401,SERANGOON GARDEN CLOSE,HAUS@SERANGOON GARDEN,30978.9873719877,38412.3962513376
5 SERANGOON GARDEN CLOSE HAUS@SERANGOON GARDEN SINGAPORE 554402,5,HAUS@SERANGOON GARDEN,1.36368281971274,103.860036840919,103.860036840919,554402,SERANGOON GARDEN CLOSE,HAUS@SERANGOON GARDEN,30973.4266893594,38414.6498843338
3 SERANGOON GARDEN CLOSE HAUS@SERANGOON GARDEN SINGAPORE 554403,3,HAUS@SERANGOON GARDEN,1.36370320186826,103.859986874629,103.859986874629,554403,SERANGOON GARDEN CLOSE,HAUS@SERANGOON GARDEN,30967.8660067311,38416.9035778642
1 SERANGOON GARDEN CLOSE HAUS@SERANGOON GARDEN SINGAPORE 554404,1,HAUS@SERANGOON GARDEN,1.36372612100017,103.859934962633,103.859934962633,554404,SERANGOON GARDEN CLOSE,HAUS@SERANGOON GARDEN,30962.0887869466,38419.4377950691
22 SERANGOON GARDEN DRIVE HAUS@SERANGOON GARDEN SINGAPORE 554405,22,HAUS@SERANGOON GARDEN,1.36424961690353,103.860715050782,103.860715050782,554405,SERANGOON GARDEN DRIVE,HAUS@SERANGOON GARDEN,31048.9027216807,38477.324284818
20 SERANGOON GARDEN DRIVE HAUS@SERANGOON GARDEN SINGAPORE 554406,20,HAUS@SERANGOON GARDEN,1.36426515019954,103.86066251206,103.86066251206,554406,SERANGOON GARDEN DRIVE,HAUS@SERANGOON GARDEN,31043.0557644619,38479.0418112855
18 SERANGOON GARDEN DRIVE HAUS@SERANGOON GARDEN SINGAPORE 554407,18,HAUS@SERANGOON GARDEN,1.36428550472128,103.860612534613,103.860612534613,554407,SERANGOON GARDEN DRIVE,HAUS@SERANGOON GARDEN,31037.4938408462,38481.2924477495
16 SERANGOON GARDEN DRIVE HAUS@SERANGOON GARDEN SINGAPORE 554408,16,HAUS@SERANGOON GARDEN,1.36430585842081,103.860562556892,103.860562556892,554408,SERANGOON GARDEN DRIVE,HAUS@SERANGOON GARDEN,31031.9318869626,38483.5429934114
14 SERANGOON GARDEN DRIVE HAUS@SERANGOON GARDEN SINGAPORE 554409,14,HAUS@SERANGOON GARDEN,1.36432621266677,103.860512579716,103.860512579716,554409,SERANGOON GARDEN DRIVE,HAUS@SERANGOON GARDEN,31026.369993614,38485.7935996093
12 SERANGOON GARDEN DRIVE HAUS@SERANGOON GARDEN SINGAPORE 554410,12,HAUS@SERANGOON GARDEN,1.3643465669117,103.860462602538,103.860462602538,554410,SERANGOON GARDEN DRIVE,HAUS@SERANGOON GARDEN,31020.8081002664,38488.0442058071
10 SERANGOON GARDEN DRIVE HAUS@SERANGOON GARDEN SINGAPORE 554411,10,HAUS@SERANGOON GARDEN,1.36436692115557,103.860412625359,103.860412625359,554411,SERANGOON GARDEN DRIVE,HAUS@SERANGOON GARDEN,31015.2462069187,38490.2948120032
8 SERANGOON GARDEN DRIVE HAUS@SERANGOON GARDEN SINGAPORE 554412,8,HAUS@SERANGOON GARDEN,1.36438727539845,103.86036264818,103.86036264818,554412,SERANGOON GARDEN DRIVE,HAUS@SERANGOON GARDEN,31009.6843135701,38492.545418201
6 SERANGOON GARDEN DRIVE HAUS@SERANGOON GARDEN SINGAPORE 554413,6,HAUS@SERANGOON GARDEN,1.36440762936655,103.860312670727,103.860312670727,554413,SERANGOON GARDEN DRIVE,HAUS@SERANGOON GARDEN,31004.1223899545,38494.7959941309
4 SERANGOON GARDEN DRIVE HAUS@SERANGOON GARDEN SINGAPORE 554414,4,HAUS@SERANGOON GARDEN,1.36442798360734,103.860262693546,103.860262693546,554414,SERANGOON GARDEN DRIVE,HAUS@SERANGOON GARDEN,30998.5604966069,38497.0466003269
2 SERANGOON GARDEN DRIVE HAUS@SERANGOON GARDEN SINGAPORE 554415,2,HAUS@SERANGOON GARDEN,1.36444835045001,103.860211720923,103.860211720923,554415,SERANGOON GARDEN DRIVE,HAUS@SERANGOON GARDEN,30992.887822438,38499.298598852
21 SERANGOON GARDEN DRIVE HAUS@SERANGOON GARDEN SINGAPORE 554416,21,HAUS@SERANGOON GARDEN,1.36455582900742,103.860875941769,103.860875941769,554416,SERANGOON GARDEN DRIVE,HAUS@SERANGOON GARDEN,31066.8075961089,38511.1838674825
19 SERANGOON GARDEN DRIVE HAUS@SERANGOON GARDEN SINGAPORE 554417,19,HAUS@SERANGOON GARDEN,1.36460692100451,103.860824834052,103.860824834052,554417,SERANGOON GARDEN DRIVE,HAUS@SERANGOON GARDEN,31061.1198484851,38516.8332958389
17 SERANGOON GARDEN DRIVE HAUS@SERANGOON GARDEN SINGAPORE 554418,17,HAUS@SERANGOON GARDEN,1.3646386565659,103.860746912024,103.860746912024,554418,SERANGOON GARDEN DRIVE,HAUS@SERANGOON GARDEN,31052.4480106141,38520.3423539959
15 SERANGOON GARDEN DRIVE HAUS@SERANGOON GARDEN SINGAPORE 554419,15,HAUS@SERANGOON GARDEN,1.36463575470171,103.860677187579,103.860677187579,554419,SERANGOON GARDEN DRIVE,HAUS@SERANGOON GARDEN,31044.688510308,38520.021392297
13 SERANGOON GARDEN DRIVE HAUS@SERANGOON GARDEN SINGAPORE 554420,13,HAUS@SERANGOON GARDEN,1.36465610895011,103.860627210124,103.860627210124,554420,SERANGOON GARDEN DRIVE,HAUS@SERANGOON GARDEN,31039.1265866924,38522.271998493
11 SERANGOON GARDEN DRIVE HAUS@SERANGOON GARDEN SINGAPORE 554421,11,HAUS@SERANGOON GARDEN,1.36467646374496,103.860577232941,103.860577232941,554421,SERANGOON GARDEN DRIVE,HAUS@SERANGOON GARDEN,31033.5646933438,38524.5226652268
9 SERANGOON GARDEN DRIVE HAUS@SERANGOON GARDEN SINGAPORE 554422,9,HAUS@SERANGOON GARDEN,1.36469681744387,103.860527255757,103.860527255757,554422,SERANGOON GARDEN DRIVE,HAUS@SERANGOON GARDEN,31028.0027999962,38526.7732108887
7 SERANGOON GARDEN DRIVE HAUS@SERANGOON GARDEN SINGAPORE 554423,7,HAUS@SERANGOON GARDEN,1.36471717223662,103.860477278843,103.860477278843,554423,SERANGOON GARDEN DRIVE,HAUS@SERANGOON GARDEN,31022.4409369165,38529.0238776207
5 SERANGOON GARDEN DRIVE HAUS@SERANGOON GARDEN SINGAPORE 554424,5,HAUS@SERANGOON GARDEN,1.36473752675464,103.860427301929,103.860427301929,554424,SERANGOON GARDEN DRIVE,HAUS@SERANGOON GARDEN,31016.8790738359,38531.2745140865
3 SERANGOON GARDEN DRIVE HAUS@SERANGOON GARDEN SINGAPORE 554425,3,HAUS@SERANGOON GARDEN,1.36475788072418,103.86037732447,103.86037732447,554425,SERANGOON GARDEN DRIVE,HAUS@SERANGOON GARDEN,31011.3171502203,38533.5250900164
1 SERANGOON GARDEN DRIVE HAUS@SERANGOON GARDEN SINGAPORE 554426,1,HAUS@SERANGOON GARDEN,1.36478070542672,103.860325429861,103.860325429861,554426,SERANGOON GARDEN DRIVE,HAUS@SERANGOON GARDEN,31005.5418675868,38536.048864767
16 SERANGOON GARDEN PLACE HAUS@SERANGOON GARDEN SINGAPORE 554427,16,HAUS@SERANGOON GARDEN,1.36377913790954,103.860368783755,103.860368783755,554427,SERANGOON GARDEN PLACE,HAUS@SERANGOON GARDEN,31010.3678857144,38425.3006732464
14 SERANGOON GARDEN PLACE HAUS@SERANGOON GARDEN SINGAPORE 554428,14,HAUS@SERANGOON GARDEN,1.36379931616913,103.860316325326,103.860316325326,554428,SERANGOON GARDEN PLACE,HAUS@SERANGOON GARDEN,31004.5298575517,38427.5318171307
12 SERANGOON GARDEN PLACE HAUS@SERANGOON GARDEN SINGAPORE 554429,12,HAUS@SERANGOON GARDEN,1.36381967013614,103.860266348157,103.860266348157,554429,SERANGOON GARDEN PLACE,HAUS@SERANGOON GARDEN,30998.9679642031,38429.7823930606
10 SERANGOON GARDEN PLACE HAUS@SERANGOON GARDEN SINGAPORE 554430,10,HAUS@SERANGOON GARDEN,1.36384002437584,103.860216370987,103.860216370987,554430,SERANGOON GARDEN PLACE,HAUS@SERANGOON GARDEN,30993.4060708554,38432.0329992585
8 SERANGOON GARDEN PLACE HAUS@SERANGOON GARDEN SINGAPORE 554431,8,HAUS@SERANGOON GARDEN,1.3638603786145,103.860166393545,103.860166393545,554431,SERANGOON GARDEN PLACE,HAUS@SERANGOON GARDEN,30987.8441472398,38434.2836054545
6 SERANGOON GARDEN PLACE HAUS@SERANGOON GARDEN SINGAPORE 554432,6,HAUS@SERANGOON GARDEN,1.36388073285213,103.86011641583,103.86011641583,554432,SERANGOON GARDEN PLACE,HAUS@SERANGOON GARDEN,30982.2821933553,38436.5342116524
4 SERANGOON GARDEN PLACE HAUS@SERANGOON GARDEN SINGAPORE 554433,4,HAUS@SERANGOON GARDEN,1.36390108736249,103.860066438657,103.860066438657,554433,SERANGOON GARDEN PLACE,HAUS@SERANGOON GARDEN,30976.7203000076,38438.7848481182
2 SERANGOON GARDEN PLACE HAUS@SERANGOON GARDEN SINGAPORE 554434,2,HAUS@SERANGOON GARDEN,1.36392098121459,103.860013310337,103.860013310337,554434,SERANGOON GARDEN PLACE,HAUS@SERANGOON GARDEN,30970.8077218002,38440.9845435657
17 SERANGOON GARDEN PLACE HAUS@SERANGOON GARDEN SINGAPORE 554435,17,HAUS@SERANGOON GARDEN,1.36407086970196,103.860590513636,103.860590513636,554435,SERANGOON GARDEN PLACE,HAUS@SERANGOON GARDEN,31035.0434356881,38457.5591703784
15 SERANGOON GARDEN PLACE HAUS@SERANGOON GARDEN SINGAPORE 554436,15,HAUS@SERANGOON GARDEN,1.36408577259256,103.860537619706,103.860537619706,554436,SERANGOON GARDEN PLACE,HAUS@SERANGOON GARDEN,31029.1569484835,38459.2069896795
13 SERANGOON GARDEN PLACE HAUS@SERANGOON GARDEN SINGAPORE 554437,13,HAUS@SERANGOON GARDEN,1.36413665870132,103.860489521702,103.860489521702,554437,SERANGOON GARDEN PLACE,HAUS@SERANGOON GARDEN,31023.8041463671,38464.8336565122
11 SERANGOON GARDEN PLACE HAUS@SERANGOON GARDEN SINGAPORE 554438,11,HAUS@SERANGOON GARDEN,1.36416839425168,103.860411599413,103.860411599413,554438,SERANGOON GARDEN PLACE,HAUS@SERANGOON GARDEN,31015.1322782282,38468.3427146692
9 SERANGOON GARDEN PLACE HAUS@SERANGOON GARDEN SINGAPORE 554439,9,HAUS@SERANGOON GARDEN,1.36416549182996,103.860341874709,103.860341874709,554439,SERANGOON GARDEN PLACE,HAUS@SERANGOON GARDEN,31007.3727476541,38468.0216924343
7 SERANGOON GARDEN PLACE HAUS@SERANGOON GARDEN SINGAPORE 554440,7,HAUS@SERANGOON GARDEN,1.36418584661875,103.860291897533,103.860291897533,554440,SERANGOON GARDEN PLACE,HAUS@SERANGOON GARDEN,31001.8108543064,38470.2723591663
5 SERANGOON GARDEN PLACE HAUS@SERANGOON GARDEN SINGAPORE 554441,5,HAUS@SERANGOON GARDEN,1.36420620113281,103.860241920357,103.860241920357,554441,SERANGOON GARDEN PLACE,HAUS@SERANGOON GARDEN,30996.2489609579,38472.5229956321
3 SERANGOON GARDEN PLACE HAUS@SERANGOON GARDEN SINGAPORE 554442,3,HAUS@SERANGOON GARDEN,1.36422655564584,103.860191943451,103.860191943451,554442,SERANGOON GARDEN PLACE,HAUS@SERANGOON GARDEN,30990.6870978782,38474.773632098
1 SERANGOON GARDEN PLACE HAUS@SERANGOON GARDEN SINGAPORE 554443,1,HAUS@SERANGOON GARDEN,1.36424937979676,103.860140049667,103.860140049667,554443,SERANGOON GARDEN PLACE,HAUS@SERANGOON GARDEN,30984.9119060487,38477.2973463107
30 SERANGOON GARDEN TERRACE HAUS@SERANGOON GARDEN SINGAPORE 554444,30,HAUS@SERANGOON GARDEN,1.36524899321321,103.861284747337,103.861284747337,554444,SERANGOON GARDEN TERRACE,HAUS@SERANGOON GARDEN,31112.3019193029,38587.8309680931
28 SERANGOON GARDEN TERRACE HAUS@SERANGOON GARDEN SINGAPORE 554445,28,HAUS@SERANGOON GARDEN,1.36524748612715,103.861230476441,103.861230476441,554445,SERANGOON GARDEN TERRACE,HAUS@SERANGOON GARDEN,31106.262215564,38587.664252039
26 SERANGOON GARDEN TERRACE HAUS@SERANGOON GARDEN SINGAPORE 554446,26,HAUS@SERANGOON GARDEN,1.36526784120839,103.861180499523,103.861180499523,554446,SERANGOON GARDEN TERRACE,HAUS@SERANGOON GARDEN,31100.7003524844,38589.9149490409
24 SERANGOON GARDEN TERRACE HAUS@SERANGOON GARDEN SINGAPORE 554447,24,HAUS@SERANGOON GARDEN,1.3652881954674,103.861130522332,103.861130522332,554447,SERANGOON GARDEN TERRACE,HAUS@SERANGOON GARDEN,31095.1384591367,38592.1655552387
22 SERANGOON GARDEN TERRACE HAUS@SERANGOON GARDEN SINGAPORE 554448,22,HAUS@SERANGOON GARDEN,1.36530854999911,103.86108054514,103.86108054514,554448,SERANGOON GARDEN TERRACE,HAUS@SERANGOON GARDEN,31089.5765657881,38594.4161917027
20 SERANGOON GARDEN TERRACE HAUS@SERANGOON GARDEN SINGAPORE 554449,20,HAUS@SERANGOON GARDEN,1.36532890398232,103.861030567947,103.861030567947,554449,SERANGOON GARDEN TERRACE,HAUS@SERANGOON GARDEN,31084.0146724405,38596.6667676326
18 SERANGOON GARDEN TERRACE HAUS@SERANGOON GARDEN SINGAPORE 554450,18,HAUS@SERANGOON GARDEN,1.36534925878571,103.860980591025,103.860980591025,554450,SERANGOON GARDEN TERRACE,HAUS@SERANGOON GARDEN,31078.4528093608,38598.9174343664
16 SERANGOON GARDEN TERRACE HAUS@SERANGOON GARDEN SINGAPORE 554451,16,HAUS@SERANGOON GARDEN,1.36536961358805,103.860930613831,103.860930613831,554451,SERANGOON GARDEN TERRACE,HAUS@SERANGOON GARDEN,31072.8909160122,38601.1681010984
14 SERANGOON GARDEN TERRACE HAUS@SERANGOON GARDEN SINGAPORE 554452,14,HAUS@SERANGOON GARDEN,1.36538996784193,103.860880636363,103.860880636363,554452,SERANGOON GARDEN TERRACE,HAUS@SERANGOON GARDEN,31067.3289923966,38603.4187072963
12 SERANGOON GARDEN TERRACE HAUS@SERANGOON GARDEN SINGAPORE 554453,12,HAUS@SERANGOON GARDEN,1.36541032236848,103.860830659167,103.860830659167,554453,SERANGOON GARDEN TERRACE,HAUS@SERANGOON GARDEN,31061.7670990489,38605.6693437621
10 SERANGOON GARDEN TERRACE HAUS@SERANGOON GARDEN SINGAPORE 554454,10,HAUS@SERANGOON GARDEN,1.36543067662025,103.86078068197,103.86078068197,554454,SERANGOON GARDEN TERRACE,HAUS@SERANGOON GARDEN,31056.2052057004,38607.9199499581
8 SERANGOON GARDEN TERRACE HAUS@SERANGOON GARDEN SINGAPORE 554455,8,HAUS@SERANGOON GARDEN,1.36545103114475,103.860730704772,103.860730704772,554455,SERANGOON GARDEN TERRACE,HAUS@SERANGOON GARDEN,31050.6433123527,38610.1705864239
6 SERANGOON GARDEN TERRACE HAUS@SERANGOON GARDEN SINGAPORE 554456,6,HAUS@SERANGOON GARDEN,1.36547138539449,103.860680727573,103.860680727573,554456,SERANGOON GARDEN TERRACE,HAUS@SERANGOON GARDEN,31045.0814190051,38612.4211926218
4 SERANGOON GARDEN TERRACE HAUS@SERANGOON GARDEN SINGAPORE 554457,4,HAUS@SERANGOON GARDEN,1.36549173991691,103.860630750645,103.860630750645,554457,SERANGOON GARDEN TERRACE,HAUS@SERANGOON GARDEN,31039.5195559245,38614.6718290877
2 SERANGOON GARDEN TERRACE HAUS@SERANGOON GARDEN SINGAPORE 554458,2,HAUS@SERANGOON GARDEN,1.36551251492645,103.860577743335,103.860577743335,554458,SERANGOON GARDEN TERRACE,HAUS@SERANGOON GARDEN,31033.6204469698,38616.9689571746
19 SERANGOON GARDEN TERRACE HAUS@SERANGOON GARDEN SINGAPORE 554459,19,HAUS@SERANGOON GARDEN,1.36562794984356,103.861299290875,103.861299290875,554459,SERANGOON GARDEN TERRACE,HAUS@SERANGOON GARDEN,31113.919954909,38629.7340858243
17 SERANGOON GARDEN TERRACE HAUS@SERANGOON GARDEN SINGAPORE 554460,17,HAUS@SERANGOON GARDEN,1.3656581648088,103.861223604468,103.861223604468,554460,SERANGOON GARDEN TERRACE,HAUS@SERANGOON GARDEN,31105.4969198639,38633.0750053301
15 SERANGOON GARDEN TERRACE HAUS@SERANGOON GARDEN SINGAPORE 554461,15,HAUS@SERANGOON GARDEN,1.36565526268542,103.861153879721,103.861153879721,554461,SERANGOON GARDEN TERRACE,HAUS@SERANGOON GARDEN,31097.7373892907,38632.7540133633
13 SERANGOON GARDEN TERRACE HAUS@SERANGOON GARDEN SINGAPORE 554462,13,HAUS@SERANGOON GARDEN,1.365675616944,103.861103902522,103.861103902522,554462,SERANGOON GARDEN TERRACE,HAUS@SERANGOON GARDEN,31092.1754959421,38635.0046195611
11 SERANGOON GARDEN TERRACE HAUS@SERANGOON GARDEN SINGAPORE 554463,11,HAUS@SERANGOON GARDEN,1.36569597147525,103.861053923962,103.861053923962,554463,SERANGOON GARDEN TERRACE,HAUS@SERANGOON GARDEN,31086.6134512546,38637.2552560251
9 SERANGOON GARDEN TERRACE HAUS@SERANGOON GARDEN SINGAPORE 554464,9,HAUS@SERANGOON GARDEN,1.36571632655297,103.861003946217,103.861003946217,554464,SERANGOON GARDEN TERRACE,HAUS@SERANGOON GARDEN,31081.05149737,38639.5059530269
7 SERANGOON GARDEN TERRACE HAUS@SERANGOON GARDEN SINGAPORE 554465,7,HAUS@SERANGOON GARDEN,1.36573667834484,103.860953969831,103.860953969831,554465,SERANGOON GARDEN TERRACE,HAUS@SERANGOON GARDEN,31075.4896948263,38641.7562868129
5 SERANGOON GARDEN TERRACE HAUS@SERANGOON GARDEN SINGAPORE 554466,5,HAUS@SERANGOON GARDEN,1.36575703314672,103.860903993444,103.860903993444,554466,SERANGOON GARDEN TERRACE,HAUS@SERANGOON GARDEN,31069.9278922826,38644.0069535468
3 SERANGOON GARDEN TERRACE HAUS@SERANGOON GARDEN SINGAPORE 554467,3,HAUS@SERANGOON GARDEN,1.36577738740011,103.86085401624,103.86085401624,554467,SERANGOON GARDEN TERRACE,HAUS@SERANGOON GARDEN,31064.365998934,38646.2575597428
1 SERANGOON GARDEN TERRACE HAUS@SERANGOON GARDEN SINGAPORE 554468,1,HAUS@SERANGOON GARDEN,1.36580021019703,103.860802120527,103.860802120527,554468,SERANGOON GARDEN TERRACE,HAUS@SERANGOON GARDEN,31058.5905952295,38648.7811226174
15A BRIGHTON CRESCENT SINGAPORE 554469,15A,NIL,1.36180824817804,103.869444875971,103.869444875971,554469,BRIGHTON CRESCENT,15A BRIGHTON CRESCENT SINGAPORE 554469,32020.432991473,38207.3829344604
76A BERWICK DRIVE SERANGOON GARDEN ESTATE SINGAPORE 554470,76A,SERANGOON GARDEN ESTATE,1.36123520576628,103.859329817683,103.859329817683,554470,BERWICK DRIVE,SERANGOON GARDEN ESTATE,30894.7462764056,38144.004319068
5A BERWICK DRIVE SERANGOON GARDEN ESTATE SINGAPORE 554471,5A,SERANGOON GARDEN ESTATE,1.36490070751312,103.861735449566,103.861735449566,554471,BERWICK DRIVE,SERANGOON GARDEN ESTATE,31162.4601755729,38549.3198924959
19 BERWICK DRIVE SINGAPORE 554472,19,NIL,1.36260343805687,103.859917462109,103.859917462109,554472,BERWICK DRIVE,19 BERWICK DRIVE SINGAPORE 554472,30960.1425555935,38295.2972012069
45A TAVISTOCK AVENUE SERANGOON GARDEN ESTATE SINGAPORE 554473,45A,SERANGOON GARDEN ESTATE,1.36982730165529,103.863638819079,103.863638819079,554473,TAVISTOCK AVENUE,SERANGOON GARDEN ESTATE,31374.2757375017,39094.0802485161
138 SERANGOON AVENUE 3 THE SCALA SINGAPORE 554475,138,THE SCALA,1.35114174369395,103.865117387148,103.865117387148,554475,SERANGOON AVENUE 3,THE SCALA,31538.849696341,37027.9283244573
136 SERANGOON AVENUE 3 THE SCALA SINGAPORE 554476,136,THE SCALA,1.35140655423301,103.865405170024,103.865405170024,554476,SERANGOON AVENUE 3,THE SCALA,31570.8763104482,37057.2101469971
134 SERANGOON AVENUE 3 THE SCALA SINGAPORE 554477,134,THE SCALA,1.35097219010643,103.865462244407,103.865462244407,554477,SERANGOON AVENUE 3,THE SCALA,31577.2286824593,37009.1804564148
132 SERANGOON AVENUE 3 THE SCALA SINGAPORE 554478,132,THE SCALA,1.35062188205802,103.865572074429,103.865572074429,554478,SERANGOON AVENUE 3,THE SCALA,31589.4520444674,36970.4453372005
130 SERANGOON AVENUE 3 THE SCALA SINGAPORE 554479,130,THE SCALA,1.35031605592711,103.865369039913,103.865369039913,554479,SERANGOON AVENUE 3,THE SCALA,31566.8570248904,36936.6283415891
113 GRACE WALK VERDANA VILLAS SINGAPORE 554480,113,VERDANA VILLAS,1.35847675255853,103.868701602499,103.868701602499,554480,GRACE WALK,VERDANA VILLAS,31937.7207620153,37839.0018378962
111 GRACE WALK VERDANA VILLAS SINGAPORE 554481,111,VERDANA VILLAS,1.35852543382127,103.868845055999,103.868845055999,554481,GRACE WALK,VERDANA VILLAS,31953.6853981512,37844.3849988002
109 GRACE WALK VERDANA VILLAS SINGAPORE 554482,109,VERDANA VILLAS,1.35851018134851,103.868887503624,103.868887503624,554482,GRACE WALK,VERDANA VILLAS,31958.4093526388,37842.698527284
107 GRACE WALK VERDANA VILLAS SINGAPORE 554483,107,VERDANA VILLAS,1.35848578034704,103.868955411502,103.868955411502,554483,GRACE WALK,VERDANA VILLAS,31965.9667536169,37840.0004997514
105 GRACE WALK VERDANA VILLAS SINGAPORE 554484,105,VERDANA VILLAS,1.35847052431394,103.868997852598,103.868997852598,554484,GRACE WALK,VERDANA VILLAS,31970.689981672,37838.3136347495
103 GRACE WALK VERDANA VILLAS SINGAPORE 554485,103,VERDANA VILLAS,1.35844371211658,103.86905772839,103.86905772839,554485,GRACE WALK,VERDANA VILLAS,31977.3535085553,37835.3489765488
101 GRACE WALK VERDANA VILLAS SINGAPORE 554486,101,VERDANA VILLAS,1.35842693351659,103.869104416124,103.869104416124,554486,GRACE WALK,VERDANA VILLAS,31982.5493409084,37833.4937610235
99 GRACE WALK VERDANA VILLAS SINGAPORE 554487,99,VERDANA VILLAS,1.35840100310049,103.869176570364,103.869176570364,554487,GRACE WALK,VERDANA VILLAS,31990.5793159166,37830.6266262643
97 GRACE WALK VERDANA VILLAS SINGAPORE 554488,97,VERDANA VILLAS,1.35838422477194,103.869223258368,103.869223258368,554488,GRACE WALK,VERDANA VILLAS,31995.7751785377,37828.771441007
95 GRACE WALK VERDANA VILLAS SINGAPORE 554489,95,VERDANA VILLAS,1.35834509174895,103.86929024592,103.86929024592,554489,GRACE WALK,VERDANA VILLAS,32003.2301829271,37824.4444208592
93 GRACE WALK VERDANA VILLAS SINGAPORE 554490,93,VERDANA VILLAS,1.35830491761893,103.869363856113,103.869363856113,554490,GRACE WALK,VERDANA VILLAS,32011.4222127199,37820.0022915695
91 GRACE WALK VERDANA VILLAS SINGAPORE 554491,91,VERDANA VILLAS,1.35801554911472,103.869804399211,103.869804399211,554491,GRACE WALK,VERDANA VILLAS,32060.4500506017,37788.0061270539
89 GRACE WALK VERDANA VILLAS SINGAPORE 554492,89,VERDANA VILLAS,1.35799296554499,103.869898751489,103.869898751489,554492,GRACE WALK,VERDANA VILLAS,32070.9504076364,37785.5091092009
87 GRACE WALK VERDANA VILLAS SINGAPORE 554493,87,VERDANA VILLAS,1.35782893374787,103.869944563672,103.869944563672,554493,GRACE WALK,VERDANA VILLAS,32076.0490494939,37767.3713831734
85 GRACE WALK VERDANA VILLAS SINGAPORE 554494,85,VERDANA VILLAS,1.35781847895221,103.869988242594,103.869988242594,554494,GRACE WALK,VERDANA VILLAS,32080.9100271426,37766.215418607
83 GRACE WALK VERDANA VILLAS SINGAPORE 554495,83,VERDANA VILLAS,1.3578037418804,103.870049795011,103.870049795011,554495,GRACE WALK,VERDANA VILLAS,32087.7601258783,37764.585971972
81 GRACE WALK VERDANA VILLAS SINGAPORE 554496,81,VERDANA VILLAS,1.35779752195443,103.870096656135,103.870096656135,554496,GRACE WALK,VERDANA VILLAS,32092.975238936,37763.898283381
79 GRACE WALK VERDANA VILLAS SINGAPORE 554497,79,VERDANA VILLAS,1.35796500044222,103.870221793176,103.870221793176,554497,GRACE WALK,VERDANA VILLAS,32106.9012658326,37782.4174162708
77 GRACE WALK VERDANA VILLAS SINGAPORE 554498,77,VERDANA VILLAS,1.35798825161761,103.870183701686,103.870183701686,554498,GRACE WALK,VERDANA VILLAS,32102.6620833734,37784.9883485399
75 GRACE WALK VERDANA VILLAS SINGAPORE 554499,75,VERDANA VILLAS,1.35802144638639,103.870129305551,103.870129305551,554499,GRACE WALK,VERDANA VILLAS,32096.6083655581,37788.6587653179
9A SERANGOON NORTH AVENUE 5 FILLING STATION AT SERANGOON NORTH SINGAPORE 554500,9A,FILLING STATION AT SERANGOON NORTH,1.37573561146694,103.869103471495,103.869103471495,554500,SERANGOON NORTH AVENUE 5,FILLING STATION AT SERANGOON NORTH,31982.4157077605,39747.3996035978
9A BRIGHTON CRESCENT SINGAPORE 554501,9A,NIL,1.36231493690167,103.869931203709,103.869931203709,554501,BRIGHTON CRESCENT,9A BRIGHTON CRESCENT SINGAPORE 554501,32074.554719138,38263.4108186681
1 SERANGOON NORTH AVENUE 6 SINGAPORE 554502,1,NIL,1.37587606900586,103.871197626608,103.871197626608,554502,SERANGOON NORTH AVENUE 6,1 SERANGOON NORTH AVENUE 6 SINGAPORE 554502,32215.4690426085,39762.9342830256
73 GRACE WALK VERDANA VILLAS SINGAPORE 554503,73,VERDANA VILLAS,1.35804469756037,103.870091214059,103.870091214059,554503,GRACE WALK,VERDANA VILLAS,32092.369183098,37791.229697587
71 GRACE WALK VERDANA VILLAS SINGAPORE 554504,71,VERDANA VILLAS,1.3580778923271,103.870036817649,103.870036817649,554504,GRACE WALK,VERDANA VILLAS,32086.3154350147,37794.9001143649
69 GRACE WALK VERDANA VILLAS SINGAPORE 554505,69,VERDANA VILLAS,1.35810114377338,103.869998726155,103.869998726155,554505,GRACE WALK,VERDANA VILLAS,32082.0762525555,37797.471076902
67 GRACE WALK VERDANA VILLAS SINGAPORE 554506,67,VERDANA VILLAS,1.35813905945136,103.869936633115,103.869936633115,554506,GRACE WALK,VERDANA VILLAS,32075.1659508012,37801.6634953264
65 GRACE WALK VERDANA VILLAS SINGAPORE 554507,65,VERDANA VILLAS,1.35816231089607,103.869898541891,103.869898541891,554507,GRACE WALK,VERDANA VILLAS,32070.9267986091,37804.2344578635
63 GRACE WALK VERDANA VILLAS SINGAPORE 554508,63,VERDANA VILLAS,1.35819550456362,103.869844145204,103.869844145204,554508,GRACE WALK,VERDANA VILLAS,32064.8730202578,37807.9047535677
61 GRACE WALK VERDANA VILLAS SINGAPORE 554509,61,VERDANA VILLAS,1.35821875573318,103.869806053434,103.869806053434,554509,GRACE WALK,VERDANA VILLAS,32060.6338075306,37810.4756858367
59 GRACE WALK VERDANA VILLAS SINGAPORE 554510,59,VERDANA VILLAS,1.35825196418014,103.869751665448,103.869751665448,554510,GRACE WALK,VERDANA VILLAS,32054.5809977548,37814.1476160139
57 GRACE WALK VERDANA VILLAS SINGAPORE 554511,57,VERDANA VILLAS,1.35827521507454,103.869713573949,103.869713573949,554511,GRACE WALK,VERDANA VILLAS,32050.3418152947,37816.718518015
55 GRACE WALK VERDANA VILLAS SINGAPORE 554512,55,VERDANA VILLAS,1.35830841530756,103.869659181337,103.869659181337,554512,GRACE WALK,VERDANA VILLAS,32044.2884909632,37820.3895401526
53 GRACE WALK VERDANA VILLAS SINGAPORE 554513,53,VERDANA VILLAS,1.35833166674797,103.869621090107,103.869621090107,554513,GRACE WALK,VERDANA VILLAS,32040.049338772,37822.9605026897
51 GRACE WALK VERDANA VILLAS SINGAPORE 554514,51,VERDANA VILLAS,1.35836486752641,103.86956669722,103.86956669722,554514,GRACE WALK,VERDANA VILLAS,32033.9959841724,37826.6315853614
49 GRACE WALK VERDANA VILLAS SINGAPORE 554515,49,VERDANA VILLAS,1.35838811869166,103.869528605717,103.869528605717,554515,GRACE WALK,VERDANA VILLAS,32029.7568017133,37829.2025176305
47 GRACE WALK VERDANA VILLAS SINGAPORE 554516,47,VERDANA VILLAS,1.35842602477725,103.869466507495,103.869466507495,554516,GRACE WALK,VERDANA VILLAS,32022.8459248664,37833.3938766774
45 GRACE WALK VERDANA VILLAS SINGAPORE 554517,45,VERDANA VILLAS,1.35844927594096,103.869428415718,103.869428415718,554517,GRACE WALK,VERDANA VILLAS,32018.6067121392,37835.9648089446
43 GRACE WALK VERDANA VILLAS SINGAPORE 554518,43,VERDANA VILLAS,1.35848247534649,103.86937402201,103.86937402201,554518,GRACE WALK,VERDANA VILLAS,32012.5532667357,37839.6357402783
41 GRACE WALK VERDANA VILLAS SINGAPORE 554519,41,VERDANA VILLAS,1.35850572650876,103.869335930503,103.869335930503,554519,GRACE WALK,VERDANA VILLAS,32008.3140842756,37842.2066725474
39 GRACE WALK VERDANA VILLAS SINGAPORE 554520,39,VERDANA VILLAS,1.35853892755464,103.869281538152,103.869281538152,554520,GRACE WALK,VERDANA VILLAS,32002.2607902121,37845.877785489
37 GRACE WALK VERDANA VILLAS SINGAPORE 554521,37,VERDANA VILLAS,1.35856217871547,103.869243446915,103.869243446915,554521,GRACE WALK,VERDANA VILLAS,31998.0216380209,37848.4487177581
35 GRACE WALK VERDANA VILLAS SINGAPORE 554522,35,VERDANA VILLAS,1.35860008369893,103.869181347052,103.869181347052,554522,GRACE WALK,VERDANA VILLAS,31991.110579567,37852.6399557311
33 GRACE WALK VERDANA VILLAS SINGAPORE 554523,33,VERDANA VILLAS,1.35862333485825,103.869143255541,103.869143255541,554523,GRACE WALK,VERDANA VILLAS,31986.8713971069,37855.2108880002
31 GRACE WALK VERDANA VILLAS SINGAPORE 554524,31,VERDANA VILLAS,1.35865653589986,103.869088863185,103.869088863185,554524,GRACE WALK,VERDANA VILLAS,31980.8181030434,37858.8820009418
29 GRACE WALK VERDANA VILLAS SINGAPORE 554525,29,VERDANA VILLAS,1.35867978733145,103.869050771945,103.869050771945,554525,GRACE WALK,VERDANA VILLAS,31976.5789508522,37861.4529634789
27 GRACE WALK VERDANA VILLAS SINGAPORE 554526,27,VERDANA VILLAS,1.35871769231006,103.868988672075,103.868988672075,554526,GRACE WALK,VERDANA VILLAS,31969.6678923974,37865.6442014519
25 GRACE WALK VERDANA VILLAS SINGAPORE 554527,25,VERDANA VILLAS,1.35874094346638,103.868950580561,103.868950580561,554527,GRACE WALK,VERDANA VILLAS,31965.4287099382,37868.215133721
23 GRACE WALK VERDANA VILLAS SINGAPORE 554528,23,VERDANA VILLAS,1.35877414395625,103.8688961882,103.8688961882,554528,GRACE WALK,VERDANA VILLAS,31959.3754158746,37871.8861861248
17A BURGHLEY DRIVE SERANGOON GARDEN ESTATE SINGAPORE 554529,17A,SERANGOON GARDEN ESTATE,1.35834545732334,103.862292570243,103.862292570243,554529,BURGHLEY DRIVE,SERANGOON GARDEN ESTATE,31224.4698003307,37824.4743861631
23 SERANGOON NORTH AVENUE 5 BTC CENTRE SINGAPORE 554530,23,BTC CENTRE,1.37599065567683,103.873560872276,103.873560872276,554530,SERANGOON NORTH AVENUE 5,BTC CENTRE,32478.4688546518,39775.6090012062
9 SERANGOON NORTH AVENUE 5 CGGVERITAS HUB SINGAPORE 554531,9,CGGVERITAS HUB,1.37567313847639,103.868503311097,103.868503311097,554531,SERANGOON NORTH AVENUE 5,CGGVERITAS HUB,31915.6253760457,39740.4906639028
4 SERANGOON NORTH AVENUE 5 SINGAPORE 554532,4,NIL,1.37308899564088,103.869240102332,103.869240102332,554532,SERANGOON NORTH AVENUE 5,4 SERANGOON NORTH AVENUE 5 SINGAPORE 554532,31997.6254301136,39454.7504551578
150 SERANGOON AVENUE 3 LORONG CHUAN MRT STATION SINGAPORE 554533,150,LORONG CHUAN MRT STATION,1.35153128621585,103.864812169514,103.864812169514,554533,SERANGOON AVENUE 3,LORONG CHUAN MRT STATION,31504.881845098,37071.0015116353
11S MARLENE AVENUE MARLENE VILLE SINGAPORE 554534,11S,MARLENE VILLE,1.36030064351342,103.8715070865,103.8715070865,554534,MARLENE AVENUE,MARLENE VILLE,32249.9354983475,38040.6831945889
11R MARLENE AVENUE MARLENE VILLE SINGAPORE 554535,11R,MARLENE VILLE,1.3602994347416,103.871505063236,103.871505063236,554535,MARLENE AVENUE,MARLENE VILLE,32249.710334816,38040.549531173
11Q MARLENE AVENUE MARLENE VILLE SINGAPORE 554536,11Q,MARLENE VILLE,1.36032119416979,103.871462197669,103.871462197669,554536,MARLENE AVENUE,MARLENE VILLE,32244.9398584384,38042.955502931
11P MARLENE AVENUE MARLENE VILLE SINGAPORE 554537,11P,MARLENE VILLE,1.36034180447229,103.871418992655,103.871418992655,554537,MARLENE AVENUE,MARLENE VILLE,32240.1316076173,38045.2344096918
11N MARLENE AVENUE MARLENE VILLE SINGAPORE 554538,11N,MARLENE VILLE,1.36036290529573,103.871376260889,103.871376260889,554538,MARLENE AVENUE,MARLENE VILLE,32235.3760230877,38047.5675566811
11M MARLENE AVENUE MARLENE VILLE SINGAPORE 554539,11M,MARLENE VILLE,1.3603848503356,103.871331936705,103.871331936705,554539,MARLENE AVENUE,MARLENE VILLE,32230.4432195136,38049.9940501321
11C MARLENE AVENUE MARLENE VILLE SINGAPORE 554540,11C,MARLENE VILLE,1.3601611897713,103.871577176027,103.871577176027,554540,MARLENE AVENUE,MARLENE VILLE,32257.7358906996,38025.2632308193
29F BRIGHTON AVENUE THE SILVER SPURZ SINGAPORE 554546,29F,THE SILVER SPURZ,1.35988796326619,103.873066274668,103.873066274668,554546,BRIGHTON AVENUE,THE SILVER SPURZ,32423.4557348657,37995.0539064556
29E BRIGHTON AVENUE THE SILVER SPURZ SINGAPORE 554547,29E,THE SILVER SPURZ,1.35991088276577,103.873157677041,103.873157677041,554547,BRIGHTON AVENUE,THE SILVER SPURZ,32433.6277145455,37997.5883960724
28A TAVISTOCK AVENUE SERANGOON GARDEN ESTATE SINGAPORE 554548,28A,SERANGOON GARDEN ESTATE,1.36916274867972,103.862949621339,103.862949621339,554548,TAVISTOCK AVENUE,SERANGOON GARDEN ESTATE,31297.5772721218,39020.596394347
47A TAVISTOCK AVENUE SERANGOON GARDEN ESTATE SINGAPORE 554549,47A,SERANGOON GARDEN ESTATE,1.36988969825795,103.863765026052,103.863765026052,554549,TAVISTOCK AVENUE,SERANGOON GARDEN ESTATE,31388.320959718,39100.979926208
27A BRIGHTON CRESCENT SINGAPORE 554550,27A,NIL,1.3606403699352,103.868986852194,103.868986852194,554550,BRIGHTON CRESCENT,27A BRIGHTON CRESCENT SINGAPORE 554550,31969.4622214483,38078.2441279106
9A BURGHLEY DRIVE SERANGOON GARDEN ESTATE SINGAPORE 554551,9A,SERANGOON GARDEN ESTATE,1.3580778370896,103.862642214343,103.862642214343,554551,BURGHLEY DRIVE,SERANGOON GARDEN ESTATE,31263.3815029617,37794.8827708103
4A BERWICK DRIVE SERANGOON GARDEN ESTATE SINGAPORE 554552,4A,SERANGOON GARDEN ESTATE,1.36568487073811,103.86161859907,103.86161859907,554552,BERWICK DRIVE,SERANGOON GARDEN ESTATE,31149.4550823485,38636.0285249148
3 SERANGOON NORTH AVENUE 5 SINGAPORE 554553,3,NIL,1.37312860171966,103.867345646638,103.867345646638,554553,SERANGOON NORTH AVENUE 5,3 SERANGOON NORTH AVENUE 5 SINGAPORE 554553,31786.7956358781,39459.126812119
36A BERWICK DRIVE SERANGOON GARDEN ESTATE SINGAPORE 554554,36A,SERANGOON GARDEN ESTATE,1.36363210705726,103.860506875613,103.860506875613,554554,BERWICK DRIVE,SERANGOON GARDEN ESTATE,31025.7360609639,38409.0429219566
32A BRIGHTON CRESCENT SINGAPORE 554555,32A,NIL,1.36138212562137,103.869370193956,103.869370193956,554555,BRIGHTON CRESCENT,32A BRIGHTON CRESCENT SINGAPORE 554555,32012.1224625232,38160.2643404566
74 CHUAN DRIVE CHUAN YUAN SINGAPORE 554556,74,CHUAN YUAN,1.36210131581593,103.866433049912,103.866433049912,554556,CHUAN DRIVE,CHUAN YUAN,31685.2516052602,38239.7840543296
76 CHUAN DRIVE CHUAN YUAN SINGAPORE 554557,76,CHUAN YUAN,1.36215868288692,103.866428313106,103.866428313106,554557,CHUAN DRIVE,CHUAN YUAN,31684.7243672516,38246.1274064817
78 CHUAN DRIVE CHUAN YUAN SINGAPORE 554558,78,CHUAN YUAN,1.36221434437049,103.86642055759,103.86642055759,554558,CHUAN DRIVE,CHUAN YUAN,31683.8611848922,38252.2821588274
80 CHUAN DRIVE CHUAN YUAN SINGAPORE 554559,80,CHUAN YUAN,1.36227027927985,103.866415208269,103.866415208269,554559,CHUAN DRIVE,CHUAN YUAN,31683.2657833844,38258.467148887
82 CHUAN DRIVE CHUAN YUAN SINGAPORE 554560,82,CHUAN YUAN,1.36232594815284,103.866407545497,103.866407545497,554560,CHUAN DRIVE,CHUAN YUAN,31682.4129224075,38264.6227184683
84 CHUAN DRIVE CHUAN YUAN SINGAPORE 554561,84,CHUAN YUAN,1.36238311920894,103.866404407376,103.866404407376,554561,CHUAN DRIVE,CHUAN YUAN,31682.063599607,38270.944398744
21 JALAN NIRA SINGAPORE 554562,21,NIL,1.36185192779479,103.865806883091,103.865806883091,554562,JALAN NIRA,21 JALAN NIRA SINGAPORE 554562,31615.5669581387,38212.207045706
23 JALAN NIRA SINGAPORE 554563,23,NIL,1.36179041504315,103.865811471084,103.865811471084,554563,JALAN NIRA,23 JALAN NIRA SINGAPORE 554563,31616.0776395602,38205.4052849412
25 JALAN NIRA SINGAPORE 554564,25,NIL,1.36173450478615,103.865815668862,103.865815668862,554564,JALAN NIRA,25 JALAN NIRA SINGAPORE 554564,31616.5448864251,38199.2230189983
27 JALAN NIRA SINGAPORE 554565,27,NIL,1.36167859288675,103.865819865825,103.865819865825,554565,JALAN NIRA,27 JALAN NIRA SINGAPORE 554565,31617.0120424852,38193.0405714475
29 JALAN NIRA SINGAPORE 554566,29,NIL,1.36162268262967,103.865824068499,103.865824068499,554566,JALAN NIRA,29 JALAN NIRA SINGAPORE 554566,31617.4798341738,38186.8583055064
31 JALAN NIRA SINGAPORE 554567,31,NIL,1.36156677182519,103.865828262198,103.865828262198,554567,JALAN NIRA,31 JALAN NIRA SINGAPORE 554567,31617.946627019,38180.6759790275
33 JALAN NIRA SINGAPORE 554568,33,NIL,1.36151085992566,103.86583246324,103.86583246324,554568,JALAN NIRA,33 JALAN NIRA SINGAPORE 554568,31618.4142370997,38174.4935314767
35 JALAN NIRA SINGAPORE 554569,35,NIL,1.36145240969936,103.865836842121,103.865836842121,554569,JALAN NIRA,35 JALAN NIRA SINGAPORE 554569,31618.9016424408,38168.0304089151
149 CHUAN DRIVE SINGAPORE 554570,149,NIL,1.36237637241013,103.865751647249,103.865751647249,554570,CHUAN DRIVE,149 CHUAN DRIVE SINGAPORE 554570,31609.4190766262,38270.1973849051
151 CHUAN DRIVE SINGAPORE 554571,151,NIL,1.36238803311992,103.865814757238,103.865814757238,554571,CHUAN DRIVE,151 CHUAN DRIVE SINGAPORE 554571,31616.4424595684,38271.4868615475
153 CHUAN DRIVE SINGAPORE 554572,153,NIL,1.36239686998885,103.865898847865,103.865898847865,554572,CHUAN DRIVE,153 CHUAN DRIVE SINGAPORE 554572,31625.800745042,38272.4641239382
155 CHUAN DRIVE SINGAPORE 554573,155,NIL,1.36238813266467,103.865962598089,103.865962598089,554573,CHUAN DRIVE,155 CHUAN DRIVE SINGAPORE 554573,31632.8954090849,38271.4980909694
5A SERANGOON NORTH AVENUE 5 SINGAPORE 554574,5A,NIL,1.37475232863877,103.868012669202,103.868012669202,554574,SERANGOON NORTH AVENUE 5,5A SERANGOON NORTH AVENUE 5 SINGAPORE 554574,31861.0244759303,39638.6713762414
113 CHUAN DRIVE 8 ON CHUAN SINGAPORE 554575,113,8 ON CHUAN,1.36147129123867,103.866078264592,103.866078264592,554575,CHUAN DRIVE,8 ON CHUAN,31645.7691089921,38170.1185971107
115 CHUAN DRIVE 8 ON CHUAN SINGAPORE 554576,115,8 ON CHUAN,1.36152747880663,103.866072660152,103.866072660152,554576,CHUAN DRIVE,8 ON CHUAN,31645.1453161156,38176.3315245211
117 CHUAN DRIVE SINGAPORE 554577,117,NIL,1.36157869476241,103.866172683531,103.866172683531,554577,CHUAN DRIVE,117 CHUAN DRIVE SINGAPORE 554577,31656.2766698068,38181.99487615
119 CHUAN DRIVE 8 ON CHUAN SINGAPORE 554578,119,8 ON CHUAN,1.36163930616523,103.866064221635,103.866064221635,554578,CHUAN DRIVE,8 ON CHUAN,31644.2060400443,38188.6968131047
121 CHUAN DRIVE 8 ON CHUAN SINGAPORE 554579,121,8 ON CHUAN,1.36169825102742,103.866059807408,103.866059807408,554579,CHUAN DRIVE,8 ON CHUAN,31643.7146998644,38195.2146299146
123 CHUAN DRIVE 8 ON CHUAN SINGAPORE 554580,123,8 ON CHUAN,1.36175113105727,103.866055992811,103.866055992811,554580,CHUAN DRIVE,8 ON CHUAN,31643.2901005894,38201.0618292764
125 CHUAN DRIVE 8 ON CHUAN SINGAPORE 554581,125,8 ON CHUAN,1.3618100775634,103.866051461634,103.866051461634,554581,CHUAN DRIVE,8 ON CHUAN,31642.7857451765,38207.5798276942
127 CHUAN DRIVE 8 ON CHUAN SINGAPORE 554582,127,8 ON CHUAN,1.36187069055441,103.866046960124,103.866046960124,554582,CHUAN DRIVE,8 ON CHUAN,31642.2846889738,38214.2820975967
147 CHUAN DRIVE SINGAPORE 554583,147,NIL,1.36242731966342,103.865642767964,103.865642767964,554583,CHUAN DRIVE,147 CHUAN DRIVE SINGAPORE 554583,31597.3020157767,38275.8307106942
129 CHUAN DRIVE SINGAPORE 554584,129,NIL,1.36203151145356,103.866137016453,103.866137016453,554584,CHUAN DRIVE,129 CHUAN DRIVE SINGAPORE 554584,31652.3066605264,38232.0649920516
131 CHUAN DRIVE SINGAPORE 554585,131,NIL,1.36202877713058,103.866077438774,103.866077438774,554585,CHUAN DRIVE,131 CHUAN DRIVE SINGAPORE 554585,31645.6763678892,38231.7625543568
133 CHUAN DRIVE SINGAPORE 554586,133,NIL,1.36202500910318,103.866024302612,103.866024302612,554586,CHUAN DRIVE,133 CHUAN DRIVE SINGAPORE 554586,31639.7629421791,38231.3458247576
135 CHUAN DRIVE SINGAPORE 554587,135,NIL,1.36202098602208,103.865966286886,103.865966286886,554587,CHUAN DRIVE,135 CHUAN DRIVE SINGAPORE 554587,31633.3064785721,38230.9008853976
137 CHUAN DRIVE SINGAPORE 554588,137,NIL,1.36201687226737,103.865913170303,103.865913170303,554588,CHUAN DRIVE,137 CHUAN DRIVE SINGAPORE 554588,31627.3952321559,38230.4459273331
139 CHUAN DRIVE SINGAPORE 554589,139,NIL,1.36201252398867,103.865855179595,103.865855179595,554589,CHUAN DRIVE,139 CHUAN DRIVE SINGAPORE 554589,31620.9415532034,38229.9650296085
141 CHUAN DRIVE SINGAPORE 554590,141,NIL,1.36200890349848,103.865802027661,103.865802027661,554590,CHUAN DRIVE,141 CHUAN DRIVE SINGAPORE 554590,31615.0263719494,38229.5646144524
143 CHUAN DRIVE SINGAPORE 554591,143,NIL,1.36200436880481,103.86574405191,103.86574405191,554591,CHUAN DRIVE,143 CHUAN DRIVE SINGAPORE 554591,31608.5743577369,38229.063104229
145 CHUAN DRIVE SINGAPORE 554592,145,NIL,1.36199907121039,103.865686522193,103.865686522193,554592,CHUAN DRIVE,145 CHUAN DRIVE SINGAPORE 554592,31602.1719830167,38228.477237137
157 CHUAN DRIVE SINGAPORE 554593,157,NIL,1.36238870496596,103.866048264718,103.866048264718,554593,CHUAN DRIVE,157 CHUAN DRIVE SINGAPORE 554593,31642.4290975248,38271.5615023952
159 CHUAN DRIVE SINGAPORE 554594,159,NIL,1.36239344708215,103.866110573911,103.866110573911,554594,CHUAN DRIVE,159 CHUAN DRIVE SINGAPORE 554594,31649.3633715222,38272.0859557502
22 CHUAN VIEW SINGAPORE 554595,22,NIL,1.36155505277439,103.867037025707,103.867037025707,554595,CHUAN VIEW,22 CHUAN VIEW SINGAPORE 554595,31752.4678680412,38179.3819924556
24 CHUAN VIEW SINGAPORE 554596,24,NIL,1.36161693254208,103.867036797833,103.867036797833,554596,CHUAN VIEW,24 CHUAN VIEW SINGAPORE 554596,31752.442412667,38186.2243425865
26 CHUAN VIEW SINGAPORE 554597,26,NIL,1.36167389906913,103.867037315926,103.867037315926,554597,CHUAN VIEW,26 CHUAN VIEW SINGAPORE 554597,31752.4999823719,38192.5234126784
28 CHUAN VIEW SINGAPORE 554598,28,NIL,1.36172908031155,103.867037776608,103.867037776608,554598,CHUAN VIEW,28 CHUAN VIEW SINGAPORE 554598,31752.5511655323,38198.6250749789
38 CHUAN VIEW SINGAPORE 554599,38,NIL,1.36196743601625,103.866676702748,103.866676702748,554599,CHUAN VIEW,38 CHUAN VIEW SINGAPORE 554599,31712.3675114205,38224.9806796573
40 CHUAN VIEW SINGAPORE 554600,40,NIL,1.36189981653709,103.866682818337,103.866682818337,554600,CHUAN VIEW,40 CHUAN VIEW SINGAPORE 554600,31713.0482081063,38217.5036704447
42 CHUAN VIEW SINGAPORE 554601,42,NIL,1.36184373416497,103.866682434076,103.866682434076,554601,CHUAN VIEW,42 CHUAN VIEW SINGAPORE 554601,31713.0055302493,38211.3023659401
44 CHUAN VIEW SINGAPORE 554602,44,NIL,1.36179032671633,103.866681583139,103.866681583139,554602,CHUAN VIEW,44 CHUAN VIEW SINGAPORE 554602,31712.9109125324,38205.3968401738
19 CHUAN LINK CHUAN VILLE SINGAPORE 554603,19,CHUAN VILLE,1.36069521841723,103.866816266043,103.866816266043,554603,CHUAN LINK,CHUAN VILLE,31727.9012222728,38084.3055337947
21 CHUAN LINK CHUAN VILLE SINGAPORE 554604,21,CHUAN VILLE,1.36069562457083,103.866762142959,103.866762142959,554604,CHUAN LINK,CHUAN VILLE,31721.877954049,38084.3503606785
23 CHUAN LINK CHUAN VILLE SINGAPORE 554605,23,CHUAN VILLE,1.36069630174739,103.866705958013,103.866705958013,554605,CHUAN LINK,CHUAN VILLE,31715.6252242401,38084.4251528662
25 CHUAN LINK CHUAN VILLE SINGAPORE 554606,25,CHUAN VILLE,1.36069659019646,103.866651613809,103.866651613809,554606,CHUAN LINK,CHUAN VILLE,31709.5773481457,38084.456964517
27 CHUAN LINK CHUAN VILLE SINGAPORE 554607,27,CHUAN VILLE,1.36069749237901,103.866595413363,103.866595413363,554607,CHUAN LINK,CHUAN VILLE,31703.3228930626,38084.5566369873
29 CHUAN LINK CHUAN VILLE SINGAPORE 554608,29,CHUAN VILLE,1.36069772224649,103.866541088197,103.866541088197,554608,CHUAN LINK,CHUAN VILLE,31697.277135727,38084.5819712896
31 CHUAN LINK CHUAN VILLE SINGAPORE 554609,31,CHUAN VILLE,1.36069870052465,103.866484853483,103.866484853483,554609,CHUAN LINK,CHUAN VILLE,31691.0188668771,38084.6900582593
33 CHUAN LINK CHUAN VILLE SINGAPORE 554610,33,CHUAN VILLE,1.36069901908056,103.866430418167,103.866430418167,554610,CHUAN LINK,CHUAN VILLE,31684.9608510081,38084.7251993883
60 CHUAN DRIVE CHUAN LOFT SINGAPORE 554611,60,CHUAN LOFT,1.36167031616008,103.866449945843,103.866449945843,554611,CHUAN DRIVE,CHUAN LOFT,31687.1325788405,38192.1263270006
62 CHUAN DRIVE CHUAN LOFT SINGAPORE 554612,62,CHUAN LOFT,1.36173187324672,103.866446125118,103.866446125118,554612,CHUAN DRIVE,CHUAN LOFT,31686.7072834009,38198.9329911787
64 CHUAN DRIVE CHUAN LOFT SINGAPORE 554613,64,CHUAN LOFT,1.3617823747771,103.866444877427,103.866444877427,554613,CHUAN DRIVE,CHUAN LOFT,31686.5683533559,38204.5171920303
66 CHUAN DRIVE CHUAN LOFT SINGAPORE 554614,66,CHUAN LOFT,1.36184434518851,103.866441906095,103.866441906095,554614,CHUAN DRIVE,CHUAN LOFT,31686.2375848293,38211.3695608638
68 CHUAN DRIVE CHUAN LOFT SINGAPORE 554615,68,CHUAN LOFT,1.36189505991425,103.866443728769,103.866443728769,554615,CHUAN DRIVE,CHUAN LOFT,31686.4403500529,38216.9773404747
70 CHUAN DRIVE CHUAN LOFT SINGAPORE 554616,70,CHUAN LOFT,1.36195652282788,103.866440546375,103.866440546375,554616,CHUAN DRIVE,CHUAN LOFT,31686.086093571,38223.7735924665
72 CHUAN DRIVE CHUAN LOFT SINGAPORE 554617,72,CHUAN LOFT,1.36201339186521,103.866444039351,103.866444039351,554617,CHUAN DRIVE,CHUAN LOFT,31686.4747344824,38230.0618871562
20 CHUAN PLACE SINGAPORE 554618,20,NIL,1.36065269999423,103.867747900707,103.867747900707,554618,CHUAN PLACE,20 CHUAN PLACE SINGAPORE 554618,31831.5813553054,38079.6055212822
22 CHUAN PLACE SINGAPORE 554619,22,NIL,1.36065339633367,103.867693214906,103.867693214906,554619,CHUAN PLACE,22 CHUAN PLACE SINGAPORE 554619,31825.4954626234,38079.6824322287
1 GOLDEN RISE GOLDENHILL VILLAS SINGAPORE 554620,1,GOLDENHILL VILLAS,1.35484063665216,103.861201149835,103.861201149835,554620,GOLDEN RISE,GOLDENHILL VILLAS,31103.0117973285,37436.9277233798
3 GOLDEN RISE SINGAPORE 554621,3,NIL,1.3549519313773,103.861258673517,103.861258673517,554621,GOLDEN RISE,3 GOLDEN RISE SINGAPORE 554621,31109.4133850811,37449.2342012711
5 GOLDEN RISE SINGAPORE 554622,5,NIL,1.35482968673169,103.861347806732,103.861347806732,554622,GOLDEN RISE,5 GOLDEN RISE SINGAPORE 554622,31119.3330508489,37435.7171251029
7 GOLDEN RISE GOLDENHILL VILLAS SINGAPORE 554623,7,GOLDENHILL VILLAS,1.3548987634788,103.861418970146,103.861418970146,554623,GOLDEN RISE,GOLDENHILL VILLAS,31127.2526385207,37443.3553718664
9 GOLDEN RISE GOLDENHILL VILLAS SINGAPORE 554624,9,GOLDENHILL VILLAS,1.35490224821365,103.861479370389,103.861479370389,554624,GOLDEN RISE,GOLDENHILL VILLAS,31133.9744918086,37443.7407741025
11 GOLDEN RISE GOLDENHILL VILLAS SINGAPORE 554625,11,GOLDENHILL VILLAS,1.35489104091997,103.861536741721,103.861536741721,554625,GOLDEN RISE,GOLDENHILL VILLAS,31140.3592808293,37442.501602849
13 GOLDEN RISE GOLDENHILL VILLAS SINGAPORE 554626,13,GOLDENHILL VILLAS,1.35485291979063,103.861746247933,103.861746247933,554626,GOLDEN RISE,GOLDENHILL VILLAS,31163.6749810986,37438.2866347767
15 GOLDEN RISE GOLDENHILL VILLAS SINGAPORE 554627,15,GOLDENHILL VILLAS,1.35483923716497,103.861800206189,103.861800206189,554627,GOLDEN RISE,GOLDENHILL VILLAS,31169.6799371922,37436.7737501469
17 GOLDEN RISE GOLDENHILL VILLAS SINGAPORE 554628,17,GOLDENHILL VILLAS,1.35483063611776,103.86185388464,103.86185388464,554628,GOLDEN RISE,GOLDENHILL VILLAS,31175.6537475307,37435.8227603659
19 GOLDEN RISE GOLDENHILL VILLAS SINGAPORE 554629,19,GOLDENHILL VILLAS,1.35482492842392,103.861907692856,103.861907692856,554629,GOLDEN RISE,GOLDENHILL VILLAS,31181.6419956973,37435.1917031743
21 GOLDEN RISE GOLDENHILL VILLAS SINGAPORE 554630,21,GOLDENHILL VILLAS,1.35482317342962,103.861961615622,103.861961615622,554630,GOLDEN RISE,GOLDENHILL VILLAS,31187.642986685,37434.9977156669
23 GOLDEN RISE GOLDENHILL VILLAS SINGAPORE 554631,23,GOLDENHILL VILLAS,1.35482166944726,103.862015530503,103.862015530503,554631,GOLDEN RISE,GOLDENHILL VILLAS,31193.6430999013,37434.8314839005
25 GOLDEN RISE GOLDENHILL VILLAS SINGAPORE 554632,25,GOLDENHILL VILLAS,1.35482003626175,103.862069445382,103.862069445382,554632,GOLDEN RISE,GOLDENHILL VILLAS,31199.6432131175,37434.6509656459
27 GOLDEN RISE GOLDENHILL VILLAS SINGAPORE 554633,27,GOLDENHILL VILLAS,1.35481845809581,103.862123321642,103.862123321642,554633,GOLDEN RISE,GOLDENHILL VILLAS,31205.63902828,37434.4765312541
29 GOLDEN RISE GOLDENHILL VILLAS SINGAPORE 554634,29,GOLDENHILL VILLAS,1.35482130617904,103.862177996751,103.862177996751,554634,GOLDEN RISE,GOLDENHILL VILLAS,31211.7237405106,37434.7915301621
7 GOLDEN DRIVE GOLDENHILL VILLAS SINGAPORE 554635,7,GOLDENHILL VILLAS,1.35541633797375,103.861097140802,103.861097140802,554635,GOLDEN DRIVE,GOLDENHILL VILLAS,31091.4360491,37500.5857122634
8 GOLDEN DRIVE GOLDENHILL VILLAS SINGAPORE 554636,8,GOLDENHILL VILLAS,1.35508609982348,103.86124034051,103.86124034051,554636,GOLDEN DRIVE,GOLDENHILL VILLAS,31107.3729597628,37464.0698416159
9 GOLDEN DRIVE GOLDENHILL VILLAS SINGAPORE 554637,9,GOLDENHILL VILLAS,1.35541986301229,103.861152595691,103.861152595691,554637,GOLDEN DRIVE,GOLDENHILL VILLAS,31097.6075396398,37500.9755638931
10 GOLDEN DRIVE GOLDENHILL VILLAS SINGAPORE 554638,10,GOLDENHILL VILLAS,1.35510224342356,103.861293352091,103.861293352091,554638,GOLDEN DRIVE,GOLDENHILL VILLAS,31113.2725227373,37465.8549867589
11 GOLDEN DRIVE GOLDENHILL VILLAS SINGAPORE 554639,11,GOLDENHILL VILLAS,1.35542872778212,103.8612057935,103.8612057935,554639,GOLDEN DRIVE,GOLDENHILL VILLAS,31103.5278361831,37501.9558530822
12 GOLDEN DRIVE GOLDENHILL VILLAS SINGAPORE 554640,12,GOLDENHILL VILLAS,1.35511120864907,103.861346663309,103.861346663309,554640,GOLDEN DRIVE,GOLDENHILL VILLAS,31119.2054410297,37466.8463842981
13 GOLDEN DRIVE GOLDENHILL VILLAS SINGAPORE 554641,13,GOLDENHILL VILLAS,1.35543786765271,103.861258952964,103.861258952964,554641,GOLDEN DRIVE,GOLDENHILL VILLAS,31109.4438649407,37502.966561595
14 GOLDEN DRIVE GOLDENHILL VILLAS SINGAPORE 554642,14,GOLDENHILL VILLAS,1.35511862673307,103.861400172509,103.861400172509,554642,GOLDEN DRIVE,GOLDENHILL VILLAS,31125.1603944143,37467.6667071916
15 GOLDEN DRIVE GOLDENHILL VILLAS SINGAPORE 554643,15,GOLDENHILL VILLAS,1.35544720844237,103.861312082785,103.861312082785,554643,GOLDEN DRIVE,GOLDENHILL VILLAS,31115.356594488,37503.9994868077
16 GOLDEN DRIVE GOLDENHILL VILLAS SINGAPORE 554644,16,GOLDENHILL VILLAS,1.35512927924775,103.861453281669,103.861453281669,554644,GOLDEN DRIVE,GOLDENHILL VILLAS,31131.0708235949,37468.8446765821
17 GOLDEN DRIVE GOLDENHILL VILLAS SINGAPORE 554645,17,GOLDENHILL VILLAS,1.35545640141497,103.861365223211,103.861365223211,554645,GOLDEN DRIVE,GOLDENHILL VILLAS,31121.2705044867,37505.0160673074
18 GOLDEN DRIVE GOLDENHILL VILLAS SINGAPORE 554646,18,GOLDENHILL VILLAS,1.35513385379031,103.861506995908,103.861506995908,554646,GOLDEN DRIVE,GOLDENHILL VILLAS,31137.0485990383,37469.3505756631
19 GOLDEN DRIVE GOLDENHILL VILLAS SINGAPORE 554647,19,GOLDENHILL VILLAS,1.3554653825167,103.861418407696,103.861418407696,554647,GOLDEN DRIVE,GOLDENHILL VILLAS,31127.1893178988,37506.0092203896
20 GOLDEN DRIVE GOLDENHILL VILLAS SINGAPORE 554648,20,GOLDENHILL VILLAS,1.35509627760497,103.86172161478,103.86172161478,554648,GOLDEN DRIVE,GOLDENHILL VILLAS,31160.9332768656,37465.1958711445
21 GOLDEN DRIVE GOLDENHILL VILLAS SINGAPORE 554649,21,GOLDENHILL VILLAS,1.35547947339239,103.861471220175,103.861471220175,554649,GOLDEN DRIVE,GOLDENHILL VILLAS,31133.0667247083,37507.5673859231
22 GOLDEN DRIVE GOLDENHILL VILLAS SINGAPORE 554650,22,GOLDENHILL VILLAS,1.3550911086102,103.861776266411,103.861776266411,554650,GOLDEN DRIVE,GOLDENHILL VILLAS,31167.0153860496,37464.6243813448
23 GOLDEN DRIVE GOLDENHILL VILLAS SINGAPORE 554651,23,GOLDENHILL VILLAS,1.35546800649535,103.861677312344,103.861677312344,554651,GOLDEN DRIVE,GOLDENHILL VILLAS,31156.0024407106,37506.299702229
24 GOLDEN DRIVE GOLDENHILL VILLAS SINGAPORE 554652,24,GOLDENHILL VILLAS,1.35508099162814,103.861830185821,103.861830185821,554652,GOLDEN DRIVE,GOLDENHILL VILLAS,31173.0160138216,37463.5057674702
25 GOLDEN DRIVE GOLDENHILL VILLAS SINGAPORE 554653,25,GOLDENHILL VILLAS,1.35545086469985,103.86173206094,103.86173206094,554653,GOLDEN DRIVE,GOLDENHILL VILLAS,31162.0953555647,37504.4043210894
26 GOLDEN DRIVE GOLDENHILL VILLAS SINGAPORE 554654,26,GOLDENHILL VILLAS,1.35507083933334,103.861884103871,103.861884103871,554654,GOLDEN DRIVE,GOLDENHILL VILLAS,31179.0164902536,37462.3832490258
27 GOLDEN DRIVE GOLDENHILL VILLAS SINGAPORE 554655,27,GOLDENHILL VILLAS,1.3554403502575,103.861786069834,103.861786069834,554655,GOLDEN DRIVE,GOLDENHILL VILLAS,31168.1059415033,37503.2417581026
28 GOLDEN DRIVE GOLDENHILL VILLAS SINGAPORE 554656,28,GOLDENHILL VILLAS,1.3550610620514,103.861938017572,103.861938017572,554656,GOLDEN DRIVE,GOLDENHILL VILLAS,31185.0164823979,37461.302197719
29 GOLDEN DRIVE GOLDENHILL VILLAS SINGAPORE 554657,29,GOLDENHILL VILLAS,1.35543004029232,103.861840082538,103.861840082538,554657,GOLDEN DRIVE,GOLDENHILL VILLAS,31174.1169511937,37502.1018052995
30 GOLDEN DRIVE GOLDENHILL VILLAS SINGAPORE 554658,30,GOLDENHILL VILLAS,1.35504929117194,103.861991941313,103.861991941313,554658,GOLDEN DRIVE,GOLDENHILL VILLAS,31191.0175944576,37460.000704689
31 GOLDEN DRIVE GOLDENHILL VILLAS SINGAPORE 554659,31,GOLDENHILL VILLAS,1.35541912510261,103.861894099042,103.861894099042,554659,GOLDEN DRIVE,GOLDENHILL VILLAS,31180.1283846358,37500.8949299846
32 GOLDEN DRIVE GOLDENHILL VILLAS SINGAPORE 554660,32,GOLDENHILL VILLAS,1.35504899708776,103.862045865189,103.862045865189,554660,GOLDEN DRIVE,GOLDENHILL VILLAS,31197.0187065173,37459.9682574086
33 GOLDEN DRIVE GOLDENHILL VILLAS SINGAPORE 554661,33,GOLDENHILL VILLAS,1.35540877462261,103.86194810848,103.86194810848,554661,GOLDEN DRIVE,GOLDENHILL VILLAS,31186.1390311103,37499.75049752
34 GOLDEN DRIVE GOLDENHILL VILLAS SINGAPORE 554662,34,GOLDENHILL VILLAS,1.35504896797592,103.862099777916,103.862099777916,554662,GOLDEN DRIVE,GOLDENHILL VILLAS,31203.0185775897,37459.9651095383
35 GOLDEN DRIVE GOLDENHILL VILLAS SINGAPORE 554663,35,GOLDENHILL VILLAS,1.35539826647121,103.862002124716,103.862002124716,554663,GOLDEN DRIVE,GOLDENHILL VILLAS,31192.1504342845,37498.5886306968
36 GOLDEN DRIVE GOLDENHILL VILLAS SINGAPORE 554664,36,GOLDENHILL VILLAS,1.35504558916046,103.862156508018,103.862156508018,554664,GOLDEN DRIVE,GOLDENHILL VILLAS,31209.3319947058,37459.5915723518
37 GOLDEN DRIVE GOLDENHILL VILLAS SINGAPORE 554665,37,GOLDENHILL VILLAS,1.35538812265706,103.862056138508,103.862056138508,554665,GOLDEN DRIVE,GOLDENHILL VILLAS,31198.1615650468,37497.4670505617
39 GOLDEN DRIVE GOLDENHILL VILLAS SINGAPORE 554666,39,GOLDENHILL VILLAS,1.35537745187047,103.862113122559,103.862113122559,554666,GOLDEN DRIVE,GOLDENHILL VILLAS,31204.5032524597,37496.2872045562
1 GOLDEN WALK GOLDENHILL VILLAS SINGAPORE 554667,1,GOLDENHILL VILLAS,1.35599771004152,103.861150376422,103.861150376422,554667,GOLDEN WALK,GOLDENHILL VILLAS,31097.3598264614,37564.8709445726
2 GOLDEN WALK GOLDENHILL VILLAS SINGAPORE 554668,2,GOLDENHILL VILLAS,1.35564693834447,103.861153904319,103.861153904319,554668,GOLDEN WALK,GOLDENHILL VILLAS,31097.7528864983,37526.0844000541
3 GOLDEN WALK GOLDENHILL VILLAS SINGAPORE 554669,3,GOLDENHILL VILLAS,1.35599852676871,103.86120558597,103.86120558597,554669,GOLDEN WALK,GOLDENHILL VILLAS,31103.5040152799,37564.9613247719
4 GOLDEN WALK GOLDENHILL VILLAS SINGAPORE 554670,4,GOLDENHILL VILLAS,1.3556621205894,103.861207521322,103.861207521322,554670,GOLDEN WALK,GOLDENHILL VILLAS,31103.7198260035,37527.7632440384
5 GOLDEN WALK GOLDENHILL VILLAS SINGAPORE 554671,5,GOLDENHILL VILLAS,1.35600757302222,103.861258759316,103.861258759316,554671,GOLDEN WALK,GOLDENHILL VILLAS,31109.4215877047,37565.9616816342
6 GOLDEN WALK GOLDENHILL VILLAS SINGAPORE 554672,6,GOLDENHILL VILLAS,1.35567123609705,103.861260728387,103.861260728387,554672,GOLDEN WALK,GOLDENHILL VILLAS,31109.6411516583,37528.7712587006
7 GOLDEN WALK GOLDENHILL VILLAS SINGAPORE 554673,7,GOLDENHILL VILLAS,1.35601670933303,103.861311900026,103.861311900026,554673,GOLDEN WALK,GOLDENHILL VILLAS,31115.3355279714,37566.9719966631
8 GOLDEN WALK GOLDENHILL VILLAS SINGAPORE 554674,8,GOLDENHILL VILLAS,1.3556802172009,103.861313916684,103.861313916684,554674,GOLDEN WALK,GOLDENHILL VILLAS,31115.5603888221,37529.7644117828
9 GOLDEN WALK GOLDENHILL VILLAS SINGAPORE 554675,9,GOLDENHILL VILLAS,1.3560257353276,103.861365101114,103.861365101114,554675,GOLDEN WALK,GOLDENHILL VILLAS,31121.2561877305,37567.9701136928
10 GOLDEN WALK GOLDENHILL VILLAS SINGAPORE 554676,10,GOLDENHILL VILLAS,1.35568899300355,103.86136714224,103.86136714224,554676,GOLDEN WALK,GOLDENHILL VILLAS,31121.4837726997,37530.7348638773
11 GOLDEN WALK GOLDENHILL VILLAS SINGAPORE 554677,11,GOLDENHILL VILLAS,1.35603452207868,103.861418288057,103.861418288057,554677,GOLDEN WALK,GOLDENHILL VILLAS,31127.1752735544,37568.9417765066
12 GOLDEN WALK GOLDENHILL VILLAS SINGAPORE 554678,12,GOLDENHILL VILLAS,1.35569767929441,103.861420361267,103.861420361267,554678,GOLDEN WALK,GOLDENHILL VILLAS,31127.4064301457,37531.6954183392
13 GOLDEN WALK GOLDENHILL VILLAS SINGAPORE 554679,13,GOLDENHILL VILLAS,1.35604348182783,103.861471464939,103.861471464939,554679,GOLDEN WALK,GOLDENHILL VILLAS,31133.0932394629,37569.9325686861
14 GOLDEN WALK GOLDENHILL VILLAS SINGAPORE 554680,14,GOLDENHILL VILLAS,1.35570050904904,103.861475383167,103.861475383167,554680,GOLDEN WALK,GOLDENHILL VILLAS,31133.5297340555,37532.0083892923
15 GOLDEN WALK GOLDENHILL VILLAS SINGAPORE 554681,15,GOLDENHILL VILLAS,1.35605413614754,103.861533874119,103.861533874119,554681,GOLDEN WALK,GOLDENHILL VILLAS,31140.0386520782,37571.1107499525
16 GOLDEN WALK GOLDENHILL VILLAS SINGAPORE 554682,16,GOLDENHILL VILLAS,1.35568581813018,103.86170433965,103.86170433965,554682,GOLDEN WALK,GOLDENHILL VILLAS,31159.0099886442,37530.3842395525
17 GOLDEN WALK GOLDENHILL VILLAS SINGAPORE 554683,17,GOLDENHILL VILLAS,1.35605534820088,103.861606870733,103.861606870733,554683,GOLDEN WALK,GOLDENHILL VILLAS,31148.1623367639,37571.2448673882
18 GOLDEN WALK GOLDENHILL VILLAS SINGAPORE 554684,18,GOLDENHILL VILLAS,1.35568082131213,103.861759109335,103.861759109335,554684,GOLDEN WALK,GOLDENHILL VILLAS,31165.105234134,37529.8317883145
19 GOLDEN WALK GOLDENHILL VILLAS SINGAPORE 554685,19,GOLDENHILL VILLAS,1.35603750499413,103.861670883706,103.861670883706,554685,GOLDEN WALK,GOLDENHILL VILLAS,31155.2862699479,37569.2719396725
20 GOLDEN WALK GOLDENHILL VILLAS SINGAPORE 554686,20,GOLDENHILL VILLAS,1.35567106128858,103.861812120357,103.861812120357,554686,GOLDEN WALK,GOLDENHILL VILLAS,31171.0047668396,37528.7526438907
21 GOLDEN WALK GOLDENHILL VILLAS SINGAPORE 554687,21,GOLDENHILL VILLAS,1.35602764861842,103.861723896639,103.861723896639,554687,GOLDEN WALK,GOLDENHILL VILLAS,31161.1860145302,37568.1821409203
22 GOLDEN WALK GOLDENHILL VILLAS SINGAPORE 554688,22,GOLDENHILL VILLAS,1.35566075790485,103.861865076705,103.861865076705,554688,GOLDEN WALK,GOLDENHILL VILLAS,31176.8982156813,37527.6134175193
23 GOLDEN WALK GOLDENHILL VILLAS SINGAPORE 554689,23,GOLDENHILL VILLAS,1.35601765783885,103.861776899235,103.861776899235,554689,GOLDEN WALK,GOLDENHILL VILLAS,31167.0846089292,37567.0774805862
24 GOLDEN WALK GOLDENHILL VILLAS SINGAPORE 554690,24,GOLDENHILL VILLAS,1.35565029548168,103.861917991167,103.861917991167,554690,GOLDEN WALK,GOLDENHILL VILLAS,31182.7870032536,37526.4566054493
25 GOLDEN WALK GOLDENHILL VILLAS SINGAPORE 554691,25,GOLDENHILL VILLAS,1.35600780501909,103.861829932022,103.861829932022,554691,GOLDEN WALK,GOLDENHILL VILLAS,31172.9865630735,37565.988075316
26 GOLDEN WALK GOLDENHILL VILLAS SINGAPORE 554692,26,GOLDENHILL VILLAS,1.35563980541059,103.861970886045,103.861970886045,554692,GOLDEN WALK,GOLDENHILL VILLAS,31188.673611531,37525.296736313
27 GOLDEN WALK GOLDENHILL VILLAS SINGAPORE 554693,27,GOLDENHILL VILLAS,1.35599802336867,103.861882967257,103.861882967257,554693,GOLDEN WALK,GOLDENHILL VILLAS,31178.8887896305,37564.9065397214
28 GOLDEN WALK GOLDENHILL VILLAS SINGAPORE 554694,28,GOLDENHILL VILLAS,1.35562944289711,103.862023842119,103.862023842119,554694,GOLDEN WALK,GOLDENHILL VILLAS,31194.5670301048,37524.150972059
29 GOLDEN WALK GOLDENHILL VILLAS SINGAPORE 554695,29,GOLDENHILL VILLAS,1.35598794909723,103.861935961147,103.861935961147,554695,GOLDEN WALK,GOLDENHILL VILLAS,31184.786415454,37563.7926476523
30 GOLDEN WALK GOLDENHILL VILLAS SINGAPORE 554696,30,GOLDENHILL VILLAS,1.35561426406073,103.862076173131,103.862076173131,554696,GOLDEN WALK,GOLDENHILL VILLAS,31200.3908928512,37522.4726426285
31 GOLDEN WALK GOLDENHILL VILLAS SINGAPORE 554697,31,GOLDENHILL VILLAS,1.35597781542552,103.861988875347,103.861988875347,554697,GOLDEN WALK,GOLDENHILL VILLAS,31190.6751727583,37562.6721874326
33 GOLDEN WALK GOLDENHILL VILLAS SINGAPORE 554698,33,GOLDENHILL VILLAS,1.35596775511202,103.862041877396,103.862041877396,554698,GOLDEN WALK,GOLDENHILL VILLAS,31196.5737066213,37561.5598390307
35 GOLDEN WALK GOLDENHILL VILLAS SINGAPORE 554699,35,GOLDENHILL VILLAS,1.35595749606806,103.862094816344,103.862094816344,554699,GOLDEN WALK,GOLDENHILL VILLAS,31202.4652183121,37560.4255160727
37 GOLDEN WALK GOLDENHILL VILLAS SINGAPORE 554700,37,GOLDENHILL VILLAS,1.35594713273068,103.862147760729,103.862147760729,554700,GOLDEN WALK,GOLDENHILL VILLAS,31208.3573353617,37559.2796610128
39 GOLDEN WALK GOLDENHILL VILLAS SINGAPORE 554701,39,GOLDENHILL VILLAS,1.35593700699209,103.862200717356,103.862200717356,554701,GOLDEN WALK,GOLDENHILL VILLAS,31214.2508144714,37558.1600785628
41 GOLDEN WALK GOLDENHILL VILLAS SINGAPORE 554702,41,GOLDENHILL VILLAS,1.35595762931665,103.862259578164,103.862259578164,554702,GOLDEN WALK,GOLDENHILL VILLAS,31220.8013207037,37560.4404684566
2 CHUAN LINK SINGAPORE 554703,2,NIL,1.36104717352059,103.867351068227,103.867351068227,554703,CHUAN LINK,2 CHUAN LINK SINGAPORE 554703,31787.4179153554,38123.2237743102
4 CHUAN LINK SINGAPORE 554704,4,NIL,1.36104861749146,103.867291020651,103.867291020651,554704,CHUAN LINK,4 CHUAN LINK SINGAPORE 554704,31780.7353196424,38123.3833471201
6 CHUAN LINK SINGAPORE 554705,6,NIL,1.36104677903017,103.867238084169,103.867238084169,554705,CHUAN LINK,6 CHUAN LINK SINGAPORE 554705,31774.8441106314,38123.1799765378
8 CHUAN LINK SINGAPORE 554706,8,NIL,1.36104682502393,103.867179512326,103.867179512326,554706,CHUAN LINK,8 CHUAN LINK SINGAPORE 554706,31768.3257489977,38123.1849707551
10 CHUAN LINK SINGAPORE 554707,10,NIL,1.36104736885546,103.867126670526,103.867126670526,554707,CHUAN LINK,10 CHUAN LINK SINGAPORE 554707,31762.445073246,38123.2450224347
12 CHUAN LINK SINGAPORE 554708,12,NIL,1.36104741402529,103.867068101131,103.867068101131,554708,CHUAN LINK,12 CHUAN LINK SINGAPORE 554708,31755.9269840242,38123.2499258481
14 CHUAN LINK SINGAPORE 554709,14,NIL,1.36104795894932,103.867015257154,103.867015257154,554709,CHUAN LINK,14 CHUAN LINK SINGAPORE 554709,31750.0460661277,38123.3100985996
16 CHUAN LINK SINGAPORE 554710,16,NIL,1.36104800055791,103.866956685584,103.866956685584,554710,CHUAN LINK,16 CHUAN LINK SINGAPORE 554710,31743.5277347621,38123.3146085292
18 CHUAN LINK SINGAPORE 554711,18,NIL,1.36104976446338,103.866900151153,103.866900151153,554711,CHUAN LINK,18 CHUAN LINK SINGAPORE 554711,31737.2361105951,38123.5095646121
30 CHUAN VIEW SINGAPORE 554712,30,NIL,1.36178566957171,103.867042773905,103.867042773905,554712,CHUAN VIEW,30 CHUAN VIEW SINGAPORE 554712,31753.1072186613,38204.8824357893
32 CHUAN VIEW SINGAPORE 554713,32,NIL,1.3618415340329,103.86704453438,103.86704453438,554713,CHUAN VIEW,32 CHUAN VIEW SINGAPORE 554713,31753.3030525157,38211.059646979
34 CHUAN VIEW SINGAPORE 554714,34,NIL,1.36189713626678,103.867045670934,103.867045670934,554714,CHUAN VIEW,34 CHUAN VIEW SINGAPORE 554714,31753.4294516156,38217.2078614384
36 CHUAN VIEW SINGAPORE 554715,36,NIL,1.3619613238989,103.867043787016,103.867043787016,554715,CHUAN VIEW,36 CHUAN VIEW SINGAPORE 554715,31753.2196944887,38224.3054009415
105 CHUAN DRIVE SINGAPORE 554716,105,NIL,1.36128762297515,103.866006685631,103.866006685631,554716,CHUAN DRIVE,105 CHUAN DRIVE SINGAPORE 554716,31637.8034837171,38149.8093853965
107 CHUAN DRIVE SINGAPORE 554717,107,NIL,1.36129625113849,103.866059156855,103.866059156855,554717,CHUAN DRIVE,107 CHUAN DRIVE SINGAPORE 554717,31643.6429042071,38150.7635230478
109 CHUAN DRIVE SINGAPORE 554718,109,NIL,1.36130528353602,103.866116599573,103.866116599573,554718,CHUAN DRIVE,109 CHUAN DRIVE SINGAPORE 554718,31650.0355931725,38151.7623665091
111 CHUAN DRIVE SINGAPORE 554719,111,NIL,1.36131391326663,103.866174377092,103.866174377092,554719,CHUAN DRIVE,111 CHUAN DRIVE SINGAPORE 554719,31656.4655420259,38152.7166857682
31A BRIGHTON CRESCENT BRIGHTON CREST SINGAPORE 554720,31A,BRIGHTON CREST,1.36066833555259,103.869318018515,103.869318018515,554720,BRIGHTON CRESCENT,BRIGHTON CREST,32006.3171237819,38081.3369710241
20 CHUAN LINK SINGAPORE 554722,20,NIL,1.36104263916573,103.866804620924,103.866804620924,554722,CHUAN LINK,20 CHUAN LINK SINGAPORE 554722,31726.6047234582,38122.7215376571
22 CHUAN LINK SINGAPORE 554723,22,NIL,1.36104437431449,103.866748887468,103.866748887468,554723,CHUAN LINK,22 CHUAN LINK SINGAPORE 554723,31720.4022385031,38122.9133156016
24 CHUAN LINK SINGAPORE 554724,24,NIL,1.36104463133332,103.866691104093,103.866691104093,554724,CHUAN LINK,24 CHUAN LINK SINGAPORE 554724,31713.9716237541,38122.9416464344
26 CHUAN LINK SINGAPORE 554725,26,NIL,1.3610452956075,103.866637473285,103.866637473285,554725,CHUAN LINK,26 CHUAN LINK SINGAPORE 554725,31708.0031405808,38123.0150160268
28 CHUAN LINK SINGAPORE 554726,28,NIL,1.36104548419059,103.86657967903,103.86657967903,554726,CHUAN LINK,28 CHUAN LINK SINGAPORE 554726,31701.5713151125,38123.0357798636
30 CHUAN LINK SINGAPORE 554727,30,NIL,1.36104590456636,103.866526046043,103.866526046043,554727,CHUAN LINK,30 CHUAN LINK SINGAPORE 554727,31695.6025897954,38123.0821806826
32 CHUAN LINK SINGAPORE 554728,32,NIL,1.36104636852192,103.866468254783,103.866468254783,554728,CHUAN LINK,32 CHUAN LINK SINGAPORE 554728,31689.1710972758,38123.1333941109
34 CHUAN LINK SINGAPORE 554729,34,NIL,1.36104530742623,103.866416577842,103.866416577842,554729,CHUAN LINK,34 CHUAN LINK SINGAPORE 554729,31683.4200592972,38123.0159846023
81 CHUAN DRIVE SINGAPORE 554730,81,NIL,1.36095079897574,103.866198294284,103.866198294284,554730,CHUAN DRIVE,81 CHUAN DRIVE SINGAPORE 554730,31659.1277928017,38112.5653881319
83 CHUAN DRIVE SINGAPORE 554731,83,NIL,1.36094231237969,103.866142565859,103.866142565859,554731,CHUAN DRIVE,83 CHUAN DRIVE SINGAPORE 554731,31652.9258829374,38111.6268990282
85 CHUAN DRIVE SINGAPORE 554732,85,NIL,1.36093257730016,103.866085872712,103.866085872712,554732,CHUAN DRIVE,85 CHUAN DRIVE SINGAPORE 554732,31646.6166125359,38110.550357651
87 CHUAN DRIVE SINGAPORE 554733,87,NIL,1.36092453055719,103.866032558643,103.866032558643,554733,CHUAN DRIVE,87 CHUAN DRIVE SINGAPORE 554733,31640.6833915636,38109.6605091989
89 CHUAN DRIVE SINGAPORE 554734,89,NIL,1.36091508125139,103.865975917176,103.865975917176,554734,CHUAN DRIVE,89 CHUAN DRIVE SINGAPORE 554734,31634.3798720781,38108.6155675966
91 CHUAN DRIVE SINGAPORE 554735,91,NIL,1.36090685822015,103.865922737734,103.865922737734,554735,CHUAN DRIVE,91 CHUAN DRIVE SINGAPORE 554735,31628.4616337586,38107.7062265612
93 CHUAN DRIVE SINGAPORE 554736,93,NIL,1.36089658634379,103.865866159084,103.865866159084,554736,CHUAN DRIVE,93 CHUAN DRIVE SINGAPORE 554736,31622.1651061773,38106.570329668
95 CHUAN DRIVE SINGAPORE 554737,95,NIL,1.36088749480401,103.865809431405,103.865809431405,554737,CHUAN DRIVE,95 CHUAN DRIVE SINGAPORE 554737,31615.8519917419,38105.5649483223
97 CHUAN DRIVE SINGAPORE 554738,97,NIL,1.36126318312611,103.865776883913,103.865776883913,554738,CHUAN DRIVE,97 CHUAN DRIVE SINGAPORE 554738,31612.2292773062,38147.1066057906
99 CHUAN DRIVE SINGAPORE 554739,99,NIL,1.36127213117844,103.865837447034,103.865837447034,554739,CHUAN DRIVE,99 CHUAN DRIVE SINGAPORE 554739,31618.9692308484,38148.0961267147
101 CHUAN DRIVE SINGAPORE 554740,101,NIL,1.36127721799065,103.865895326767,103.865895326767,554740,CHUAN DRIVE,101 CHUAN DRIVE SINGAPORE 554740,31625.4105604636,38148.6586874593
103 CHUAN DRIVE SINGAPORE 554741,103,NIL,1.36128561484768,103.865948133337,103.865948133337,554741,CHUAN DRIVE,103 CHUAN DRIVE SINGAPORE 554741,31631.2873013783,38149.5872486643
2 CHUAN VIEW SINGAPORE 554742,2,NIL,1.361620587414,103.867711662731,103.867711662731,554742,CHUAN VIEW,2 CHUAN VIEW SINGAPORE 554742,31827.5469660237,38186.6295400839
4 CHUAN VIEW SINGAPORE 554743,4,NIL,1.36162673994922,103.867646241464,103.867646241464,554743,CHUAN VIEW,4 CHUAN VIEW SINGAPORE 554743,31820.2663354883,38187.3097524829
6 CHUAN VIEW SINGAPORE 554744,6,NIL,1.36162676315757,103.867592978349,103.867592978349,554744,CHUAN VIEW,6 CHUAN VIEW SINGAPORE 554744,31814.3387746289,38187.3122344576
8 CHUAN VIEW SINGAPORE 554745,8,NIL,1.36162677657764,103.867535004573,103.867535004573,554745,CHUAN VIEW,8 CHUAN VIEW SINGAPORE 554745,31807.8869722923,38187.3136267848
10 CHUAN VIEW SINGAPORE 554746,10,NIL,1.36162745428148,103.867481543739,103.867481543739,554746,CHUAN VIEW,10 CHUAN VIEW SINGAPORE 554746,31801.9374066088,38187.3884795085
11 CHUAN VIEW SINGAPORE 554747,11,NIL,1.36126354312472,103.86735312279,103.86735312279,554747,CHUAN VIEW,11 CHUAN VIEW SINGAPORE 554747,31787.6462267563,38147.1488296278
12 CHUAN VIEW SINGAPORE 554748,12,NIL,1.36162978676313,103.867423572443,103.867423572443,554748,CHUAN VIEW,12 CHUAN VIEW SINGAPORE 554748,31795.4858766831,38187.6463021934
13 CHUAN VIEW SINGAPORE 554749,13,NIL,1.36126363102118,103.867293236473,103.867293236473,554749,CHUAN VIEW,13 CHUAN VIEW SINGAPORE 554749,31780.9815799575,38147.1584548466
14 CHUAN VIEW SINGAPORE 554750,14,NIL,1.36162966324949,103.867370046595,103.867370046595,554750,CHUAN VIEW,14 CHUAN VIEW SINGAPORE 554750,31789.5290769516,38187.6325605288
15 CHUAN VIEW SINGAPORE 554751,15,NIL,1.3612635778504,103.867239948615,103.867239948615,554751,CHUAN VIEW,15 CHUAN VIEW SINGAPORE 554751,31775.0512647117,38147.1524920538
16 CHUAN VIEW SINGAPORE 554752,16,NIL,1.36163145838924,103.867312196593,103.867312196593,554752,CHUAN VIEW,16 CHUAN VIEW SINGAPORE 554752,31783.0910465475,38187.8309671618
17 CHUAN VIEW SINGAPORE 554753,17,NIL,1.36126482744064,103.867181861993,103.867181861993,554753,CHUAN VIEW,17 CHUAN VIEW SINGAPORE 554753,31768.5869011618,38147.2905745953
18 CHUAN VIEW SINGAPORE 554754,18,NIL,1.36163184894314,103.867258682992,103.867258682992,554754,CHUAN VIEW,18 CHUAN VIEW SINGAPORE 554754,31777.1356088752,38187.8740687706
19 CHUAN VIEW SINGAPORE 554755,19,NIL,1.36126469844444,103.867128499612,103.867128499612,554755,CHUAN VIEW,19 CHUAN VIEW SINGAPORE 554755,31762.6482924884,38147.2762275711
20 CHUAN VIEW SINGAPORE 554756,20,NIL,1.36163457452104,103.867199204398,103.867199204398,554756,CHUAN VIEW,20 CHUAN VIEW SINGAPORE 554756,31770.516333784,38188.1753562819
21 CHUAN VIEW SINGAPORE 554757,21,NIL,1.36126620451903,103.86707045651,103.86707045651,554757,CHUAN VIEW,21 CHUAN VIEW SINGAPORE 554757,31756.188771815,38147.4426712133
23 CHUAN VIEW SINGAPORE 554758,23,NIL,1.36126602707005,103.867017064211,103.867017064211,554758,CHUAN VIEW,23 CHUAN VIEW SINGAPORE 554758,31750.2468336634,38147.4229667559
25 CHUAN VIEW SINGAPORE 554759,25,NIL,1.36126697691671,103.86695903198,103.86695903198,554759,CHUAN VIEW,25 CHUAN VIEW SINGAPORE 554759,31743.7885237103,38147.5279058553
27 CHUAN VIEW SINGAPORE 554760,27,NIL,1.36126757251984,103.866903273754,103.866903273754,554760,CHUAN VIEW,27 CHUAN VIEW SINGAPORE 554760,31737.5832843678,38147.5936781839
29 CHUAN VIEW SINGAPORE 554761,29,NIL,1.36126947603332,103.86680718255,103.86680718255,554761,CHUAN VIEW,29 CHUAN VIEW SINGAPORE 554761,31726.8894543806,38147.8040104024
31 CHUAN VIEW SINGAPORE 554762,31,NIL,1.36126885215712,103.86675114988,103.86675114988,554762,CHUAN VIEW,31 CHUAN VIEW SINGAPORE 554762,31720.6536746435,38147.7349388637
33 CHUAN VIEW SINGAPORE 554763,33,NIL,1.36126948173023,103.866693096431,103.866693096431,554763,CHUAN VIEW,33 CHUAN VIEW SINGAPORE 554763,31714.1930037867,38147.8044644222
35 CHUAN VIEW SINGAPORE 554764,35,NIL,1.36126976907055,103.866639749014,103.866639749014,554764,CHUAN VIEW,35 CHUAN VIEW SINGAPORE 554764,31708.2560598524,38147.8361550011
37 CHUAN VIEW SINGAPORE 554765,37,NIL,1.36127068332328,103.866581682785,103.866581682785,554765,CHUAN VIEW,37 CHUAN VIEW SINGAPORE 554765,31701.7939664014,38147.9371592626
39 CHUAN VIEW SINGAPORE 554766,39,NIL,1.36127093726534,103.866528362022,103.866528362022,554766,CHUAN VIEW,39 CHUAN VIEW SINGAPORE 554766,31695.8599887295,38147.9651571475
41 CHUAN VIEW SINGAPORE 554767,41,NIL,1.36127197195841,103.86647025391,103.86647025391,554767,CHUAN VIEW,41 CHUAN VIEW SINGAPORE 554767,31689.393234008,38148.0794793237
43 CHUAN VIEW SINGAPORE 554768,43,NIL,1.36127560141871,103.866408134428,103.866408134428,554768,CHUAN VIEW,43 CHUAN VIEW SINGAPORE 554768,31682.4800567953,38148.4807117153
46 CHUAN VIEW SINGAPORE 554769,46,NIL,1.36173289339818,103.866686557374,103.866686557374,554769,CHUAN VIEW,46 CHUAN VIEW SINGAPORE 554769,31713.4645744907,38199.0461631697
48 CHUAN VIEW SINGAPORE 554770,48,NIL,1.3616768244399,103.866686101312,103.866686101312,554770,CHUAN VIEW,48 CHUAN VIEW SINGAPORE 554770,31713.413905886,38192.8463417962
50 CHUAN VIEW SINGAPORE 554771,50,NIL,1.36162074946136,103.866685511164,103.866685511164,554771,CHUAN VIEW,50 CHUAN VIEW SINGAPORE 554771,31713.3483151654,38186.645854529
52 CHUAN VIEW SINGAPORE 554772,52,NIL,1.36156048286833,103.866680896499,103.866680896499,554772,CHUAN VIEW,52 CHUAN VIEW SINGAPORE 554772,31712.8348490894,38179.9818736259
118 SERANGOON AVENUE 3 AMARANDA GARDENS SINGAPORE 554773,118,AMARANDA GARDENS,1.34945371926965,103.866975968227,103.866975968227,554773,SERANGOON AVENUE 3,AMARANDA GARDENS,31745.6914718458,36841.2779576741
120 SERANGOON AVENUE 3 AMARANDA GARDENS SINGAPORE 554774,120,AMARANDA GARDENS,1.3495555155019,103.866705400834,103.866705400834,554774,SERANGOON AVENUE 3,AMARANDA GARDENS,31715.5801854804,36852.5336522441
122 SERANGOON AVENUE 3 AMARANDA GARDENS SINGAPORE 554775,122,AMARANDA GARDENS,1.34968122486049,103.866445369852,103.866445369852,554775,SERANGOON AVENUE 3,AMARANDA GARDENS,31686.6414505364,36866.4335578699
1 CHUAN LINK SINGAPORE 554776,1,NIL,1.36069107483032,103.867347906117,103.867347906117,554776,CHUAN LINK,1 CHUAN LINK SINGAPORE 554776,31787.0665646,38083.8481845595
3 CHUAN LINK SINGAPORE 554777,3,NIL,1.36069108956286,103.867293441423,103.867293441423,554777,CHUAN LINK,3 CHUAN LINK SINGAPORE 554777,31781.0052797887,38083.8497282267
5 CHUAN LINK SINGAPORE 554778,5,NIL,1.36069184554212,103.867240423391,103.867240423391,554778,CHUAN LINK,5 CHUAN LINK SINGAPORE 554778,31775.1049903836,38083.9332375936
7 CHUAN LINK SINGAPORE 554779,7,NIL,1.36069212446061,103.867183390957,103.867183390957,554779,CHUAN LINK,7 CHUAN LINK SINGAPORE 554779,31768.7579455376,38083.963989865
9 CHUAN LINK SINGAPORE 554780,9,NIL,1.3606926702129,103.867130212999,103.867130212999,554780,CHUAN LINK,9 CHUAN LINK SINGAPORE 554780,31762.8398585571,38084.0242534224
11 CHUAN LINK SINGAPORE 554781,11,NIL,1.36069299429596,103.867073091084,103.867073091084,554781,CHUAN LINK,11 CHUAN LINK SINGAPORE 554781,31756.4828555454,38084.0599999111
13 CHUAN LINK SINGAPORE 554782,13,NIL,1.36069323976162,103.86701986199,103.86701986199,554782,CHUAN LINK,13 CHUAN LINK SINGAPORE 554782,31750.559078184,38084.0870594885
15 CHUAN LINK SINGAPORE 554783,15,NIL,1.36069385208291,103.866962724032,103.866962724032,554783,CHUAN LINK,15 CHUAN LINK SINGAPORE 554783,31744.2002893602,38084.1546781641
17 CHUAN LINK SINGAPORE 554784,17,NIL,1.36069448979793,103.866910017413,103.866910017413,554784,CHUAN LINK,17 CHUAN LINK SINGAPORE 554784,31738.3346567955,38084.2251117621
40A BERWICK DRIVE SINGAPORE 554785,40A,NIL,1.36342675878068,103.860380627473,103.860380627473,554785,BERWICK DRIVE,40A BERWICK DRIVE SINGAPORE 554785,31011.6863893531,38386.3363951277
56A BERWICK DRIVE SINGAPORE 554786,56A,NIL,1.36267753695417,103.859547868893,103.859547868893,554786,BERWICK DRIVE,56A BERWICK DRIVE SINGAPORE 554786,30919.01108984,38303.4902298432
13 SERANGOON NORTH AVENUE 5 SINGAPORE 554787,13,NIL,1.37598563355155,103.87015513641,103.87015513641,554787,SERANGOON NORTH AVENUE 5,13 SERANGOON NORTH AVENUE 5 SINGAPORE 554787,32099.4525874518,39775.047560377
40 CHUAN DRIVE SINGAPORE 554788,40,NIL,1.36042566796519,103.866481792451,103.866481792451,554788,CHUAN DRIVE,40 CHUAN DRIVE SINGAPORE 554788,31690.6786244726,38054.4995000437
42 CHUAN DRIVE SINGAPORE 554789,42,NIL,1.36051832517227,103.866500184871,103.866500184871,554789,CHUAN DRIVE,42 CHUAN DRIVE SINGAPORE 554789,31692.7253455315,38064.7450914606
60A BERWICK DRIVE SINGAPORE 554790,60A,NIL,1.36238969390131,103.859509157018,103.859509157018,554790,BERWICK DRIVE,60A BERWICK DRIVE SINGAPORE 554790,30914.7032595938,38271.661961833
28 CHUAN PLACE SINGAPORE 554791,28,NIL,1.36089837037183,103.867548923667,103.867548923667,554791,CHUAN PLACE,28 CHUAN PLACE SINGAPORE 554791,31809.4371470781,38106.7701891661
30 CHUAN PLACE SINGAPORE 554792,30,NIL,1.36089801286104,103.867607508556,103.867607508556,554792,CHUAN PLACE,30 CHUAN PLACE SINGAPORE 554792,31815.956961575,38106.7307499833
1 CHUAN DRIVE SINGAPORE 554793,1,NIL,1.35970543165789,103.868000560781,103.868000560781,554793,CHUAN DRIVE,1 CHUAN DRIVE SINGAPORE 554793,31859.7009780742,37974.8618015703
3 CHUAN DRIVE SINGAPORE 554794,3,NIL,1.35965301407399,103.867996479004,103.867996479004,554794,CHUAN DRIVE,3 CHUAN DRIVE SINGAPORE 554794,31859.2468069792,37969.0657248311
5 CHUAN DRIVE SINGAPORE 554795,5,NIL,1.35959680123837,103.867988680051,103.867988680051,554795,CHUAN DRIVE,5 CHUAN DRIVE SINGAPORE 554795,31858.3789633494,37962.8499825001
7 CHUAN DRIVE SINGAPORE 554796,7,NIL,1.35954559961754,103.867981688944,103.867981688944,554796,CHUAN DRIVE,7 CHUAN DRIVE SINGAPORE 554796,31857.601015632,37957.1883561444
9 CHUAN DRIVE SINGAPORE 554797,9,NIL,1.35948929070637,103.86797355981,103.86797355981,554797,CHUAN DRIVE,9 CHUAN DRIVE SINGAPORE 554797,31856.696426671,37950.9619897511
11 CHUAN DRIVE SINGAPORE 554798,11,NIL,1.3594387792,103.867964202778,103.867964202778,554798,CHUAN DRIVE,11 CHUAN DRIVE SINGAPORE 554798,31855.6551777627,37945.3766689841
13 CHUAN DRIVE SINGAPORE 554799,13,NIL,1.35938826909774,103.867914413782,103.867914413782,554799,CHUAN DRIVE,13 CHUAN DRIVE SINGAPORE 554799,31850.1143206637,37939.7914390191
15 CHUAN DRIVE SINGAPORE 554800,15,NIL,1.35933970813462,103.867872344365,103.867872344365,554800,CHUAN DRIVE,15 CHUAN DRIVE SINGAPORE 554800,31845.4325597463,37934.4217473678
17 CHUAN DRIVE SINGAPORE 554801,17,NIL,1.35946333883592,103.867598120307,103.867598120307,554801,CHUAN DRIVE,17 CHUAN DRIVE SINGAPORE 554801,31814.9144111434,37948.0917676594
19 CHUAN DRIVE SINGAPORE 554802,19,NIL,1.35952129822558,103.867577140747,103.867577140747,554802,CHUAN DRIVE,19 CHUAN DRIVE SINGAPORE 554802,31812.5795388799,37954.5005894583
21 CHUAN DRIVE SINGAPORE 554803,21,NIL,1.35957738458721,103.867585714282,103.867585714282,554803,CHUAN DRIVE,21 CHUAN DRIVE SINGAPORE 554803,31813.5335857263,37960.7023479827
23 CHUAN DRIVE SINGAPORE 554804,23,NIL,1.35962847998636,103.867593733999,103.867593733999,554804,CHUAN DRIVE,23 CHUAN DRIVE SINGAPORE 554804,31814.4260069588,37966.3522303589
25 CHUAN DRIVE SINGAPORE 554805,25,NIL,1.35968484090105,103.867602364382,103.867602364382,554805,CHUAN DRIVE,25 CHUAN DRIVE SINGAPORE 554805,31815.3863798138,37972.5843476709
25A CHUAN DRIVE SINGAPORE 554806,25A,NIL,1.35973716098565,103.867610036258,103.867610036258,554806,CHUAN DRIVE,25A CHUAN DRIVE SINGAPORE 554806,31816.2400882943,37978.3696490061
24 CHUAN PLACE SINGAPORE 554807,24,NIL,1.36065535749596,103.867606907595,103.867606907595,554807,CHUAN PLACE,24 CHUAN PLACE SINGAPORE 554807,31815.8904628148,38079.8991509918
26 CHUAN PLACE SINGAPORE 554808,26,NIL,1.36065495707307,103.867546039173,103.867546039173,554808,CHUAN PLACE,26 CHUAN PLACE SINGAPORE 554808,31809.116518327,38079.8547781277
11 SERANGOON NORTH AVENUE 5 M.I. BUILDING SINGAPORE 554809,11,M.I. BUILDING,1.3758722817564,103.869650347313,103.869650347313,554809,SERANGOON NORTH AVENUE 5,M.I. BUILDING,32043.2759966403,39762.512831619
27 CHUAN DRIVE SINGAPORE 554810,27,NIL,1.35966707982504,103.867424012421,103.867424012421,554810,CHUAN DRIVE,27 CHUAN DRIVE SINGAPORE 554810,31795.5379073471,37970.6201371346
29 CHUAN DRIVE SINGAPORE 554811,29,NIL,1.35968608010873,103.867350967843,103.867350967843,554811,CHUAN DRIVE,29 CHUAN DRIVE SINGAPORE 554811,31787.4088652283,37972.7209773492
7 SERANGOON NORTH AVENUE 5 RFC INDUSTRIAL BUILDING SINGAPORE 554812,7,RFC INDUSTRIAL BUILDING,1.37531708678873,103.868081751493,103.868081751493,554812,SERANGOON NORTH AVENUE 5,RFC INDUSTRIAL BUILDING,31868.7115752194,39701.1195840817
2 CHUAN DRIVE SINGAPORE 554813,2,NIL,1.36001113491086,103.868012866434,103.868012866434,554813,CHUAN DRIVE,2 CHUAN DRIVE SINGAPORE 554813,31861.0699687107,38008.6649344452
4 CHUAN DRIVE SINGAPORE 554814,4,NIL,1.36002128542247,103.86795937395,103.86795937395,554814,CHUAN DRIVE,4 CHUAN DRIVE SINGAPORE 554814,31855.1168616731,38009.7872410137
6 CHUAN DRIVE SINGAPORE 554815,6,NIL,1.36002314091661,103.867874197001,103.867874197001,554815,CHUAN DRIVE,6 CHUAN DRIVE SINGAPORE 554815,31845.6376556037,38009.9922763351
8 CHUAN DRIVE SINGAPORE 554816,8,NIL,1.36002406641923,103.867816290999,103.867816290999,554816,CHUAN DRIVE,8 CHUAN DRIVE SINGAPORE 554816,31839.193389995,38010.094521584
10 CHUAN DRIVE SINGAPORE 554817,10,NIL,1.36002380679078,103.867730008157,103.867730008157,554817,CHUAN DRIVE,10 CHUAN DRIVE SINGAPORE 554817,31829.591114304,38010.0656761955
12 CHUAN DRIVE SINGAPORE 554818,12,NIL,1.36002455901481,103.867672258539,103.867672258539,554818,CHUAN DRIVE,12 CHUAN DRIVE SINGAPORE 554818,31823.164252786,38010.1487618107
1 CHUAN PLACE SINGAPORE 554819,1,NIL,1.36006417844521,103.867217985693,103.867217985693,554819,CHUAN PLACE,1 CHUAN PLACE SINGAPORE 554819,31772.6089108381,38014.5289628059
2 CHUAN PLACE SINGAPORE 554820,2,NIL,1.36027713623999,103.867528989533,103.867528989533,554820,CHUAN PLACE,2 CHUAN PLACE SINGAPORE 554820,31807.2196843233,38038.0772422627
3 CHUAN PLACE SINGAPORE 554821,3,NIL,1.36012414722224,103.867222188589,103.867222188589,554821,CHUAN PLACE,3 CHUAN PLACE SINGAPORE 554821,31773.0765511869,38021.1600121427
4 CHUAN PLACE SINGAPORE 554822,4,NIL,1.36027659036498,103.867590156292,103.867590156292,554822,CHUAN PLACE,4 CHUAN PLACE SINGAPORE 554822,31814.0268327892,38038.0169787072
5 CHUAN PLACE SINGAPORE 554823,5,NIL,1.36017782150136,103.867227233986,103.867227233986,554823,CHUAN PLACE,5 CHUAN PLACE SINGAPORE 554823,31773.6379617481,38027.095049195
6 CHUAN PLACE SINGAPORE 554824,6,NIL,1.3602769798057,103.867672381505,103.867672381505,554824,CHUAN PLACE,6 CHUAN PLACE SINGAPORE 554824,31823.1775404308,38038.0601711199
7 CHUAN PLACE SINGAPORE 554825,7,NIL,1.36023562829349,103.867234484366,103.867234484366,554825,CHUAN PLACE,7 CHUAN PLACE SINGAPORE 554825,31774.4447548548,38033.4870419968
8 CHUAN PLACE SINGAPORE 554826,8,NIL,1.36027634414246,103.867733563221,103.867733563221,554826,CHUAN PLACE,8 CHUAN PLACE SINGAPORE 554826,31829.9863536358,38037.9899796657
9 CHUAN PLACE SINGAPORE 554827,9,NIL,1.3602892152433,103.867240127842,103.867240127842,554827,CHUAN PLACE,9 CHUAN PLACE SINGAPORE 554827,31775.072724713,38039.4124235604
10 CHUAN PLACE SINGAPORE 554828,10,NIL,1.36027642945783,103.867816016619,103.867816016619,554828,CHUAN PLACE,10 CHUAN PLACE SINGAPORE 554828,31839.1624561157,38037.9995443486
11 CHUAN PLACE SINGAPORE 554829,11,NIL,1.3603471071752,103.867246743699,103.867246743699,554829,CHUAN PLACE,11 CHUAN PLACE SINGAPORE 554829,31775.8089026129,38045.8138297051
12 CHUAN PLACE SINGAPORE 554830,12,NIL,1.36027576614378,103.867877208398,103.867877208398,554830,CHUAN PLACE,12 CHUAN PLACE SINGAPORE 554830,31845.9723892361,38037.9262958281
13 CHUAN PLACE SINGAPORE 554831,13,NIL,1.36040246434979,103.867252753827,103.867252753827,554831,CHUAN PLACE,13 CHUAN PLACE SINGAPORE 554831,31776.4776737131,38051.9349543191
38 CHUAN PLACE SINGAPORE 554832,38,NIL,1.36126853046668,103.867760513718,103.867760513718,554832,CHUAN PLACE,38 CHUAN PLACE SINGAPORE 554832,31832.9840644747,38147.700947918
40 CHUAN PLACE SINGAPORE 554833,40,NIL,1.36127158759793,103.867697499967,103.867697499967,554833,CHUAN PLACE,40 CHUAN PLACE SINGAPORE 554833,31825.9713661317,38148.0388899576
42 CHUAN PLACE SINGAPORE 554834,42,NIL,1.3612654208128,103.867611187351,103.867611187351,554834,CHUAN PLACE,42 CHUAN PLACE SINGAPORE 554834,31816.3657912305,38147.3568614796
44 CHUAN PLACE SINGAPORE 554835,44,NIL,1.3612653031175,103.867553043323,103.867553043323,554835,CHUAN PLACE,44 CHUAN PLACE SINGAPORE 554835,31809.8950411361,38147.3437554426
14 CHUAN PLACE SINGAPORE 554836,14,NIL,1.36027740528817,103.867969853378,103.867969853378,554836,CHUAN PLACE,14 CHUAN PLACE SINGAPORE 554836,31856.2826936012,38038.1076918542
32 CHUAN PLACE SINGAPORE 554837,32,NIL,1.36090278747202,103.867691697534,103.867691697534,554837,CHUAN PLACE,32 CHUAN PLACE SINGAPORE 554837,31825.3262040587,38107.2588354945
34 CHUAN PLACE SINGAPORE 554838,34,NIL,1.36090231961111,103.867752529776,103.867752529776,554838,CHUAN PLACE,34 CHUAN PLACE SINGAPORE 554838,31832.0961229047,38107.2071983144
36 CHUAN PLACE SINGAPORE 554839,36,NIL,1.36092559519518,103.867860913371,103.867860913371,554839,CHUAN PLACE,36 CHUAN PLACE SINGAPORE 554839,31844.1579144159,38109.7810665779
31 CHUAN DRIVE CHUAN VISTA SINGAPORE 554840,31,CHUAN VISTA,1.35971203307704,103.867190020089,103.867190020089,554840,CHUAN DRIVE,CHUAN VISTA,31769.4972107718,37975.5904730093
33 CHUAN DRIVE CHUAN VISTA SINGAPORE 554841,33,CHUAN VISTA,1.35973801490852,103.867136443243,103.867136443243,554841,CHUAN DRIVE,CHUAN VISTA,31763.5346903913,37978.4633284155
35 CHUAN DRIVE CHUAN VISTA SINGAPORE 554842,35,CHUAN VISTA,1.35976062948557,103.867087551169,103.867087551169,554842,CHUAN DRIVE,CHUAN VISTA,31758.0935360305,37980.9638573546
37 CHUAN DRIVE CHUAN VISTA SINGAPORE 554843,37,CHUAN VISTA,1.35978518241095,103.867035296385,103.867035296385,554843,CHUAN DRIVE,CHUAN VISTA,31752.2781483186,37983.6787138861
39 CHUAN DRIVE CHUAN VISTA SINGAPORE 554844,39,CHUAN VISTA,1.35980775017689,103.866986460608,103.866986460608,554844,CHUAN DRIVE,CHUAN VISTA,31746.8432594305,37986.1740669999
41 CHUAN DRIVE CHUAN VISTA SINGAPORE 554845,41,CHUAN VISTA,1.3598324158754,103.866934394033,103.866934394033,554845,CHUAN DRIVE,CHUAN VISTA,31741.0488171633,37988.9013939407
43 CHUAN DRIVE CHUAN VISTA SINGAPORE 554846,43,CHUAN VISTA,1.35985481529488,103.866885471491,103.866885471491,554846,CHUAN DRIVE,CHUAN VISTA,31735.6042727884,37991.3781322446
45 CHUAN DRIVE CHUAN VISTA SINGAPORE 554847,45,CHUAN VISTA,1.35987952123126,103.866833309178,103.866833309178,554847,CHUAN DRIVE,CHUAN VISTA,31729.7991761919,37994.1099085789
47 CHUAN DRIVE CHUAN VISTA SINGAPORE 554848,47,CHUAN VISTA,1.35990202824822,103.866782772174,103.866782772174,554848,CHUAN DRIVE,CHUAN VISTA,31724.1749610649,37996.5985422004
49 CHUAN DRIVE CHUAN VISTA SINGAPORE 554849,49,CHUAN VISTA,1.35994758858991,103.866685998142,103.866685998142,554849,CHUAN DRIVE,CHUAN VISTA,31713.4050676348,38001.6362243388
51 CHUAN DRIVE CHUAN VISTA SINGAPORE 554850,51,CHUAN VISTA,1.35997124387954,103.866637867612,103.866637867612,554850,CHUAN DRIVE,CHUAN VISTA,31708.0486636283,38004.2518321518
53 CHUAN DRIVE CHUAN VISTA SINGAPORE 554851,53,CHUAN VISTA,1.35999553729787,103.866585521703,103.866585521703,554851,CHUAN DRIVE,CHUAN VISTA,31702.2231361419,38006.9379946347
55 CHUAN DRIVE CHUAN VISTA SINGAPORE 554852,55,CHUAN VISTA,1.36001847513974,103.866536820824,103.866536820824,554852,CHUAN DRIVE,CHUAN VISTA,31696.8032601736,38009.4742700625
57 CHUAN DRIVE CHUAN VISTA SINGAPORE 554853,57,CHUAN VISTA,1.36004264318568,103.866484516523,103.866484516523,554853,CHUAN DRIVE,CHUAN VISTA,31690.9823636888,38012.1465698089
59 CHUAN DRIVE CHUAN VISTA SINGAPORE 554854,59,CHUAN VISTA,1.3600662943798,103.866435339962,103.866435339962,554854,CHUAN DRIVE,CHUAN VISTA,31685.5095490171,38014.7617236022
61 CHUAN DRIVE CHUAN VISTA SINGAPORE 554855,61,CHUAN VISTA,1.36009039564999,103.86638178592,103.86638178592,554855,CHUAN DRIVE,CHUAN VISTA,31679.5495711472,38017.4266379606
63 CHUAN DRIVE CHUAN VISTA SINGAPORE 554856,63,CHUAN VISTA,1.3601131900539,103.866332930823,103.866332930823,554856,CHUAN DRIVE,CHUAN VISTA,31674.1125332322,38019.9470529631
65 CHUAN DRIVE CHUAN VISTA SINGAPORE 554857,65,CHUAN VISTA,1.36013736959339,103.866280544382,103.866280544382,554857,CHUAN DRIVE,CHUAN VISTA,31668.2824958162,38022.6206239648
67 CHUAN DRIVE CHUAN VISTA SINGAPORE 554858,67,CHUAN VISTA,1.36015975343611,103.866228770138,103.866228770138,554858,CHUAN DRIVE,CHUAN VISTA,31662.5205916325,38025.0956369936
19A SERANGOON NORTH AVENUE 5 SINGAPORE 554859,19A,NIL,1.37618081097021,103.872713609211,103.872713609211,554859,SERANGOON NORTH AVENUE 5,19A SERANGOON NORTH AVENUE 5 SINGAPORE 554859,32384.1786068669,39796.6338388603
32 CHUAN DRIVE SINGAPORE 554860,32,NIL,1.36051987557127,103.866699180344,103.866699180344,554860,CHUAN DRIVE,32 CHUAN DRIVE SINGAPORE 554860,31714.8712184979,38064.916832
34 CHUAN DRIVE SINGAPORE 554861,34,NIL,1.36044992545442,103.866691069542,103.866691069542,554861,CHUAN DRIVE,34 CHUAN DRIVE SINGAPORE 554861,31713.9686877597,38057.1820909046
36 CHUAN DRIVE SINGAPORE 554862,36,NIL,1.36037480207015,103.86668230837,103.86668230837,554862,CHUAN DRIVE,36 CHUAN DRIVE SINGAPORE 554862,31712.9937862717,38048.8753151856
38 CHUAN DRIVE SINGAPORE 554863,38,NIL,1.3603045280821,103.86667744335,103.86667744335,554863,CHUAN DRIVE,38 CHUAN DRIVE SINGAPORE 554863,31712.4524736516,38041.1047670655
21 SERANGOON NORTH AVENUE 5 BAN TECK HAN BUILDING SINGAPORE 554864,21,BAN TECK HAN BUILDING,1.37580234816074,103.873052297471,103.873052297471,554864,SERANGOON NORTH AVENUE 5,BAN TECK HAN BUILDING,32421.8711151145,39754.7859602012
18 CHUAN DRIVE CHUAN SEVEN SINGAPORE 554865,18,CHUAN SEVEN,1.36015236919818,103.867019133475,103.867019133475,554865,CHUAN DRIVE,CHUAN SEVEN,31750.4788377592,38024.2803385854
20 CHUAN DRIVE CHUAN SEVEN SINGAPORE 554866,20,CHUAN SEVEN,1.36022014543831,103.86701938409,103.86701938409,554866,CHUAN DRIVE,CHUAN SEVEN,31750.5066237682,38031.7746913526
22 CHUAN DRIVE CHUAN SEVEN SINGAPORE 554867,22,CHUAN SEVEN,1.360277898595,103.867025534858,103.867025534858,554867,CHUAN DRIVE,CHUAN SEVEN,31751.191043416,38038.1607516296
24 CHUAN DRIVE CHUAN SEVEN SINGAPORE 554868,24,CHUAN SEVEN,1.36033154684713,103.867032204775,103.867032204775,554868,CHUAN DRIVE,CHUAN SEVEN,31751.9332446447,38044.0929132234
26 CHUAN DRIVE CHUAN SEVEN SINGAPORE 554869,26,CHUAN SEVEN,1.36038920336403,103.867039207377,103.867039207377,554869,CHUAN DRIVE,CHUAN SEVEN,31752.7124636173,38050.4682889003
28 CHUAN DRIVE CHUAN SEVEN SINGAPORE 554870,28,CHUAN SEVEN,1.36044576795187,103.86704684041,103.86704684041,554870,CHUAN DRIVE,CHUAN SEVEN,31753.5618437761,38056.7229255922
30 CHUAN DRIVE SINGAPORE 554871,30,NIL,1.36054795087512,103.867058619021,103.867058619021,554871,CHUAN DRIVE,30 CHUAN DRIVE SINGAPORE 554871,31754.8725080071,38068.0218125749
14 CHUAN DRIVE SINGAPORE 554872,14,NIL,1.36003288627047,103.867574431712,103.867574431712,554872,CHUAN DRIVE,14 CHUAN DRIVE SINGAPORE 554872,31812.277252526,38011.0693928041
16 CHUAN DRIVE SINGAPORE 554873,16,NIL,1.36003818858933,103.867508834505,103.867508834505,554873,CHUAN DRIVE,16 CHUAN DRIVE SINGAPORE 554873,31804.9770386051,38011.6555928439
18 CHUAN PLACE SINGAPORE 554874,18,NIL,1.36066088057321,103.867837968802,103.867837968802,554874,CHUAN PLACE,18 CHUAN PLACE SINGAPORE 554874,31841.6048705252,38080.5102313161
16 CHUAN PLACE SINGAPORE 554875,16,NIL,1.36065776609535,103.867891232939,103.867891232939,554875,CHUAN PLACE,16 CHUAN PLACE SINGAPORE 554875,31847.5325524565,38080.1659330018
1 CHUAN CLOSE CHUAN VILLAS SINGAPORE 554876,1,CHUAN VILLAS,1.34935408140699,103.860894135605,103.860894135605,554876,CHUAN CLOSE,CHUAN VILLAS,31068.8515022453,36830.2519971021
2 CHUAN CLOSE CHUAN VILLAS SINGAPORE 554877,2,CHUAN VILLAS,1.34902210012163,103.860652971969,103.860652971969,554877,CHUAN CLOSE,CHUAN VILLAS,31042.0130929593,36793.5428956468
3 CHUAN CLOSE CHUAN VILLAS SINGAPORE 554878,3,CHUAN VILLAS,1.34937155367096,103.860951207143,103.860951207143,554878,CHUAN CLOSE,CHUAN VILLAS,31075.202905681,36832.1840630397
4 CHUAN CLOSE CHUAN VILLAS SINGAPORE 554879,4,CHUAN VILLAS,1.34903449813377,103.860716390292,103.860716390292,554879,CHUAN CLOSE,CHUAN VILLAS,31049.070830063,36794.9138839692
5 CHUAN CLOSE CHUAN VILLAS SINGAPORE 554880,5,CHUAN VILLAS,1.34937142026394,103.861007745137,103.861007745137,554880,CHUAN CLOSE,CHUAN VILLAS,31081.4949535998,36832.1693830676
6 CHUAN CLOSE CHUAN VILLAS SINGAPORE 554881,6,CHUAN VILLAS,1.34903373350196,103.860773149388,103.860773149388,554881,CHUAN CLOSE,CHUAN VILLAS,31055.3874858525,36794.8294060268
7 CHUAN CLOSE CHUAN VILLAS SINGAPORE 554882,7,CHUAN VILLAS,1.3493722496351,103.861058960011,103.861058960011,554882,CHUAN CLOSE,CHUAN VILLAS,31087.194596542,36832.2611555941
8 CHUAN CLOSE CHUAN VILLAS SINGAPORE 554883,8,CHUAN VILLAS,1.34903438193953,103.860824478756,103.860824478756,554883,CHUAN CLOSE,CHUAN VILLAS,31061.0998716159,36794.901171416
9 CHUAN CLOSE CHUAN VILLAS SINGAPORE 554884,9,CHUAN VILLAS,1.34937224186878,103.861115512421,103.861115512421,554884,CHUAN CLOSE,CHUAN VILLAS,31093.488248664,36832.2603686266
10 CHUAN CLOSE CHUAN VILLAS SINGAPORE 554885,10,CHUAN VILLAS,1.34903343171684,103.860881015372,103.860881015372,554885,CHUAN CLOSE,CHUAN VILLAS,31067.3917681947,36794.7961717807
11 CHUAN CLOSE CHUAN VILLAS SINGAPORE 554886,11,CHUAN VILLAS,1.34936790150554,103.861167902993,103.861167902993,554886,CHUAN CLOSE,CHUAN VILLAS,31099.3187400997,36831.7805000115
12 CHUAN CLOSE CHUAN VILLAS SINGAPORE 554887,12,CHUAN VILLAS,1.34903424521382,103.86093227566,103.86093227566,554887,CHUAN CLOSE,CHUAN VILLAS,31073.0964658903,36794.8861887641
13 CHUAN CLOSE CHUAN VILLAS SINGAPORE 554888,13,CHUAN VILLAS,1.34954222173587,103.861069609557,103.861069609557,554888,CHUAN CLOSE,CHUAN VILLAS,31088.3795578359,36851.0558179393
14 CHUAN CLOSE CHUAN VILLAS SINGAPORE 554889,14,CHUAN VILLAS,1.34903380139474,103.860988780189,103.860988780189,554889,CHUAN CLOSE,CHUAN VILLAS,31079.3847908471,36794.8371848986
15 CHUAN CLOSE CHUAN VILLAS SINGAPORE 554890,15,CHUAN VILLAS,1.34973414435238,103.861351745284,103.861351745284,554890,CHUAN CLOSE,CHUAN VILLAS,31119.7778691379,36872.278002847
16 CHUAN CLOSE CHUAN VILLAS SINGAPORE 554891,16,CHUAN VILLAS,1.34903443696226,103.86104011146,103.86104011146,554891,CHUAN CLOSE,CHUAN VILLAS,31085.0973884864,36794.9075276926
17 CHUAN CLOSE CHUAN VILLAS SINGAPORE 554892,17,CHUAN VILLAS,1.3496834641882,103.861366383858,103.861366383858,554892,CHUAN CLOSE,CHUAN VILLAS,31121.4070433611,36866.67406727
18 CHUAN CLOSE CHUAN VILLAS SINGAPORE 554893,18,CHUAN VILLAS,1.34903407307132,103.861096559147,103.861096559147,554893,CHUAN CLOSE,CHUAN VILLAS,31091.3793874346,36794.8673620783
19 CHUAN CLOSE CHUAN VILLAS SINGAPORE 554894,19,CHUAN VILLAS,1.34962827045395,103.861380078075,103.861380078075,554894,CHUAN CLOSE,CHUAN VILLAS,31122.931127145,36860.5710429084
20 CHUAN CLOSE CHUAN VILLAS SINGAPORE 554895,20,CHUAN VILLAS,1.34903475215569,103.861148272275,103.861148272275,554895,CHUAN CLOSE,CHUAN VILLAS,31097.134481323,36794.9425174817
21 CHUAN CLOSE CHUAN VILLAS SINGAPORE 554896,21,CHUAN VILLAS,1.34957861542452,103.861394249675,103.861394249675,554896,CHUAN CLOSE,CHUAN VILLAS,31124.5083312411,36855.0804609302
22 CHUAN CLOSE CHUAN VILLAS SINGAPORE 554897,22,CHUAN VILLAS,1.3490330731103,103.861240531672,103.861240531672,554897,CHUAN CLOSE,CHUAN VILLAS,31107.4019262232,36794.7569747418
23 CHUAN CLOSE CHUAN VILLAS SINGAPORE 554898,23,CHUAN VILLAS,1.34952367406298,103.86140870135,103.86140870135,554898,CHUAN CLOSE,CHUAN VILLAS,31126.1167113595,36849.0053436495
24 CHUAN CLOSE CHUAN VILLAS SINGAPORE 554899,24,CHUAN VILLAS,1.34903320445989,103.861291574642,103.861291574642,554899,CHUAN CLOSE,CHUAN VILLAS,31113.0824397998,36794.7715639099
25 CHUAN CLOSE CHUAN VILLAS SINGAPORE 554900,25,CHUAN VILLAS,1.34947381702184,103.861422587643,103.861422587643,554900,CHUAN CLOSE,CHUAN VILLAS,31127.6621643398,36843.4924238995
26 CHUAN CLOSE CHUAN VILLAS SINGAPORE 554901,26,CHUAN VILLAS,1.34903238534751,103.86134783738,103.86134783738,554901,CHUAN CLOSE,CHUAN VILLAS,31119.3438565191,36794.6810626388
27 CHUAN CLOSE CHUAN VILLAS SINGAPORE 554902,27,CHUAN VILLAS,1.349418920279,103.861437004504,103.861437004504,554902,CHUAN CLOSE,CHUAN VILLAS,31129.2666701572,36837.422240302
28 CHUAN CLOSE CHUAN VILLAS SINGAPORE 554903,28,CHUAN VILLAS,1.34903299380756,103.861399193672,103.861399193672,554903,CHUAN CLOSE,CHUAN VILLAS,31125.059238812,36794.7484089024
29 CHUAN CLOSE CHUAN VILLAS SINGAPORE 554904,29,CHUAN VILLAS,1.34936899042818,103.861450594612,103.861450594612,554904,CHUAN CLOSE,CHUAN VILLAS,31130.7791613033,36831.9012692664
30 CHUAN CLOSE CHUAN VILLAS SINGAPORE 554905,30,CHUAN VILLAS,1.34903182677463,103.86145576238,103.86145576238,554905,CHUAN CLOSE,CHUAN VILLAS,31131.3547070138,36794.6194370221
31 CHUAN CLOSE CHUAN VILLAS SINGAPORE 554906,31,CHUAN VILLAS,1.34931592770275,103.861464362828,103.861464362828,554906,CHUAN CLOSE,CHUAN VILLAS,31132.3114779787,36826.0338811595
32 CHUAN CLOSE CHUAN VILLAS SINGAPORE 554907,32,CHUAN VILLAS,1.34903245056134,103.86150712792,103.86150712792,554907,CHUAN CLOSE,CHUAN VILLAS,31137.0711184191,36794.6884782948
34 CHUAN CLOSE CHUAN VILLAS SINGAPORE 554908,34,CHUAN VILLAS,1.34903201658128,103.861563798354,103.861563798354,554908,CHUAN CLOSE,CHUAN VILLAS,31143.3779068459,36794.6405640747
36 CHUAN CLOSE CHUAN VILLAS SINGAPORE 554909,36,CHUAN VILLAS,1.34902214872468,103.861615879072,103.861615879072,554909,CHUAN CLOSE,CHUAN VILLAS,31149.1739230482,36793.5494940672
6 SERANGOON NORTH AVENUE 5 SINGAPORE 554910,6,NIL,1.37446629705356,103.869082561303,103.869082561303,554910,SERANGOON NORTH AVENUE 5,6 SERANGOON NORTH AVENUE 5 SINGAPORE 554910,31980.0907633947,39607.0452075582
2 SERANGOON NORTH AVENUE 5 SINGAPORE 554911,2,NIL,1.3723953045272,103.869166235443,103.869166235443,554911,SERANGOON NORTH AVENUE 5,2 SERANGOON NORTH AVENUE 5 SINGAPORE 554911,31989.4060985995,39378.0454821605
4 SERANGOON NORTH AVENUE 6 SINGAPORE 554912,4,NIL,1.37603900593146,103.872064060177,103.872064060177,554912,SERANGOON NORTH AVENUE 6,4 SERANGOON NORTH AVENUE 6 SINGAPORE 554912,32311.8920935979,39780.9525715876
19 SERANGOON NORTH AVENUE 5 GLOBALKIDS EDU PTE LTD SINGAPORE 554913,19,GLOBALKIDS EDU PTE LTD,1.37563500157221,103.871996419103,103.871996419103,554913,SERANGOON NORTH AVENUE 5,GLOBALKIDS EDU PTE LTD,32304.3652027464,39736.2796912044
25 SERANGOON NORTH AVENUE 5 KEPPEL DIGIHUB SINGAPORE 554914,25,KEPPEL DIGIHUB,1.37553541536759,103.874911052418,103.874911052418,554914,SERANGOON NORTH AVENUE 5,KEPPEL DIGIHUB,32628.7280851472,39725.2734048199
1 SERANGOON NORTH AVENUE 5 DBS SINGTEL SERANGOON NORTH SINGAPORE 554915,1,DBS SINGTEL SERANGOON NORTH,1.37253259098779,103.867232957155,103.867232957155,554915,SERANGOON NORTH AVENUE 5,DBS SINGTEL SERANGOON NORTH,31774.2556102239,39393.2227875032
5 SERANGOON NORTH AVENUE 5 SINGAPORE 554916,5,NIL,1.37402376183003,103.86757411913,103.86757411913,554916,SERANGOON NORTH AVENUE 5,5 SERANGOON NORTH AVENUE 5 SINGAPORE 554916,31812.2204092527,39558.1094448827
1 YORK PLACE SERANGOON GARDEN ESTATE SINGAPORE 554917,1,SERANGOON GARDEN ESTATE,1.36790887029299,103.865148235046,103.865148235046,554917,YORK PLACE,SERANGOON GARDEN ESTATE,31542.2582950592,38881.952018315
2 YORK PLACE SERANGOON GARDEN ESTATE SINGAPORE 554918,2,SERANGOON GARDEN ESTATE,1.36763890274688,103.865368958095,103.865368958095,554918,YORK PLACE,SERANGOON GARDEN ESTATE,31566.822519389,38852.1007036623
3 YORK PLACE SERANGOON GARDEN ESTATE SINGAPORE 554919,3,SERANGOON GARDEN ESTATE,1.36796698983776,103.865226472167,103.865226472167,554919,YORK PLACE,SERANGOON GARDEN ESTATE,31550.9650621833,38888.3786982261
4 YORK PLACE SERANGOON GARDEN ESTATE SINGAPORE 554920,4,SERANGOON GARDEN ESTATE,1.36771168210427,103.865442760793,103.865442760793,554920,YORK PLACE,SERANGOON GARDEN ESTATE,31575.0357670384,38860.1483854409
5 YORK PLACE SERANGOON GARDEN ESTATE SINGAPORE 554921,5,SERANGOON GARDEN ESTATE,1.36804544369497,103.865319577016,103.865319577016,554921,YORK PLACE,SERANGOON GARDEN ESTATE,31561.3263983699,38897.0538655743
6 YORK PLACE SERANGOON GARDEN ESTATE SINGAPORE 554922,6,SERANGOON GARDEN ESTATE,1.36779314402785,103.865534022478,103.865534022478,554922,YORK PLACE,SERANGOON GARDEN ESTATE,31585.1919770995,38869.1561676618
7 YORK PLACE SERANGOON GARDEN ESTATE SINGAPORE 554923,7,SERANGOON GARDEN ESTATE,1.36810053031292,103.865394956968,103.865394956968,554923,YORK PLACE,SERANGOON GARDEN ESTATE,31569.7152003245,38903.1451762263
8 YORK PLACE SERANGOON GARDEN ESTATE SINGAPORE 554924,8,SERANGOON GARDEN ESTATE,1.36784802654624,103.865601147593,103.865601147593,554924,YORK PLACE,SERANGOON GARDEN ESTATE,31592.6621154808,38875.2248983979
1 WORTHING ROAD SERANGOON GARDEN ESTATE SINGAPORE 554936,1,SERANGOON GARDEN ESTATE,1.36658957050066,103.867730205775,103.867730205775,554936,WORTHING ROAD,SERANGOON GARDEN ESTATE,31829.6027372098,38736.0745022148
2 WORTHING ROAD SERANGOON GARDEN ESTATE SINGAPORE 554937,2,SERANGOON GARDEN ESTATE,1.36661024046985,103.868117755073,103.868117755073,554937,WORTHING ROAD,SERANGOON GARDEN ESTATE,31872.7323136404,38738.3607035596
3 WORTHING ROAD SERANGOON GARDEN ESTATE SINGAPORE 554938,3,SERANGOON GARDEN ESTATE,1.36666662388621,103.867744483307,103.867744483307,554938,WORTHING ROAD,SERANGOON GARDEN ESTATE,31831.1915339436,38744.5946974866
4 WORTHING ROAD SERANGOON GARDEN ESTATE SINGAPORE 554939,4,SERANGOON GARDEN ESTATE,1.36668165722704,103.86810776605,103.86810776605,554939,WORTHING ROAD,SERANGOON GARDEN ESTATE,31871.6205403302,38746.2575902436
5 WORTHING ROAD SERANGOON GARDEN ESTATE SINGAPORE 554940,5,SERANGOON GARDEN ESTATE,1.36674165162657,103.867722335786,103.867722335786,554940,WORTHING ROAD,SERANGOON GARDEN ESTATE,31828.7266606893,38752.8908491433
6 WORTHING ROAD SERANGOON GARDEN ESTATE SINGAPORE 554941,6,SERANGOON GARDEN ESTATE,1.3667606586746,103.868090757364,103.868090757364,554941,WORTHING ROAD,SERANGOON GARDEN ESTATE,31869.7275503604,38754.9931422211
7 WORTHING ROAD SERANGOON GARDEN ESTATE SINGAPORE 554942,7,SERANGOON GARDEN ESTATE,1.36681367115526,103.867730420835,103.867730420835,554942,WORTHING ROAD,SERANGOON GARDEN ESTATE,31829.626315969,38760.8544161953
8 WORTHING ROAD SERANGOON GARDEN ESTATE SINGAPORE 554943,8,SERANGOON GARDEN ESTATE,1.36684435592085,103.868098534168,103.868098534168,554943,WORTHING ROAD,SERANGOON GARDEN ESTATE,31870.5928817475,38764.2479717266
9 WORTHING ROAD SERANGOON GARDEN ESTATE SINGAPORE 554944,9,SERANGOON GARDEN ESTATE,1.36689548023942,103.867735058149,103.867735058149,554944,WORTHING ROAD,SERANGOON GARDEN ESTATE,31830.1422640197,38769.9004571494
10 WORTHING ROAD SERANGOON GARDEN ESTATE SINGAPORE 554945,10,SERANGOON GARDEN ESTATE,1.36696489318564,103.868108734833,103.868108734833,554945,WORTHING ROAD,SERANGOON GARDEN ESTATE,31871.7279008683,38777.5763875525
11 WORTHING ROAD SERANGOON GARDEN ESTATE SINGAPORE 554946,11,SERANGOON GARDEN ESTATE,1.36696279191349,103.86773788551,103.86773788551,554946,WORTHING ROAD,SERANGOON GARDEN ESTATE,31830.456808907,38777.3434451502
12 WORTHING ROAD SERANGOON GARDEN ESTATE SINGAPORE 554947,12,SERANGOON GARDEN ESTATE,1.36703995305204,103.868117549656,103.868117549656,554947,WORTHING ROAD,SERANGOON GARDEN ESTATE,31872.7087651491,38785.8761410993
14 WORTHING ROAD SERANGOON GARDEN ESTATE SINGAPORE 554948,14,SERANGOON GARDEN ESTATE,1.36711370953872,103.868098259807,103.868098259807,554948,WORTHING ROAD,SERANGOON GARDEN ESTATE,31870.5619176002,38794.0317282397
15 WORTHING ROAD SERANGOON GARDEN ESTATE SINGAPORE 554949,15,SERANGOON GARDEN ESTATE,1.36708763841484,103.867738856347,103.867738856347,554949,WORTHING ROAD,SERANGOON GARDEN ESTATE,31830.5646537328,38791.1483395752
16 WORTHING ROAD SERANGOON GARDEN ESTATE SINGAPORE 554950,16,SERANGOON GARDEN ESTATE,1.36719131755792,103.8680900507,103.8680900507,554950,WORTHING ROAD,SERANGOON GARDEN ESTATE,31869.6482179752,38802.6132161785
17 WORTHING ROAD SERANGOON GARDEN ESTATE SINGAPORE 554951,17,SERANGOON GARDEN ESTATE,1.36716913013716,103.867750795744,103.867750795744,554951,WORTHING ROAD,SERANGOON GARDEN ESTATE,31831.8932366101,38800.1592999361
18 WORTHING ROAD SERANGOON GARDEN ESTATE SINGAPORE 554952,18,SERANGOON GARDEN ESTATE,1.36731188258812,103.868110885738,103.868110885738,554952,WORTHING ROAD,SERANGOON GARDEN ESTATE,31871.9667152604,38815.9447193388
19 WORTHING ROAD SERANGOON GARDEN ESTATE SINGAPORE 554953,19,SERANGOON GARDEN ESTATE,1.36724099062384,103.867740102289,103.867740102289,554953,WORTHING ROAD,SERANGOON GARDEN ESTATE,31830.7030692222,38808.1052510217
20 WORTHING ROAD SERANGOON GARDEN ESTATE SINGAPORE 554954,20,SERANGOON GARDEN ESTATE,1.36738523095559,103.868109243769,103.868109243769,554954,WORTHING ROAD,SERANGOON GARDEN ESTATE,31871.783866371,38824.0552071854
21 WORTHING ROAD SERANGOON GARDEN ESTATE SINGAPORE 554955,21,SERANGOON GARDEN ESTATE,1.36731503007881,103.867744552373,103.867744552373,554955,WORTHING ROAD,SERANGOON GARDEN ESTATE,31831.1981929,38816.2921655253
22 WORTHING ROAD SERANGOON GARDEN ESTATE SINGAPORE 554956,22,SERANGOON GARDEN ESTATE,1.36747296216777,103.868119326471,103.868119326471,554956,WORTHING ROAD,SERANGOON GARDEN ESTATE,31872.9058097228,38833.7560959663
23 WORTHING ROAD SERANGOON GARDEN ESTATE SINGAPORE 554957,23,SERANGOON GARDEN ESTATE,1.36744060734914,103.867733284447,103.867733284447,554957,WORTHING ROAD,SERANGOON GARDEN ESTATE,31829.9440087266,38830.1778451987
24 WORTHING ROAD SERANGOON GARDEN ESTATE SINGAPORE 554958,24,SERANGOON GARDEN ESTATE,1.36755064367856,103.868102108882,103.868102108882,554958,WORTHING ROAD,SERANGOON GARDEN ESTATE,31870.9895739416,38842.3456957247
25 WORTHING ROAD SERANGOON GARDEN ESTATE SINGAPORE 554959,25,SERANGOON GARDEN ESTATE,1.36752078922922,103.86774734227,103.86774734227,554959,WORTHING ROAD,SERANGOON GARDEN ESTATE,31831.5083489288,38839.0439732578
26 WORTHING ROAD SERANGOON GARDEN ESTATE SINGAPORE 554960,26,SERANGOON GARDEN ESTATE,1.3676659996432,103.86813690969,103.86813690969,554960,WORTHING ROAD,SERANGOON GARDEN ESTATE,31874.8623019224,38855.1012294237
27 WORTHING ROAD SERANGOON GARDEN ESTATE SINGAPORE 554961,27,SERANGOON GARDEN ESTATE,1.36759153701865,103.867753769865,103.867753769865,554961,WORTHING ROAD,SERANGOON GARDEN ESTATE,31832.223551116,38846.8669152576
28 WORTHING ROAD SERANGOON GARDEN ESTATE SINGAPORE 554962,28,SERANGOON GARDEN ESTATE,1.36774859816046,103.868104735782,103.868104735782,554962,WORTHING ROAD,SERANGOON GARDEN ESTATE,31871.281599449,38864.2345027067
29 WORTHING ROAD SERANGOON GARDEN ESTATE SINGAPORE 554963,29,SERANGOON GARDEN ESTATE,1.36767059488866,103.867753227306,103.867753227306,554963,WORTHING ROAD,SERANGOON GARDEN ESTATE,31832.1630454166,38855.6087327059
30 WORTHING ROAD SERANGOON GARDEN ESTATE SINGAPORE 554964,30,SERANGOON GARDEN ESTATE,1.36781868604997,103.868106278639,103.868106278639,554964,WORTHING ROAD,SERANGOON GARDEN ESTATE,31871.4531886484,38871.9844685979
31 WORTHING ROAD SERANGOON GARDEN ESTATE SINGAPORE 554965,31,SERANGOON GARDEN ESTATE,1.36774036822786,103.867756977528,103.867756977528,554965,WORTHING ROAD,SERANGOON GARDEN ESTATE,31832.5802895725,38863.3239206839
32 WORTHING ROAD SERANGOON GARDEN ESTATE SINGAPORE 554966,32,SERANGOON GARDEN ESTATE,1.36789514608666,103.868188191886,103.868188191886,554966,WORTHING ROAD,SERANGOON GARDEN ESTATE,31880.5690275729,38880.4391639531
33 WORTHING ROAD SERANGOON GARDEN ESTATE SINGAPORE 554967,33,SERANGOON GARDEN ESTATE,1.36781749529889,103.867748660154,103.867748660154,554967,WORTHING ROAD,SERANGOON GARDEN ESTATE,31831.6545432899,38871.8522277754
34 WORTHING ROAD SERANGOON GARDEN ESTATE SINGAPORE 554968,34,SERANGOON GARDEN ESTATE,1.36802489450995,103.86808232462,103.86808232462,554968,WORTHING ROAD,SERANGOON GARDEN ESTATE,31868.7870635707,38894.7859158237
35 WORTHING ROAD SINGAPORE 554969,35,NIL,1.36849905281537,103.867703882551,103.867703882551,554969,WORTHING ROAD,35 WORTHING ROAD SINGAPORE 554969,31826.6702538757,38947.2153302506
36 WORTHING ROAD SERANGOON GARDEN ESTATE SINGAPORE 554970,36,SERANGOON GARDEN ESTATE,1.3680980292087,103.868110208404,103.868110208404,554970,WORTHING ROAD,SERANGOON GARDEN ESTATE,31871.8900767257,38902.8728249092
37 WORTHING ROAD SERANGOON GARDEN ESTATE SINGAPORE 554971,37,SERANGOON GARDEN ESTATE,1.36856266133689,103.867770147862,103.867770147862,554971,WORTHING ROAD,SERANGOON GARDEN ESTATE,31834.0446848925,38954.2489437703
39 WORTHING ROAD SERANGOON GARDEN ESTATE SINGAPORE 554972,39,SERANGOON GARDEN ESTATE,1.36863293674535,103.867770860089,103.867770860089,554972,WORTHING ROAD,SERANGOON GARDEN ESTATE,31834.1238356698,38962.0196432304
41 WORTHING ROAD SERANGOON GARDEN ESTATE SINGAPORE 554973,41,SERANGOON GARDEN ESTATE,1.36871040727905,103.867767491647,103.867767491647,554973,WORTHING ROAD,SERANGOON GARDEN ESTATE,31833.7488456201,38970.5859366413
42 WORTHING ROAD SERANGOON GARDEN ESTATE SINGAPORE 554974,42,SERANGOON GARDEN ESTATE,1.36837194101052,103.86812948559,103.86812948559,554974,WORTHING ROAD,SERANGOON GARDEN ESTATE,31874.0349568557,38933.1606341545
43 WORTHING ROAD SERANGOON GARDEN ESTATE SINGAPORE 554975,43,SERANGOON GARDEN ESTATE,1.3687825300018,103.867775690665,103.867775690665,554975,WORTHING ROAD,SERANGOON GARDEN ESTATE,31834.6611831849,38978.5609147232
44 WORTHING ROAD SERANGOON GARDEN ESTATE SINGAPORE 554976,44,SERANGOON GARDEN ESTATE,1.36844687693918,103.868152640236,103.868152640236,554976,WORTHING ROAD,SERANGOON GARDEN ESTATE,31876.6116703097,38941.4467065744
45 WORTHING ROAD SERANGOON GARDEN ESTATE SINGAPORE 554977,45,SERANGOON GARDEN ESTATE,1.36886584830399,103.867771282531,103.867771282531,554977,WORTHING ROAD,SERANGOON GARDEN ESTATE,31834.1704786327,38987.7738230713
46 WORTHING ROAD SERANGOON GARDEN ESTATE SINGAPORE 554978,46,SERANGOON GARDEN ESTATE,1.36852526941078,103.868092625679,103.868092625679,554978,WORTHING ROAD,SERANGOON GARDEN ESTATE,31869.9326462187,38950.1148517504
47 WORTHING ROAD SERANGOON GARDEN ESTATE SINGAPORE 554979,47,SERANGOON GARDEN ESTATE,1.3689804089535,103.867776861095,103.867776861095,554979,WORTHING ROAD,SERANGOON GARDEN ESTATE,31834.7911236389,39000.4413677417
48 WORTHING ROAD SERANGOON GARDEN ESTATE SINGAPORE 554980,48,SERANGOON GARDEN ESTATE,1.36860443414625,103.868178252317,103.868178252317,554980,WORTHING ROAD,SERANGOON GARDEN ESTATE,31879.4617339242,38958.8686250541
49 WORTHING ROAD SERANGOON GARDEN ESTATE SINGAPORE 554981,49,SERANGOON GARDEN ESTATE,1.36906483379402,103.867783740648,103.867783740648,554981,WORTHING ROAD,SERANGOON GARDEN ESTATE,31835.5566009469,39009.7766495477
50 WORTHING ROAD SERANGOON GARDEN ESTATE SINGAPORE 554982,50,SERANGOON GARDEN ESTATE,1.36872994679127,103.868093676833,103.868093676833,554982,WORTHING ROAD,SERANGOON GARDEN ESTATE,31870.0492990278,38972.7470404115
51 WORTHING ROAD SERANGOON GARDEN ESTATE SINGAPORE 554983,51,SERANGOON GARDEN ESTATE,1.36913510809709,103.867785155398,103.867785155398,554983,WORTHING ROAD,SERANGOON GARDEN ESTATE,31835.7139339261,39017.5472279359
52 WORTHING ROAD SERANGOON GARDEN ESTATE SINGAPORE 554984,52,SERANGOON GARDEN ESTATE,1.36880752534891,103.868097210413,103.868097210413,554984,WORTHING ROAD,SERANGOON GARDEN ESTATE,31870.4424196007,38981.3252896778
53 WORTHING ROAD SERANGOON GARDEN ESTATE SINGAPORE 554985,53,SERANGOON GARDEN ESTATE,1.36921180998852,103.867781808431,103.867781808431,554985,WORTHING ROAD,SERANGOON GARDEN ESTATE,31835.341335047,39026.0285288487
54 WORTHING ROAD SERANGOON GARDEN ESTATE SINGAPORE 554986,54,SERANGOON GARDEN ESTATE,1.36888352611746,103.868137783699,103.868137783699,554986,WORTHING ROAD,SERANGOON GARDEN ESTATE,31874.957615803,38989.7291348204
55 WORTHING ROAD SINGAPORE 554987,55,NIL,1.36929095295321,103.867783694104,103.867783694104,554987,WORTHING ROAD,55 WORTHING ROAD SINGAPORE 554987,31835.5510619059,39034.7797596417
56 WORTHING ROAD SERANGOON GARDEN ESTATE SINGAPORE 554988,56,SERANGOON GARDEN ESTATE,1.3689552294426,103.868111047023,103.868111047023,554988,WORTHING ROAD,SERANGOON GARDEN ESTATE,31871.9820308601,38997.6576818153
57 WORTHING ROAD SERANGOON GARDEN ESTATE SINGAPORE 554989,57,SERANGOON GARDEN ESTATE,1.36937217204633,103.867775966435,103.867775966435,554989,WORTHING ROAD,SERANGOON GARDEN ESTATE,31834.6909366129,39043.7605428211
58 WORTHING ROAD SERANGOON GARDEN ESTATE SINGAPORE 554990,58,SERANGOON GARDEN ESTATE,1.36907679742566,103.868113249084,103.868113249084,554990,WORTHING ROAD,SERANGOON GARDEN ESTATE,31872.2268988481,39011.1000565998
59 WORTHING ROAD SERANGOON GARDEN ESTATE SINGAPORE 554991,59,SERANGOON GARDEN ESTATE,1.37003244845455,103.867808195323,103.867808195323,554991,WORTHING ROAD,SERANGOON GARDEN ESTATE,31838.2765727676,39116.7706122417
60 WORTHING ROAD SERANGOON GARDEN ESTATE SINGAPORE 554992,60,SERANGOON GARDEN ESTATE,1.3691584073209,103.868111633889,103.868111633889,554992,WORTHING ROAD,SERANGOON GARDEN ESTATE,31872.0470162211,39020.1240624618
61 WORTHING ROAD SERANGOON GARDEN ESTATE SINGAPORE 554993,61,SERANGOON GARDEN ESTATE,1.37009855208801,103.867795972983,103.867795972983,554993,WORTHING ROAD,SERANGOON GARDEN ESTATE,31836.9162690435,39124.0799973626
62 WORTHING ROAD SERANGOON GARDEN ESTATE SINGAPORE 554994,62,SERANGOON GARDEN ESTATE,1.36923068321312,103.868109243691,103.868109243691,554994,WORTHING ROAD,SERANGOON GARDEN ESTATE,31871.7809001086,39028.1159603465
63 WORTHING ROAD SERANGOON GARDEN ESTATE SINGAPORE 554995,63,SERANGOON GARDEN ESTATE,1.37018049465854,103.867807005355,103.867807005355,554995,WORTHING ROAD,SERANGOON GARDEN ESTATE,31838.1439081952,39133.1408090908
64 WORTHING ROAD SERANGOON GARDEN ESTATE SINGAPORE 554996,64,SERANGOON GARDEN ESTATE,1.36931136910403,103.868118317802,103.868118317802,554996,WORTHING ROAD,SERANGOON GARDEN ESTATE,31872.790609777,39037.0378117617
65 WORTHING ROAD SERANGOON GARDEN ESTATE SINGAPORE 554997,65,SERANGOON GARDEN ESTATE,1.37025684840058,103.867800944303,103.867800944303,554997,WORTHING ROAD,SERANGOON GARDEN ESTATE,31837.4692651061,39141.5836091302
66 WORTHING ROAD SERANGOON GARDEN ESTATE SINGAPORE 554998,66,SERANGOON GARDEN ESTATE,1.36943261142473,103.868115040299,103.868115040299,554998,WORTHING ROAD,SERANGOON GARDEN ESTATE,31872.4256686978,39050.4441676456
67 WORTHING ROAD SERANGOON GARDEN ESTATE SINGAPORE 554999,67,SERANGOON GARDEN ESTATE,1.37038791534146,103.867773378371,103.867773378371,554999,WORTHING ROAD,SERANGOON GARDEN ESTATE,31834.4013022771,39156.0762829501
