ADDRESS,BLK_NO,BUILDING,LATITUDE,LONGITUDE,LONGTITUDE,POSTAL,ROAD_NAME,SEARCHVAL,X,Y
288F BUKIT BATOK STREET 25 NATURE VIEW SINGAPORE 655288,288F,NATURE VIEW,1.34525092996959,103.758361154197,103.758361154197,655288,BUKIT BATOK STREET 25,NATURE VIEW,19658.0596985202,36376.6572643705
289F BUKIT BATOK STREET 25 NATURE VIEW SINGAPORE 655289,289F,NATURE VIEW,1.34463617023746,103.7590468418,103.7590468418,655289,BUKIT BATOK STREET 25,NATURE VIEW,19734.3671923541,36308.6778851841
290F BUKIT BATOK STREET 24 SPRING VIEW SINGAPORE 655290,290F,SPRING VIEW,1.34351644124186,103.757696498682,103.757696498682,655290,BUKIT BATOK STREET 24,SPRING VIEW,19584.0848371191,36184.8684835993
291F BUKIT BATOK STREET 24 MULTI STOREY CAR PARK SINGAPORE 655291,291F,MULTI STOREY CAR PARK,1.34273890162005,103.755262014712,103.755262014712,655291,BUKIT BATOK STREET 24,MULTI STOREY CAR PARK,19313.1503336811,36098.9005692787
288G BUKIT BATOK STREET 25 NATURE VIEW SINGAPORE 656288,288G,NATURE VIEW,1.34501348095763,103.759596771839,103.759596771839,656288,BUKIT BATOK STREET 25,NATURE VIEW,19795.5696910582,36350.3971551806
289G BUKIT BATOK STREET 25 NATURE VIEW SINGAPORE 656289,289G,NATURE VIEW,1.34504260344064,103.758784094586,103.758784094586,656289,BUKIT BATOK STREET 25,NATURE VIEW,19705.1276541883,36353.6201203559
290G BUKIT BATOK STREET 24 SPRING VIEW SINGAPORE 656290,290G,SPRING VIEW,1.34337777770123,103.757174736965,103.757174736965,656290,BUKIT BATOK STREET 24,SPRING VIEW,19526.0179199204,36169.5375682395
288H BUKIT BATOK STREET 25 MULTI STOREY CAR PARK SINGAPORE 657288,288H,MULTI STOREY CAR PARK,1.34556154710655,103.760138074228,103.760138074228,657288,BUKIT BATOK STREET 25,MULTI STOREY CAR PARK,19855.8125736071,36410.9977447614
289H BUKIT BATOK STREET 25 DBS BUKIT BATOK STREET 25 SINGAPORE 657289,289H,DBS BUKIT BATOK STREET 25,1.34452384705129,103.759919152435,103.759919152435,657289,BUKIT BATOK STREET 25,DBS BUKIT BATOK STREET 25,19831.445514923,36296.2548150197
290H BUKIT BATOK STREET 24 MULTI STOREY CAR PARK SINGAPORE 657290,290H,MULTI STOREY CAR PARK,1.34328202342987,103.757986778729,103.757986778729,657290,BUKIT BATOK STREET 24,MULTI STOREY CAR PARK,19616.3890691726,36158.9467402007
10 BUKIT BATOK STREET 41 LE QUEST SINGAPORE 657977,10,LE QUEST,1.35566224943994,103.741097353417,103.741097353417,657977,BUKIT BATOK STREET 41,LE QUEST,17736.8299421929,37527.955112787
12 BUKIT BATOK STREET 41 LE QUEST SINGAPORE 657978,12,LE QUEST,1.3560214929456,103.740697641546,103.740697641546,657978,BUKIT BATOK STREET 41,LE QUEST,17692.3480527857,37567.6801766772
2 BUKIT BATOK STREET 41 LE QUEST SINGAPORE 657990,2,LE QUEST,1.35641720019399,103.740927523447,103.740927523447,657990,BUKIT BATOK STREET 41,LE QUEST,17717.9329740629,37611.4345448278
4 BUKIT BATOK STREET 41 LE QUEST SINGAPORE 657991,4,LE QUEST,1.35594171176111,103.741127005764,103.741127005764,657991,BUKIT BATOK STREET 41,LE QUEST,17740.1310895691,37558.856544869
6 BUKIT BATOK STREET 41 LE QUEST SINGAPORE 657992,6,LE QUEST,1.35612364907137,103.741245932623,103.741245932623,657992,BUKIT BATOK STREET 41,LE QUEST,17753.3670669729,37578.9737667628
8 BUKIT BATOK STREET 41 LE QUEST SINGAPORE 657993,8,LE QUEST,1.35582936982069,103.741594327509,103.741594327509,657993,BUKIT BATOK STREET 41,LE QUEST,17792.1382353557,37546.4323547874
11 BUKIT BATOK WEST AVENUE 9 BUKIT BATOK CARE HOME SINGAPORE 657995,11,BUKIT BATOK CARE HOME,1.35380888774674,103.740615671225,103.740615671225,657995,BUKIT BATOK WEST AVENUE 9,BUKIT BATOK CARE HOME,17683.2163231708,37323.0216125846
204 PAVILION CIRCLE PAVILION PARK SINGAPORE 658004,204,PAVILION PARK,1.36845059354979,103.753053157836,103.753053157836,658004,PAVILION CIRCLE,PAVILION PARK,19067.4225833304,38941.9790296033
206 PAVILION CIRCLE PAVILION PARK SINGAPORE 658005,206,PAVILION PARK,1.36843606908679,103.752989963522,103.752989963522,658005,PAVILION CIRCLE,PAVILION PARK,19060.3897567773,38940.3732222635
208 PAVILION CIRCLE PAVILION PARK SINGAPORE 658006,208,PAVILION PARK,1.3684333334542,103.752934634714,103.752934634714,658006,PAVILION CIRCLE,PAVILION PARK,19054.232310582,38940.0709359106
211 PAVILION CIRCLE PAVILION PARK SINGAPORE 658007,211,PAVILION PARK,1.36884345552548,103.753522839023,103.753522839023,658007,PAVILION CIRCLE,PAVILION PARK,19119.6939383466,38985.418005364
55 PAVILION GREEN PAVILION PARK SINGAPORE 658009,55,PAVILION PARK,1.36900329730177,103.753002141533,103.753002141533,658009,PAVILION GREEN,PAVILION PARK,19061.747124508,39003.0944473185
57 PAVILION GREEN PAVILION PARK SINGAPORE 658010,57,PAVILION PARK,1.3690063677303,103.753058118197,103.753058118197,658010,PAVILION GREEN,PAVILION PARK,19067.9766690405,39003.4337514155
59 PAVILION GREEN PAVILION PARK SINGAPORE 658011,59,PAVILION PARK,1.36900872766913,103.75310956807,103.75310956807,658011,PAVILION GREEN,PAVILION PARK,19073.7024332518,39003.6945100948
61 PAVILION GREEN PAVILION PARK SINGAPORE 658012,61,PAVILION PARK,1.36901120628684,103.753165589359,103.753165589359,658012,PAVILION GREEN,PAVILION PARK,19079.9369417345,39003.9683748111
63 PAVILION GREEN PAVILION PARK SINGAPORE 658013,63,PAVILION PARK,1.36901213824263,103.753219480562,103.753219480562,658013,PAVILION GREEN,PAVILION PARK,19085.9343913682,39004.0712254215
50 PAVILION GREEN PAVILION PARK SINGAPORE 658014,50,PAVILION PARK,1.36865114165037,103.752991864296,103.752991864296,658014,PAVILION GREEN,PAVILION PARK,19060.6020866837,38964.1548678745
52 PAVILION GREEN PAVILION PARK SINGAPORE 658015,52,PAVILION PARK,1.36865361905574,103.753044332719,103.753044332719,658015,PAVILION GREEN,PAVILION PARK,19066.4412044948,38964.4286115188
54 PAVILION GREEN PAVILION PARK SINGAPORE 658016,54,PAVILION PARK,1.36865623424076,103.7530995726,103.7530995726,658016,PAVILION GREEN,PAVILION PARK,19072.5887530595,38964.717579959
56 PAVILION GREEN PAVILION PARK SINGAPORE 658017,56,PAVILION PARK,1.36865882786877,103.753165005157,103.753165005157,658017,PAVILION GREEN,PAVILION PARK,19079.8706245823,38965.0041269604
62 PAVILION PLACE PAVILION PARK SINGAPORE 658034,62,PAVILION PARK,1.36977454610881,103.75295087368,103.75295087368,658034,PAVILION PLACE,PAVILION PARK,19056.0444850354,39088.3754902855
64 PAVILION PLACE PAVILION PARK SINGAPORE 658035,64,PAVILION PARK,1.36977663341139,103.753002267823,103.753002267823,658035,PAVILION PLACE,PAVILION PARK,19061.7640443109,39088.6061020531
65 PAVILION PLACE PAVILION PARK SINGAPORE 658036,65,PAVILION PARK,1.37013087459366,103.752954744848,103.752954744848,658036,PAVILION PLACE,PAVILION PARK,19056.4766210392,39127.7765051406
66 PAVILION PLACE PAVILION PARK SINGAPORE 658037,66,PAVILION PARK,1.36977944517666,103.753058629636,103.753058629636,658037,PAVILION PLACE,PAVILION PARK,19068.0364483083,39088.9168029055
67 PAVILION PLACE PAVILION PARK SINGAPORE 658038,67,PAVILION PARK,1.3701330598925,103.753006128388,103.753006128388,658038,PAVILION PLACE,PAVILION PARK,19062.1949998625,39128.0179528482
68 PAVILION PLACE PAVILION PARK SINGAPORE 658039,68,PAVILION PARK,1.36978250504821,103.753110008516,103.753110008516,658039,PAVILION PLACE,PAVILION PARK,19073.7543125767,39089.2549568191
69 PAVILION PLACE PAVILION PARK SINGAPORE 658040,69,PAVILION PARK,1.37013603945592,103.753062479868,103.753062479868,658040,PAVILION PLACE,PAVILION PARK,19068.4662536774,39128.3472079746
70 PAVILION PLACE PAVILION PARK SINGAPORE 658041,70,PAVILION PARK,1.36978505675973,103.753166212319,103.753166212319,658041,PAVILION PLACE,PAVILION PARK,19080.0091308756,39089.5369030889
71 PAVILION PLACE PAVILION PARK SINGAPORE 658042,71,PAVILION PARK,1.3701373666033,103.753113936328,103.753113936328,658042,PAVILION PLACE,PAVILION PARK,19074.1927443203,39128.4937655516
72 PAVILION PLACE PAVILION PARK SINGAPORE 658043,72,PAVILION PARK,1.36978674689272,103.753218230123,103.753218230123,658043,PAVILION PLACE,PAVILION PARK,19085.7980946377,39089.7235960122
73 PAVILION PLACE PAVILION PARK SINGAPORE 658044,73,PAVILION PARK,1.37014105814039,103.753170223326,103.753170223326,658044,PAVILION PLACE,PAVILION PARK,19080.456824623,39128.9017477036
75 PAVILION PLACE PAVILION PARK SINGAPORE 658045,75,PAVILION PARK,1.3701435142472,103.75322431468,103.75322431468,658045,PAVILION PLACE,PAVILION PARK,19086.4765514927,39129.1731304452
55 PAVILION VIEW PAVILION PARK SINGAPORE 658049,55,PAVILION PARK,1.36956175140728,103.752960972273,103.752960972273,658049,PAVILION VIEW,PAVILION PARK,19057.1675483035,39064.8456742987
57 PAVILION VIEW PAVILION PARK SINGAPORE 658050,57,PAVILION PARK,1.36956552736603,103.75301238077,103.75301238077,658050,PAVILION VIEW,PAVILION PARK,19062.8887117812,39065.2630092576
59 PAVILION VIEW PAVILION PARK SINGAPORE 658051,59,PAVILION PARK,1.36956700221873,103.753068676532,103.753068676532,658051,PAVILION VIEW,PAVILION PARK,19069.1537606595,39065.4258812796
61 PAVILION VIEW PAVILION PARK SINGAPORE 658052,61,PAVILION PARK,1.36957039631869,103.753120097825,103.753120097825,658052,PAVILION VIEW,PAVILION PARK,19074.8763467325,39065.8009924013
63 PAVILION VIEW PAVILION PARK SINGAPORE 658053,63,PAVILION PARK,1.36957236389017,103.753176473804,103.753176473804,658053,PAVILION VIEW,PAVILION PARK,19081.1503246659,39066.0183467921
65 PAVILION VIEW PAVILION PARK SINGAPORE 658054,65,PAVILION PARK,1.36957469806861,103.753227101227,103.753227101227,658054,PAVILION VIEW,PAVILION PARK,19086.7845584946,39066.276260281
60 PAVILION VIEW PAVILION PARK SINGAPORE 658055,60,PAVILION PARK,1.36922152675104,103.7530587831,103.7530587831,658055,PAVILION VIEW,PAVILION PARK,19068.0514612282,39027.2249617092
62 PAVILION VIEW PAVILION PARK SINGAPORE 658056,62,PAVILION PARK,1.36922505032934,103.753110295495,103.753110295495,658056,PAVILION VIEW,PAVILION PARK,19073.7841870766,39027.6143895872
64 PAVILION VIEW PAVILION PARK SINGAPORE 658057,64,PAVILION PARK,1.36922687034484,103.753166258335,103.753166258335,658057,PAVILION VIEW,PAVILION PARK,19080.0121879419,39027.8154295348
66 PAVILION VIEW PAVILION PARK SINGAPORE 658058,66,PAVILION PARK,1.36923192445386,103.753220572877,103.753220572877,658058,PAVILION VIEW,PAVILION PARK,19086.0567648262,39028.3740857113
64 PAVILION RISE PAVILION PARK SINGAPORE 658059,64,PAVILION PARK,1.37033887910981,103.753070349626,103.753070349626,658059,PAVILION RISE,PAVILION PARK,19069.3428144855,39150.7761773933
66 PAVILION RISE PAVILION PARK SINGAPORE 658060,66,PAVILION PARK,1.37034271501154,103.753121666753,103.753121666753,658060,PAVILION RISE,PAVILION PARK,19075.0538079208,39151.2001410406
68 PAVILION RISE PAVILION PARK SINGAPORE 658061,68,PAVILION PARK,1.37034341931018,103.75317810018,103.75317810018,658061,PAVILION RISE,PAVILION PARK,19081.3341723988,39151.2778086867
70 PAVILION RISE PAVILION PARK SINGAPORE 658062,70,PAVILION PARK,1.37034772278267,103.753230541925,103.753230541925,658062,PAVILION RISE,PAVILION PARK,19087.1703239474,39151.7534700502
1 BUKIT BATOK CRESCENT WCEGA PLAZA SINGAPORE 658064,1,WCEGA PLAZA,1.33892734037127,103.759168178259,103.759168178259,658064,BUKIT BATOK CRESCENT,WCEGA PLAZA,19747.8514882969,35677.4237388931
21 BUKIT BATOK CRESCENT BRILLIANT TOTS CHILDCARE SINGAPORE 658065,21,BRILLIANT TOTS CHILDCARE,1.33696571508317,103.759665479168,103.759665479168,658065,BUKIT BATOK CRESCENT,BRILLIANT TOTS CHILDCARE,19803.1892927438,35460.5154070947
25 BUKIT BATOK CRESCENT THE ELITIST SINGAPORE 658066,25,THE ELITIST,1.33775440265855,103.758879443418,103.758879443418,658066,BUKIT BATOK CRESCENT,THE ELITIST,19715.7144263163,35547.7271539383
31 BUKIT BATOK CRESCENT THE SPLENDOUR SINGAPORE 658070,31,THE SPLENDOUR,1.33717344576231,103.758706701152,103.758706701152,658070,BUKIT BATOK CRESCENT,THE SPLENDOUR,19696.4880819879,35483.4884435199
71 BUKIT BATOK CRESCENT PRESTIGE CENTRE SINGAPORE 658071,71,PRESTIGE CENTRE,1.33829669931405,103.755872939731,103.755872939731,658071,BUKIT BATOK CRESCENT,PRESTIGE CENTRE,19381.1241738265,35607.7019529548
80 BUKIT BATOK ROAD 4TH SCDF DIVISION HQ SINGAPORE 658072,80,4TH SCDF DIVISION HQ,1.37342679854226,103.752792529782,103.752792529782,658072,BUKIT BATOK ROAD,4TH SCDF DIVISION HQ,19038.4362973841,39492.2239745427
82 BUKIT BATOK ROAD 4TH SCDF DIVISION HQ / BUKIT BATOK FIRE STATION SINGAPORE 658073,82,4TH SCDF DIVISION HQ / BUKIT BATOK FIRE STATION,1.37345849762909,103.752898593293,103.752898593293,658073,BUKIT BATOK ROAD,4TH SCDF DIVISION HQ / BUKIT BATOK FIRE STATION,19050.2399937976,39495.7287043761
9 BUKIT BATOK CENTRAL LINK THE JADE SINGAPORE 658074,9,THE JADE,1.34900073327419,103.748907884779,103.748907884779,658074,BUKIT BATOK CENTRAL LINK,THE JADE,18606.0280030705,36791.3261593226
30 BUKIT BATOK CRESCENT SINGAPORE 658075,30,NIL,1.33910013467431,103.75823910621,103.75823910621,658075,BUKIT BATOK CRESCENT,30 BUKIT BATOK CRESCENT SINGAPORE 658075,19644.4562072586,35696.5336120203
81 BUKIT BATOK CRESCENT SINGAPORE 658076,81,NIL,1.3385029566385,103.755676452799,103.755676452799,658076,BUKIT BATOK CRESCENT,81 BUKIT BATOK CRESCENT SINGAPORE 658076,19359.2579770293,35630.5095445812
51 BUKIT BATOK CRESCENT UNITY CENTRE SINGAPORE 658077,51,UNITY CENTRE,1.33767825058731,103.757048882969,103.757048882969,658077,BUKIT BATOK CRESCENT,UNITY CENTRE,19511.9920994816,35539.3128966093
61 BUKIT BATOK CRESCENT HENG LOONG BUILDING SINGAPORE 658078,61,HENG LOONG BUILDING,1.33812087030319,103.756205707901,103.756205707901,658078,BUKIT BATOK CRESCENT,HENG LOONG BUILDING,19418.1571427081,35588.2584963795
10 BUKIT BATOK CRESCENT ABUNDANT LIFE BAPTIST CHURCH SINGAPORE 658079,10,ABUNDANT LIFE BAPTIST CHURCH,1.33834040638132,103.758569635719,103.758569635719,658079,BUKIT BATOK CRESCENT,ABUNDANT LIFE BAPTIST CHURCH,19681.2380729476,35612.5255496446
20 BUKIT BATOK CRESCENT ENTERPRISE CENTRE SINGAPORE 658080,20,ENTERPRISE CENTRE,1.33852440962067,103.757089739355,103.757089739355,658080,BUKIT BATOK CRESCENT,ENTERPRISE CENTRE,19516.5418919902,35632.8767733201
560 BUKIT BATOK STREET 23 SINGAPORE 658115,560,NIL,1.34112357465956,103.753208885712,103.753208885712,658115,BUKIT BATOK STREET 23,560 BUKIT BATOK STREET 23 SINGAPORE 658115,19084.6533292253,35920.2931927368
155 PAVILION CIRCLE PAVILION PARK SINGAPORE 658198,155,PAVILION PARK,1.3704439293687,103.753523649882,103.753523649882,658198,PAVILION CIRCLE,PAVILION PARK,19119.7900694637,39162.390426496
157 PAVILION CIRCLE PAVILION PARK SINGAPORE 658199,157,PAVILION PARK,1.37038468233756,103.753521244557,103.753521244557,658199,PAVILION CIRCLE,PAVILION PARK,19119.5221675392,39155.8391938321
159 PAVILION CIRCLE PAVILION PARK SINGAPORE 658200,159,PAVILION PARK,1.37033175969951,103.75352110216,103.75352110216,658200,PAVILION CIRCLE,PAVILION PARK,19119.5061255079,39149.9872726649
161 PAVILION CIRCLE PAVILION PARK SINGAPORE 658201,161,PAVILION PARK,1.3702757537437,103.753521137195,103.753521137195,658201,PAVILION CIRCLE,PAVILION PARK,19119.5098182019,39143.7944129277
163 PAVILION CIRCLE PAVILION PARK SINGAPORE 658202,163,PAVILION PARK,1.37022323322044,103.753521045645,103.753521045645,658202,PAVILION CIRCLE,PAVILION PARK,19119.4994362835,39137.9869554285
165 PAVILION CIRCLE PAVILION PARK SINGAPORE 658203,165,PAVILION PARK,1.37016725572905,103.753520968896,103.753520968896,658203,PAVILION CIRCLE,PAVILION PARK,19119.4906888362,39131.7972435616
167 PAVILION CIRCLE PAVILION PARK SINGAPORE 658204,167,PAVILION PARK,1.37011476340219,103.753520936907,103.753520936907,658204,PAVILION CIRCLE,PAVILION PARK,19119.4869356062,39125.9929036647
169 PAVILION CIRCLE PAVILION PARK SINGAPORE 658205,169,PAVILION PARK,1.37005874513429,103.753521149273,103.753521149273,658205,PAVILION CIRCLE,PAVILION PARK,19119.5103630256,39119.7986818682
171 PAVILION CIRCLE PAVILION PARK SINGAPORE 658206,171,PAVILION PARK,1.37000136922117,103.753523399893,103.753523399893,658206,PAVILION CIRCLE,PAVILION PARK,19119.7606187155,39113.4543308746
173 PAVILION CIRCLE PAVILION PARK SINGAPORE 658207,173,PAVILION PARK,1.36991742760795,103.753527013462,103.753527013462,658207,PAVILION CIRCLE,PAVILION PARK,19120.1624564668,39104.1724720597
175 PAVILION CIRCLE PAVILION PARK SINGAPORE 658208,175,PAVILION PARK,1.36985960811108,103.753525180062,103.753525180062,658208,PAVILION CIRCLE,PAVILION PARK,19119.958208113,39097.7790869307
177 PAVILION CIRCLE PAVILION PARK SINGAPORE 658209,177,PAVILION PARK,1.36980395991336,103.753524911828,103.753524911828,658209,PAVILION CIRCLE,PAVILION PARK,19119.9281520052,39091.6257874481
179 PAVILION CIRCLE PAVILION PARK SINGAPORE 658210,179,PAVILION PARK,1.36975113746758,103.7535249609,103.7535249609,658210,PAVILION CIRCLE,PAVILION PARK,19119.9334186343,39085.7849443629
181 PAVILION CIRCLE PAVILION PARK SINGAPORE 658211,181,PAVILION PARK,1.36969545944616,103.753525085948,103.753525085948,658211,PAVILION CIRCLE,PAVILION PARK,19119.947130031,39079.6283456702
183 PAVILION CIRCLE PAVILION PARK SINGAPORE 658212,183,PAVILION PARK,1.36964267012572,103.753525247346,103.753525247346,658212,PAVILION CIRCLE,PAVILION PARK,19119.9648973374,39073.791165011
185 PAVILION CIRCLE PAVILION PARK SINGAPORE 658213,185,PAVILION PARK,1.36958695157944,103.753525002776,103.753525002776,658213,PAVILION CIRCLE,PAVILION PARK,19119.9374745442,39067.6300866567
187 PAVILION CIRCLE PAVILION PARK SINGAPORE 658214,187,PAVILION PARK,1.36953413679546,103.753524973518,103.753524973518,658214,PAVILION CIRCLE,PAVILION PARK,19119.934023994,39061.790091075
189 PAVILION CIRCLE PAVILION PARK SINGAPORE 658215,189,PAVILION PARK,1.36947854993175,103.7535252438,103.7535252438,658215,PAVILION CIRCLE,PAVILION PARK,19119.9638984939,39055.6435716208
191 PAVILION CIRCLE PAVILION PARK SINGAPORE 658216,191,PAVILION PARK,1.36942072453266,103.75352699508,103.75352699508,658216,PAVILION CIRCLE,PAVILION PARK,19120.1585821649,39049.2495205961
193 PAVILION CIRCLE PAVILION PARK SINGAPORE 658217,193,PAVILION PARK,1.36933719257746,103.753527051151,103.753527051151,658217,PAVILION CIRCLE,PAVILION PARK,19120.1645146897,39040.0129729547
195 PAVILION CIRCLE PAVILION PARK SINGAPORE 658218,195,PAVILION PARK,1.36927916010999,103.753525026556,103.753525026556,658218,PAVILION CIRCLE,PAVILION PARK,19119.9389879433,39033.5960393343
197 PAVILION CIRCLE PAVILION PARK SINGAPORE 658219,197,PAVILION PARK,1.36922350699129,103.753524951154,103.753524951154,658219,PAVILION CIRCLE,PAVILION PARK,19119.930391836,39027.4421950281
199 PAVILION CIRCLE PAVILION PARK SINGAPORE 658220,199,PAVILION PARK,1.36917068974706,103.753525026879,103.753525026879,658220,PAVILION CIRCLE,PAVILION PARK,19119.9386247275,39021.6019270346
201 PAVILION CIRCLE PAVILION PARK SINGAPORE 658221,201,PAVILION PARK,1.36911500871399,103.75352514268,103.75352514268,658221,PAVILION CIRCLE,PAVILION PARK,19119.9513070127,39015.444995394
203 PAVILION CIRCLE PAVILION PARK SINGAPORE 658222,203,PAVILION PARK,1.36906218188614,103.753525130556,103.753525130556,658222,PAVILION CIRCLE,PAVILION PARK,19119.9497633455,39009.603668021
205 PAVILION CIRCLE PAVILION PARK SINGAPORE 658223,205,PAVILION PARK,1.36900652193165,103.7535252828,103.7535252828,658223,PAVILION CIRCLE,PAVILION PARK,19119.9665015405,39003.4490670152
207 PAVILION CIRCLE PAVILION PARK SINGAPORE 658224,207,PAVILION PARK,1.36895370277224,103.753525390347,103.753525390347,658224,PAVILION CIRCLE,PAVILION PARK,19119.9782757862,38997.6085871458
209 PAVILION CIRCLE PAVILION PARK SINGAPORE 658225,209,PAVILION PARK,1.36889708611468,103.753525312801,103.753525312801,658225,PAVILION CIRCLE,PAVILION PARK,19119.9694375349,38991.348199537
210 PAVILION CIRCLE PAVILION PARK SINGAPORE 658226,210,PAVILION PARK,1.36843090395373,103.752882280526,103.752882280526,658226,PAVILION CIRCLE,PAVILION PARK,19048.405905324,38939.8024891615
212 PAVILION CIRCLE PAVILION PARK SINGAPORE 658227,212,PAVILION PARK,1.36842837416416,103.752826910642,103.752826910642,658227,PAVILION CIRCLE,PAVILION PARK,19042.2438886631,38939.5229643323
214 PAVILION CIRCLE PAVILION PARK SINGAPORE 658229,214,PAVILION PARK,1.36842599776564,103.752774561076,103.752774561076,658229,PAVILION CIRCLE,PAVILION PARK,19036.4179979619,38939.2603895739
215 PAVILION CIRCLE PAVILION PARK SINGAPORE 658230,215,PAVILION PARK,1.36805956531549,103.752691334774,103.752691334774,658230,PAVILION CIRCLE,PAVILION PARK,19027.1545420811,38898.7424255833
216 PAVILION CIRCLE PAVILION PARK SINGAPORE 658231,216,PAVILION PARK,1.3684235500922,103.752719157464,103.752719157464,658231,PAVILION CIRCLE,PAVILION PARK,19030.2522280701,38938.9899451397
217 PAVILION CIRCLE PAVILION PARK SINGAPORE 658232,217,PAVILION PARK,1.36805712484673,103.752638563108,103.752638563108,658232,PAVILION CIRCLE,PAVILION PARK,19021.2816754682,38898.4727681149
218 PAVILION CIRCLE PAVILION PARK SINGAPORE 658233,218,PAVILION PARK,1.36842268315257,103.752661670715,103.752661670715,658233,PAVILION CIRCLE,PAVILION PARK,19023.8546356922,38938.8942983113
219 PAVILION CIRCLE PAVILION PARK SINGAPORE 658234,219,PAVILION PARK,1.36805458439138,103.752583634655,103.752583634655,658234,PAVILION CIRCLE,PAVILION PARK,19015.1687837448,38898.1920628343
220 PAVILION CIRCLE PAVILION PARK SINGAPORE 658235,220,PAVILION PARK,1.36841353449893,103.752573811565,103.752573811565,658235,PAVILION CIRCLE,PAVILION PARK,19014.0769267678,38937.8830147069
221 PAVILION CIRCLE PAVILION PARK SINGAPORE 658236,221,PAVILION PARK,1.36805214309909,103.752530863262,103.752530863262,658236,PAVILION CIRCLE,PAVILION PARK,19009.2959473999,38897.9223145638
222 PAVILION CIRCLE PAVILION PARK SINGAPORE 658237,222,PAVILION PARK,1.36841109375341,103.752521039892,103.752521039892,658237,PAVILION CIRCLE,PAVILION PARK,19008.204060155,38937.6133269724
223 PAVILION CIRCLE PAVILION PARK SINGAPORE 658238,223,PAVILION PARK,1.36804960318877,103.752475934809,103.752475934809,658238,PAVILION CIRCLE,PAVILION PARK,19003.1830556765,38897.6416698191
224 PAVILION CIRCLE PAVILION PARK SINGAPORE 658239,224,PAVILION PARK,1.36840855356864,103.752466111431,103.752466111431,658239,PAVILION CIRCLE,PAVILION PARK,19002.0911684316,38937.3326519597
225 PAVILION CIRCLE PAVILION PARK SINGAPORE 658240,225,PAVILION PARK,1.36804716189408,103.752423163143,103.752423163143,658240,PAVILION CIRCLE,PAVILION PARK,18997.3101890637,38897.3719215486
226 PAVILION CIRCLE PAVILION PARK SINGAPORE 658241,226,PAVILION PARK,1.36840611227327,103.75241334003,103.75241334003,658241,PAVILION CIRCLE,PAVILION PARK,18996.2183320867,38937.0629036874
227 PAVILION CIRCLE PAVILION PARK SINGAPORE 658242,227,PAVILION PARK,1.36804462170752,103.752368234691,103.752368234691,658242,PAVILION CIRCLE,PAVILION PARK,18991.1972973403,38897.0912465341
228 PAVILION CIRCLE PAVILION PARK SINGAPORE 658243,228,PAVILION PARK,1.36840357208604,103.752358411569,103.752358411569,658243,PAVILION CIRCLE,PAVILION PARK,18990.1054403633,38936.7822286747
229 PAVILION CIRCLE PAVILION PARK SINGAPORE 658244,229,PAVILION PARK,1.36804218095795,103.752315463298,103.752315463298,658244,PAVILION CIRCLE,PAVILION PARK,18985.3244609954,38896.8215587996
230 PAVILION CIRCLE PAVILION PARK SINGAPORE 658245,230,PAVILION PARK,1.36840111655413,103.752305637177,103.752305637177,658245,PAVILION CIRCLE,PAVILION PARK,18984.2322710706,38936.5109064691
231 PAVILION CIRCLE PAVILION PARK SINGAPORE 658246,231,PAVILION PARK,1.36803962872463,103.752260531855,103.752260531855,658246,PAVILION CIRCLE,PAVILION PARK,18979.2112363242,38896.5395519957
232 PAVILION CIRCLE PAVILION PARK SINGAPORE 658247,232,PAVILION PARK,1.36839859087232,103.752250711165,103.752250711165,658247,PAVILION CIRCLE,PAVILION PARK,18978.119651759,38936.2318356596
233 PAVILION CIRCLE PAVILION PARK SINGAPORE 658248,233,PAVILION PARK,1.36803719563731,103.75220776427,103.75220776427,658248,PAVILION CIRCLE,PAVILION PARK,18973.3388237311,38896.2707117647
234 PAVILION CIRCLE PAVILION PARK SINGAPORE 658249,234,PAVILION PARK,1.36839614984594,103.752197939764,103.752197939764,658249,PAVILION CIRCLE,PAVILION PARK,18972.2468154142,38935.9621176552
235 PAVILION CIRCLE PAVILION PARK SINGAPORE 658250,235,PAVILION PARK,1.36803291596038,103.752115139363,103.752115139363,658250,PAVILION CIRCLE,PAVILION PARK,18963.0307591958,38895.7978350539
236 PAVILION CIRCLE PAVILION PARK SINGAPORE 658251,236,PAVILION PARK,1.36839360938004,103.752143011304,103.752143011304,658251,PAVILION CIRCLE,PAVILION PARK,18966.1339236908,38935.6814123746
237 PAVILION CIRCLE PAVILION PARK SINGAPORE 658252,237,PAVILION PARK,1.36803047493149,103.752062368243,103.752062368243,658252,PAVILION CIRCLE,PAVILION PARK,18957.1579531198,38895.5281170513
238 PAVILION CIRCLE PAVILION PARK SINGAPORE 658253,238,PAVILION PARK,1.36839116889877,103.752090239632,103.752090239632,658253,PAVILION CIRCLE,PAVILION PARK,18960.2610570779,38935.411754908
239 PAVILION CIRCLE PAVILION PARK SINGAPORE 658254,239,PAVILION PARK,1.36802793446298,103.752007439792,103.752007439792,658254,PAVILION CIRCLE,PAVILION PARK,18951.0450613955,38895.2474117707
240 PAVILION CIRCLE PAVILION PARK SINGAPORE 658255,240,PAVILION PARK,1.36838688456308,103.751997616073,103.751997616073,658255,PAVILION CIRCLE,PAVILION PARK,18949.9531438835,38934.9383636434
241 PAVILION CIRCLE PAVILION PARK SINGAPORE 658256,241,PAVILION PARK,1.36802549397917,103.751954667856,103.751954667856,658256,PAVILION CIRCLE,PAVILION PARK,18945.1721645156,38894.9777543042
242 PAVILION CIRCLE PAVILION PARK SINGAPORE 658257,242,PAVILION PARK,1.36838444353114,103.751944844673,103.751944844673,658257,PAVILION CIRCLE,PAVILION PARK,18944.0803075386,38934.6686456408
243 PAVILION CIRCLE PAVILION PARK SINGAPORE 658258,243,PAVILION PARK,1.36802295350816,103.751899739405,103.751899739405,658258,PAVILION CIRCLE,PAVILION PARK,18939.0592727913,38894.6970490236
244 PAVILION CIRCLE PAVILION PARK SINGAPORE 658259,244,PAVILION PARK,1.36838190333315,103.751889916214,103.751889916214,658259,PAVILION CIRCLE,PAVILION PARK,18937.9674158152,38934.3879706264
245 PAVILION CIRCLE PAVILION PARK SINGAPORE 658260,245,PAVILION PARK,1.36802051247452,103.751846968014,103.751846968014,658260,PAVILION CIRCLE,PAVILION PARK,18933.1864364473,38894.4273310192
246 PAVILION CIRCLE PAVILION PARK SINGAPORE 658261,246,PAVILION PARK,1.36837946257258,103.751837144543,103.751837144543,658261,PAVILION CIRCLE,PAVILION PARK,18932.0945492024,38934.1182828918
247 PAVILION CIRCLE PAVILION PARK SINGAPORE 658262,247,PAVILION PARK,1.36801797172733,103.751792039563,103.751792039563,658262,PAVILION CIRCLE,PAVILION PARK,18927.073544723,38894.1465954706
248 PAVILION CIRCLE PAVILION PARK SINGAPORE 658263,248,PAVILION PARK,1.36837692209839,103.751782216084,103.751782216084,658263,PAVILION CIRCLE,PAVILION PARK,18925.981657479,38933.8375776112
249 PAVILION CIRCLE PAVILION PARK SINGAPORE 658264,249,PAVILION PARK,1.36801568890672,103.751739208876,103.751739208876,658264,PAVILION CIRCLE,PAVILION PARK,18921.1941099586,38893.8943723626
250 PAVILION CIRCLE PAVILION PARK SINGAPORE 658265,250,PAVILION PARK,1.36837431873678,103.751729400359,103.751729400359,658265,PAVILION CIRCLE,PAVILION PARK,18920.1038874527,38933.5499106944
251 PAVILION CIRCLE PAVILION PARK SINGAPORE 658266,251,PAVILION PARK,1.36801326645683,103.751685661801,103.751685661801,658266,PAVILION CIRCLE,PAVILION PARK,18915.2349493243,38893.626712583
252 PAVILION CIRCLE PAVILION PARK SINGAPORE 658267,252,PAVILION PARK,1.36837276348284,103.751668209558,103.751668209558,658267,PAVILION CIRCLE,PAVILION PARK,18913.2940754043,38933.378170155
253 PAVILION CIRCLE PAVILION PARK SINGAPORE 658268,253,PAVILION PARK,1.36798565378537,103.751552798175,103.751552798175,658268,PAVILION CIRCLE,PAVILION PARK,18900.4487063307,38890.5739442799
255 PAVILION CIRCLE PAVILION PARK SINGAPORE 658269,255,PAVILION PARK,1.36801687463267,103.751505114365,103.751505114365,658269,PAVILION CIRCLE,PAVILION PARK,18895.1421839613,38894.0263710395
257 PAVILION CIRCLE PAVILION PARK SINGAPORE 658270,257,PAVILION PARK,1.36807209085458,103.751472781576,103.751472781576,658270,PAVILION CIRCLE,PAVILION PARK,18891.5441379324,38900.1320287157
259 PAVILION CIRCLE PAVILION PARK SINGAPORE 658271,259,PAVILION PARK,1.36811437094633,103.751430256007,103.751430256007,658271,PAVILION CIRCLE,PAVILION PARK,18886.8117084103,38904.8073122837
261 PAVILION CIRCLE PAVILION PARK SINGAPORE 658272,261,PAVILION PARK,1.36824964797862,103.751383759929,103.751383759929,658272,PAVILION CIRCLE,PAVILION PARK,18881.6377598094,38919.7657498363
263 PAVILION CIRCLE PAVILION PARK SINGAPORE 658273,263,PAVILION PARK,1.36829837657447,103.751362627436,103.751362627436,658273,PAVILION CIRCLE,PAVILION PARK,18879.2861493509,38925.1539957616
265 PAVILION CIRCLE PAVILION PARK SINGAPORE 658274,265,PAVILION PARK,1.36834909654475,103.751340631342,103.751340631342,658274,PAVILION CIRCLE,PAVILION PARK,18876.8384380434,38930.7624412701
267 PAVILION CIRCLE PAVILION PARK SINGAPORE 658275,267,PAVILION PARK,1.36839782514007,103.751319498575,103.751319498575,658275,PAVILION CIRCLE,PAVILION PARK,18874.4867973169,38936.1506871954
269 PAVILION CIRCLE PAVILION PARK SINGAPORE 658276,269,PAVILION PARK,1.3684485453835,103.75129750248,103.75129750248,658276,PAVILION CIRCLE,PAVILION PARK,18872.0390860094,38941.7591629699
271 PAVILION CIRCLE PAVILION PARK SINGAPORE 658277,271,PAVILION PARK,1.3684972739783,103.751276369983,103.751276369983,658277,PAVILION CIRCLE,PAVILION PARK,18869.68747555,38947.1474088952
273 PAVILION CIRCLE PAVILION PARK SINGAPORE 658278,273,PAVILION PARK,1.36854799394744,103.751254373613,103.751254373613,658278,PAVILION CIRCLE,PAVILION PARK,18867.2397339754,38952.7558544017
275 PAVILION CIRCLE PAVILION PARK SINGAPORE 658279,275,PAVILION PARK,1.36859672254173,103.751233241387,103.751233241387,658279,PAVILION CIRCLE,PAVILION PARK,18864.888153784,38958.144100327
277 PAVILION CIRCLE PAVILION PARK SINGAPORE 658280,277,PAVILION PARK,1.368681111935,103.751196711775,103.751196711775,658280,PAVILION CIRCLE,PAVILION PARK,18860.8231635708,38967.4755986352
279 PAVILION CIRCLE PAVILION PARK SINGAPORE 658281,279,PAVILION PARK,1.36872980713426,103.75117561028,103.75117561028,658281,PAVILION CIRCLE,PAVILION PARK,18858.4750036625,38972.8601518665
281 PAVILION CIRCLE PAVILION PARK SINGAPORE 658282,281,PAVILION PARK,1.36878062537219,103.751153616895,103.751153616895,658282,PAVILION CIRCLE,PAVILION PARK,18856.0275950348,38978.4794635791
283 PAVILION CIRCLE PAVILION PARK SINGAPORE 658283,283,PAVILION PARK,1.36882938188437,103.751132438154,103.751132438154,658283,PAVILION CIRCLE,PAVILION PARK,18853.6708390182,38983.8707968388
285 PAVILION CIRCLE PAVILION PARK SINGAPORE 658284,285,PAVILION PARK,1.36905258585436,103.751052606419,103.751052606419,658284,PAVILION CIRCLE,PAVILION PARK,18844.7873674054,39008.5518858545
287 PAVILION CIRCLE PAVILION PARK SINGAPORE 658285,287,PAVILION PARK,1.36910360032882,103.751037723633,103.751037723633,658285,PAVILION CIRCLE,PAVILION PARK,18843.1312849447,39014.1928694434
1 PAVILION GREEN PAVILION PARK SINGAPORE 658286,1,PAVILION PARK,1.36893157314574,103.751420224364,103.751420224364,658286,PAVILION GREEN,PAVILION PARK,18885.6983914329,38995.1695022136
2 PAVILION GREEN PAVILION PARK SINGAPORE 658287,2,PAVILION PARK,1.36858496549346,103.751592770173,103.751592770173,658287,PAVILION GREEN,PAVILION PARK,18904.8993711919,38956.8426980991
3 PAVILION GREEN PAVILION PARK SINGAPORE 658288,3,PAVILION PARK,1.3689283512384,103.751489736259,103.751489736259,658288,PAVILION GREEN,PAVILION PARK,18893.4342221757,38994.8129756339
4 PAVILION GREEN PAVILION PARK SINGAPORE 658289,4,PAVILION PARK,1.36859249890408,103.751649155457,103.751649155457,658289,PAVILION GREEN,PAVILION PARK,18911.1744085047,38957.6754914038
5 PAVILION GREEN PAVILION PARK SINGAPORE 658290,5,PAVILION PARK,1.36893101138676,103.751545993069,103.751545993069,658290,PAVILION GREEN,PAVILION PARK,18899.6949427314,38995.1069080234
6 PAVILION GREEN PAVILION PARK SINGAPORE 658291,6,PAVILION PARK,1.36859503938161,103.75170408392,103.75170408392,658291,PAVILION GREEN,PAVILION PARK,18917.2873002281,38957.9561966844
7 PAVILION GREEN PAVILION PARK SINGAPORE 658292,7,PAVILION PARK,1.36893354163281,103.751597824518,103.751597824518,658292,PAVILION GREEN,PAVILION PARK,18905.4631729247,38995.3864933886
8 PAVILION GREEN PAVILION PARK SINGAPORE 658293,8,PAVILION PARK,1.36859748041914,103.751756855595,103.751756855595,658293,PAVILION GREEN,PAVILION PARK,18923.160166841,38958.2259146869
9 PAVILION GREEN PAVILION PARK SINGAPORE 658294,9,PAVILION PARK,1.36893788678974,103.751691495757,103.751691495757,658294,PAVILION GREEN,PAVILION PARK,18915.8876783932,38995.8666041456
10 PAVILION GREEN PAVILION PARK SINGAPORE 658295,10,PAVILION PARK,1.3686000208942,103.751811784059,103.751811784059,658295,PAVILION GREEN,PAVILION PARK,18929.2730585644,38958.5066199675
11 PAVILION GREEN PAVILION PARK SINGAPORE 658296,11,PAVILION PARK,1.36894003680094,103.751742825691,103.751742825691,658296,PAVILION GREEN,PAVILION PARK,18921.6000944236,38996.1041472834
12 PAVILION GREEN PAVILION PARK SINGAPORE 658297,12,PAVILION PARK,1.3686024613819,103.751864555463,103.751864555463,658297,PAVILION GREEN,PAVILION PARK,18935.1458949093,38958.7762774359
13 PAVILION GREEN PAVILION PARK SINGAPORE 658298,13,PAVILION PARK,1.36894272267507,103.751799107795,103.751799107795,658298,PAVILION GREEN,PAVILION PARK,18927.8636299027,38996.4009248633
14 PAVILION GREEN PAVILION PARK SINGAPORE 658299,14,PAVILION PARK,1.36860500185448,103.751919483927,103.751919483927,658299,PAVILION GREEN,PAVILION PARK,18941.2587866327,38959.0569827165
15 PAVILION GREEN PAVILION PARK SINGAPORE 658300,15,PAVILION PARK,1.36894505663418,103.751850494838,103.751850494838,658300,PAVILION GREEN,PAVILION PARK,18933.5824022098,38996.6588080842
16 PAVILION GREEN PAVILION PARK SINGAPORE 658301,16,PAVILION PARK,1.36860744288728,103.751972255603,103.751972255603,658301,PAVILION GREEN,PAVILION PARK,18947.1316532455,38959.3267007191
17 PAVILION GREEN PAVILION PARK SINGAPORE 658302,17,PAVILION PARK,1.36894764806721,103.751906751924,103.751906751924,658302,PAVILION GREEN,PAVILION PARK,18939.8431530343,38996.9451432098
18 PAVILION GREEN PAVILION PARK SINGAPORE 658303,18,PAVILION PARK,1.36861232525138,103.752078629035,103.752078629035,658303,PAVILION GREEN,PAVILION PARK,18958.9697643565,38959.8661669921
19 PAVILION GREEN PAVILION PARK SINGAPORE 658304,19,PAVILION PARK,1.36894998914346,103.751958209138,103.751958209138,658304,PAVILION GREEN,PAVILION PARK,18945.5697344812,38997.2038133983
20 PAVILION GREEN PAVILION PARK SINGAPORE 658305,20,PAVILION PARK,1.36861475779506,103.752131402888,103.752131402888,658305,PAVILION GREEN,PAVILION PARK,18964.8428731132,38960.134946689
21 PAVILION GREEN PAVILION PARK SINGAPORE 658306,21,PAVILION PARK,1.36895262190982,103.752014531498,103.752014531498,658306,PAVILION GREEN,PAVILION PARK,18951.8377496218,38997.4947189912
22 PAVILION GREEN PAVILION PARK SINGAPORE 658307,22,PAVILION PARK,1.36861729826155,103.752186331353,103.752186331353,658307,PAVILION GREEN,PAVILION PARK,18970.9557648366,38960.4156519696
23 PAVILION GREEN PAVILION PARK SINGAPORE 658308,23,PAVILION PARK,1.36895512612382,103.752065855709,103.752065855709,658308,PAVILION GREEN,PAVILION PARK,18957.5495300246,38997.771428898
24 PAVILION GREEN PAVILION PARK SINGAPORE 658309,24,PAVILION PARK,1.36861973901471,103.752239102758,103.752239102758,658309,PAVILION GREEN,PAVILION PARK,18976.8286011815,38960.6853397042
25 PAVILION GREEN PAVILION PARK SINGAPORE 658310,25,PAVILION PARK,1.36895901431349,103.752156904547,103.752156904547,658310,PAVILION GREEN,PAVILION PARK,18967.6821915936,38998.2010223903
26 PAVILION GREEN PAVILION PARK SINGAPORE 658311,26,PAVILION PARK,1.36862227947871,103.752294031223,103.752294031223,658311,PAVILION GREEN,PAVILION PARK,18982.9414929049,38960.9660449848
27 PAVILION GREEN PAVILION PARK SINGAPORE 658312,27,PAVILION PARK,1.3689640728244,103.7522112082,103.7522112082,658312,PAVILION GREEN,PAVILION PARK,18973.7255577585,38998.7601628546
28 PAVILION GREEN PAVILION PARK SINGAPORE 658313,28,PAVILION PARK,1.36862472050325,103.7523468029,103.7523468029,658313,PAVILION GREEN,PAVILION PARK,18988.8143595178,38961.2357629873
29 PAVILION GREEN PAVILION PARK SINGAPORE 658314,29,PAVILION PARK,1.36896583647175,103.752267172938,103.752267172938,658314,PAVILION GREEN,PAVILION PARK,18979.9537705006,38998.9549675975
30 PAVILION GREEN PAVILION PARK SINGAPORE 658315,30,PAVILION PARK,1.36862726096481,103.752401731366,103.752401731366,658315,PAVILION GREEN,PAVILION PARK,18994.9272512412,38961.5164682698
31 PAVILION GREEN PAVILION PARK SINGAPORE 658316,31,PAVILION PARK,1.36896934391661,103.752318686142,103.752318686142,658316,PAVILION GREEN,PAVILION PARK,18985.6865871521,38999.3426096644
32 PAVILION GREEN PAVILION PARK SINGAPORE 658317,32,PAVILION PARK,1.36862970143951,103.752454502772,103.752454502772,658317,PAVILION GREEN,PAVILION PARK,19000.800087586,38961.7861257363
33 PAVILION GREEN PAVILION PARK SINGAPORE 658318,33,PAVILION PARK,1.36897098027745,103.752374699297,103.752374699297,658318,PAVILION GREEN,PAVILION PARK,18991.9201875953,38999.5233397949
34 PAVILION GREEN PAVILION PARK SINGAPORE 658319,34,PAVILION PARK,1.36863224189856,103.752509431238,103.752509431238,658319,PAVILION GREEN,PAVILION PARK,19006.9129793094,38962.0668310169
35 PAVILION GREEN PAVILION PARK SINGAPORE 658320,35,PAVILION PARK,1.36897390357272,103.752426154044,103.752426154044,658320,PAVILION GREEN,PAVILION PARK,18997.6464966303,38999.8463899847
36 PAVILION GREEN PAVILION PARK SINGAPORE 658321,36,PAVILION PARK,1.36863468291838,103.752562203188,103.752562203188,658321,PAVILION GREEN,PAVILION PARK,19012.7858761903,38962.3365490194
37 PAVILION GREEN PAVILION PARK SINGAPORE 658322,37,PAVILION PARK,1.36897638713301,103.752482157108,103.752482157108,658322,PAVILION GREEN,PAVILION PARK,19003.8789771581,39000.1207995266
38 PAVILION GREEN PAVILION PARK SINGAPORE 658323,38,PAVILION PARK,1.36863419966287,103.752663806296,103.752663806296,658323,PAVILION GREEN,PAVILION PARK,19024.0930868676,38962.2827325445
39 PAVILION GREEN PAVILION PARK SINGAPORE 658324,39,PAVILION PARK,1.36897933451345,103.75253358221,103.75253358221,658324,PAVILION GREEN,PAVILION PARK,19009.6019869829,39000.4465132989
40 PAVILION GREEN PAVILION PARK SINGAPORE 658325,40,PAVILION PARK,1.36863875706098,103.752721168089,103.752721168089,658325,PAVILION GREEN,PAVILION PARK,19030.4767862419,38962.7864523306
41 PAVILION GREEN PAVILION PARK SINGAPORE 658326,41,PAVILION PARK,1.36898122106185,103.752589625547,103.752589625547,658326,PAVILION GREEN,PAVILION PARK,19015.8389471723,39000.6549083665
42 PAVILION GREEN PAVILION PARK SINGAPORE 658327,42,PAVILION PARK,1.36864130053583,103.752776417219,103.752776417219,658327,PAVILION GREEN,PAVILION PARK,19036.625363918,38963.0674905591
43 PAVILION GREEN PAVILION PARK SINGAPORE 658328,43,PAVILION PARK,1.36898248532614,103.752643050565,103.752643050565,658328,PAVILION GREEN,PAVILION PARK,19021.7845174819,39000.7945043072
44 PAVILION GREEN PAVILION PARK SINGAPORE 658329,44,PAVILION PARK,1.36864375276265,103.752828888905,103.752828888905,658329,PAVILION GREEN,PAVILION PARK,19042.4648449449,38963.3384495489
45 PAVILION GREEN PAVILION PARK SINGAPORE 658330,45,PAVILION PARK,1.36898877410249,103.752733331258,103.752733331258,658330,PAVILION GREEN,PAVILION PARK,19031.831702265,39001.4895480182
46 PAVILION GREEN PAVILION PARK SINGAPORE 658331,46,PAVILION PARK,1.36864634550657,103.752884129874,103.752884129874,658331,PAVILION GREEN,PAVILION PARK,19048.6125145815,38963.6249360144
47 PAVILION GREEN PAVILION PARK SINGAPORE 658332,47,PAVILION PARK,1.36899346934219,103.752787189153,103.752787189153,658332,PAVILION GREEN,PAVILION PARK,19037.8254592046,39002.0085228663
48 PAVILION GREEN PAVILION PARK SINGAPORE 658333,48,PAVILION PARK,1.3686486931651,103.7529365983,103.7529365983,658333,PAVILION GREEN,PAVILION PARK,19054.4516323926,38963.8843326345
49 PAVILION GREEN PAVILION PARK SINGAPORE 658334,49,PAVILION PARK,1.36899580699272,103.752843137827,103.752843137827,658334,PAVILION GREEN,PAVILION PARK,19044.0518861348,39002.266799571
51 PAVILION GREEN PAVILION PARK SINGAPORE 658335,51,PAVILION PARK,1.36899874697816,103.752894666826,103.752894666826,658335,PAVILION GREEN,PAVILION PARK,19049.7864583302,39002.5916961078
53 PAVILION GREEN PAVILION PARK SINGAPORE 658336,53,PAVILION PARK,1.3690009576158,103.752950660381,103.752950660381,658336,PAVILION GREEN,PAVILION PARK,19056.0178794777,39002.8359284699
1 PAVILION PLACE PAVILION PARK SINGAPORE 658337,1,PAVILION PARK,1.37003601708731,103.751091000503,103.751091000503,658337,PAVILION PLACE,PAVILION PARK,18849.0639005564,39117.294672111
2 PAVILION PLACE PAVILION PARK SINGAPORE 658338,2,PAVILION PARK,1.36969817675605,103.75118937072,103.75118937072,658338,PAVILION PLACE,PAVILION PARK,18860.0100444565,39079.9375936594
3 PAVILION PLACE PAVILION PARK SINGAPORE 658339,3,PAVILION PARK,1.37003909235382,103.751143054163,103.751143054163,658339,PAVILION PLACE,PAVILION PARK,18854.8568596924,39117.6345210336
4 PAVILION PLACE PAVILION PARK SINGAPORE 658340,4,PAVILION PARK,1.36970116360125,103.751241334078,103.751241334078,658340,PAVILION PLACE,PAVILION PARK,18865.7929546218,39080.2676660232
5 PAVILION PLACE PAVILION PARK SINGAPORE 658341,5,PAVILION PARK,1.37004169256529,103.751199334935,103.751199334935,658341,PAVILION PLACE,PAVILION PARK,18861.1202438315,39117.9218247347
6 PAVILION PLACE PAVILION PARK SINGAPORE 658342,6,PAVILION PARK,1.36970312135983,103.751297620848,103.751297620848,658342,PAVILION PLACE,PAVILION PARK,18872.0570046557,39080.4839307666
7 PAVILION PLACE PAVILION PARK SINGAPORE 658343,7,PAVILION PARK,1.37004451241665,103.751250799769,103.751250799769,658343,PAVILION PLACE,PAVILION PARK,18866.8476727819,39118.2334336266
8 PAVILION PLACE PAVILION PARK SINGAPORE 658344,8,PAVILION PARK,1.36970571510391,103.751349037543,103.751349037543,658344,PAVILION PLACE,PAVILION PARK,18877.7790761739,39080.770538304
9 PAVILION PLACE PAVILION PARK SINGAPORE 658345,9,PAVILION PARK,1.37004683697603,103.751307054984,103.751307054984,658345,PAVILION PLACE,PAVILION PARK,18873.1082117306,39118.4902574681
10 PAVILION PLACE PAVILION PARK SINGAPORE 658346,10,PAVILION PARK,1.36970824660482,103.751405365906,103.751405365906,658346,PAVILION PLACE,PAVILION PARK,18884.0477572093,39081.0502447411
11 PAVILION PLACE PAVILION PARK SINGAPORE 658347,11,PAVILION PARK,1.370049339568,103.751358488281,103.751358488281,658347,PAVILION PLACE,PAVILION PARK,18878.8321295949,39118.7667857688
12 PAVILION PLACE PAVILION PARK SINGAPORE 658348,12,PAVILION PARK,1.36971081299171,103.751457316497,103.751457316497,658348,PAVILION PLACE,PAVILION PARK,18889.8292447794,39081.3338254821
13 PAVILION PLACE PAVILION PARK SINGAPORE 658349,13,PAVILION PARK,1.37005208102193,103.751414813925,103.751414813925,658349,PAVILION PLACE,PAVILION PARK,18885.1005079513,39119.0697077494
14 PAVILION PLACE PAVILION PARK SINGAPORE 658350,14,PAVILION PARK,1.36971344087124,103.751562260258,103.751562260258,658350,PAVILION PLACE,PAVILION PARK,18901.5082371002,39081.6240046415
15 PAVILION PLACE PAVILION PARK SINGAPORE 658351,15,PAVILION PARK,1.37005454614704,103.751467318547,103.751467318547,658351,PAVILION PLACE,PAVILION PARK,18890.9436514033,39119.3420893345
16 PAVILION PLACE PAVILION PARK SINGAPORE 658352,16,PAVILION PARK,1.36971654181421,103.751613040235,103.751613040235,658352,PAVILION PLACE,PAVILION PARK,18907.1594512686,39081.9666987527
17 PAVILION PLACE PAVILION PARK SINGAPORE 658353,17,PAVILION PARK,1.37006210790534,103.751567865346,103.751567865346,658353,PAVILION PLACE,PAVILION PARK,18902.1333315,39120.1778489016
18 PAVILION PLACE PAVILION PARK SINGAPORE 658354,18,PAVILION PARK,1.36971800684662,103.751669361291,103.751669361291,658354,PAVILION PLACE,PAVILION PARK,18913.4273150684,39082.1284811255
19 PAVILION PLACE PAVILION PARK SINGAPORE 658355,19,PAVILION PARK,1.37006427794515,103.751620421655,103.751620421655,658355,PAVILION PLACE,PAVILION PARK,18907.9822258698,39120.4176016003
20 PAVILION PLACE PAVILION PARK SINGAPORE 658356,20,PAVILION PARK,1.36972131009545,103.751720717856,103.751720717856,658356,PAVILION PLACE,PAVILION PARK,18919.1426973622,39082.4935432766
21 PAVILION PLACE PAVILION PARK SINGAPORE 658357,21,PAVILION PARK,1.37006643223728,103.751676766087,103.751676766087,658357,PAVILION PLACE,PAVILION PARK,18914.2526927162,39120.6555987559
22 PAVILION PLACE PAVILION PARK SINGAPORE 658358,22,PAVILION PARK,1.3697233721347,103.751776999728,103.751776999728,658358,PAVILION PLACE,PAVILION PARK,18925.4062025724,39082.7213401236
23 PAVILION PLACE PAVILION PARK SINGAPORE 658359,23,PAVILION PARK,1.37006938593128,103.75172816374,103.75172816374,658359,PAVILION PLACE,PAVILION PARK,18919.9726454755,39120.9820086919
24 PAVILION PLACE PAVILION PARK SINGAPORE 658360,24,PAVILION PARK,1.36972602691012,103.751828394936,103.751828394936,658360,PAVILION PLACE,PAVILION PARK,18931.1258829199,39083.0146974213
25 PAVILION PLACE PAVILION PARK SINGAPORE 658361,25,PAVILION PARK,1.37007167598941,103.751784426302,103.751784426302,658361,PAVILION PLACE,PAVILION PARK,18926.2340016589,39121.2350187674
26 PAVILION PLACE PAVILION PARK SINGAPORE 658362,26,PAVILION PARK,1.36972826851974,103.751884804088,103.751884804088,658362,PAVILION PLACE,PAVILION PARK,18937.4035535464,39083.2623500638
27 PAVILION PLACE PAVILION PARK SINGAPORE 658363,27,PAVILION PARK,1.37007482102148,103.751835861753,103.751835861753,658363,PAVILION PLACE,PAVILION PARK,18931.9581616679,39121.5825860258
28 PAVILION PLACE PAVILION PARK SINGAPORE 658364,28,PAVILION PARK,1.36973187068072,103.751936185122,103.751936185122,658364,PAVILION PLACE,PAVILION PARK,18943.1216599587,39083.660464853
29 PAVILION PLACE PAVILION PARK SINGAPORE 658365,29,PAVILION PARK,1.37007692220252,103.751892150704,103.751892150704,658365,PAVILION PLACE,PAVILION PARK,18938.2224538457,39121.8147111926
30 PAVILION PLACE PAVILION PARK SINGAPORE 658366,30,PAVILION PARK,1.36973391163632,103.751992432726,103.751992432726,658366,PAVILION PLACE,PAVILION PARK,18949.381351403,39083.8859310634
31 PAVILION PLACE PAVILION PARK SINGAPORE 658367,31,PAVILION PARK,1.37007969331408,103.75194360004,103.75194360004,658367,PAVILION PLACE,PAVILION PARK,18943.9481575219,39122.1209323835
32 PAVILION PLACE PAVILION PARK SINGAPORE 658368,32,PAVILION PARK,1.36973597490554,103.752044838084,103.752044838084,658368,PAVILION PLACE,PAVILION PARK,18955.2134470418,39084.1138792504
33 PAVILION PLACE PAVILION PARK SINGAPORE 658369,33,PAVILION PARK,1.37008229159306,103.751999953161,103.751999953161,658369,PAVILION PLACE,PAVILION PARK,18950.2195929438,39122.4080242086
34 PAVILION PLACE PAVILION PARK SINGAPORE 658370,34,PAVILION PARK,1.36973498644266,103.752148731317,103.752148731317,658370,PAVILION PLACE,PAVILION PARK,18966.7755141417,39084.0041880775
35 PAVILION PLACE PAVILION PARK SINGAPORE 658371,35,PAVILION PARK,1.37008421959471,103.752051070711,103.752051070711,658371,PAVILION PLACE,PAVILION PARK,18955.9083696799,39122.6210200097
36 PAVILION PLACE PAVILION PARK SINGAPORE 658372,36,PAVILION PARK,1.36973744166539,103.75220031311,103.75220031311,658372,PAVILION PLACE,PAVILION PARK,18972.5159583259,39084.2754800152
37 PAVILION PLACE PAVILION PARK SINGAPORE 658373,37,PAVILION PARK,1.37009224784639,103.75215389233,103.75215389233,658373,PAVILION PLACE,PAVILION PARK,18967.3512111921,39123.508356221
38 PAVILION PLACE PAVILION PARK SINGAPORE 658374,38,PAVILION PARK,1.36973990087868,103.752256577291,103.752256577291,658374,PAVILION PLACE,PAVILION PARK,18978.7774961172,39084.5471957047
39 PAVILION PLACE PAVILION PARK SINGAPORE 658375,39,PAVILION PARK,1.3700958453553,103.752205470285,103.752205470285,658375,PAVILION PLACE,PAVILION PARK,18973.0912316246,39123.9059564546
40 PAVILION PLACE PAVILION PARK SINGAPORE 658376,40,PAVILION PARK,1.3697422225105,103.752307949666,103.752307949666,658376,PAVILION PLACE,PAVILION PARK,18984.494633954,39084.8037168663
41 PAVILION PLACE PAVILION PARK SINGAPORE 658377,41,PAVILION PARK,1.37009747434252,103.752261863421,103.752261863421,658377,PAVILION PLACE,PAVILION PARK,18979.3671164401,39124.0858693514
42 PAVILION PLACE PAVILION PARK SINGAPORE 658378,42,PAVILION PARK,1.36974523821783,103.752364163513,103.752364163513,658378,PAVILION PLACE,PAVILION PARK,18990.7505721683,39085.1369673666
43 PAVILION PLACE PAVILION PARK SINGAPORE 658379,43,PAVILION PARK,1.37010017208189,103.752313197441,103.752313197441,658379,PAVILION PLACE,PAVILION PARK,18985.0799864912,39124.3839787226
44 PAVILION PLACE PAVILION PARK SINGAPORE 658380,44,PAVILION PARK,1.3697469267053,103.752415575618,103.752415575618,658380,PAVILION PLACE,PAVILION PARK,18996.4721291307,39085.3234786838
45 PAVILION PLACE PAVILION PARK SINGAPORE 658381,45,PAVILION PARK,1.37010265867023,103.752369577222,103.752369577222,658381,PAVILION PLACE,PAVILION PARK,18991.3543881755,39124.6587212104
46 PAVILION PLACE PAVILION PARK SINGAPORE 658382,46,PAVILION PARK,1.36975014032322,103.752471920553,103.752471920553,658382,PAVILION PLACE,PAVILION PARK,19002.7426565131,39085.6786129363
47 PAVILION PLACE PAVILION PARK SINGAPORE 658383,47,PAVILION PARK,1.37010494115657,103.752420957765,103.752420957765,658383,PAVILION PLACE,PAVILION PARK,18997.072434051,39124.9109140504
48 PAVILION PLACE PAVILION PARK SINGAPORE 658384,48,PAVILION PARK,1.3697528032958,103.752523319298,103.752523319298,658384,PAVILION PLACE,PAVILION PARK,19008.4627303444,39085.9728782736
49 PAVILION PLACE PAVILION PARK SINGAPORE 658385,49,PAVILION PARK,1.37010782355897,103.752477317406,103.752477317406,658385,PAVILION PLACE,PAVILION PARK,19003.3445959054,39125.2294240426
50 PAVILION PLACE PAVILION PARK SINGAPORE 658386,50,PAVILION PARK,1.36975574974293,103.75257950867,103.75257950867,658386,PAVILION PLACE,PAVILION PARK,19014.7159444401,39086.298470974
51 PAVILION PLACE PAVILION PARK SINGAPORE 658387,51,PAVILION PARK,1.37010924543011,103.752528764341,103.752528764341,658387,PAVILION PLACE,PAVILION PARK,19009.0700271688,39125.3864543438
52 PAVILION PLACE PAVILION PARK SINGAPORE 658388,52,PAVILION PARK,1.36975714424755,103.752631232202,103.752631232202,658388,PAVILION PLACE,PAVILION PARK,19020.4721582439,39086.4524744749
53 PAVILION PLACE PAVILION PARK SINGAPORE 658389,53,PAVILION PARK,1.37011284117481,103.752585059227,103.752585059227,658389,PAVILION PLACE,PAVILION PARK,19015.3349852432,39125.7838427015
54 PAVILION PLACE PAVILION PARK SINGAPORE 658390,54,PAVILION PARK,1.36976444111717,103.752735741736,103.752735741736,658390,PAVILION PLACE,PAVILION PARK,19032.1028428627,39087.2589346338
55 PAVILION PLACE PAVILION PARK SINGAPORE 658391,55,PAVILION PARK,1.37011535614475,103.752639073335,103.752639073335,658391,PAVILION PLACE,PAVILION PARK,19021.3461160054,39126.0617330596
56 PAVILION PLACE PAVILION PARK SINGAPORE 658392,56,PAVILION PARK,1.36976712981048,103.752787008028,103.752787008028,658392,PAVILION PLACE,PAVILION PARK,19037.8081761859,39087.5560451616
57 PAVILION PLACE PAVILION PARK SINGAPORE 658393,57,PAVILION PARK,1.37012043289322,103.752739133112,103.752739133112,658393,PAVILION PLACE,PAVILION PARK,19032.4815861434,39126.622719869
58 PAVILION PLACE PAVILION PARK SINGAPORE 658394,58,PAVILION PARK,1.36976920824845,103.752843285551,103.752843285551,658394,PAVILION PLACE,PAVILION PARK,19044.0711971084,39087.7856580857
59 PAVILION PLACE PAVILION PARK SINGAPORE 658395,59,PAVILION PARK,1.37012396496511,103.752790640629,103.752790640629,658395,PAVILION PLACE,PAVILION PARK,19038.2137671672,39127.0130860563
60 PAVILION PLACE PAVILION PARK SINGAPORE 658396,60,PAVILION PARK,1.36977192020976,103.752894641052,103.752894641052,658396,PAVILION PLACE,PAVILION PARK,19049.7864583302,39088.0853413939
61 PAVILION PLACE PAVILION PARK SINGAPORE 658397,61,PAVILION PARK,1.37012568810238,103.752847029683,103.752847029683,658397,PAVILION PLACE,PAVILION PARK,19044.4891979638,39127.2034111377
63 PAVILION PLACE PAVILION PARK SINGAPORE 658398,63,PAVILION PARK,1.37012829221276,103.752898366157,103.752898366157,658398,PAVILION PLACE,PAVILION PARK,19050.2023404259,39127.4911688585
32 PAVILION RISE PAVILION PARK SINGAPORE 658399,32,PAVILION PARK,1.37029544393051,103.752170726968,103.752170726968,658399,PAVILION RISE,PAVILION PARK,18969.22546528,39145.9767042864
34 PAVILION RISE PAVILION PARK SINGAPORE 658400,34,PAVILION PARK,1.37029871218879,103.752223764921,103.752223764921,658400,PAVILION RISE,PAVILION PARK,18975.1279642489,39146.3378921356
36 PAVILION RISE PAVILION PARK SINGAPORE 658401,36,PAVILION PARK,1.3703013137471,103.752280141982,103.752280141982,658401,PAVILION RISE,PAVILION PARK,18981.4020632533,39146.6253471766
38 PAVILION RISE PAVILION PARK SINGAPORE 658402,38,PAVILION PARK,1.37030391458744,103.752331546997,103.752331546997,658402,PAVILION RISE,PAVILION PARK,18987.1228332482,39146.9127416834
40 PAVILION RISE PAVILION PARK SINGAPORE 658403,40,PAVILION PARK,1.37030582469629,103.752387969502,103.752387969502,658403,PAVILION RISE,PAVILION PARK,18993.401987006,39147.1237397976
42 PAVILION RISE PAVILION PARK SINGAPORE 658404,42,PAVILION PARK,1.37030925850088,103.752439327165,103.752439327165,658404,PAVILION RISE,PAVILION PARK,18999.1174903717,39147.5032397769
44 PAVILION RISE PAVILION PARK SINGAPORE 658405,44,PAVILION PARK,1.37031078264454,103.752495757298,103.752495757298,658405,PAVILION RISE,PAVILION PARK,19005.397491633,39147.6715600342
46 PAVILION RISE PAVILION PARK SINGAPORE 658406,46,PAVILION PARK,1.37031461773749,103.752547077687,103.752547077687,658406,PAVILION RISE,PAVILION PARK,19011.1088482849,39148.0954328794
48 PAVILION RISE PAVILION PARK SINGAPORE 658407,48,PAVILION PARK,1.37031532287087,103.752603510024,103.752603510024,658407,PAVILION RISE,PAVILION PARK,19017.3890916901,39148.1731913295
50 PAVILION RISE PAVILION PARK SINGAPORE 658408,50,PAVILION PARK,1.37031962608216,103.752655951223,103.752655951223,658408,PAVILION RISE,PAVILION PARK,19023.2251827028,39148.6488224249
52 PAVILION RISE PAVILION PARK SINGAPORE 658409,52,PAVILION PARK,1.37032354485334,103.752745314388,103.752745314388,658409,PAVILION RISE,PAVILION PARK,19033.1702433089,39149.0818059314
54 PAVILION RISE PAVILION PARK SINGAPORE 658410,54,PAVILION PARK,1.37032682048972,103.752798352887,103.752798352887,658410,PAVILION RISE,PAVILION PARK,19039.0728028128,39149.443811018
56 PAVILION RISE PAVILION PARK SINGAPORE 658411,56,PAVILION PARK,1.37032941464369,103.752854729406,103.752854729406,658411,PAVILION RISE,PAVILION PARK,19045.3468412822,39149.7304488234
58 PAVILION RISE PAVILION PARK SINGAPORE 658412,58,PAVILION PARK,1.37033201163948,103.752906135783,103.752906135783,658412,PAVILION RISE,PAVILION PARK,19051.0677626161,39150.0174195766
60 PAVILION RISE PAVILION PARK SINGAPORE 658413,60,PAVILION PARK,1.3703339225559,103.752962556658,103.752962556658,658413,PAVILION RISE,PAVILION PARK,19057.3467347668,39150.2285084948
62 PAVILION RISE PAVILION PARK SINGAPORE 658414,62,PAVILION PARK,1.37033734977865,103.753013915955,103.753013915955,658414,PAVILION RISE,PAVILION PARK,19063.0624197396,39150.6072820425
1 PAVILION VIEW PAVILION PARK SINGAPORE 658415,1,PAVILION PARK,1.36949474271547,103.751392712542,103.751392712542,658415,PAVILION VIEW,PAVILION PARK,18882.6387825673,39057.4420952145
2 PAVILION VIEW PAVILION PARK SINGAPORE 658416,2,PAVILION PARK,1.36913588997442,103.751351845774,103.751351845774,658416,PAVILION VIEW,PAVILION PARK,18878.0894440785,39017.762100352
3 PAVILION VIEW PAVILION PARK SINGAPORE 658417,3,PAVILION PARK,1.36949728345501,103.75144709326,103.75144709326,658417,PAVILION VIEW,PAVILION PARK,18888.6907145716,39057.7228307631
4 PAVILION VIEW PAVILION PARK SINGAPORE 658418,4,PAVILION PARK,1.36913851529327,103.751406095387,103.751406095387,658418,PAVILION VIEW,PAVILION PARK,18884.1267869147,39018.0521887075
5 PAVILION VIEW PAVILION PARK SINGAPORE 658419,5,PAVILION PARK,1.36950029082547,103.751499090884,103.751499090884,658419,PAVILION VIEW,PAVILION PARK,18894.4774385029,39058.0551732238
6 PAVILION VIEW PAVILION PARK SINGAPORE 658420,6,PAVILION PARK,1.36914093329858,103.751457529211,103.751457529211,658420,PAVILION VIEW,PAVILION PARK,18889.8507653158,39018.3193641994
7 PAVILION VIEW PAVILION PARK SINGAPORE 658421,7,PAVILION PARK,1.36950581204313,103.7515956905,103.7515956905,658421,PAVILION VIEW,PAVILION PARK,18905.2278393516,39058.6653152406
8 PAVILION VIEW PAVILION PARK SINGAPORE 658422,8,PAVILION PARK,1.36914353076437,103.751513818938,103.751513818938,658422,PAVILION VIEW,PAVILION PARK,18896.1151482975,39018.6063652206
9 PAVILION VIEW PAVILION PARK SINGAPORE 658423,9,PAVILION PARK,1.36950765413883,103.75164791989,103.75164791989,658423,PAVILION VIEW,PAVILION PARK,18911.0403516041,39058.8688068949
10 PAVILION VIEW PAVILION PARK SINGAPORE 658424,10,PAVILION PARK,1.36914575963231,103.751565664273,103.751565664273,658424,PAVILION VIEW,PAVILION PARK,18901.884922158,39018.8526255377
11 PAVILION VIEW PAVILION PARK SINGAPORE 658425,11,PAVILION PARK,1.36951026090883,103.751704246887,103.751704246887,658425,PAVILION VIEW,PAVILION PARK,18917.3088813005,39059.1568370275
12 PAVILION VIEW PAVILION PARK SINGAPORE 658426,12,PAVILION PARK,1.36915056010279,103.751670079754,103.751670079754,658426,PAVILION VIEW,PAVILION PARK,18913.5051340545,39019.3830416836
13 PAVILION VIEW PAVILION PARK SINGAPORE 658427,13,PAVILION PARK,1.36951274816187,103.751755661678,103.751755661678,658427,PAVILION VIEW,PAVILION PARK,18923.0307409419,39059.4316703193
14 PAVILION VIEW PAVILION PARK SINGAPORE 658428,14,PAVILION PARK,1.36915313439902,103.751721375952,103.751721375952,658428,PAVILION VIEW,PAVILION PARK,18919.2137968559,39019.6675001942
15 PAVILION VIEW PAVILION PARK SINGAPORE 658429,15,PAVILION PARK,1.3695155000047,103.751811903813,103.751811903813,658429,PAVILION VIEW,PAVILION PARK,18929.2898270274,39059.7357424833
16 PAVILION VIEW PAVILION PARK SINGAPORE 658430,16,PAVILION PARK,1.36915570612834,103.751777682815,103.751777682815,658430,PAVILION VIEW,PAVILION PARK,18925.4800867205,39019.9516560249
17 PAVILION VIEW PAVILION PARK SINGAPORE 658431,17,PAVILION PARK,1.369518193651,103.751863353955,103.751863353955,658431,PAVILION VIEW,PAVILION PARK,18935.0156215066,39060.0333978366
18 PAVILION VIEW PAVILION PARK SINGAPORE 658432,18,PAVILION PARK,1.36915814027561,103.751829108209,103.751829108209,658432,PAVILION VIEW,PAVILION PARK,18931.2031268142,39020.2206173297
19 PAVILION VIEW PAVILION PARK SINGAPORE 658433,19,PAVILION PARK,1.36952074758364,103.751919624927,103.751919624927,658433,PAVILION VIEW,PAVILION PARK,18941.2779159984,39060.3155862484
20 PAVILION VIEW PAVILION PARK SINGAPORE 658434,20,PAVILION PARK,1.36916068079582,103.751885383796,103.751885383796,658434,PAVILION VIEW,PAVILION PARK,18937.4659358608,39020.5013226103
21 PAVILION VIEW PAVILION PARK SINGAPORE 658435,21,PAVILION PARK,1.36952306539358,103.751971097657,103.751971097657,658435,PAVILION VIEW,PAVILION PARK,18947.0062227203,39060.5716836583
22 PAVILION VIEW PAVILION PARK SINGAPORE 658436,22,PAVILION PARK,1.36916308318723,103.7519367926,103.7519367926,658436,PAVILION VIEW,PAVILION PARK,18943.1871296074,39020.7667728271
23 PAVILION VIEW PAVILION PARK SINGAPORE 658437,23,PAVILION PARK,1.36952613147933,103.752027427903,103.752027427903,658437,PAVILION VIEW,PAVILION PARK,18953.2751156325,39060.9105034675
24 PAVILION VIEW PAVILION PARK SINGAPORE 658438,24,PAVILION PARK,1.36916564012953,103.751993087498,103.751993087498,658438,PAVILION VIEW,PAVILION PARK,18949.4520876808,39021.0492941868
25 PAVILION VIEW PAVILION PARK SINGAPORE 658439,25,PAVILION PARK,1.36952775674378,103.752078906096,103.752078906096,658439,PAVILION VIEW,PAVILION PARK,18959.004027714,39061.0900228787
26 PAVILION VIEW PAVILION PARK SINGAPORE 658440,26,PAVILION PARK,1.36916785966331,103.75204443892,103.75204443892,658440,PAVILION VIEW,PAVILION PARK,18955.1668948829,39021.2945253905
27 PAVILION VIEW PAVILION PARK SINGAPORE 658441,27,PAVILION PARK,1.36952425278839,103.752170011776,103.752170011776,658441,PAVILION VIEW,PAVILION PARK,18969.1429850245,39060.7022294719
28 PAVILION VIEW PAVILION PARK SINGAPORE 658442,28,PAVILION PARK,1.36917833123675,103.752146876928,103.752146876928,658442,PAVILION VIEW,PAVILION PARK,18966.5670585381,39022.4520336241
29 PAVILION VIEW PAVILION PARK SINGAPORE 658443,29,PAVILION PARK,1.36952655338887,103.752222690732,103.752222690732,658443,PAVILION VIEW,PAVILION PARK,18975.005530254,39060.9564199988
30 PAVILION VIEW PAVILION PARK SINGAPORE 658444,30,PAVILION PARK,1.36917926622596,103.752200743111,103.752200743111,658444,PAVILION VIEW,PAVILION PARK,18972.5617235173,39022.5552171804
31 PAVILION VIEW PAVILION PARK SINGAPORE 658445,31,PAVILION PARK,1.36952852289656,103.752279035703,103.752279035703,658445,PAVILION VIEW,PAVILION PARK,18981.2760576373,39061.1739862654
32 PAVILION VIEW PAVILION PARK SINGAPORE 658446,32,PAVILION PARK,1.36918178400898,103.75225676304,103.75225676304,658446,PAVILION VIEW,PAVILION PARK,18978.7960806591,39022.8334102202
33 PAVILION VIEW PAVILION PARK SINGAPORE 658447,33,PAVILION PARK,1.36953164081612,103.752330421645,103.752330421645,658447,PAVILION VIEW,PAVILION PARK,18986.9947088724,39061.5185569935
34 PAVILION VIEW PAVILION PARK SINGAPORE 658448,34,PAVILION PARK,1.36918417708686,103.752308211283,103.752308211283,658448,PAVILION VIEW,PAVILION PARK,18984.5216632634,39023.0978313256
35 PAVILION VIEW PAVILION PARK SINGAPORE 658449,35,PAVILION PARK,1.36953377182051,103.752386679578,103.752386679578,658449,PAVILION VIEW,PAVILION PARK,18993.2555505009,39061.7539813705
36 PAVILION VIEW PAVILION PARK SINGAPORE 658450,36,PAVILION PARK,1.36918728640186,103.752364186316,103.752364186316,658450,PAVILION VIEW,PAVILION PARK,18990.751026188,39023.4414334763
37 PAVILION VIEW PAVILION PARK SINGAPORE 658451,37,PAVILION PARK,1.36953707779318,103.752438099783,103.752438099783,658451,PAVILION VIEW,PAVILION PARK,18998.978015502,39062.1193462014
38 PAVILION VIEW PAVILION PARK SINGAPORE 658452,38,PAVILION PARK,1.36918965867481,103.752415665565,103.752415665565,658452,PAVILION VIEW,PAVILION PARK,18996.4800593425,39023.7035542149
39 PAVILION VIEW PAVILION PARK SINGAPORE 658453,39,PAVILION PARK,1.36953902731125,103.752494384376,103.752494384376,658453,PAVILION VIEW,PAVILION PARK,19005.2418233929,39062.3347029053
40 PAVILION VIEW PAVILION PARK SINGAPORE 658454,40,PAVILION PARK,1.36919190819388,103.752471656947,103.752471656947,658454,PAVILION VIEW,PAVILION PARK,19002.7112383461,39023.9520846289
41 PAVILION VIEW PAVILION PARK SINGAPORE 658455,41,PAVILION PARK,1.36954193992857,103.75254582309,103.75254582309,658455,PAVILION VIEW,PAVILION PARK,19010.9663466169,39062.6565726455
42 PAVILION VIEW PAVILION PARK SINGAPORE 658456,42,PAVILION PARK,1.36919488185663,103.75252318486,103.75252318486,658456,PAVILION VIEW,PAVILION PARK,19008.4456894696,39024.2807041295
43 PAVILION VIEW PAVILION PARK SINGAPORE 658457,43,PAVILION PARK,1.36954440077889,103.752602177293,103.752602177293,658457,PAVILION VIEW,PAVILION PARK,19017.2379031116,39062.9284699429
44 PAVILION VIEW PAVILION PARK SINGAPORE 658458,44,PAVILION PARK,1.36919725838359,103.752579131633,103.752579131633,658458,PAVILION VIEW,PAVILION PARK,19014.6719045239,39024.5432788879
45 PAVILION VIEW PAVILION PARK SINGAPORE 658459,45,PAVILION PARK,1.36954641991618,103.752653184406,103.752653184406,658459,PAVILION VIEW,PAVILION PARK,19022.9143910455,39063.1515449826
46 PAVILION VIEW PAVILION PARK SINGAPORE 658460,46,PAVILION PARK,1.3692019591025,103.75263301401,103.75263301401,658460,PAVILION VIEW,PAVILION PARK,19020.668385582,39025.0628590956
47 PAVILION VIEW PAVILION PARK SINGAPORE 658461,47,PAVILION PARK,1.36955235887914,103.752743937831,103.752743937831,658461,PAVILION VIEW,PAVILION PARK,19033.0141815841,39063.8079062086
48 PAVILION VIEW PAVILION PARK SINGAPORE 658462,48,PAVILION PARK,1.36920819323648,103.752734438772,103.752734438772,658462,PAVILION VIEW,PAVILION PARK,19031.95577073,39025.7518189419
49 PAVILION VIEW PAVILION PARK SINGAPORE 658463,49,PAVILION PARK,1.36955501943718,103.752796967631,103.752796967631,658463,PAVILION VIEW,PAVILION PARK,19038.9157725135,39064.1018991359
50 PAVILION VIEW PAVILION PARK SINGAPORE 658464,50,PAVILION PARK,1.36920944955923,103.752787852644,103.752787852644,658464,PAVILION VIEW,PAVILION PARK,19037.9001000524,39025.8905371111
51 PAVILION VIEW PAVILION PARK SINGAPORE 658465,51,PAVILION PARK,1.36955649621314,103.752853324315,103.752853324315,658465,PAVILION VIEW,PAVILION PARK,19045.1876014201,39064.2649830319
52 PAVILION VIEW PAVILION PARK SINGAPORE 658466,52,PAVILION PARK,1.3692113924908,103.752843893809,103.752843893809,658466,PAVILION VIEW,PAVILION PARK,19044.136818097,39026.1051673833
53 PAVILION VIEW PAVILION PARK SINGAPORE 658467,53,PAVILION PARK,1.36956009671048,103.75290469882,103.75290469882,658467,PAVILION VIEW,PAVILION PARK,19050.9049813999,39064.6629162133
54 PAVILION VIEW PAVILION PARK SINGAPORE 658468,54,PAVILION PARK,1.36921435519276,103.752895318101,103.752895318101,658468,PAVILION VIEW,PAVILION PARK,19049.8597371187,39026.4325761627
56 PAVILION VIEW PAVILION PARK SINGAPORE 658469,56,PAVILION PARK,1.36921689513118,103.752951318721,103.752951318721,658469,PAVILION VIEW,PAVILION PARK,19056.0919452338,39026.7132209092
58 PAVILION VIEW PAVILION PARK SINGAPORE 658470,58,PAVILION PARK,1.36921983483827,103.75300277266,103.75300277266,658470,PAVILION VIEW,PAVILION PARK,19061.8181634657,39027.038087178
1 PAVILION CIRCLE PAVILION PARK SINGAPORE 658471,1,PAVILION PARK,1.37102737896223,103.75112347987,103.75112347987,658471,PAVILION CIRCLE,PAVILION PARK,18852.6822261345,39226.9144126624
2 PAVILION CIRCLE PAVILION PARK SINGAPORE 658472,2,PAVILION PARK,1.37080757193789,103.751407455432,103.751407455432,658472,PAVILION CIRCLE,PAVILION PARK,18884.2844528416,39202.6081623565
3 PAVILION CIRCLE PAVILION PARK SINGAPORE 658473,3,PAVILION PARK,1.37106027256969,103.751162759585,103.751162759585,658473,PAVILION CIRCLE,PAVILION PARK,18857.0537099503,39230.5514741205
4 PAVILION CIRCLE PAVILION PARK SINGAPORE 658474,4,PAVILION PARK,1.37084494868278,103.751453245084,103.751453245084,658474,PAVILION CIRCLE,PAVILION PARK,18889.3804311166,39206.740922587
5 PAVILION CIRCLE PAVILION PARK SINGAPORE 658475,5,PAVILION PARK,1.37109679957865,103.751206382954,103.751206382954,658475,PAVILION CIRCLE,PAVILION PARK,18861.9086037353,39234.5902825277
6 PAVILION CIRCLE PAVILION PARK SINGAPORE 658476,6,PAVILION PARK,1.37115028911631,103.751707698809,103.751707698809,658476,PAVILION CIRCLE,PAVILION PARK,18917.699217218,39240.502981808
7 PAVILION CIRCLE PAVILION PARK SINGAPORE 658477,7,PAVILION PARK,1.37112970221718,103.751245638193,103.751245638193,658477,PAVILION CIRCLE,PAVILION PARK,18866.2773634326,39238.2283428311
8 PAVILION CIRCLE PAVILION PARK SINGAPORE 658478,8,PAVILION PARK,1.37139394235268,103.752021120278,103.752021120278,658478,PAVILION CIRCLE,PAVILION PARK,18952.5801627263,39267.4437574148
9 PAVILION CIRCLE PAVILION PARK SINGAPORE 658479,9,PAVILION PARK,1.37116622347586,103.751289246606,103.751289246606,658479,PAVILION CIRCLE,PAVILION PARK,18871.1305924784,39242.2665156107
10 PAVILION CIRCLE PAVILION PARK SINGAPORE 658480,10,PAVILION PARK,1.37143467275416,103.752063869385,103.752063869385,658480,PAVILION CIRCLE,PAVILION PARK,18957.3377752109,39271.9473609794
11 PAVILION CIRCLE PAVILION PARK SINGAPORE 658481,11,PAVILION PARK,1.37119912611394,103.751328524966,103.751328524966,658481,PAVILION CIRCLE,PAVILION PARK,18875.5019249544,39245.9045759141
12 PAVILION CIRCLE PAVILION PARK SINGAPORE 658482,12,PAVILION PARK,1.3719614091749,103.752368298216,103.752368298216,658482,PAVILION CIRCLE,PAVILION PARK,18991.2189994846,39330.1901048962
13 PAVILION CIRCLE PAVILION PARK SINGAPORE 658483,13,PAVILION PARK,1.37123564052877,103.751372158404,103.751372158404,658483,PAVILION CIRCLE,PAVILION PARK,18880.3579386538,39249.9419919942
14 PAVILION CIRCLE PAVILION PARK SINGAPORE 658484,14,PAVILION PARK,1.37200673718555,103.75240308282,103.75240308282,658484,PAVILION CIRCLE,PAVILION PARK,18995.0902746022,39335.2021197844
15 PAVILION CIRCLE PAVILION PARK SINGAPORE 658485,15,PAVILION PARK,1.371268565884,103.751411395696,103.751411395696,658485,PAVILION CIRCLE,PAVILION PARK,18884.7247006651,39253.5825645402
16 PAVILION CIRCLE PAVILION PARK SINGAPORE 658486,16,PAVILION PARK,1.37208969648914,103.752451321239,103.752451321239,658486,PAVILION CIRCLE,PAVILION PARK,19000.458937142,39344.375165198
17 PAVILION CIRCLE PAVILION PARK SINGAPORE 658487,17,PAVILION PARK,1.37134510511452,103.751476486377,103.751476486377,658487,PAVILION CIRCLE,PAVILION PARK,18891.9687977443,39262.0456441268
18 PAVILION CIRCLE PAVILION PARK SINGAPORE 658488,18,PAVILION PARK,1.37214377354565,103.752470213812,103.752470213812,658488,PAVILION CIRCLE,PAVILION PARK,19002.5616539707,39350.3546659164
19 PAVILION CIRCLE PAVILION PARK SINGAPORE 658489,19,PAVILION PARK,1.37138050847948,103.751513121022,103.751513121022,658489,PAVILION CIRCLE,PAVILION PARK,18896.0459254188,39265.9602327291
20 PAVILION CIRCLE PAVILION PARK SINGAPORE 658490,20,PAVILION PARK,1.37211071754815,103.752597489998,103.752597489998,658490,PAVILION CIRCLE,PAVILION PARK,19016.7258293629,39346.6990199164
21 PAVILION CIRCLE PAVILION PARK SINGAPORE 658491,21,PAVILION PARK,1.37142033358443,103.75155378815,103.75155378815,658491,PAVILION CIRCLE,PAVILION PARK,18900.5718364883,39270.3637400717
22 PAVILION CIRCLE PAVILION PARK SINGAPORE 658492,22,PAVILION PARK,1.37211310048035,103.752648528703,103.752648528703,658492,PAVILION CIRCLE,PAVILION PARK,19022.4058283828,39346.9623211063
23 PAVILION CIRCLE PAVILION PARK SINGAPORE 658493,23,PAVILION PARK,1.37145584727386,103.751590752975,103.751590752975,658493,PAVILION CIRCLE,PAVILION PARK,18904.6857094951,39274.2905266713
24 PAVILION CIRCLE PAVILION PARK SINGAPORE 658494,24,PAVILION PARK,1.37211861413745,103.752741309843,103.752741309843,658494,PAVILION CIRCLE,PAVILION PARK,19032.7312667407,39347.5716458857
25 PAVILION CIRCLE PAVILION PARK SINGAPORE 658495,25,PAVILION PARK,1.37149566307106,103.751631429625,103.751631429625,658495,PAVILION CIRCLE,PAVILION PARK,18909.212679944,39278.6930049043
26 PAVILION CIRCLE PAVILION PARK SINGAPORE 658496,26,PAVILION PARK,1.37212114953546,103.752792343648,103.752792343648,658496,PAVILION CIRCLE,PAVILION PARK,19038.4107209379,39347.8518063426
27 PAVILION CIRCLE PAVILION PARK SINGAPORE 658497,27,PAVILION PARK,1.37153117210623,103.751668403156,103.751668403156,658497,PAVILION CIRCLE,PAVILION PARK,18913.3275215263,39282.6192769464
28 PAVILION CIRCLE PAVILION PARK SINGAPORE 658498,28,PAVILION PARK,1.37210547299852,103.752901197015,103.752901197015,658498,PAVILION CIRCLE,PAVILION PARK,19050.524724721,39346.1179654319
29 PAVILION CIRCLE PAVILION PARK SINGAPORE 658499,29,PAVILION PARK,1.37157099775606,103.751709064034,103.751709064034,658499,PAVILION CIRCLE,PAVILION PARK,18917.8527364321,39287.0228448268
30 PAVILION CIRCLE PAVILION PARK SINGAPORE 658500,30,PAVILION PARK,1.37206833831617,103.752946109078,103.752946109078,658500,PAVILION CIRCLE,PAVILION PARK,19055.5227557998,39342.011629153
31 PAVILION CIRCLE PAVILION PARK SINGAPORE 658501,31,PAVILION PARK,1.37160650788454,103.751746022065,103.751746022065,658501,PAVILION CIRCLE,PAVILION PARK,18921.9658527393,39290.9492379427
32 PAVILION CIRCLE PAVILION PARK SINGAPORE 658502,32,PAVILION PARK,1.37202185369121,103.753029798058,103.753029798058,658502,PAVILION CIRCLE,PAVILION PARK,19064.8361538537,39336.871278014
33 PAVILION CIRCLE PAVILION PARK SINGAPORE 658503,33,PAVILION PARK,1.37164632997531,103.751786702256,103.751786702256,658503,PAVILION CIRCLE,PAVILION PARK,18926.493216672,39295.3524123374
34 PAVILION CIRCLE PAVILION PARK SINGAPORE 658504,34,PAVILION PARK,1.37200323876981,103.753086182667,103.753086182667,658504,PAVILION CIRCLE,PAVILION PARK,19071.1110095587,39334.8127221745
35 PAVILION CIRCLE PAVILION PARK SINGAPORE 658505,35,PAVILION PARK,1.37168216721593,103.751823742959,103.751823742959,658505,PAVILION CIRCLE,PAVILION PARK,18930.6155344462,39299.3149756938
37 PAVILION CIRCLE PAVILION PARK SINGAPORE 658506,37,PAVILION PARK,1.37180886073686,103.751886709444,103.751886709444,658506,PAVILION CIRCLE,PAVILION PARK,18937.6234201798,39313.3238763306
39 PAVILION CIRCLE PAVILION PARK SINGAPORE 658507,39,PAVILION PARK,1.37185415062902,103.751911276599,103.751911276599,658507,PAVILION CIRCLE,PAVILION PARK,18940.3576179529,39318.3317142352
41 PAVILION CIRCLE PAVILION PARK SINGAPORE 658508,41,PAVILION PARK,1.37190376479473,103.751939367642,103.751939367642,658508,PAVILION CIRCLE,PAVILION PARK,18943.4839979913,39323.8176954798
43 PAVILION CIRCLE PAVILION PARK SINGAPORE 658509,43,PAVILION PARK,1.37194888935064,103.751963896456,103.751963896456,658509,PAVILION CIRCLE,PAVILION PARK,18946.2139279787,39328.8072515242
45 PAVILION CIRCLE PAVILION PARK SINGAPORE 658510,45,PAVILION PARK,1.37199849667387,103.751992027482,103.751992027482,658510,PAVILION CIRCLE,PAVILION PARK,18949.3447574107,39334.2924760692
47 PAVILION CIRCLE PAVILION PARK SINGAPORE 658511,47,PAVILION PARK,1.37204366283542,103.752016519307,103.752016519307,658511,PAVILION CIRCLE,PAVILION PARK,18952.0705709523,39339.286632847
49 PAVILION CIRCLE PAVILION PARK SINGAPORE 658512,49,PAVILION PARK,1.3720932362166,103.752044688685,103.752044688685,658512,PAVILION CIRCLE,PAVILION PARK,18955.20566817,39344.7681041621
51 PAVILION CIRCLE PAVILION PARK SINGAPORE 658513,51,PAVILION PARK,1.37213837910914,103.752069143251,103.752069143251,658513,PAVILION CIRCLE,PAVILION PARK,18957.9273349978,39349.7596881613
53 PAVILION CIRCLE PAVILION PARK SINGAPORE 658514,53,PAVILION PARK,1.37218796206978,103.752097293865,103.752097293865,658514,PAVILION CIRCLE,PAVILION PARK,18961.0603437237,39355.2422188558
55 PAVILION CIRCLE PAVILION PARK SINGAPORE 658515,55,PAVILION PARK,1.37223294619356,103.752121648078,103.752121648078,658515,PAVILION CIRCLE,PAVILION PARK,18963.7708416665,39360.2162474245
57 PAVILION CIRCLE PAVILION PARK SINGAPORE 658516,57,PAVILION PARK,1.37232271155488,103.752168899522,103.752168899522,658516,PAVILION CIRCLE,PAVILION PARK,18969.0296919607,39370.1418759841
59 PAVILION CIRCLE PAVILION PARK SINGAPORE 658517,59,PAVILION PARK,1.37236442012227,103.752199162595,103.752199162595,658517,PAVILION CIRCLE,PAVILION PARK,18972.3977618488,39374.7536875922
61 PAVILION CIRCLE PAVILION PARK SINGAPORE 658518,61,PAVILION PARK,1.37241073680459,103.75223240015,103.75223240015,658518,PAVILION CIRCLE,PAVILION PARK,18976.0968726752,39379.8750304356
63 PAVILION CIRCLE PAVILION PARK SINGAPORE 658519,63,PAVILION PARK,1.37245244344279,103.752262300949,103.752262300949,658519,PAVILION CIRCLE,PAVILION PARK,18979.4246256091,39384.4866301678
65 PAVILION CIRCLE PAVILION PARK SINGAPORE 658520,65,PAVILION PARK,1.37249870072506,103.752295558363,103.752295558363,658520,PAVILION CIRCLE,PAVILION PARK,18983.1259459984,39389.6014048606
67 PAVILION CIRCLE PAVILION PARK SINGAPORE 658521,67,PAVILION PARK,1.37254008189624,103.752325508947,103.752325508947,658521,PAVILION CIRCLE,PAVILION PARK,18986.4592379732,39394.1770159584
69 PAVILION CIRCLE PAVILION PARK SINGAPORE 658522,69,PAVILION PARK,1.37247656441669,103.752557864238,103.752557864238,658522,PAVILION CIRCLE,PAVILION PARK,19012.3173278021,39387.1526947096
71 PAVILION CIRCLE PAVILION PARK SINGAPORE 658523,71,PAVILION PARK,1.3724789169659,103.752608902952,103.752608902952,658523,PAVILION CIRCLE,PAVILION PARK,19017.997326823,39387.4126361534
73 PAVILION CIRCLE PAVILION PARK SINGAPORE 658524,73,PAVILION PARK,1.37248247175565,103.752700518469,103.752700518469,658524,PAVILION CIRCLE,PAVILION PARK,19028.1930366019,39387.8053632416
75 PAVILION CIRCLE PAVILION PARK SINGAPORE 658525,75,PAVILION PARK,1.37248549959918,103.752751532139,103.752751532139,658525,PAVILION CIRCLE,PAVILION PARK,19033.8702509683,39388.139975803
77 PAVILION CIRCLE PAVILION PARK SINGAPORE 658526,77,PAVILION PARK,1.37248942563298,103.752845160834,103.752845160834,658526,PAVILION CIRCLE,PAVILION PARK,19044.2900043624,39388.573746277
79 PAVILION CIRCLE PAVILION PARK SINGAPORE 658527,79,PAVILION PARK,1.37249175052918,103.752896203085,103.752896203085,658527,PAVILION CIRCLE,PAVILION PARK,19049.970396867,39388.8306306545
81 PAVILION CIRCLE PAVILION PARK SINGAPORE 658528,81,PAVILION PARK,1.37243855962725,103.753009153998,103.753009153998,658528,PAVILION CIRCLE,PAVILION PARK,19062.5402667532,39382.9486231115
83 PAVILION CIRCLE PAVILION PARK SINGAPORE 658529,83,PAVILION PARK,1.37241197440192,103.753056422414,103.753056422414,658529,PAVILION CIRCLE,PAVILION PARK,19067.8005699115,39380.0087846573
85 PAVILION CIRCLE PAVILION PARK SINGAPORE 658530,85,PAVILION PARK,1.37238632005993,103.753101318052,103.753101318052,658530,PAVILION CIRCLE,PAVILION PARK,19072.7968151793,39377.1718876138
87 PAVILION CIRCLE PAVILION PARK SINGAPORE 658531,87,PAVILION PARK,1.37235836376853,103.753150432978,103.753150432978,658531,PAVILION CIRCLE,PAVILION PARK,19078.2626076788,39374.0804368295
89 PAVILION CIRCLE PAVILION PARK SINGAPORE 658532,89,PAVILION PARK,1.37233322621628,103.753194871128,103.753194871128,658532,PAVILION CIRCLE,PAVILION PARK,19083.207942199,39371.300685741
91 PAVILION CIRCLE PAVILION PARK SINGAPORE 658533,91,PAVILION PARK,1.37230500659302,103.753244013531,103.753244013531,658533,PAVILION CIRCLE,PAVILION PARK,19088.6767917648,39368.1801171564
93 PAVILION CIRCLE PAVILION PARK SINGAPORE 658534,93,PAVILION PARK,1.37227941574764,103.753288745159,103.753288745159,658534,PAVILION CIRCLE,PAVILION PARK,19093.6547854384,39365.3502422869
95 PAVILION CIRCLE PAVILION PARK SINGAPORE 658535,95,PAVILION PARK,1.37225132231649,103.753337991724,103.753337991724,658535,PAVILION CIRCLE,PAVILION PARK,19099.135227643,39362.2436272409
97 PAVILION CIRCLE PAVILION PARK SINGAPORE 658536,97,PAVILION PARK,1.37222583357411,103.753382801405,103.753382801405,658536,PAVILION CIRCLE,PAVILION PARK,19104.1219082279,39359.4250423294
99 PAVILION CIRCLE PAVILION PARK SINGAPORE 658537,99,PAVILION PARK,1.3722009639319,103.753506649833,103.753506649833,658537,PAVILION CIRCLE,PAVILION PARK,19117.9046464898,39356.6746209171
101 PAVILION CIRCLE PAVILION PARK SINGAPORE 658538,101,PAVILION PARK,1.37212179469994,103.75352216805,103.75352216805,658538,PAVILION CIRCLE,PAVILION PARK,19119.6313441563,39347.9204238616
103 PAVILION CIRCLE PAVILION PARK SINGAPORE 658539,103,PAVILION PARK,1.37198194837688,103.753475781752,103.753475781752,658539,PAVILION CIRCLE,PAVILION PARK,19114.4685947103,39332.4570860732
105 PAVILION CIRCLE PAVILION PARK SINGAPORE 658540,105,PAVILION PARK,1.37193095251972,103.75348309397,103.75348309397,658540,PAVILION CIRCLE,PAVILION PARK,19115.2821678445,39326.8181909751
107 PAVILION CIRCLE PAVILION PARK SINGAPORE 658541,107,PAVILION PARK,1.37187461456499,103.753484256372,103.753484256372,658541,PAVILION CIRCLE,PAVILION PARK,19115.4113213308,39320.5886161737
109 PAVILION CIRCLE PAVILION PARK SINGAPORE 658542,109,PAVILION PARK,1.37182292377639,103.753485669113,103.753485669113,658542,PAVILION CIRCLE,PAVILION PARK,19115.5683516301,39314.872900933
111 PAVILION CIRCLE PAVILION PARK SINGAPORE 658543,111,PAVILION PARK,1.37176597540836,103.75348713996,103.75348713996,658543,PAVILION CIRCLE,PAVILION PARK,19115.73182901,39308.575828528
113 PAVILION CIRCLE PAVILION PARK SINGAPORE 658544,113,PAVILION PARK,1.371714426978,103.753489070544,103.753489070544,658544,PAVILION CIRCLE,PAVILION PARK,19115.9464895511,39302.8758526389
115 PAVILION CIRCLE PAVILION PARK SINGAPORE 658545,115,PAVILION PARK,1.37165766883498,103.753489973764,103.753489973764,658545,PAVILION CIRCLE,PAVILION PARK,19116.046797649,39296.5998164825
117 PAVILION CIRCLE PAVILION PARK SINGAPORE 658546,117,PAVILION PARK,1.37160627997457,103.753491424572,103.753491424572,658546,PAVILION CIRCLE,PAVILION PARK,19116.208065466,39290.9174868278
119 PAVILION CIRCLE PAVILION PARK SINGAPORE 658547,119,PAVILION PARK,1.37154913644368,103.753493151629,103.753493151629,658547,PAVILION CIRCLE,PAVILION PARK,19116.4000552865,39284.5988333505
121 PAVILION CIRCLE PAVILION PARK SINGAPORE 658548,121,PAVILION PARK,1.37149754475772,103.753494910595,103.753494910595,658548,PAVILION CIRCLE,PAVILION PARK,19116.5956167299,39278.8940751199
123 PAVILION CIRCLE PAVILION PARK SINGAPORE 658549,123,PAVILION PARK,1.37140049241512,103.753497458719,103.753497458719,658549,PAVILION CIRCLE,PAVILION PARK,19116.8788342532,39268.162500957
125 PAVILION CIRCLE PAVILION PARK SINGAPORE 658550,125,PAVILION PARK,1.37134848573926,103.753498883437,103.753498883437,658550,PAVILION CIRCLE,PAVILION PARK,19117.0371963438,39262.4118564613
127 PAVILION CIRCLE PAVILION PARK SINGAPORE 658551,127,PAVILION PARK,1.3712917692195,103.75350026561,103.75350026561,658551,PAVILION CIRCLE,PAVILION PARK,19117.1908063618,39256.1404210404
129 PAVILION CIRCLE PAVILION PARK SINGAPORE 658552,129,PAVILION PARK,1.37124010800317,103.753501960934,103.753501960934,658552,PAVILION CIRCLE,PAVILION PARK,19117.3792850962,39250.42797474
131 PAVILION CIRCLE PAVILION PARK SINGAPORE 658553,131,PAVILION PARK,1.37118306930267,103.75350342036,103.75350342036,658553,PAVILION CIRCLE,PAVILION PARK,19117.5414912207,39244.1209139023
133 PAVILION CIRCLE PAVILION PARK SINGAPORE 658554,133,PAVILION PARK,1.37113140560588,103.753504614155,103.753504614155,658554,PAVILION CIRCLE,PAVILION PARK,19117.6741557932,39238.4081951901
135 PAVILION CIRCLE PAVILION PARK SINGAPORE 658555,135,PAVILION PARK,1.37107470332813,103.753506237028,103.753506237028,658555,PAVILION CIRCLE,PAVILION PARK,19117.8545529768,39232.1383337043
137 PAVILION CIRCLE PAVILION PARK SINGAPORE 658556,137,PAVILION PARK,1.3710235101691,103.753507178683,103.753507178683,658556,PAVILION CIRCLE,PAVILION PARK,19117.9591591284,39226.4776456561
139 PAVILION CIRCLE PAVILION PARK SINGAPORE 658557,139,PAVILION PARK,1.37096667022059,103.753509300914,103.753509300914,658557,PAVILION CIRCLE,PAVILION PARK,19118.1951283291,39220.1925593745
141 PAVILION CIRCLE PAVILION PARK SINGAPORE 658558,141,PAVILION PARK,1.37091453323589,103.753510370974,103.753510370974,658558,PAVILION CIRCLE,PAVILION PARK,19118.314020969,39214.4275073186
143 PAVILION CIRCLE PAVILION PARK SINGAPORE 658559,143,PAVILION PARK,1.37079962331657,103.753518552372,103.753518552372,658559,PAVILION CIRCLE,PAVILION PARK,19119.224088436,39201.7213104349
145 PAVILION CIRCLE PAVILION PARK SINGAPORE 658560,145,PAVILION PARK,1.37074770499494,103.753518155369,103.753518155369,658560,PAVILION CIRCLE,PAVILION PARK,19119.1797155719,39195.9804424997
147 PAVILION CIRCLE PAVILION PARK SINGAPORE 658561,147,PAVILION PARK,1.37069069937456,103.753518385175,103.753518385175,658561,PAVILION CIRCLE,PAVILION PARK,19119.2050801422,39189.6770440862
149 PAVILION CIRCLE PAVILION PARK SINGAPORE 658562,149,PAVILION PARK,1.37063917742822,103.753518303655,103.753518303655,658562,PAVILION CIRCLE,PAVILION PARK,19119.1958181392,39183.9800041914
151 PAVILION CIRCLE PAVILION PARK SINGAPORE 658563,151,PAVILION PARK,1.37058217372367,103.75351852639,103.75351852639,658563,PAVILION CIRCLE,PAVILION PARK,19119.220395742,39177.6768176537
153 PAVILION CIRCLE PAVILION PARK SINGAPORE 658564,153,PAVILION PARK,1.37053032903755,103.753518176165,103.753518176165,658564,PAVILION CIRCLE,PAVILION PARK,19119.1812289711,39171.9440918043
289 PAVILION CIRCLE PAVILION PARK SINGAPORE 658565,289,PAVILION PARK,1.36920256124175,103.751014691543,103.751014691543,658565,PAVILION CIRCLE,PAVILION PARK,18840.5684644952,39025.1355627924
291 PAVILION CIRCLE PAVILION PARK SINGAPORE 658566,291,PAVILION PARK,1.3692518345223,103.751000366644,103.751000366644,658566,PAVILION CIRCLE,PAVILION PARK,18838.9744616682,39030.5840117373
293 PAVILION CIRCLE PAVILION PARK SINGAPORE 658567,293,PAVILION PARK,1.36930664808973,103.750984309594,103.750984309594,658567,PAVILION CIRCLE,PAVILION PARK,18837.187712322,39036.6450846735
295 PAVILION CIRCLE PAVILION PARK SINGAPORE 658568,295,PAVILION PARK,1.3693559591451,103.750969985508,103.750969985508,658568,PAVILION CIRCLE,PAVILION PARK,18835.5938002989,39042.0977106001
297 PAVILION CIRCLE PAVILION PARK SINGAPORE 658569,297,PAVILION PARK,1.36941077517556,103.750953922473,103.750953922473,658569,PAVILION CIRCLE,PAVILION PARK,18833.806385057,39048.1590559483
299 PAVILION CIRCLE PAVILION PARK SINGAPORE 658570,299,PAVILION PARK,1.36946008650438,103.750939598657,103.750939598657,658570,PAVILION CIRCLE,PAVILION PARK,18832.2125033019,39053.6117121428
301 PAVILION CIRCLE PAVILION PARK SINGAPORE 658571,301,PAVILION PARK,1.36951489842859,103.75092353834,103.75092353834,658571,PAVILION CIRCLE,PAVILION PARK,18830.4253907399,39059.6726034693
303 PAVILION CIRCLE PAVILION PARK SINGAPORE 658572,303,PAVILION PARK,1.36956421249447,103.750909215611,103.750909215611,658572,PAVILION CIRCLE,PAVILION PARK,18828.8316300567,39065.1255623437
305 PAVILION CIRCLE PAVILION PARK SINGAPORE 658573,305,PAVILION PARK,1.36961902688173,103.750893148493,103.750893148493,658573,PAVILION CIRCLE,PAVILION PARK,18827.0437607942,39071.186726084
307 PAVILION CIRCLE PAVILION PARK SINGAPORE 658574,307,PAVILION PARK,1.36966837790054,103.750878806723,103.750878806723,658574,PAVILION CIRCLE,PAVILION PARK,18825.4478813531,39076.6437711362
309 PAVILION CIRCLE PAVILION PARK SINGAPORE 658575,309,PAVILION PARK,1.36975771834875,103.750851977853,103.750851977853,658575,PAVILION CIRCLE,PAVILION PARK,18822.4624895835,39086.522696197
311 PAVILION CIRCLE PAVILION PARK SINGAPORE 658576,311,PAVILION PARK,1.36980697273993,103.750837646147,103.750837646147,658576,PAVILION CIRCLE,PAVILION PARK,18820.8677300569,39091.969056651
313 PAVILION CIRCLE PAVILION PARK SINGAPORE 658577,313,PAVILION PARK,1.36985184837371,103.750787929054,103.750787929054,658577,PAVILION CIRCLE,PAVILION PARK,18815.3349847775,39096.93137151
315 PAVILION CIRCLE PAVILION PARK SINGAPORE 658578,315,PAVILION PARK,1.36990115532089,103.750773594353,103.750773594353,658578,PAVILION CIRCLE,PAVILION PARK,18813.739892303,39102.3835434169
317 PAVILION CIRCLE PAVILION PARK SINGAPORE 658579,317,PAVILION PARK,1.36995595355513,103.750757486977,103.750757486977,658579,PAVILION CIRCLE,PAVILION PARK,18811.9475433799,39108.4429213461
319 PAVILION CIRCLE PAVILION PARK SINGAPORE 658580,319,PAVILION PARK,1.37000526378678,103.750743152003,103.750743152003,658580,PAVILION CIRCLE,PAVILION PARK,18810.3524206374,39113.8954564687
321 PAVILION CIRCLE PAVILION PARK SINGAPORE 658581,321,PAVILION PARK,1.37006003656283,103.7507270245,103.7507270245,658581,PAVILION CIRCLE,PAVILION PARK,18808.5578318834,39119.9520194735
323 PAVILION CIRCLE PAVILION PARK SINGAPORE 658582,323,PAVILION PARK,1.37010939305665,103.750712737119,103.750712737119,658582,PAVILION CIRCLE,PAVILION PARK,18806.9680060381,39125.4096698873
325 PAVILION CIRCLE PAVILION PARK SINGAPORE 658583,325,PAVILION PARK,1.37023517910704,103.750734164746,103.750734164746,658583,PAVILION CIRCLE,PAVILION PARK,18809.3531231554,39139.3183834963
327 PAVILION CIRCLE PAVILION PARK SINGAPORE 658584,327,PAVILION PARK,1.3702849452208,103.750746892198,103.750746892198,658584,PAVILION CIRCLE,PAVILION PARK,18810.7697253292,39144.8212240078
329 PAVILION CIRCLE PAVILION PARK SINGAPORE 658585,329,PAVILION PARK,1.37033736447528,103.750786900131,103.750786900131,658585,PAVILION CIRCLE,PAVILION PARK,18815.2223273423,39150.6173310131
331 PAVILION CIRCLE PAVILION PARK SINGAPORE 658586,331,PAVILION PARK,1.37039267015464,103.750800788201,103.750800788201,658586,PAVILION CIRCLE,PAVILION PARK,18816.7681132704,39156.7327047121
333 PAVILION CIRCLE PAVILION PARK SINGAPORE 658587,333,PAVILION PARK,1.37045504337029,103.750815706285,103.750815706285,658587,PAVILION CIRCLE,PAVILION PARK,18818.4285543216,39163.6295674816
335 PAVILION CIRCLE PAVILION PARK SINGAPORE 658588,335,PAVILION PARK,1.37051051025397,103.750828901076,103.750828901076,658588,PAVILION CIRCLE,PAVILION PARK,18819.8971871594,39169.762769023
337 PAVILION CIRCLE PAVILION PARK SINGAPORE 658589,337,PAVILION PARK,1.37057115622548,103.750836163286,103.750836163286,658589,PAVILION CIRCLE,PAVILION PARK,18820.7056147363,39176.4686710835
339 PAVILION CIRCLE PAVILION PARK SINGAPORE 658590,339,PAVILION PARK,1.37062110571504,103.75084818223,103.75084818223,658590,PAVILION CIRCLE,PAVILION PARK,18822.0433688127,39181.991791144
341 PAVILION CIRCLE PAVILION PARK SINGAPORE 658591,341,PAVILION PARK,1.37077716297467,103.750820757332,103.750820757332,658591,PAVILION CIRCLE,PAVILION PARK,18818.9919020338,39199.2479318772
343 PAVILION CIRCLE PAVILION PARK SINGAPORE 658592,343,PAVILION PARK,1.37081027859085,103.7508602402,103.7508602402,658592,PAVILION CIRCLE,PAVILION PARK,18823.3859960344,39202.9095406719
1 PAVILION GROVE PAVILION PARK SINGAPORE 658593,1,PAVILION PARK,1.37090705499323,103.753066713389,103.753066713389,658593,PAVILION GROVE,PAVILION PARK,19068.9402503017,39213.6022507437
2 PAVILION GROVE PAVILION PARK SINGAPORE 658594,2,PAVILION PARK,1.37126965708465,103.75320661929,103.75320661929,658594,PAVILION GROVE,PAVILION PARK,19084.5114329178,39253.6964629628
3 PAVILION GROVE PAVILION PARK SINGAPORE 658595,3,PAVILION PARK,1.37090503393724,103.753015417948,103.753015417948,658595,PAVILION GROVE,PAVILION PARK,19063.2316783052,39213.3789638281
4 PAVILION GROVE PAVILION PARK SINGAPORE 658596,4,PAVILION PARK,1.37126764095847,103.753155325473,103.753155325473,658596,PAVILION GROVE,PAVILION PARK,19078.8030425282,39253.4737208709
5 PAVILION GROVE PAVILION PARK SINGAPORE 658597,5,PAVILION PARK,1.37090083724955,103.7529234862,103.7529234862,658597,PAVILION GROVE,PAVILION PARK,19053.0007668603,39212.9152583163
6 PAVILION GROVE PAVILION PARK SINGAPORE 658598,6,PAVILION PARK,1.37126317381557,103.753063037155,103.753063037155,658598,PAVILION GROVE,PAVILION PARK,19068.5324497577,39252.9801105913
7 PAVILION GROVE PAVILION PARK SINGAPORE 658599,7,PAVILION PARK,1.3708985676417,103.752872201375,103.752872201375,658599,PAVILION GROVE,PAVILION PARK,19047.2933753151,39212.6644880716
8 PAVILION GROVE PAVILION PARK SINGAPORE 658600,8,PAVILION PARK,1.37126118943917,103.753011740345,103.753011740345,658600,PAVILION GROVE,PAVILION PARK,19062.8237264203,39252.7608795855
9 PAVILION GROVE PAVILION PARK SINGAPORE 658601,9,PAVILION PARK,1.37089340249305,103.752780575092,103.752780575092,658601,PAVILION GROVE,PAVILION PARK,19037.0964548169,39212.0936944354
10 PAVILION GROVE PAVILION PARK SINGAPORE 658602,10,PAVILION PARK,1.37125640170338,103.752918075281,103.752918075281,658602,PAVILION GROVE,PAVILION PARK,19052.3999171155,39252.2318254989
11 PAVILION GROVE PAVILION PARK SINGAPORE 658603,11,PAVILION PARK,1.37089069299461,103.752729311497,103.752729311497,658603,PAVILION GROVE,PAVILION PARK,19031.3914241735,39211.7942835391
12 PAVILION GROVE PAVILION PARK SINGAPORE 658604,12,PAVILION PARK,1.37125355725736,103.752866814402,103.752866814402,658604,PAVILION GROVE,PAVILION PARK,19046.6951891528,39251.9174924865
13 PAVILION GROVE PAVILION PARK SINGAPORE 658605,13,PAVILION PARK,1.37088605716234,103.752635416077,103.752635416077,658605,PAVILION GROVE,PAVILION PARK,19020.9419778865,39211.2820281833
14 PAVILION GROVE PAVILION PARK SINGAPORE 658606,14,PAVILION PARK,1.37124997509974,103.752775088236,103.752775088236,658606,PAVILION GROVE,PAVILION PARK,19036.4871603046,39251.5217386
15 PAVILION GROVE PAVILION PARK SINGAPORE 658607,15,PAVILION PARK,1.37088435335245,103.7525841005,103.7525841005,658607,PAVILION GROVE,PAVILION PARK,19015.2311660592,39211.0938218609
16 PAVILION GROVE PAVILION PARK SINGAPORE 658608,16,PAVILION PARK,1.3712475554831,103.752723811569,103.752723811569,658608,PAVILION GROVE,PAVILION PARK,19030.780676798,39251.2543815002
17 PAVILION GROVE PAVILION PARK SINGAPORE 658609,17,PAVILION PARK,1.370879114012,103.752492496524,103.752492496524,658609,PAVILION GROVE,PAVILION PARK,19005.0367275346,39210.5148255993
18 PAVILION GROVE PAVILION PARK SINGAPORE 658610,18,PAVILION PARK,1.37124246449376,103.752631720187,103.752631720187,658610,PAVILION GROVE,PAVILION PARK,19020.5319980476,39250.6917904876
19 PAVILION GROVE PAVILION PARK SINGAPORE 658611,19,PAVILION PARK,1.37087696374217,103.752441207889,103.752441207889,658611,PAVILION GROVE,PAVILION PARK,18999.3289122377,39210.2772521954
20 PAVILION GROVE PAVILION PARK SINGAPORE 658612,20,PAVILION PARK,1.37124013356327,103.752580441341,103.752580441341,658612,PAVILION GROVE,PAVILION PARK,19014.8252723971,39250.4342402127
21 PAVILION GROVE PAVILION PARK SINGAPORE 658613,21,PAVILION PARK,1.37087251600715,103.752348908165,103.752348908165,658613,PAVILION GROVE,PAVILION PARK,18989.0570482109,39209.7857909445
22 PAVILION GROVE PAVILION PARK SINGAPORE 658614,22,PAVILION PARK,1.37123487395475,103.752488515057,103.752488515057,658614,PAVILION GROVE,PAVILION PARK,19004.5949663129,39249.8530041222
23 PAVILION GROVE PAVILION PARK SINGAPORE 658615,23,PAVILION PARK,1.37087034383568,103.752297620619,103.752297620619,658615,PAVILION GROVE,PAVILION PARK,18983.3493539859,39209.5457961019
24 PAVILION GROVE PAVILION PARK SINGAPORE 658616,24,PAVILION PARK,1.37123282140672,103.752437220699,103.752437220699,658616,PAVILION GROVE,PAVILION PARK,18998.8865153873,39249.6262363885
25 PAVILION GROVE PAVILION PARK SINGAPORE 658617,25,PAVILION PARK,1.37086659932275,103.75220557626,103.75220557626,658617,PAVILION GROVE,PAVILION PARK,18973.1059115967,39209.1320932992
26 PAVILION GROVE PAVILION PARK SINGAPORE 658618,26,PAVILION PARK,1.37122833423555,103.752344401211,103.752344401211,658618,PAVILION GROVE,PAVILION PARK,18988.5568092447,39249.130416546
27 PAVILION GROVE PAVILION PARK SINGAPORE 658619,27,PAVILION PARK,1.37086422239658,103.752154298785,103.752154298785,658619,PAVILION GROVE,PAVILION PARK,18967.3993372861,39208.8694580048
28 PAVILION GROVE PAVILION PARK SINGAPORE 658620,28,PAVILION PARK,1.37122595539575,103.75229312264,103.75229312264,658620,PAVILION GROVE,PAVILION PARK,18982.8501138622,39248.8675693758
29 PAVILION GROVE PAVILION PARK SINGAPORE 658621,29,PAVILION PARK,1.37085795266411,103.752061340119,103.752061340119,658621,PAVILION GROVE,PAVILION PARK,18957.0541339349,39208.1765330546
30 PAVILION GROVE PAVILION PARK SINGAPORE 658622,30,PAVILION PARK,1.37122070155466,103.752202078113,103.752202078113,658622,PAVILION GROVE,PAVILION PARK,18972.717936581,39248.2869689129
31 PAVILION GROVE PAVILION PARK SINGAPORE 658623,31,PAVILION PARK,1.37085608706639,103.75201003706,103.75201003706,658623,PAVILION GROVE,PAVILION PARK,18951.3447144348,39207.9704383519
32 PAVILION GROVE PAVILION PARK SINGAPORE 658624,32,PAVILION PARK,1.37121910038464,103.752150760079,103.752150760079,658624,PAVILION GROVE,PAVILION PARK,18967.0068523409,39248.1101130843
33 PAVILION GROVE PAVILION PARK SINGAPORE 658625,33,PAVILION PARK,1.37085225932691,103.751917969316,103.751917969316,658625,PAVILION GROVE,PAVILION PARK,18941.098668999,39207.5475340839
34 PAVILION GROVE PAVILION PARK SINGAPORE 658626,34,PAVILION PARK,1.37121532189302,103.752057854624,103.752057854624,658626,PAVILION GROVE,PAVILION PARK,18956.6675815154,39247.6926570516
35 PAVILION GROVE PAVILION PARK SINGAPORE 658627,35,PAVILION PARK,1.37085002145051,103.751866685037,103.751866685037,658627,PAVILION GROVE,PAVILION PARK,18935.3913379889,39207.3002749253
36 PAVILION GROVE PAVILION PARK SINGAPORE 658628,36,PAVILION PARK,1.37121338594565,103.75200655564,103.75200655564,658628,PAVILION GROVE,PAVILION PARK,18950.9586160341,39247.478783479
37 PAVILION GROVE PAVILION PARK SINGAPORE 658629,37,PAVILION PARK,1.37084344598024,103.751774679398,103.751774679398,658629,PAVILION GROVE,PAVILION PARK,18925.1521936534,39206.5735406354
38 PAVILION GROVE PAVILION PARK SINGAPORE 658630,38,PAVILION PARK,1.37120729006984,103.751914854042,103.751914854042,658630,PAVILION GROVE,PAVILION PARK,18940.7533113044,39246.8050786983
39 PAVILION GROVE PAVILION PARK SINGAPORE 658631,39,PAVILION PARK,1.37084131430882,103.75172339022,103.75172339022,658631,PAVILION GROVE,PAVILION PARK,18919.4443178196,39206.3380254544
40 PAVILION GROVE PAVILION PARK SINGAPORE 658632,40,PAVILION PARK,1.37120582272022,103.751862699941,103.751862699941,658632,PAVILION GROVE,PAVILION PARK,18934.9491832824,39246.6430239119
41 PAVILION GROVE PAVILION PARK SINGAPORE 658633,41,PAVILION PARK,1.37083738116048,103.751631007802,103.751631007802,658633,PAVILION GROVE,PAVILION PARK,18909.1632523267,39205.9034680128
42 PAVILION GROVE PAVILION PARK SINGAPORE 658634,42,PAVILION PARK,1.37119000708171,103.751809129314,103.751809129314,658634,PAVILION GROVE,PAVILION PARK,18928.9873590656,39244.8944122251
43 PAVILION GROVE PAVILION PARK SINGAPORE 658635,43,PAVILION PARK,1.37083558973492,103.751579700934,103.751579700934,658635,PAVILION GROVE,PAVILION PARK,18903.4534090739,39205.7055759355
1 PAVILION RISE PAVILION PARK SINGAPORE 658636,1,PAVILION PARK,1.37061123924069,103.751163029193,103.751163029193,658636,PAVILION RISE,PAVILION PARK,18857.082010516,39180.8996012192
2 PAVILION RISE PAVILION PARK SINGAPORE 658637,2,PAVILION PARK,1.37024498231989,103.751098723289,103.751098723289,658637,PAVILION RISE,PAVILION PARK,18849.9241469223,39140.4009784702
3 PAVILION RISE PAVILION PARK SINGAPORE 658638,3,PAVILION PARK,1.37061343141711,103.751214270494,103.751214270494,658638,PAVILION RISE,PAVILION PARK,18862.7845591838,39181.1418056246
4 PAVILION RISE PAVILION PARK SINGAPORE 658639,4,PAVILION PARK,1.37024662472141,103.751154393506,103.751154393506,658639,PAVILION RISE,PAVILION PARK,18856.1195794372,39140.5823744964
5 PAVILION RISE PAVILION PARK SINGAPORE 658640,5,PAVILION PARK,1.37061567550767,103.751270725358,103.751270725358,658640,PAVILION RISE,PAVILION PARK,18869.0673148315,39181.3897306807
6 PAVILION RISE PAVILION PARK SINGAPORE 658641,6,PAVILION PARK,1.37024955243927,103.751206282628,103.751206282628,658641,PAVILION RISE,PAVILION PARK,18861.894226443,39140.9059089739
7 PAVILION RISE PAVILION PARK SINGAPORE 658642,7,PAVILION PARK,1.37061803958799,103.751322029209,103.751322029209,658642,PAVILION RISE,PAVILION PARK,18874.7768251365,39181.6509433798
8 PAVILION RISE PAVILION PARK SINGAPORE 658643,8,PAVILION PARK,1.37025278060865,103.751310701472,103.751310701472,658643,PAVILION RISE,PAVILION PARK,18873.5148015553,39141.2624658216
9 PAVILION RISE PAVILION PARK SINGAPORE 658644,9,PAVILION PARK,1.37062141432694,103.751414224243,103.751414224243,658644,PAVILION RISE,PAVILION PARK,18885.0370359886,39182.0237541348
10 PAVILION RISE PAVILION PARK SINGAPORE 658645,10,PAVILION PARK,1.3702551734309,103.751362043664,103.751362043664,658645,PAVILION RISE,PAVILION PARK,18879.228579646,39141.5268566608
11 PAVILION RISE PAVILION PARK SINGAPORE 658646,11,PAVILION PARK,1.37062393881033,103.751465495451,103.751465495451,658646,PAVILION RISE,PAVILION PARK,18890.7429141356,39182.3027038723
12 PAVILION RISE PAVILION PARK SINGAPORE 658647,12,PAVILION PARK,1.37025893468117,103.751454335768,103.751454335768,658647,PAVILION RISE,PAVILION PARK,18889.4995961683,39141.9424058087
13 PAVILION RISE PAVILION PARK SINGAPORE 658648,13,PAVILION PARK,1.37062777889993,103.751558005966,103.751558005966,658648,PAVILION RISE,PAVILION PARK,18901.0382358488,39182.7269702014
14 PAVILION RISE PAVILION PARK SINGAPORE 658649,14,PAVILION PARK,1.37026132503669,103.751505676872,103.751505676872,658649,PAVILION RISE,PAVILION PARK,18895.213253187,39142.2065242343
15 PAVILION RISE PAVILION PARK SINGAPORE 658650,15,PAVILION PARK,1.37063021824954,103.751609280714,103.751609280714,658650,PAVILION RISE,PAVILION PARK,18906.7445074795,39182.996506596
16 PAVILION RISE PAVILION PARK SINGAPORE 658651,16,PAVILION PARK,1.37026657839555,103.751597909634,103.751597909634,658651,PAVILION RISE,PAVILION PARK,18905.4776712889,39142.787064163
17 PAVILION RISE PAVILION PARK SINGAPORE 658652,17,PAVILION PARK,1.37063341204559,103.751701633232,103.751701633232,658652,PAVILION RISE,PAVILION PARK,18917.0222434942,39183.3493102137
18 PAVILION RISE PAVILION PARK SINGAPORE 658653,18,PAVILION PARK,1.37026896217843,103.751649251555,103.751649251555,658653,PAVILION RISE,PAVILION PARK,18911.1914191116,39143.050456157
19 PAVILION RISE PAVILION PARK SINGAPORE 658654,19,PAVILION PARK,1.37063588150263,103.751752905803,103.751752905803,658654,PAVILION RISE,PAVILION PARK,18922.728272981,39183.6221760865
20 PAVILION RISE PAVILION PARK SINGAPORE 658655,20,PAVILION PARK,1.37027322626062,103.751741434852,103.751741434852,658655,PAVILION RISE,PAVILION PARK,18921.4503284404,39143.5216075908
21 PAVILION RISE PAVILION PARK SINGAPORE 658656,21,PAVILION PARK,1.37063985871576,103.751845259383,103.751845259383,658656,PAVILION RISE,PAVILION PARK,18933.0061300676,39184.0616066754
22 PAVILION RISE PAVILION PARK SINGAPORE 658657,22,PAVILION PARK,1.3702755561152,103.751792779495,103.751792779495,658657,PAVILION RISE,PAVILION PARK,18927.1643789429,39143.779036792
23 PAVILION RISE PAVILION PARK SINGAPORE 658658,23,PAVILION PARK,1.37064232433753,103.751896534402,103.751896534402,658658,PAVILION RISE,PAVILION PARK,18938.7124319663,39184.3340487964
24 PAVILION RISE PAVILION PARK SINGAPORE 658659,24,PAVILION PARK,1.3702790901486,103.751885004974,103.751885004974,658659,PAVILION RISE,PAVILION PARK,18937.4279798092,39144.1694635153
25 PAVILION RISE PAVILION PARK SINGAPORE 658660,25,PAVILION PARK,1.37064706171512,103.751989317956,103.751989317956,658660,PAVILION RISE,PAVILION PARK,18949.0381427351,39184.8575335741
26 PAVILION RISE PAVILION PARK SINGAPORE 658661,26,PAVILION PARK,1.37028137154954,103.751936353155,103.751936353155,658661,PAVILION RISE,PAVILION PARK,18943.1424237955,39144.4215352833
27 PAVILION RISE PAVILION PARK SINGAPORE 658662,27,PAVILION PARK,1.37064923827265,103.752040605225,103.752040605225,658662,PAVILION RISE,PAVILION PARK,18954.7458066931,39185.0980127044
28 PAVILION RISE PAVILION PARK SINGAPORE 658663,28,PAVILION PARK,1.37028601091812,103.752028832898,103.752028832898,658663,PAVILION RISE,PAVILION PARK,18953.4343252266,39144.9341841228
29 PAVILION RISE PAVILION PARK SINGAPORE 658664,29,PAVILION PARK,1.37065566208757,103.752132703608,103.752132703608,658664,PAVILION RISE,PAVILION PARK,18964.995272411,39185.8079785313
30 PAVILION RISE PAVILION PARK SINGAPORE 658665,30,PAVILION PARK,1.37028842014885,103.752080173731,103.752080173731,658665,PAVILION RISE,PAVILION PARK,18959.1479519773,39145.2003910393
31 PAVILION RISE PAVILION PARK SINGAPORE 658666,31,PAVILION PARK,1.37065793061593,103.752183984347,103.752183984347,658666,PAVILION RISE,PAVILION PARK,18970.7022099374,39186.0586277042
33 PAVILION RISE PAVILION PARK SINGAPORE 658667,33,PAVILION PARK,1.37066383952008,103.752275662813,103.752275662813,658667,PAVILION RISE,PAVILION PARK,18980.9049418885,39186.7116594538
35 PAVILION RISE PAVILION PARK SINGAPORE 658668,35,PAVILION PARK,1.37066485108451,103.752327501695,103.752327501695,658668,PAVILION RISE,PAVILION PARK,18986.6739893174,39186.8233180456
37 PAVILION RISE PAVILION PARK SINGAPORE 658669,37,PAVILION PARK,1.37066839221647,103.752419767172,103.752419767172,658669,PAVILION RISE,PAVILION PARK,18996.9420395773,39187.2145317346
39 PAVILION RISE PAVILION PARK SINGAPORE 658670,39,PAVILION PARK,1.37067078857167,103.752471043283,103.752471043283,658670,PAVILION RISE,PAVILION PARK,19002.6484625479,39187.4793160558
41 PAVILION RISE PAVILION PARK SINGAPORE 658671,41,PAVILION PARK,1.37067524314292,103.752563287244,103.752563287244,658671,PAVILION RISE,PAVILION PARK,19012.9141216371,39187.9715340063
43 PAVILION RISE PAVILION PARK SINGAPORE 658672,43,PAVILION PARK,1.37067770272712,103.752614559274,103.752614559274,658672,PAVILION RISE,PAVILION PARK,19018.620090588,39188.2433102336
45 PAVILION RISE PAVILION PARK SINGAPORE 658673,45,PAVILION PARK,1.37068124140022,103.752707290925,103.752707290925,658673,PAVILION RISE,PAVILION PARK,19028.9400201719,39188.6342515107
47 PAVILION RISE PAVILION PARK SINGAPORE 658674,47,PAVILION PARK,1.37068348664905,103.75275857221,103.75275857221,658674,PAVILION RISE,PAVILION PARK,19034.6470182342,39188.8823279049
49 PAVILION RISE PAVILION PARK SINGAPORE 658675,49,PAVILION PARK,1.37068755114485,103.752850949999,103.752850949999,658675,PAVILION RISE,PAVILION PARK,19044.9275691714,39189.3314139806
51 PAVILION RISE PAVILION PARK SINGAPORE 658676,51,PAVILION PARK,1.37068976518515,103.75290223319,103.75290223319,658676,PAVILION RISE,PAVILION PARK,19050.6347791096,39189.5760398246
53 PAVILION RISE PAVILION PARK SINGAPORE 658677,53,PAVILION PARK,1.37069578902957,103.752993914376,103.752993914376,658677,PAVILION RISE,PAVILION PARK,19060.8378137406,39190.2417841256
55 PAVILION RISE PAVILION PARK SINGAPORE 658678,55,PAVILION PARK,1.37069837315267,103.753045181236,103.753045181236,658678,PAVILION RISE,PAVILION PARK,19066.5432075998,39190.5273322836
57 PAVILION RISE PAVILION PARK SINGAPORE 658679,57,PAVILION PARK,1.37070209300871,103.753137576717,103.753137576717,658679,PAVILION RISE,PAVILION PARK,19076.8257259559,39190.9383109678
59 PAVILION RISE PAVILION PARK SINGAPORE 658680,59,PAVILION PARK,1.37070465057684,103.753188848746,103.753188848746,658680,PAVILION RISE,PAVILION PARK,19082.5316949068,39191.2209231313
1 PAVILION STREET PAVILION PARK SINGAPORE 658681,1,PAVILION PARK,1.37178480194116,103.752250256258,103.752250256258,658681,PAVILION STREET,PAVILION PARK,18978.0816957075,39310.6622006465
2 PAVILION STREET PAVILION PARK SINGAPORE 658682,2,PAVILION PARK,1.37143106617687,103.752179710002,103.752179710002,658682,PAVILION STREET,PAVILION PARK,18970.2294240315,39271.5481262747
3 PAVILION STREET PAVILION PARK SINGAPORE 658683,3,PAVILION PARK,1.37178712657787,103.752301368392,103.752301368392,658683,PAVILION STREET,PAVILION PARK,18983.769867084,39310.9190547559
4 PAVILION STREET PAVILION PARK SINGAPORE 658684,4,PAVILION PARK,1.37143348033234,103.752231032365,103.752231032365,658684,PAVILION STREET,PAVILION PARK,18975.9409925593,39271.8148780148
5 PAVILION STREET PAVILION PARK SINGAPORE 658685,5,PAVILION PARK,1.37178986200219,103.752358056083,103.752358056083,658685,PAVILION STREET,PAVILION PARK,18990.0785321258,39311.2213108409
6 PAVILION STREET PAVILION PARK SINGAPORE 658686,6,PAVILION PARK,1.37143725018642,103.75228752174,103.75228752174,658686,PAVILION STREET,PAVILION PARK,18982.227592241,39272.231516812
7 PAVILION STREET PAVILION PARK SINGAPORE 658687,7,PAVILION PARK,1.37179225588883,103.752409107292,103.752409107292,658687,PAVILION STREET,PAVILION PARK,18995.7599234739,39311.4858227503
8 PAVILION STREET PAVILION PARK SINGAPORE 658688,8,PAVILION PARK,1.37143950557447,103.752338836766,103.752338836766,658688,PAVILION STREET,PAVILION PARK,18987.9383435333,39272.4807131216
9 PAVILION STREET PAVILION PARK SINGAPORE 658689,9,PAVILION PARK,1.3717928539619,103.752464475413,103.752464475413,658689,PAVILION STREET,PAVILION PARK,19001.921728259,39311.5517464187
10 PAVILION STREET PAVILION PARK SINGAPORE 658690,10,PAVILION PARK,1.37144336232286,103.752431144962,103.752431144962,658690,PAVILION STREET,PAVILION PARK,18998.2111458667,39272.9068257958
11 PAVILION STREET PAVILION PARK SINGAPORE 658691,11,PAVILION PARK,1.37179974583627,103.752556296135,103.752556296135,658691,PAVILION STREET,PAVILION PARK,19012.1402903656,39312.3134704977
12 PAVILION STREET PAVILION PARK SINGAPORE 658692,12,PAVILION PARK,1.37144567217133,103.752482188279,103.752482188279,658692,PAVILION STREET,PAVILION PARK,19003.8916594433,39273.1620454341
13 PAVILION STREET PAVILION PARK SINGAPORE 658693,13,PAVILION PARK,1.37180108092262,103.752607390353,103.752607390353,658693,PAVILION STREET,PAVILION PARK,19017.8264640551,39312.4609058462
14 PAVILION STREET PAVILION PARK SINGAPORE 658694,14,PAVILION PARK,1.37145035121605,103.752574768972,103.752574768972,658694,PAVILION STREET,PAVILION PARK,19014.1947902963,39273.6790831331
15 PAVILION STREET PAVILION PARK SINGAPORE 658695,15,PAVILION PARK,1.37180640758561,103.752699118656,103.752699118656,658695,PAVILION STREET,PAVILION PARK,19028.0347350473,39313.0495575927
16 PAVILION STREET PAVILION PARK SINGAPORE 658696,16,PAVILION PARK,1.37145266845222,103.752625810929,103.752625810929,658696,PAVILION STREET,PAVILION PARK,19019.8751525329,39273.935120007
17 PAVILION STREET PAVILION PARK SINGAPORE 658697,17,PAVILION PARK,1.37181026319096,103.752749996022,103.752749996022,658697,PAVILION STREET,PAVILION PARK,19033.6967851529,39313.4757005367
18 PAVILION STREET PAVILION PARK SINGAPORE 658698,18,PAVILION PARK,1.37145728837569,103.752718703041,103.752718703041,658698,PAVILION STREET,PAVILION PARK,19030.2129402272,39274.4456198197
19 PAVILION STREET PAVILION PARK SINGAPORE 658699,19,PAVILION PARK,1.3718123253465,103.752842685337,103.752842685337,658699,PAVILION STREET,PAVILION PARK,19044.0119929323,39313.7033763099
20 PAVILION STREET PAVILION PARK SINGAPORE 658700,20,PAVILION PARK,1.37145981090792,103.752769736017,103.752769736017,658700,PAVILION STREET,PAVILION PARK,19035.8923036205,39274.7243576832
21 PAVILION STREET PAVILION PARK SINGAPORE 658701,21,PAVILION PARK,1.37181461082451,103.752893730295,103.752893730295,658701,PAVILION STREET,PAVILION PARK,19049.6926881159,39313.9559020977
22 PAVILION STREET PAVILION PARK SINGAPORE 658702,22,PAVILION PARK,1.37146439439367,103.752861868493,103.752861868493,658702,PAVILION STREET,PAVILION PARK,19046.1455528364,39275.230831854
23 PAVILION STREET PAVILION PARK SINGAPORE 658703,23,PAVILION PARK,1.37181802848855,103.75298613698,103.75298613698,658703,PAVILION STREET,PAVILION PARK,19059.9764474602,39314.3334649261
24 PAVILION STREET PAVILION PARK SINGAPORE 658704,24,PAVILION PARK,1.37146664538047,103.752912911541,103.752912911541,658704,PAVILION STREET,PAVILION PARK,19051.826036145,39275.4795438759
25 PAVILION STREET PAVILION PARK SINGAPORE 658705,25,PAVILION PARK,1.37182057346155,103.753037169419,103.753037169419,658705,PAVILION STREET,PAVILION PARK,19065.6557503166,39314.6146847624
26 PAVILION STREET PAVILION PARK SINGAPORE 658706,26,PAVILION PARK,1.37147144155581,103.75300518952,103.75300518952,658706,PAVILION STREET,PAVILION PARK,19062.0954787321,39276.0095362719
27 PAVILION STREET PAVILION PARK SINGAPORE 658707,27,PAVILION PARK,1.37182596050976,103.753134251087,103.753134251087,658707,PAVILION STREET,PAVILION PARK,19076.4597860333,39315.2099954672
28 PAVILION STREET PAVILION PARK SINGAPORE 658708,28,PAVILION PARK,1.37147351981468,103.753056243182,103.753056243182,658708,PAVILION STREET,PAVILION PARK,19067.7771424921,39276.2391491961
29 PAVILION STREET PAVILION PARK SINGAPORE 658709,29,PAVILION PARK,1.37182831633063,103.753185290604,103.753185290604,658709,PAVILION STREET,PAVILION PARK,19082.1398758572,39315.4703001268
30 PAVILION STREET PAVILION PARK SINGAPORE 658710,30,PAVILION PARK,1.37147754192021,103.753150046174,103.753150046174,658710,PAVILION STREET,PAVILION PARK,19078.2162976637,39276.6835437324
32 PAVILION STREET PAVILION PARK SINGAPORE 658711,32,PAVILION PARK,1.37148039018457,103.753201066901,103.753201066901,658711,PAVILION STREET,PAVILION PARK,19083.8942989977,39276.9983004946
11 BUKIT BATOK STREET 25 SINGAPORE 658712,11,NIL,1.34233921440623,103.760032628302,103.760032628302,658712,BUKIT BATOK STREET 25,11 BUKIT BATOK STREET 25 SINGAPORE 658712,19844.0669009173,36054.6887308229
1 BUKIT BATOK CENTRAL LINK BUKIT BATOK CENTRAL POST OFFICE SINGAPORE 658713,1,BUKIT BATOK CENTRAL POST OFFICE,1.34992152880216,103.749171990184,103.749171990184,658713,BUKIT BATOK CENTRAL LINK,BUKIT BATOK CENTRAL POST OFFICE,18635.423542425,36893.1421175059
1 BURGUNDY CRESCENT BURGUNDY HILL SINGAPORE 658714,1,BURGUNDY HILL,1.3392433734822,103.76151502467,103.76151502467,658714,BURGUNDY CRESCENT,BURGUNDY HILL,20009.0316194259,35712.361315798
2 BURGUNDY CRESCENT BURGUNDY HILL SINGAPORE 658715,2,BURGUNDY HILL,1.33968223707568,103.761748074818,103.761748074818,658715,BURGUNDY CRESCENT,BURGUNDY HILL,20034.9690416409,35760.8878856003
3 BURGUNDY CRESCENT BURGUNDY HILL SINGAPORE 658716,3,BURGUNDY HILL,1.33922879661638,103.761466834571,103.761466834571,658716,BURGUNDY CRESCENT,BURGUNDY HILL,20003.668526195,35710.7496364694
4 BURGUNDY CRESCENT BURGUNDY HILL SINGAPORE 658717,4,BURGUNDY HILL,1.33966668371176,103.7616965631,103.7616965631,658717,BURGUNDY CRESCENT,BURGUNDY HILL,20029.2362855254,35759.168240374
5 BURGUNDY CRESCENT BURGUNDY HILL SINGAPORE 658718,5,BURGUNDY HILL,1.33919963302769,103.761370457638,103.761370457638,658718,BURGUNDY CRESCENT,BURGUNDY HILL,19992.942702949,35707.5251881629
6 BURGUNDY CRESCENT BURGUNDY HILL SINGAPORE 658719,6,BURGUNDY HILL,1.33963816509511,103.761601873737,103.761601873737,658719,BURGUNDY CRESCENT,BURGUNDY HILL,20018.6982751181,35756.0151034389
7 BURGUNDY CRESCENT BURGUNDY HILL SINGAPORE 658720,7,BURGUNDY HILL,1.33918506710831,103.761322264277,103.761322264277,658720,BURGUNDY CRESCENT,BURGUNDY HILL,19987.5792465024,35705.9147195537
8 BURGUNDY CRESCENT BURGUNDY HILL SINGAPORE 658721,8,BURGUNDY HILL,1.33962354799226,103.761553695597,103.761553695597,658721,BURGUNDY CRESCENT,BURGUNDY HILL,20013.3365136785,35754.3989747148
9 BURGUNDY CRESCENT BURGUNDY HILL SINGAPORE 658722,9,BURGUNDY HILL,1.33915593937329,103.761225895778,103.761225895778,658722,BURGUNDY CRESCENT,BURGUNDY HILL,19976.8543615639,35702.6942363549
10 BURGUNDY CRESCENT BURGUNDY HILL SINGAPORE 658723,10,BURGUNDY HILL,1.33959554102777,103.761460738707,103.761460738707,658723,BURGUNDY CRESCENT,BURGUNDY HILL,20002.9913103273,35751.3024086412
11 BURGUNDY CRESCENT BURGUNDY HILL SINGAPORE 658724,11,BURGUNDY HILL,1.33914136250192,103.761177705682,103.761177705682,658724,BURGUNDY CRESCENT,BURGUNDY HILL,19971.491268333,35701.0825570244
12 BURGUNDY CRESCENT BURGUNDY HILL SINGAPORE 658725,12,BURGUNDY HILL,1.33958092665952,103.761412560025,103.761412560025,658725,BURGUNDY CRESCENT,BURGUNDY HILL,19997.6294883518,35749.6865825988
13 BURGUNDY CRESCENT BURGUNDY HILL SINGAPORE 658726,13,BURGUNDY HILL,1.33911220957777,103.761081330388,103.761081330388,658726,BURGUNDY CRESCENT,BURGUNDY HILL,19960.765626695,35697.8592891712
14 BURGUNDY CRESCENT BURGUNDY HILL SINGAPORE 658727,14,BURGUNDY HILL,1.33955291421504,103.76131960069,103.76131960069,658727,BURGUNDY CRESCENT,BURGUNDY HILL,19987.2840125896,35746.5894111637
15 BURGUNDY CRESCENT BURGUNDY HILL SINGAPORE 658728,15,BURGUNDY HILL,1.33909761956459,103.761033144374,103.761033144374,658728,BURGUNDY CRESCENT,BURGUNDY HILL,19955.4029874839,35696.2461569794
16 BURGUNDY CRESCENT BURGUNDY HILL SINGAPORE 658729,16,BURGUNDY HILL,1.33953830258139,103.761271420922,103.761271420922,658729,BURGUNDY CRESCENT,BURGUNDY HILL,19981.9220695421,35744.9738878012
17 BURGUNDY CRESCENT BURGUNDY HILL SINGAPORE 658730,17,BURGUNDY HILL,1.33906848387992,103.760936765004,103.760936765004,658730,BURGUNDY CRESCENT,BURGUNDY HILL,19944.6768918261,35693.0247960072
18 BURGUNDY CRESCENT BURGUNDY HILL SINGAPORE 658731,18,BURGUNDY HILL,1.33934093040508,103.760885236144,103.760885236144,658731,BURGUNDY CRESCENT,BURGUNDY HILL,19938.9431671342,35723.1507320777
19 BURGUNDY CRESCENT BURGUNDY HILL SINGAPORE 658732,19,BURGUNDY HILL,1.33905393629213,103.760888565664,103.760888565664,658732,BURGUNDY CRESCENT,BURGUNDY HILL,19939.3127694838,35691.4163553528
20 BURGUNDY CRESCENT BURGUNDY HILL SINGAPORE 658733,20,BURGUNDY HILL,1.33938957529689,103.760871211114,103.760871211114,658733,BURGUNDY CRESCENT,BURGUNDY HILL,19937.3824893581,35728.529685732
21 BURGUNDY CRESCENT BURGUNDY HILL SINGAPORE 658734,21,BURGUNDY HILL,1.33902823016866,103.760791176623,103.760791176623,658734,BURGUNDY CRESCENT,BURGUNDY HILL,19928.4743190706,35688.57422195
22 BURGUNDY CRESCENT BURGUNDY HILL SINGAPORE 658735,22,BURGUNDY HILL,1.33948255924977,103.760842650409,103.760842650409,658735,BURGUNDY CRESCENT,BURGUNDY HILL,19934.2042905316,35738.8114776574
23 BURGUNDY CRESCENT BURGUNDY HILL SINGAPORE 658736,23,BURGUNDY HILL,1.33901365520509,103.760742986261,103.760742986261,658736,BURGUNDY CRESCENT,BURGUNDY HILL,19923.1111955717,35686.9627544973
24 BURGUNDY CRESCENT BURGUNDY HILL SINGAPORE 658737,24,BURGUNDY HILL,1.33953136100588,103.7608291579,103.7608291579,658737,BURGUNDY CRESCENT,BURGUNDY HILL,19932.7028774675,35744.2077748664
25 BURGUNDY CRESCENT BURGUNDY HILL SINGAPORE 658738,25,BURGUNDY HILL,1.33898453346927,103.760646593843,103.760646593843,658738,BURGUNDY CRESCENT,BURGUNDY HILL,19912.3836470498,35683.7429371923
26 BURGUNDY CRESCENT BURGUNDY HILL SINGAPORE 658739,26,BURGUNDY HILL,1.33962198869364,103.760792300646,103.760792300646,658739,BURGUNDY CRESCENT,BURGUNDY HILL,19928.6013537981,35754.2290502544
27 BURGUNDY CRESCENT BURGUNDY HILL SINGAPORE 658740,27,BURGUNDY HILL,1.33896995138591,103.760598405114,103.760598405114,658740,BURGUNDY CRESCENT,BURGUNDY HILL,19907.0207051588,35682.130682772
28 BURGUNDY CRESCENT BURGUNDY HILL SINGAPORE 658741,28,BURGUNDY HILL,1.33967016928731,103.760776710135,103.760776710135,658741,BURGUNDY CRESCENT,BURGUNDY HILL,19926.866453507,35759.5566694085
29 BURGUNDY CRESCENT BURGUNDY HILL SINGAPORE 658742,29,BURGUNDY HILL,1.33921153641971,103.760563905789,103.760563905789,658742,BURGUNDY CRESCENT,BURGUNDY HILL,19903.1820891965,35708.8440550175
30 BURGUNDY CRESCENT BURGUNDY HILL SINGAPORE 658743,30,BURGUNDY HILL,1.33976054557569,103.760736107237,103.760736107237,658743,BURGUNDY CRESCENT,BURGUNDY HILL,19922.3480791654,35769.5501587894
31 BURGUNDY CRESCENT BURGUNDY HILL SINGAPORE 658744,31,BURGUNDY HILL,1.33925989878937,103.760548946254,103.760548946254,658744,BURGUNDY CRESCENT,BURGUNDY HILL,19901.5174106276,35714.1917721126
32 BURGUNDY CRESCENT BURGUNDY HILL SINGAPORE 658745,32,BURGUNDY HILL,1.3398088961731,103.760721061485,103.760721061485,658745,BURGUNDY CRESCENT,BURGUNDY HILL,19920.6738056466,35774.8965743613
33 BURGUNDY CRESCENT BURGUNDY HILL SINGAPORE 658746,33,BURGUNDY HILL,1.33935703745411,103.760520434371,103.760520434371,658746,BURGUNDY CRESCENT,BURGUNDY HILL,19898.3446600381,35724.9329714943
34 BURGUNDY CRESCENT BURGUNDY HILL SINGAPORE 658747,34,BURGUNDY HILL,1.34002422266693,103.760698703919,103.760698703919,658747,BURGUNDY CRESCENT,BURGUNDY HILL,19918.1863524765,35798.706369197
35 BURGUNDY CRESCENT BURGUNDY HILL SINGAPORE 658748,35,BURGUNDY HILL,1.33940540447726,103.760505490881,103.760505490881,658748,BURGUNDY CRESCENT,BURGUNDY HILL,19896.6817672811,35730.2812031452
36 BURGUNDY CRESCENT BURGUNDY HILL SINGAPORE 658749,36,BURGUNDY HILL,1.34005346423464,103.760747069021,103.760747069021,658749,BURGUNDY CRESCENT,BURGUNDY HILL,19923.5689685568,35801.9395952169
37 BURGUNDY CRESCENT BURGUNDY HILL SINGAPORE 658750,37,BURGUNDY HILL,1.33950035881383,103.760469816311,103.760469816311,658750,BURGUNDY CRESCENT,BURGUNDY HILL,19892.7118790727,35740.7808942851
38 BURGUNDY CRESCENT BURGUNDY HILL SINGAPORE 658751,38,BURGUNDY HILL,1.34011015498106,103.760835122444,103.760835122444,658751,BURGUNDY CRESCENT,BURGUNDY HILL,19933.3685612334,35808.2078827694
39 BURGUNDY CRESCENT BURGUNDY HILL SINGAPORE 658752,39,BURGUNDY HILL,1.33954820678797,103.760453156124,103.760453156124,658752,BURGUNDY CRESCENT,BURGUNDY HILL,19890.8579348018,35746.0717378389
40 BURGUNDY CRESCENT BURGUNDY HILL SINGAPORE 658753,40,BURGUNDY HILL,1.34012569484272,103.760883014714,103.760883014714,658753,BURGUNDY CRESCENT,BURGUNDY HILL,19938.6985110221,35809.9260448646
41 BURGUNDY CRESCENT BURGUNDY HILL SINGAPORE 658754,41,BURGUNDY HILL,1.33964171977802,103.760412711414,103.760412711414,658754,BURGUNDY CRESCENT,BURGUNDY HILL,19886.3571764268,35756.4120680448
42 BURGUNDY CRESCENT BURGUNDY HILL SINGAPORE 658755,42,BURGUNDY HILL,1.3401772424142,103.760970835482,103.760970835482,658755,BURGUNDY CRESCENT,BURGUNDY HILL,19948.4721943047,35815.62562727
43 BURGUNDY CRESCENT BURGUNDY HILL SINGAPORE 658756,43,BURGUNDY HILL,1.33968956638279,103.760396045786,103.760396045786,658756,BURGUNDY CRESCENT,BURGUNDY HILL,19884.5026267972,35761.7027602587
44 BURGUNDY CRESCENT BURGUNDY HILL SINGAPORE 658757,44,BURGUNDY HILL,1.3402021720764,103.761017073324,103.761017073324,658757,BURGUNDY CRESCENT,BURGUNDY HILL,19953.6180542158,35818.382072011
45 BURGUNDY CRESCENT BURGUNDY HILL SINGAPORE 658758,45,BURGUNDY HILL,1.3397819369708,103.760351789911,103.760351789911,658758,BURGUNDY CRESCENT,BURGUNDY HILL,19879.577723166,35771.9167821668
46 BURGUNDY CRESCENT BURGUNDY HILL SINGAPORE 658759,46,BURGUNDY HILL,1.34035067477437,103.761127033881,103.761127033881,658759,BURGUNDY CRESCENT,BURGUNDY HILL,19965.855975125,35834.8023926429
47 BURGUNDY CRESCENT BURGUNDY HILL SINGAPORE 658760,47,BURGUNDY HILL,1.33982952514574,103.760334270829,103.760334270829,658760,BURGUNDY CRESCENT,BURGUNDY HILL,19877.6281926027,35777.1789014041
48 BURGUNDY CRESCENT BURGUNDY HILL SINGAPORE 658761,48,BURGUNDY HILL,1.34030217031994,103.761141516643,103.761141516643,658761,BURGUNDY CRESCENT,BURGUNDY HILL,19967.4675939176,35829.4389664643
49 BURGUNDY CRESCENT BURGUNDY HILL SINGAPORE 658762,49,BURGUNDY HILL,1.33991639853377,103.7602867204,103.7602867204,658762,BURGUNDY CRESCENT,BURGUNDY HILL,19872.3366226172,35786.785081666
50 BURGUNDY CRESCENT BURGUNDY HILL SINGAPORE 658763,50,BURGUNDY HILL,1.34020130810322,103.76117141026,103.76117141026,658763,BURGUNDY CRESCENT,BURGUNDY HILL,19970.7941058641,35818.2860316988
51 BURGUNDY CRESCENT BURGUNDY HILL SINGAPORE 658764,51,BURGUNDY HILL,1.33997194695706,103.760281744593,103.760281744593,658764,BURGUNDY CRESCENT,BURGUNDY HILL,19871.7830514638,35792.9273636006
52 BURGUNDY CRESCENT BURGUNDY HILL SINGAPORE 658765,52,BURGUNDY HILL,1.34015295038367,103.761186384748,103.761186384748,658765,BURGUNDY CRESCENT,BURGUNDY HILL,19972.4604491722,35812.9388291594
53 BURGUNDY CRESCENT BURGUNDY HILL SINGAPORE 658766,53,BURGUNDY HILL,1.34006767086209,103.760277108925,103.760277108925,658766,BURGUNDY CRESCENT,BURGUNDY HILL,19871.2674666289,35803.5120472386
54 BURGUNDY CRESCENT BURGUNDY HILL SINGAPORE 658767,54,BURGUNDY HILL,1.34005261727779,103.761215820883,103.761215820883,658767,BURGUNDY CRESCENT,BURGUNDY HILL,19975.7360503692,35801.8444024082
55 BURGUNDY CRESCENT BURGUNDY HILL SINGAPORE 658768,55,BURGUNDY HILL,1.34012148937245,103.760292964867,103.760292964867,658768,BURGUNDY CRESCENT,BURGUNDY HILL,19873.032241419,35809.4629749823
56 BURGUNDY CRESCENT BURGUNDY HILL SINGAPORE 658769,56,BURGUNDY HILL,1.34000426202164,103.761230802984,103.761230802984,658769,BURGUNDY CRESCENT,BURGUNDY HILL,19977.4032411808,35796.4974722806
57 BURGUNDY CRESCENT BURGUNDY HILL SINGAPORE 658770,57,BURGUNDY HILL,1.34020526205833,103.760341400153,103.760341400153,658770,BURGUNDY CRESCENT,BURGUNDY HILL,19878.4228482479,35818.7259768434
58 BURGUNDY CRESCENT BURGUNDY HILL SINGAPORE 658771,58,BURGUNDY HILL,1.33972586228152,103.761206026263,103.761206026263,658771,BURGUNDY CRESCENT,BURGUNDY HILL,19974.6449500928,35765.7135102451
59 BURGUNDY CRESCENT BURGUNDY HILL SINGAPORE 658772,59,BURGUNDY HILL,1.34024672716599,103.760380636847,103.760380636847,658772,BURGUNDY CRESCENT,BURGUNDY HILL,19882.7896102583,35823.3108499441
60 BURGUNDY CRESCENT BURGUNDY HILL SINGAPORE 658773,60,BURGUNDY HILL,1.33974039179754,103.761254230243,103.761254230243,658773,BURGUNDY CRESCENT,BURGUNDY HILL,19980.0095869908,35767.3199532125
61 BURGUNDY CRESCENT BURGUNDY HILL SINGAPORE 658774,61,BURGUNDY HILL,1.34028611687134,103.760466891387,103.760466891387,658774,BURGUNDY CRESCENT,BURGUNDY HILL,19892.388949954,35827.6660798527
62 BURGUNDY CRESCENT BURGUNDY HILL SINGAPORE 658775,62,BURGUNDY HILL,1.33976960986386,103.761350583259,103.761350583259,658775,BURGUNDY CRESCENT,BURGUNDY HILL,19990.7327466542,35770.5504248459
63 BURGUNDY CRESCENT BURGUNDY HILL SINGAPORE 658776,63,BURGUNDY HILL,1.34031637101497,103.760507245691,103.760507245691,658776,BURGUNDY CRESCENT,BURGUNDY HILL,19896.8800528422,35831.0112974141
64 BURGUNDY CRESCENT BURGUNDY HILL SINGAPORE 658777,64,BURGUNDY HILL,1.33978412377453,103.761398793496,103.761398793496,658777,BURGUNDY CRESCENT,BURGUNDY HILL,19996.0980797159,35772.1551425401
65 BURGUNDY CRESCENT BURGUNDY HILL SINGAPORE 658778,65,BURGUNDY HILL,1.34037171326207,103.760582765432,103.760582765432,658778,BURGUNDY CRESCENT,BURGUNDY HILL,19905.2847757572,35837.1305151451
66 BURGUNDY CRESCENT BURGUNDY HILL SINGAPORE 658779,66,BURGUNDY HILL,1.3398133366344,103.761495146245,103.761495146245,658779,BURGUNDY CRESCENT,BURGUNDY HILL,20006.8212091113,35775.3850390818
67 BURGUNDY CRESCENT BURGUNDY HILL SINGAPORE 658780,67,BURGUNDY HILL,1.34040186722018,103.76062320215,103.76062320215,658780,BURGUNDY CRESCENT,BURGUNDY HILL,19909.7850498445,35840.4646546245
68 BURGUNDY CRESCENT BURGUNDY HILL SINGAPORE 658781,68,BURGUNDY HILL,1.33982784534143,103.761543358659,103.761543358659,658781,BURGUNDY CRESCENT,BURGUNDY HILL,20012.1867843168,35776.9891816825
69 BURGUNDY CRESCENT BURGUNDY HILL SINGAPORE 658782,69,BURGUNDY HILL,1.34044717622912,103.760704177751,103.760704177751,658782,BURGUNDY CRESCENT,BURGUNDY HILL,19918.7969182441,35845.4744296819
70 BURGUNDY CRESCENT BURGUNDY HILL SINGAPORE 658783,70,BURGUNDY HILL,1.33985705518484,103.761639715491,103.761639715491,658783,BURGUNDY CRESCENT,BURGUNDY HILL,20022.9103677319,35780.2187452782
71 BURGUNDY CRESCENT BURGUNDY HILL SINGAPORE 658784,71,BURGUNDY HILL,1.34046871706536,103.760749730044,103.760749730044,658784,BURGUNDY CRESCENT,BURGUNDY HILL,19923.8664725693,35847.8561567832
72 BURGUNDY CRESCENT BURGUNDY HILL SINGAPORE 658785,72,BURGUNDY HILL,1.33987155814075,103.761687929812,103.761687929812,658785,BURGUNDY CRESCENT,BURGUNDY HILL,20028.2761548134,35781.8222522512
73 BURGUNDY CRESCENT BURGUNDY HILL SINGAPORE 658786,73,BURGUNDY HILL,1.34051230407512,103.760832622856,103.760832622856,658786,BURGUNDY CRESCENT,BURGUNDY HILL,19933.0916999867,35852.6755159553
75 BURGUNDY CRESCENT BURGUNDY HILL SINGAPORE 658787,75,BURGUNDY HILL,1.34053385202606,103.760878171344,103.760878171344,658787,BURGUNDY CRESCENT,BURGUNDY HILL,19938.1608305592,35855.058030026
77 BURGUNDY CRESCENT BURGUNDY HILL SINGAPORE 658788,77,BURGUNDY HILL,1.34057738346296,103.760961031797,103.760961031797,658788,BURGUNDY CRESCENT,BURGUNDY HILL,19947.3824560866,35859.8712447956
79 BURGUNDY CRESCENT BURGUNDY HILL SINGAPORE 658789,79,BURGUNDY HILL,1.34059908716377,103.761006522352,103.761006522352,658789,BURGUNDY CRESCENT,BURGUNDY HILL,19952.4451395795,35862.2709813491
81 BURGUNDY CRESCENT BURGUNDY HILL SINGAPORE 658790,81,BURGUNDY HILL,1.34067204719826,103.761075947709,103.761075947709,658790,BURGUNDY CRESCENT,BURGUNDY HILL,19960.1716780504,35870.3383070491
83 BURGUNDY CRESCENT BURGUNDY HILL SINGAPORE 658791,83,BURGUNDY HILL,1.34072266443662,103.761120679967,103.761120679967,658791,BURGUNDY CRESCENT,BURGUNDY HILL,19965.1500652088,35875.9351599179
85 BURGUNDY CRESCENT BURGUNDY HILL SINGAPORE 658792,85,BURGUNDY HILL,1.34076773302022,103.76121768013,103.76121768013,658792,BURGUNDY CRESCENT,BURGUNDY HILL,19975.9452929413,35880.9182991497
87 BURGUNDY CRESCENT BURGUNDY HILL SINGAPORE 658793,87,BURGUNDY HILL,1.34073661897902,103.761265826989,103.761265826989,658793,BURGUNDY CRESCENT,BURGUNDY HILL,19981.3034222228,35877.4777071737
89 BURGUNDY CRESCENT BURGUNDY HILL SINGAPORE 658794,89,BURGUNDY HILL,1.34069475441304,103.761352789169,103.761352789169,658794,BURGUNDY CRESCENT,BURGUNDY HILL,19990.9812468002,35872.8482493311
91 BURGUNDY CRESCENT BURGUNDY HILL SINGAPORE 658795,91,BURGUNDY HILL,1.34066034491691,103.761392208422,103.761392208422,658795,BURGUNDY CRESCENT,BURGUNDY HILL,19995.3680764847,35869.0432913657
93 BURGUNDY CRESCENT BURGUNDY HILL SINGAPORE 658796,93,BURGUNDY HILL,1.34056182771336,103.761420355882,103.761420355882,658796,BURGUNDY CRESCENT,BURGUNDY HILL,19998.500267976,35858.1496624183
95 BURGUNDY CRESCENT BURGUNDY HILL SINGAPORE 658797,95,BURGUNDY HILL,1.34051078002808,103.761444828924,103.761444828924,658797,BURGUNDY CRESCENT,BURGUNDY HILL,20001.2236903468,35852.5049861353
97 BURGUNDY CRESCENT BURGUNDY HILL SINGAPORE 658798,97,BURGUNDY HILL,1.34041702620823,103.761459929025,103.761459929025,658798,BURGUNDY CRESCENT,BURGUNDY HILL,20002.9038661225,35842.1381109077
99 BURGUNDY CRESCENT BURGUNDY HILL SINGAPORE 658799,99,BURGUNDY HILL,1.34036825812113,103.76147353766,103.76147353766,658799,BURGUNDY CRESCENT,BURGUNDY HILL,20004.4182036165,35836.7455366608
101 BURGUNDY CRESCENT BURGUNDY HILL SINGAPORE 658800,101,BURGUNDY HILL,1.34027846093392,103.761501326123,103.761501326123,658800,BURGUNDY CRESCENT,BURGUNDY HILL,20007.5104716364,35826.8161246032
103 BURGUNDY CRESCENT BURGUNDY HILL SINGAPORE 658801,103,BURGUNDY HILL,1.34022969312015,103.761514934212,103.761514934212,658801,BURGUNDY CRESCENT,BURGUNDY HILL,20009.0247485936,35821.4235806242
105 BURGUNDY CRESCENT BURGUNDY HILL SINGAPORE 658802,105,BURGUNDY HILL,1.34013988990893,103.761542684051,103.761542684051,658802,BURGUNDY CRESCENT,BURGUNDY HILL,20012.1127185607,35811.493502669
107 BURGUNDY CRESCENT BURGUNDY HILL SINGAPORE 658803,107,BURGUNDY HILL,1.34009112401118,103.761556300025,103.761556300025,658803,BURGUNDY CRESCENT,BURGUNDY HILL,20013.6278732894,35806.1011705659
1 BURGUNDY DRIVE BURGUNDY HILL SINGAPORE 658804,1,BURGUNDY HILL,1.33782425660883,103.760698126807,103.760698126807,658804,BURGUNDY DRIVE,BURGUNDY HILL,19918.114920035,35555.4451871067
2 BURGUNDY DRIVE BURGUNDY HILL SINGAPORE 658805,2,BURGUNDY HILL,1.33820008865032,103.760719003462,103.760719003462,658805,BURGUNDY DRIVE,BURGUNDY HILL,19920.439501185,35597.0027352665
3 BURGUNDY DRIVE BURGUNDY HILL SINGAPORE 658806,3,BURGUNDY HILL,1.33784710483868,103.760763694495,103.760763694495,658806,BURGUNDY DRIVE,BURGUNDY HILL,19925.4119860856,35557.9714135639
4 BURGUNDY DRIVE BURGUNDY HILL SINGAPORE 658807,4,BURGUNDY HILL,1.33821878301143,103.760767013096,103.760767013096,658807,BURGUNDY DRIVE,BURGUNDY HILL,19925.7825267427,35599.0697056074
5 BURGUNDY DRIVE BURGUNDY HILL SINGAPORE 658808,5,BURGUNDY HILL,1.33787621151216,103.760860076537,103.760860076537,658808,BURGUNDY DRIVE,BURGUNDY HILL,19936.1383844232,35561.189566128
6 BURGUNDY DRIVE BURGUNDY HILL SINGAPORE 658809,6,BURGUNDY HILL,1.33824737884889,103.760861666219,103.760861666219,658809,BURGUNDY DRIVE,BURGUNDY HILL,19936.3165115071,35602.2313781139
7 BURGUNDY DRIVE BURGUNDY HILL SINGAPORE 658810,7,BURGUNDY HILL,1.33789082178357,103.760908255182,103.760908255182,658810,BURGUNDY DRIVE,BURGUNDY HILL,19941.5002063988,35562.8049381524
8 BURGUNDY DRIVE BURGUNDY HILL SINGAPORE 658811,8,BURGUNDY HILL,1.33826186621575,103.76090988268,103.76090988268,658811,BURGUNDY DRIVE,BURGUNDY HILL,19941.6825407324,35603.8331598118
9 BURGUNDY DRIVE BURGUNDY HILL SINGAPORE 658812,9,BURGUNDY HILL,1.33791995281249,103.761004595615,103.761004595615,658812,BURGUNDY DRIVE,BURGUNDY HILL,19952.2219737349,35566.025784567
10 BURGUNDY DRIVE BURGUNDY HILL SINGAPORE 658813,10,BURGUNDY HILL,1.33829099615099,103.761006243253,103.761006243253,658813,BURGUNDY DRIVE,BURGUNDY HILL,19952.4065479003,35607.0538851563
11 BURGUNDY DRIVE BURGUNDY HILL SINGAPORE 658814,11,BURGUNDY HILL,1.3379372347544,103.761054199878,103.761054199878,658814,BURGUNDY DRIVE,BURGUNDY HILL,19957.7424604818,35567.9365721103
12 BURGUNDY DRIVE BURGUNDY HILL SINGAPORE 658815,12,BURGUNDY HILL,1.33830549035834,103.761054458083,103.761054458083,658815,BURGUNDY DRIVE,BURGUNDY HILL,19957.7723955177,35608.6564235538
13 BURGUNDY DRIVE BURGUNDY HILL SINGAPORE 658816,13,BURGUNDY HILL,1.33796368808339,103.761149148695,103.761149148695,658816,BURGUNDY DRIVE,BURGUNDY HILL,19968.3093465446,35570.8613371104
14 BURGUNDY DRIVE BURGUNDY HILL SINGAPORE 658817,14,BURGUNDY HILL,1.33833464683996,103.761150813219,103.761150813219,658817,BURGUNDY DRIVE,BURGUNDY HILL,19968.4957973249,35611.8800848909
15 BURGUNDY DRIVE BURGUNDY HILL SINGAPORE 658818,15,BURGUNDY HILL,1.33797826030078,103.7611973404,103.7611973404,658818,BURGUNDY DRIVE,BURGUNDY HILL,19973.6726213833,35572.4725018833
16 BURGUNDY DRIVE BURGUNDY HILL SINGAPORE 658819,16,BURGUNDY HILL,1.33834915199375,103.761199024788,103.761199024788,658819,BURGUNDY DRIVE,BURGUNDY HILL,19973.8612817265,35613.4838340096
17 BURGUNDY DRIVE BURGUNDY HILL SINGAPORE 658820,17,BURGUNDY HILL,1.33800738611855,103.761293708853,103.761293708853,658820,BURGUNDY DRIVE,BURGUNDY HILL,19984.3975063218,35575.6927732062
18 BURGUNDY DRIVE BURGUNDY HILL SINGAPORE 658821,18,BURGUNDY HILL,1.33837776560695,103.761293656707,103.761293656707,658821,BURGUNDY DRIVE,BURGUNDY HILL,19984.3929055883,35616.647473935
19 BURGUNDY DRIVE BURGUNDY HILL SINGAPORE 658822,19,BURGUNDY HILL,1.33802196079676,103.761341899744,103.761341899744,658822,BURGUNDY DRIVE,BURGUNDY HILL,19989.7606903575,35577.3042103909
20 BURGUNDY DRIVE BURGUNDY HILL SINGAPORE 658823,20,BURGUNDY HILL,1.33839228225468,103.761341864741,103.761341864741,658823,BURGUNDY DRIVE,BURGUNDY HILL,19989.757996507,35618.2524943072
21 BURGUNDY DRIVE BURGUNDY HILL SINGAPORE 658824,21,BURGUNDY HILL,1.33805110139062,103.76143827092,103.76143827092,658824,BURGUNDY DRIVE,BURGUNDY HILL,20000.4858779758,35580.5261161868
22 BURGUNDY DRIVE BURGUNDY HILL SINGAPORE 658825,22,BURGUNDY HILL,1.33841936910318,103.761431340599,103.761431340599,658825,BURGUNDY DRIVE,BURGUNDY HILL,19999.7157999333,35621.2473296877
23 BURGUNDY DRIVE BURGUNDY HILL SINGAPORE 658826,23,BURGUNDY HILL,1.33806565060914,103.761486469429,103.761486469429,658826,BURGUNDY DRIVE,BURGUNDY HILL,20005.8499095142,35582.134738449
24 BURGUNDY DRIVE BURGUNDY HILL SINGAPORE 658827,24,BURGUNDY HILL,1.33843388574828,103.761479548363,103.761479548363,658827,BURGUNDY DRIVE,BURGUNDY HILL,20005.080860584,35622.8523500618
25 BURGUNDY DRIVE BURGUNDY HILL SINGAPORE 658828,25,BURGUNDY HILL,1.33809480406256,103.76158282837,103.76158282837,658828,BURGUNDY DRIVE,BURGUNDY HILL,20016.5737350732,35585.3580668401
26 BURGUNDY DRIVE BURGUNDY HILL SINGAPORE 658829,26,BURGUNDY HILL,1.33847605715691,103.761568264974,103.761568264974,658829,BURGUNDY DRIVE,BURGUNDY HILL,20014.9542163359,35627.5151632205
27 BURGUNDY DRIVE BURGUNDY HILL SINGAPORE 658830,27,BURGUNDY HILL,1.33810934588758,103.7616310296,103.7616310296,658830,BURGUNDY DRIVE,BURGUNDY HILL,20021.9380692914,35586.9658718668
28 BURGUNDY DRIVE BURGUNDY HILL SINGAPORE 658831,28,BURGUNDY HILL,1.33849057790532,103.76161647138,103.76161647138,658831,BURGUNDY DRIVE,BURGUNDY HILL,20020.3191256458,35629.1206376124
29 BURGUNDY DRIVE BURGUNDY HILL SINGAPORE 658832,29,BURGUNDY HILL,1.33815185562148,103.76173830117,103.76173830117,658832,BURGUNDY DRIVE,BURGUNDY HILL,20033.8763976973,35591.6660357174
31 BURGUNDY DRIVE BURGUNDY HILL SINGAPORE 658833,31,BURGUNDY HILL,1.33817905275943,103.761780788921,103.761780788921,658833,BURGUNDY DRIVE,BURGUNDY HILL,20038.6049226495,35594.673220437
33 BURGUNDY DRIVE BURGUNDY HILL SINGAPORE 658834,33,BURGUNDY HILL,1.33824900369768,103.761871284532,103.761871284532,658834,BURGUNDY DRIVE,BURGUNDY HILL,20048.6763520874,35602.4077496547
35 BURGUNDY DRIVE BURGUNDY HILL SINGAPORE 658835,35,BURGUNDY HILL,1.33828495569378,103.761906738205,103.761906738205,658835,BURGUNDY DRIVE,BURGUNDY HILL,20052.6220864449,35606.3830255643
37 BURGUNDY DRIVE BURGUNDY HILL SINGAPORE 658836,37,BURGUNDY HILL,1.33837203286764,103.761974439613,103.761974439613,658836,BURGUNDY DRIVE,BURGUNDY HILL,20060.1568167033,35616.0113619901
39 BURGUNDY DRIVE BURGUNDY HILL SINGAPORE 658837,39,BURGUNDY HILL,1.33842912292747,103.761996409497,103.761996409497,658837,BURGUNDY DRIVE,BURGUNDY HILL,20062.6020157682,35622.3240224049
41 BURGUNDY DRIVE BURGUNDY HILL SINGAPORE 658838,41,BURGUNDY HILL,1.33852872029426,103.762005767741,103.762005767741,658838,BURGUNDY DRIVE,BURGUNDY HILL,20063.6438094992,35633.3369677458
43 BURGUNDY DRIVE BURGUNDY HILL SINGAPORE 658839,43,BURGUNDY HILL,1.3385858951362,103.762006474041,103.762006474041,658839,BURGUNDY DRIVE,BURGUNDY HILL,20063.7225970607,35639.6590717714
45 BURGUNDY DRIVE BURGUNDY HILL SINGAPORE 658840,45,BURGUNDY HILL,1.33867499404265,103.761978763696,103.761978763696,658840,BURGUNDY DRIVE,BURGUNDY HILL,20060.6390159521,35649.5112702046
47 BURGUNDY DRIVE BURGUNDY HILL SINGAPORE 658841,47,BURGUNDY HILL,1.33872660184335,103.761965363606,103.761965363606,658841,BURGUNDY DRIVE,BURGUNDY HILL,20059.1478940025,35655.2178445142
49 BURGUNDY DRIVE BURGUNDY HILL SINGAPORE 658842,49,BURGUNDY HILL,1.33881357438601,103.76193739739,103.76193739739,658842,BURGUNDY DRIVE,BURGUNDY HILL,20056.0358307203,35664.8349212483
51 BURGUNDY DRIVE BURGUNDY HILL SINGAPORE 658843,51,BURGUNDY HILL,1.33886233234819,103.761923755322,103.761923755322,658843,BURGUNDY DRIVE,BURGUNDY HILL,20054.5177702652,35670.2263755798
53 BURGUNDY DRIVE BURGUNDY HILL SINGAPORE 658844,53,BURGUNDY HILL,1.33895214021948,103.761895998714,103.761895998714,658844,BURGUNDY DRIVE,BURGUNDY HILL,20051.4290435985,35680.1569680907
55 BURGUNDY DRIVE BURGUNDY HILL SINGAPORE 658845,55,BURGUNDY HILL,1.33900089845514,103.76188236018,103.76188236018,658845,BURGUNDY DRIVE,BURGUNDY HILL,20049.9113766272,35685.5484526902
57 BURGUNDY DRIVE BURGUNDY HILL SINGAPORE 658846,57,BURGUNDY HILL,1.33909070659981,103.761854616895,103.761854616895,658846,BURGUNDY DRIVE,BURGUNDY HILL,20046.8241330916,35695.4790754672
59 BURGUNDY DRIVE BURGUNDY HILL SINGAPORE 658847,59,BURGUNDY HILL,1.33913946757259,103.761840984887,103.761840984887,658847,BURGUNDY DRIVE,BURGUNDY HILL,20045.3071925519,35700.8708627466
61 BURGUNDY DRIVE BURGUNDY HILL SINGAPORE 658848,61,BURGUNDY HILL,1.33922927325218,103.761813215217,103.761813215217,658848,BURGUNDY DRIVE,BURGUNDY HILL,20042.2170130219,35710.8012131136
63 BURGUNDY DRIVE BURGUNDY HILL SINGAPORE 658849,63,BURGUNDY HILL,1.33927803614092,103.761799590278,103.761799590278,658849,BURGUNDY DRIVE,BURGUNDY HILL,20040.7008594498,35716.1932122689
65 BURGUNDY DRIVE SINGAPORE 658850,65,NIL,1.33933027940325,103.761706784462,103.761706784462,658850,BURGUNDY DRIVE,65 BURGUNDY DRIVE SINGAPORE 658850,20030.3727272414,35721.9703109805
67 BURGUNDY DRIVE BURGUNDY HILL SINGAPORE 658851,67,BURGUNDY HILL,1.33941624335046,103.761757157273,103.761757157273,658851,BURGUNDY DRIVE,BURGUNDY HILL,20035.978963186,35731.4756080508
1 BURGUNDY RISE BURGUNDY HILL SINGAPORE 658852,1,BURGUNDY HILL,1.33876591833556,103.760659311054,103.760659311054,658852,BURGUNDY RISE,BURGUNDY HILL,19913.7982212696,35659.5695330687
2 BURGUNDY RISE BURGUNDY HILL SINGAPORE 658853,2,BURGUNDY HILL,1.33842361730027,103.760725088594,103.760725088594,658853,BURGUNDY RISE,BURGUNDY HILL,19921.1174434843,35621.719389163
3 BURGUNDY RISE BURGUNDY HILL SINGAPORE 658854,3,BURGUNDY HILL,1.33878048536236,103.760707504131,103.760707504131,658854,BURGUNDY RISE,BURGUNDY HILL,19919.1616474483,35661.1801227499
4 BURGUNDY RISE BURGUNDY HILL SINGAPORE 658855,4,BURGUNDY HILL,1.33843815804736,103.76077328928,103.76077328928,658855,BURGUNDY RISE,BURGUNDY HILL,19926.4817171665,35623.3270731177
5 BURGUNDY RISE BURGUNDY HILL SINGAPORE 658856,5,BURGUNDY HILL,1.33880961831826,103.760803889471,103.760803889471,658856,BURGUNDY RISE,BURGUNDY HILL,19929.8884090018,35664.4011810422
6 BURGUNDY RISE BURGUNDY HILL SINGAPORE 658857,6,BURGUNDY HILL,1.33846736572725,103.760869613955,103.760869613955,658857,BURGUNDY RISE,BURGUNDY HILL,19937.2017289596,35626.5563945677
7 BURGUNDY RISE BURGUNDY HILL SINGAPORE 658858,7,BURGUNDY HILL,1.33882418342616,103.760852083093,103.760852083093,658858,BURGUNDY RISE,BURGUNDY HILL,19935.2518957164,35666.0115588475
8 BURGUNDY RISE BURGUNDY HILL SINGAPORE 658859,8,BURGUNDY HILL,1.33848191440977,103.760917812196,103.760917812196,658859,BURGUNDY RISE,BURGUNDY HILL,19942.56573023,35628.1649562959
9 BURGUNDY RISE BURGUNDY HILL SINGAPORE 658860,9,BURGUNDY HILL,1.33885335853044,103.760948437974,103.760948437974,658860,BURGUNDY RISE,BURGUNDY HILL,19945.9752672557,35669.2372784074
10 BURGUNDY RISE BURGUNDY HILL SINGAPORE 658861,10,BURGUNDY HILL,1.33851111852544,103.761014131979,103.761014131979,658861,BURGUNDY RISE,BURGUNDY HILL,19953.2851971993,35631.3938842621
11 BURGUNDY RISE BURGUNDY HILL SINGAPORE 658862,11,BURGUNDY HILL,1.33886789927362,103.760996638671,103.760996638671,658862,BURGUNDY RISE,BURGUNDY HILL,19951.3395409379,35670.8449623641
12 BURGUNDY RISE BURGUNDY HILL SINGAPORE 658863,12,BURGUNDY HILL,1.33852566337293,103.761062331309,103.761062331309,658863,BURGUNDY RISE,BURGUNDY HILL,19958.6493195416,35633.0020222366
13 BURGUNDY RISE BURGUNDY HILL SINGAPORE 658864,13,BURGUNDY HILL,1.33889706013916,103.761093024289,103.761093024289,658864,BURGUNDY RISE,BURGUNDY HILL,19962.0663327593,35674.0691079888
14 BURGUNDY RISE BURGUNDY HILL SINGAPORE 658865,14,BURGUNDY HILL,1.33855487213659,103.761158652456,103.761158652456,658865,BURGUNDY RISE,BURGUNDY HILL,19969.3689378509,35636.2314647604
15 BURGUNDY RISE BURGUNDY HILL SINGAPORE 658866,15,BURGUNDY HILL,1.33891160334311,103.761141224715,103.761141224715,658866,BURGUNDY RISE,BURGUNDY HILL,19967.4305761736,35675.6770643555
16 BURGUNDY RISE BURGUNDY HILL SINGAPORE 658867,16,BURGUNDY HILL,1.33856941178047,103.761206854236,103.761206854236,658867,BURGUNDY RISE,BURGUNDY HILL,19974.7333326051,35637.8390276432
17 BURGUNDY RISE BURGUNDY HILL SINGAPORE 658868,17,BURGUNDY HILL,1.33894075571718,103.76123760245,103.76123760245,658868,BURGUNDY RISE,BURGUNDY HILL,19978.1564902235,35678.9002716746
18 BURGUNDY RISE BURGUNDY HILL SINGAPORE 658869,18,BURGUNDY HILL,1.33859862738194,103.761303176202,103.761303176202,658869,BURGUNDY RISE,BURGUNDY HILL,19985.4530417183,35641.0692268647
19 BURGUNDY RISE BURGUNDY HILL SINGAPORE 658870,19,BURGUNDY HILL,1.33895531616339,103.761285797983,103.761285797983,658870,BURGUNDY RISE,BURGUNDY HILL,19983.520188814,35680.5101349242
20 BURGUNDY RISE BURGUNDY HILL SINGAPORE 658871,20,BURGUNDY HILL,1.33861317769851,103.761351373904,103.761351373904,658871,BURGUNDY RISE,BURGUNDY HILL,19990.8169824528,35642.6779702008
21 BURGUNDY RISE BURGUNDY HILL SINGAPORE 658872,21,BURGUNDY HILL,1.33898448714515,103.761382156954,103.761382156954,658872,BURGUNDY RISE,BURGUNDY HILL,19994.244014373,35683.7354004644
22 BURGUNDY RISE BURGUNDY HILL SINGAPORE 658873,22,BURGUNDY HILL,1.33865966802232,103.761447877594,103.761447877594,658873,BURGUNDY RISE,BURGUNDY HILL,20001.5569711151,35647.8183213379
23 BURGUNDY RISE BURGUNDY HILL SINGAPORE 658874,23,BURGUNDY HILL,1.33900476458877,103.761433502614,103.761433502614,658874,BURGUNDY RISE,BURGUNDY HILL,19999.9583070194,35685.9774105549
24 BURGUNDY RISE BURGUNDY HILL SINGAPORE 658875,24,BURGUNDY HILL,1.33867659648294,103.76150390921,103.76150390921,658875,BURGUNDY RISE,BURGUNDY HILL,20007.7927508531,35649.6900026482
25 BURGUNDY RISE BURGUNDY HILL SINGAPORE 658876,25,BURGUNDY HILL,1.33902819009732,103.761526734311,103.761526734311,658876,BURGUNDY RISE,BURGUNDY HILL,20010.3340810332,35688.5673813857
26 BURGUNDY RISE BURGUNDY HILL SINGAPORE 658877,26,BURGUNDY HILL,1.33870874540766,103.761610043701,103.761610043701,658877,BURGUNDY RISE,BURGUNDY HILL,20019.6044985503,35653.2445233148
27 BURGUNDY RISE BURGUNDY HILL SINGAPORE 658878,27,BURGUNDY HILL,1.33904275300152,103.761574928215,103.761574928215,658878,BURGUNDY RISE,BURGUNDY HILL,20015.6975980159,35690.1775170472
28 BURGUNDY RISE BURGUNDY HILL SINGAPORE 658879,28,BURGUNDY HILL,1.33872593938288,103.761665989639,103.761665989639,658879,BURGUNDY RISE,BURGUNDY HILL,20025.8307438735,35655.1455645692
5 BUKIT BATOK STREET 25 PARKVIEW APARTMENTS SINGAPORE 658880,5,PARKVIEW APARTMENTS,1.34166845930024,103.760762073407,103.760762073407,658880,BUKIT BATOK STREET 25,PARKVIEW APARTMENTS,19925.2440895801,35980.5175815467
3 BUKIT BATOK STREET 25 PARKVIEW APARTMENTS SINGAPORE 658881,3,PARKVIEW APARTMENTS,1.34142520477971,103.759966438393,103.759966438393,658881,BUKIT BATOK STREET 25,PARKVIEW APARTMENTS,19836.6976457257,35953.6223592553
1 BUKIT BATOK STREET 25 PARKVIEW APARTMENTS SINGAPORE 658882,1,PARKVIEW APARTMENTS,1.34093520136311,103.76066764737,103.76066764737,658882,BUKIT BATOK STREET 25,PARKVIEW APARTMENTS,19914.7330782143,35899.4379163273
50 BUKIT BATOK WEST AVENUE 8 BUKIT BATOK SECONDARY SCHOOL SINGAPORE 658962,50,BUKIT BATOK SECONDARY SCHOOL,1.34835121539207,103.740873402493,103.740873402493,658962,BUKIT BATOK WEST AVENUE 8,BUKIT BATOK SECONDARY SCHOOL,17711.8759570373,36719.5381900128
395 BUKIT BATOK WEST AVENUE 8 SATTHA PUCHANIYARAM BUDDHIST TEMPLE SINGAPORE 658963,395,SATTHA PUCHANIYARAM BUDDHIST TEMPLE,1.34698272742206,103.740402048326,103.740402048326,658963,BUKIT BATOK WEST AVENUE 8,SATTHA PUCHANIYARAM BUDDHIST TEMPLE,17659.4136413112,36568.2195800878
397 BUKIT BATOK WEST AVENUE 8 GUILIN COMBINED TEMPLE SINGAPORE 658964,397,GUILIN COMBINED TEMPLE,1.34714333289447,103.740039791929,103.740039791929,658964,BUKIT BATOK WEST AVENUE 8,GUILIN COMBINED TEMPLE,17619.0991387069,36585.9800762329
60 BUKIT BATOK WEST AVENUE 8 MILLENNIA INSTITUTE SINGAPORE 658965,60,MILLENNIA INSTITUTE,1.35031929565511,103.741593553753,103.741593553753,658965,BUKIT BATOK WEST AVENUE 8,MILLENNIA INSTITUTE,17792.0290890066,36937.1557006687
71 BUKIT BATOK WEST AVENUE 8 DULWICH COLLEGE (SINGAPORE) SINGAPORE 658966,71,DULWICH COLLEGE (SINGAPORE),1.35265315566715,103.73850337516,103.73850337516,658966,BUKIT BATOK WEST AVENUE 8,DULWICH COLLEGE (SINGAPORE),17448.1364862761,37195.235573031
2 BUKIT BATOK WEST AVENUE 7 DBS NTUC HOMETEAM BUKIT BATOK SINGAPORE 659003,2,DBS NTUC HOMETEAM BUKIT BATOK,1.36577391240463,103.748520902563,103.748520902563,659003,BUKIT BATOK WEST AVENUE 7,DBS NTUC HOMETEAM BUKIT BATOK,18563.0261877989,38646.0222867057
800 BUKIT BATOK WEST AVENUE 5 BUKIT GOMBAK STADIUM SINGAPORE 659081,800,BUKIT GOMBAK STADIUM,1.3579070541115,103.753023747522,103.753023747522,659081,BUKIT BATOK WEST AVENUE 5,BUKIT GOMBAK STADIUM,19064.11069082,37776.127123896
802 BUKIT BATOK WEST AVENUE 5 CITIBANK BUKIT GOMBAK SMRT STATION SINGAPORE 659083,802,CITIBANK BUKIT GOMBAK SMRT STATION,1.35873020505421,103.751912957251,103.751912957251,659083,BUKIT BATOK WEST AVENUE 5,CITIBANK BUKIT GOMBAK SMRT STATION,18940.4955188874,37867.151183825
813 BUKIT BATOK WEST AVENUE 5 DBS EXXONMOBIL BUKIT BATOK WEST AVENUE 5 SINGAPORE 659084,813,DBS EXXONMOBIL BUKIT BATOK WEST AVENUE 5,1.36663551749689,103.75055285049,103.75055285049,659084,BUKIT BATOK WEST AVENUE 5,DBS EXXONMOBIL BUKIT BATOK WEST AVENUE 5,18789.1612906819,38741.2864068653
815 BUKIT BATOK WEST AVENUE 5 BUKIT BATOK DRIVING CENTRE SINGAPORE 659085,815,BUKIT BATOK DRIVING CENTRE,1.36679993189692,103.750142097757,103.750142097757,659085,BUKIT BATOK WEST AVENUE 5,BUKIT BATOK DRIVING CENTRE,18743.45000658,38759.4681122731
817 BUKIT BATOK WEST AVENUE 5 ZU-LIN TEMPLE SINGAPORE 659086,817,ZU-LIN TEMPLE,1.36775171446789,103.749516177489,103.749516177489,659086,BUKIT BATOK WEST AVENUE 5,ZU-LIN TEMPLE,18673.7961722668,38864.7139173001
821 BUKIT BATOK WEST AVENUE 5 SINGAPORE 659087,821,NIL,1.36737738125364,103.748706241861,103.748706241861,659087,BUKIT BATOK WEST AVENUE 5,821 BUKIT BATOK WEST AVENUE 5 SINGAPORE 659087,18583.6585102398,38823.3251736853
810 BUKIT BATOK WEST AVENUE 5 BUKIT GOMBAK SPORTS CENTRE SINGAPORE 659088,810,BUKIT GOMBAK SPORTS CENTRE,1.35975603325519,103.752285494299,103.752285494299,659088,BUKIT BATOK WEST AVENUE 5,BUKIT GOMBAK SPORTS CENTRE,18981.9584190622,37980.5807554852
816 BUKIT BATOK WEST AVENUE 5 SINGAPORE 659089,816,NIL,1.36738617711472,103.751125599144,103.751125599144,659089,BUKIT BATOK WEST AVENUE 5,816 BUKIT BATOK WEST AVENUE 5 SINGAPORE 659089,18852.9042720627,38824.2884219997
1 BUKIT BATOK WEST AVENUE 4 GRACE ASSEMBLY OF GOD CHURCH SINGAPORE 659125,1,GRACE ASSEMBLY OF GOD CHURCH,1.36486433901576,103.747513266647,103.747513266647,659125,BUKIT BATOK WEST AVENUE 4,GRACE ASSEMBLY OF GOD CHURCH,18450.8846096499,38545.4501610454
30 BUKIT BATOK WEST AVENUE 3 BIG HEART STUDENT CARE (PRINCESS ELIZABETH PRIMARY SCHOOL) SINGAPORE 659163,30,BIG HEART STUDENT CARE (PRINCESS ELIZABETH PRIMARY SCHOOL),1.34919098857585,103.740719208011,103.740719208011,659163,BUKIT BATOK WEST AVENUE 3,BIG HEART STUDENT CARE (PRINCESS ELIZABETH PRIMARY SCHOOL),17694.7193374345,36812.396792436
50 BUKIT BATOK WEST AVENUE 3 BUKIT BATOK POLYCLINIC SINGAPORE 659164,50,BUKIT BATOK POLYCLINIC,1.35201517590477,103.747822265461,103.747822265461,659164,BUKIT BATOK WEST AVENUE 3,BUKIT BATOK POLYCLINIC,18485.2222751183,37124.6524208132
11 BUKIT BATOK WEST AVENUE 3 SHELL BUKIT BATOK ROAD SINGAPORE 659166,11,SHELL BUKIT BATOK ROAD,1.35031761360936,103.738434196577,103.738434196577,659166,BUKIT BATOK WEST AVENUE 3,SHELL BUKIT BATOK ROAD,17440.4275940396,36936.9832034297
101 BUKIT BATOK WEST AVENUE 3 EDEN SCHOOL SINGAPORE 659168,101,EDEN SCHOOL,1.35139724771138,103.742956148248,103.742956148248,659168,BUKIT BATOK WEST AVENUE 3,EDEN SCHOOL,17943.6751985159,37056.344603736
1 BUKIT BATOK WEST AVENUE 2 SINGAPORE 659203,1,NIL,1.36286550210696,103.743630618849,103.743630618849,659203,BUKIT BATOK WEST AVENUE 2,1 BUKIT BATOK WEST AVENUE 2 SINGAPORE 659203,18018.7832932277,38324.4444522914
21 BUKIT BATOK WEST AVENUE 2 DUNEARN SECONDARY SCHOOL SINGAPORE 659204,21,DUNEARN SECONDARY SCHOOL,1.36363809340289,103.745003319776,103.745003319776,659204,BUKIT BATOK WEST AVENUE 2,DUNEARN SECONDARY SCHOOL,18171.5520422533,38409.8681179974
11 BUKIT BATOK WEST AVENUE 2 SINGAPORE 659205,11,NIL,1.3626534376553,103.744120311371,103.744120311371,659205,BUKIT BATOK WEST AVENUE 2,11 BUKIT BATOK WEST AVENUE 2 SINGAPORE 659205,18073.2794963876,38300.9933935981
91 BUKIT BATOK WEST AVENUE 2 BRILLIANT KIDS LEARNING COVE SINGAPORE 659206,91,BRILLIANT KIDS LEARNING COVE,1.3526303227142,103.749284031946,103.749284031946,659206,BUKIT BATOK WEST AVENUE 2,BRILLIANT KIDS LEARNING COVE,18647.90291104,37192.6666081809
2 BUKIT BATOK STREET 52 LIANHUA PRIMARY SCHOOL SINGAPORE 659243,2,LIANHUA PRIMARY SCHOOL,1.35415506887673,103.754210374853,103.754210374853,659243,BUKIT BATOK STREET 52,LIANHUA PRIMARY SCHOOL,19196.1551632704,37361.2469886839
20 BUKIT BATOK STREET 52 GUILIN VIEW SINGAPORE 659244,20,GUILIN VIEW,1.35606274589378,103.752766962762,103.752766962762,659244,BUKIT BATOK STREET 52,GUILIN VIEW,19035.5266966447,37572.1936778743
22 BUKIT BATOK STREET 52 GUILIN VIEW SINGAPORE 659245,22,GUILIN VIEW,1.35573491876364,103.752512524441,103.752512524441,659245,BUKIT BATOK STREET 52,GUILIN VIEW,19007.2093936745,37535.9451340567
24 BUKIT BATOK STREET 52 GUILIN VIEW SINGAPORE 659246,24,GUILIN VIEW,1.35528060417418,103.752331722516,103.752331722516,659246,BUKIT BATOK STREET 52,GUILIN VIEW,18987.0865116678,37485.7099668421
26 BUKIT BATOK STREET 52 GUILIN VIEW SINGAPORE 659247,26,GUILIN VIEW,1.35484632079631,103.752770846817,103.752770846817,659247,BUKIT BATOK STREET 52,GUILIN VIEW,19035.9544740589,37437.6874497719
28 BUKIT BATOK STREET 52 GUILIN VIEW SINGAPORE 659248,28,GUILIN VIEW,1.35487631197544,103.75313804304,103.75313804304,659248,BUKIT BATOK STREET 52,GUILIN VIEW,19076.8193696793,37441.0023690797
30 BUKIT BATOK STREET 52 GUILIN VIEW SINGAPORE 659249,30,GUILIN VIEW,1.35541827342142,103.752758525845,103.752758525845,659249,BUKIT BATOK STREET 52,GUILIN VIEW,19034.5853926195,37500.931160761
10 BUKIT BATOK STREET 52 HILLGROVE SECONDARY SCHOOL SINGAPORE 659250,10,HILLGROVE SECONDARY SCHOOL,1.35273549434773,103.753052391686,103.753052391686,659250,BUKIT BATOK STREET 52,HILLGROVE SECONDARY SCHOOL,19067.2795065716,37204.281765325
31 BUKIT BATOK STREET 52 REN CI @ BUKIT BATOK ST. 52 SINGAPORE 659251,31,REN CI @ BUKIT BATOK ST. 52,1.35499119318065,103.75155979178,103.75155979178,659251,BUKIT BATOK STREET 52,REN CI @ BUKIT BATOK ST. 52,18901.1782858102,37453.7112295479
288J BUKIT BATOK STREET 25 NATURE VIEW SINGAPORE 659288,288J,NATURE VIEW,1.34533204343617,103.758713226764,103.758713226764,659288,BUKIT BATOK STREET 25,NATURE VIEW,19697.2418153184,36385.6251836587
289 BUKIT BATOK STREET 25 NATURE VIEW SINGAPORE 659289,289,NATURE VIEW,1.34485963674086,103.760124531151,103.760124531151,659289,BUKIT BATOK STREET 25,NATURE VIEW,19854.3030487224,36333.3840663582
3 BUKIT BATOK STREET 34 SWISS COTTAGE SECONDARY SCHOOL SINGAPORE 659322,3,SWISS COTTAGE SECONDARY SCHOOL,1.36433390661249,103.750673669063,103.750673669063,659322,BUKIT BATOK STREET 34,SWISS COTTAGE SECONDARY SCHOOL,18802.5982172294,38486.7852695603
30 BUKIT BATOK STREET 32 SAINT ANTHONY'S PRIMARY SCHOOL SINGAPORE 659401,30,SAINT ANTHONY'S PRIMARY SCHOOL,1.36463912533321,103.749294036695,103.749294036695,659401,BUKIT BATOK STREET 32,SAINT ANTHONY'S PRIMARY SCHOOL,18649.0625077635,38520.5401552692
30 BUKIT BATOK STREET 31 HONG KAH NORTH COMMUNITY CLUB SINGAPORE 659440,30,HONG KAH NORTH COMMUNITY CLUB,1.3590588889157,103.74945684159,103.74945684159,659440,BUKIT BATOK STREET 31,HONG KAH NORTH COMMUNITY CLUB,18667.1593114771,37903.504757544
35 BUKIT BATOK STREET 31 DAZHONG PRIMARY SCHOOL SINGAPORE 659441,35,DAZHONG PRIMARY SCHOOL,1.35899958489032,103.748123918324,103.748123918324,659441,BUKIT BATOK STREET 31,DAZHONG PRIMARY SCHOOL,18518.820039724,37896.9524049647
50 BUKIT BATOK STREET 31 THE MADEIRA SINGAPORE 659442,50,THE MADEIRA,1.3578134775455,103.749514274777,103.749514274777,659442,BUKIT BATOK STREET 31,THE MADEIRA,18673.5461889887,37765.7931499667
52 BUKIT BATOK STREET 31 THE MADEIRA SINGAPORE 659443,52,THE MADEIRA,1.35740788950991,103.749966926937,103.749966926937,659443,BUKIT BATOK STREET 31,THE MADEIRA,18723.9196506226,37720.943504557
54 BUKIT BATOK STREET 31 THE MADEIRA SINGAPORE 659444,54,THE MADEIRA,1.35738955129343,103.749446308343,103.749446308343,659444,BUKIT BATOK STREET 31,THE MADEIRA,18665.9806761909,37718.9177592117
56 BUKIT BATOK STREET 31 THE MADEIRA SINGAPORE 659445,56,THE MADEIRA,1.35697417525144,103.749540273438,103.749540273438,659445,BUKIT BATOK STREET 31,THE MADEIRA,18676.4363274146,37672.9871835671
2 BUKIT BATOK STREET 24 SKYTECH SINGAPORE 659480,2,SKYTECH,1.34205526384225,103.754361202587,103.754361202587,659480,BUKIT BATOK STREET 24,SKYTECH,19212.8972022999,36023.31054773
550 BUKIT BATOK STREET 23 SINGAPORE 659519,550,NIL,1.34010540746894,103.753248929133,103.753248929133,659519,BUKIT BATOK STREET 23,550 BUKIT BATOK STREET 23 SINGAPORE 659519,19089.1060523102,35807.7092177365
551 BUKIT BATOK STREET 23 THIAN LING TOH TONG SINGAPORE 659520,551,THIAN LING TOH TONG,1.34028452085224,103.757092823829,103.757092823829,659520,BUKIT BATOK STREET 23,THIAN LING TOH TONG,19516.8912147898,35827.5010285378
553 BUKIT BATOK STREET 23 THIAN LING TOH TONG SINGAPORE 659521,553,THIAN LING TOH TONG,1.34028409674317,103.757098460264,103.757098460264,659521,BUKIT BATOK STREET 23,THIAN LING TOH TONG,19517.5184884844,35827.4541131631
555 BUKIT BATOK STREET 23 THIAN LING TOH TONG SINGAPORE 659522,555,THIAN LING TOH TONG,1.34028409674317,103.757098460264,103.757098460264,659522,BUKIT BATOK STREET 23,THIAN LING TOH TONG,19517.5184884844,35827.4541131631
557 BUKIT BATOK STREET 23 SEE THIAN FOH COMBINED TEMPLE SINGAPORE 659523,557,SEE THIAN FOH COMBINED TEMPLE,1.34010581061871,103.757214156299,103.757214156299,659523,BUKIT BATOK STREET 23,SEE THIAN FOH COMBINED TEMPLE,19530.393610986,35807.739727864
2019 BUKIT BATOK STREET 23 BUKIT BATOK INDUSTRIAL ESTATE PARK A SINGAPORE 659524,2019,BUKIT BATOK INDUSTRIAL ESTATE PARK A,1.3425358263521,103.751497787986,103.751497787986,659524,BUKIT BATOK STREET 23,BUKIT BATOK INDUSTRIAL ESTATE PARK A,18894.2316624746,36076.4592202548
2020 BUKIT BATOK STREET 23 BUKIT BATOK INDUSTRIAL ESTATE PARK A SINGAPORE 659525,2020,BUKIT BATOK INDUSTRIAL ESTATE PARK A,1.3419141299769,103.752593011715,103.752593011715,659525,BUKIT BATOK STREET 23,BUKIT BATOK INDUSTRIAL ESTATE PARK A,19016.1160202948,36007.7110948171
2021 BUKIT BATOK STREET 23 BUKIT BATOK INDUSTRIAL ESTATE PARK A SINGAPORE 659526,2021,BUKIT BATOK INDUSTRIAL ESTATE PARK A,1.34240947893304,103.752863370692,103.752863370692,659526,BUKIT BATOK STREET 23,BUKIT BATOK INDUSTRIAL ESTATE PARK A,19046.2058769278,36062.4833117202
2022 BUKIT BATOK STREET 23 BUKIT BATOK INDUSTRIAL ESTATE PARK A SINGAPORE 659527,2022,BUKIT BATOK INDUSTRIAL ESTATE PARK A,1.34299603961603,103.751816147892,103.751816147892,659527,BUKIT BATOK STREET 23,BUKIT BATOK INDUSTRIAL ESTATE PARK A,18929.6633944819,36127.3461176958
2023 BUKIT BATOK STREET 23 BUKIT BATOK INDUSTRIAL ESTATE PARK A SINGAPORE 659528,2023,BUKIT BATOK INDUSTRIAL ESTATE PARK A,1.34350632751396,103.752034584213,103.752034584213,659528,BUKIT BATOK STREET 23,BUKIT BATOK INDUSTRIAL ESTATE PARK A,18953.974881148,36183.7703914177
2024 BUKIT BATOK STREET 23 BUKIT BATOK INDUSTRIAL ESTATE PARK A SINGAPORE 659529,2024,BUKIT BATOK INDUSTRIAL ESTATE PARK A,1.34303117460148,103.753224042858,103.753224042858,659529,BUKIT BATOK STREET 23,BUKIT BATOK INDUSTRIAL ESTATE PARK A,19086.3470650576,36131.2259889208
2025 BUKIT BATOK STREET 23 BUKIT BATOK INDUSTRIAL ESTATE PARK A SINGAPORE 659530,2025,BUKIT BATOK INDUSTRIAL ESTATE PARK A,1.34132156138599,103.752679518862,103.752679518862,659530,BUKIT BATOK STREET 23,BUKIT BATOK INDUSTRIAL ESTATE PARK A,19025.7411785815,35942.1875084899
2026 BUKIT BATOK STREET 23 BUKIT BATOK INDUSTRIAL ESTATE PARK A SINGAPORE 659531,2026,BUKIT BATOK INDUSTRIAL ESTATE PARK A,1.34122630715412,103.752130420244,103.752130420244,659531,BUKIT BATOK STREET 23,BUKIT BATOK INDUSTRIAL ESTATE PARK A,18964.632026339,35931.6567926668
2027 BUKIT BATOK STREET 23 BUKIT BATOK INDUSTRIAL ESTATE PARK A SINGAPORE 659532,2027,BUKIT BATOK INDUSTRIAL ESTATE PARK A,1.34173518065741,103.751931084158,103.751931084158,659532,BUKIT BATOK STREET 23,BUKIT BATOK INDUSTRIAL ESTATE PARK A,18942.4499225961,35987.9262153842
2028 BUKIT BATOK STREET 23 BUKIT BATOK INDUSTRIAL ESTATE PARK A SINGAPORE 659533,2028,BUKIT BATOK INDUSTRIAL ESTATE PARK A,1.34161568542834,103.751442262365,103.751442262365,659533,BUKIT BATOK STREET 23,BUKIT BATOK INDUSTRIAL ESTATE PARK A,18888.0488517089,35974.7148458529
2029 BUKIT BATOK STREET 23 BUKIT BATOK INDUSTRIAL ESTATE PARK A SINGAPORE 659534,2029,BUKIT BATOK INDUSTRIAL ESTATE PARK A,1.341801921657,103.751111305778,103.751111305778,659534,BUKIT BATOK STREET 23,BUKIT BATOK INDUSTRIAL ESTATE PARK A,18851.2176189385,35995.3091517054
2030 BUKIT BATOK STREET 23 BUKIT BATOK INDUSTRIAL ESTATE PARK A SINGAPORE 659535,2030,BUKIT BATOK INDUSTRIAL ESTATE PARK A,1.34195150902588,103.750849372646,103.750849372646,659535,BUKIT BATOK STREET 23,BUKIT BATOK INDUSTRIAL ESTATE PARK A,18822.0678253435,36011.850756146
2031 BUKIT BATOK STREET 23 BUKIT BATOK INDUSTRIAL ESTATE PARK A SINGAPORE 659536,2031,BUKIT BATOK INDUSTRIAL ESTATE PARK A,1.34212239915155,103.750550011912,103.750550011912,659536,BUKIT BATOK STREET 23,BUKIT BATOK INDUSTRIAL ESTATE PARK A,18788.7528242413,36030.7480572257
2032 BUKIT BATOK STREET 23 BUKIT BATOK INDUSTRIAL ESTATE PARK A SINGAPORE 659537,2032,BUKIT BATOK INDUSTRIAL ESTATE PARK A,1.34179780859298,103.750162984246,103.750162984246,659537,BUKIT BATOK STREET 23,BUKIT BATOK INDUSTRIAL ESTATE PARK A,18745.6795765283,35994.8579166047
2033 BUKIT BATOK STREET 23 BUKIT BATOK INDUSTRIAL ESTATE PARK A SINGAPORE 659538,2033,BUKIT BATOK INDUSTRIAL ESTATE PARK A,1.34155854081135,103.750587504766,103.750587504766,659538,BUKIT BATOK STREET 23,BUKIT BATOK INDUSTRIAL ESTATE PARK A,18792.9232681096,35968.3992797099
2034 BUKIT BATOK STREET 23 BUKIT BATOK INDUSTRIAL ESTATE PARK A SINGAPORE 659539,2034,BUKIT BATOK INDUSTRIAL ESTATE PARK A,1.34131911994116,103.751012252582,103.751012252582,659539,BUKIT BATOK STREET 23,BUKIT BATOK INDUSTRIAL ESTATE PARK A,18840.1922637252,35941.9237230122
2035 BUKIT BATOK STREET 23 BUKIT BATOK INDUSTRIAL ESTATE PARK A SINGAPORE 659540,2035,BUKIT BATOK INDUSTRIAL ESTATE PARK A,1.34108072699973,103.751433104506,103.751433104506,659540,BUKIT BATOK STREET 23,BUKIT BATOK INDUSTRIAL ESTATE PARK A,18887.0277007418,35915.5618528612
2036 BUKIT BATOK STREET 23 BUKIT BATOK INDUSTRIAL ESTATE PARK A SINGAPORE 659541,2036,BUKIT BATOK INDUSTRIAL ESTATE PARK A,1.34068731589625,103.75177181859,103.75177181859,659541,BUKIT BATOK STREET 23,BUKIT BATOK INDUSTRIAL ESTATE PARK A,18924.7215105128,35872.0591629967
2037 BUKIT BATOK STREET 23 BUKIT BATOK INDUSTRIAL ESTATE PARK A SINGAPORE 659542,2037,BUKIT BATOK INDUSTRIAL ESTATE PARK A,1.3406013972937,103.752281083224,103.752281083224,659542,BUKIT BATOK STREET 23,BUKIT BATOK INDUSTRIAL ESTATE PARK A,18981.3969176961,35862.5568321869
521 BUKIT BATOK STREET 23 SINGAPORE 659544,521,NIL,1.34136442637467,103.756080487038,103.756080487038,659544,BUKIT BATOK STREET 23,521 BUKIT BATOK STREET 23 SINGAPORE 659544,19404.2326897467,35946.9150951356
511 BUKIT BATOK STREET 23 VICOM BUKIT BATOK INSPECTION CENTRE SINGAPORE 659545,511,VICOM BUKIT BATOK INSPECTION CENTRE,1.34175978313366,103.755832339467,103.755832339467,659545,BUKIT BATOK STREET 23,VICOM BUKIT BATOK INSPECTION CENTRE,19376.6179066785,35990.6325363442
541 BUKIT BATOK STREET 23 TACAM INDUSTRIAL BUILDING SINGAPORE 659546,541,TACAM INDUSTRIAL BUILDING,1.34055631142389,103.756841364441,103.756841364441,659546,BUKIT BATOK STREET 23,TACAM INDUSTRIAL BUILDING,19488.9074044637,35857.5551386829
531 BUKIT BATOK STREET 23 SINGAPORE 659547,531,NIL,1.34092460455765,103.756470451369,103.756470451369,659547,BUKIT BATOK STREET 23,531 BUKIT BATOK STREET 23 SINGAPORE 659547,19447.6300167609,35898.2804383617
530 BUKIT BATOK STREET 23 ACACIA LODGE SINGAPORE 659548,530,ACACIA LODGE,1.3398213027979,103.756025603688,103.756025603688,659548,BUKIT BATOK STREET 23,ACACIA LODGE,19398.1193742715,35776.2844219506
532 BUKIT BATOK STREET 23 ACACIA LODGE SINGAPORE 659549,532,ACACIA LODGE,1.33938289118962,103.755801015448,103.755801015448,659549,BUKIT BATOK STREET 23,ACACIA LODGE,19373.1235587625,35727.8078548554
534 BUKIT BATOK STREET 23 ACACIA LODGE SINGAPORE 659550,534,ACACIA LODGE,1.33884790987414,103.755513441363,103.755513441363,659550,BUKIT BATOK STREET 23,ACACIA LODGE,19341.1177387601,35668.6533181984
536 BUKIT BATOK STREET 23 ACACIA LODGE SINGAPORE 659551,536,ACACIA LODGE,1.33897652711206,103.755115434435,103.755115434435,659551,BUKIT BATOK STREET 23,ACACIA LODGE,19296.8242372833,35682.8765766956
538 BUKIT BATOK STREET 23 ACACIA LODGE SINGAPORE 659552,538,ACACIA LODGE,1.33951216305545,103.755388743853,103.755388743853,659552,BUKIT BATOK STREET 23,ACACIA LODGE,19327.2425620761,35742.1035446376
540 BUKIT BATOK STREET 23 ACACIA LODGE SINGAPORE 659553,540,ACACIA LODGE,1.33994730060717,103.755648442542,103.755648442542,659553,BUKIT BATOK STREET 23,ACACIA LODGE,19356.1457926752,35790.2179553062
2 BUKIT BATOK STREET 23 BUKIT BATOK CONNECTION SINGAPORE 659554,2,BUKIT BATOK CONNECTION,1.34379418142101,103.753493493145,103.753493493145,659554,BUKIT BATOK STREET 23,BUKIT BATOK CONNECTION,19116.3367346646,36215.5944824461
50 BUKIT BATOK STREET 23 MIDVIEW BUILDING SINGAPORE 659578,50,MIDVIEW BUILDING,1.33930111922979,103.757090544613,103.757090544613,659578,BUKIT BATOK STREET 23,MIDVIEW BUILDING,19516.6341790725,35718.7614204194
2 BUKIT BATOK STREET 22 BUKIT BATOK SWIMMING COMPLEX SINGAPORE 659581,2,BUKIT BATOK SWIMMING COMPLEX,1.34433159961153,103.747954223213,103.747954223213,659581,BUKIT BATOK STREET 22,BUKIT BATOK SWIMMING COMPLEX,18499.8779117623,36275.0403484479
3 BUKIT BATOK STREET 22 SINGAPORE 659582,3,NIL,1.3442972437329,103.750241710508,103.750241710508,659582,BUKIT BATOK STREET 22,3 BUKIT BATOK STREET 22 SINGAPORE 659582,18754.4503604388,36271.2326663639
5 BUKIT BATOK STREET 22 STORHUB BUKIT BATOK SINGAPORE 659583,5,STORHUB BUKIT BATOK,1.34459153105595,103.750710625848,103.750710625848,659583,BUKIT BATOK STREET 22,STORHUB BUKIT BATOK,18806.6366624208,36303.7717174347
7 BUKIT BATOK STREET 22 SINGAPORE 659584,7,NIL,1.34469552795233,103.751149631116,103.751149631116,659584,BUKIT BATOK STREET 22,7 BUKIT BATOK STREET 22 SINGAPORE 659584,18855.4935769979,36315.2695256062
9 BUKIT BATOK STREET 22 SINGAPORE 659585,9,NIL,1.34455556857345,103.751695933919,103.751695933919,659585,BUKIT BATOK STREET 22,9 BUKIT BATOK STREET 22 SINGAPORE 659585,18916.2906360598,36299.7914775759
15 BUKIT BATOK STREET 22 MAPLEBEAR KIDS HOUSE PTE. LTD. SINGAPORE 659586,15,MAPLEBEAR KIDS HOUSE PTE. LTD.,1.3439822661321,103.751253511706,103.751253511706,659586,BUKIT BATOK STREET 22,MAPLEBEAR KIDS HOUSE PTE. LTD.,18867.0517092599,36236.4002101664
17 BUKIT BATOK STREET 22 SINGAPORE 659587,17,NIL,1.34367981786471,103.750905823423,103.750905823423,659587,BUKIT BATOK STREET 22,17 BUKIT BATOK STREET 22 SINGAPORE 659587,18828.356634588,36202.9582954086
19 BUKIT BATOK STREET 22 SINGAPORE 659588,19,NIL,1.34360717126337,103.750467004681,103.750467004681,659588,BUKIT BATOK STREET 22,19 BUKIT BATOK STREET 22 SINGAPORE 659588,18779.5205746517,36194.9270491451
21 BUKIT BATOK STREET 22 SINGAPORE 659589,21,NIL,1.34404445156372,103.750294500884,103.750294500884,659589,BUKIT BATOK STREET 22,21 BUKIT BATOK STREET 22 SINGAPORE 659589,18760.3244075021,36243.2799715251
23 BUKIT BATOK STREET 22 SINGAPORE 659590,23,NIL,1.3437657728029,103.74968618146,103.74968618146,659590,BUKIT BATOK STREET 22,23 BUKIT BATOK STREET 22 SINGAPORE 659590,18692.6239780542,36212.467375977
25 BUKIT BATOK STREET 22 TEE BUILDING SINGAPORE 659591,25,TEE BUILDING,1.34403520075101,103.749268198827,103.749268198827,659591,BUKIT BATOK STREET 22,TEE BUILDING,18646.1080498733,36242.2609695848
1 BUKIT BATOK STREET 22 SINGAPORE 659592,1,NIL,1.34461889355755,103.749789011042,103.749789011042,659592,BUKIT BATOK STREET 22,1 BUKIT BATOK STREET 22 SINGAPORE 659592,18704.071026816,36306.8008161746
6 BUKIT BATOK STREET 21 WU LUI SIEN SZE TEMPLE SINGAPORE 659630,6,WU LUI SIEN SZE TEMPLE,1.34629708853611,103.750918760279,103.750918760279,659630,BUKIT BATOK STREET 21,WU LUI SIEN SZE TEMPLE,18829.806138061,36492.3629581388
8 BUKIT BATOK STREET 21 TONG TIEN KUNG TEMPLE SINGAPORE 659631,8,TONG TIEN KUNG TEMPLE,1.34629708987009,103.750957988225,103.750957988225,659631,BUKIT BATOK STREET 21,TONG TIEN KUNG TEMPLE,18834.171780156,36492.3629581388
10 BUKIT BATOK STREET 21 LING HONG TONG TEMPLE & HOON LAM TUA PEH KONG TEMPLE SINGAPORE 659632,10,LING HONG TONG TEMPLE & HOON LAM TUA PEH KONG TEMPLE,1.34608682027009,103.750934310779,103.750934310779,659632,BUKIT BATOK STREET 21,LING HONG TONG TEMPLE & HOON LAM TUA PEH KONG TEMPLE,18831.5359533299,36469.1124853734
16 BUKIT BATOK STREET 21 BUKIT VIEW SECONDARY SCHOOL SINGAPORE 659633,16,BUKIT VIEW SECONDARY SCHOOL,1.34572315130521,103.752277765539,103.752277765539,659633,BUKIT BATOK STREET 21,BUKIT VIEW SECONDARY SCHOOL,18981.0464749802,36428.8947797809
18 BUKIT BATOK STREET 21 BUKIT VIEW PRIMARY SCHOOL SINGAPORE 659634,18,BUKIT VIEW PRIMARY SCHOOL,1.34594524614786,103.753588844734,103.753588844734,659634,BUKIT BATOK STREET 21,BUKIT VIEW PRIMARY SCHOOL,19126.956105412,36453.4481076375
30 BUKIT BATOK STREET 21 THE DEW SINGAPORE 659636,30,THE DEW,1.34669490169259,103.755922806101,103.755922806101,659636,BUKIT BATOK STREET 21,THE DEW,19386.703168585,36536.3328948691
32 BUKIT BATOK STREET 21 THE DEW SINGAPORE 659637,32,THE DEW,1.34624581205391,103.756178960696,103.756178960696,659637,BUKIT BATOK STREET 21,THE DEW,19415.2087989505,36486.6739089917
34 BUKIT BATOK STREET 21 THE DEW SINGAPORE 659638,34,THE DEW,1.34660213291172,103.756284388444,103.756284388444,659638,BUKIT BATOK STREET 21,THE DEW,19426.9430000735,36526.0737131275
21 BUKIT BATOK STREET 11 SINGAPORE 659673,21,NIL,1.3494662954138,103.742743911441,103.742743911441,659673,BUKIT BATOK STREET 11,21 BUKIT BATOK STREET 11 SINGAPORE 659673,17920.0476472108,36842.8303722925
2 BUKIT BATOK STREET 11 SAINT LUKE'S ELDERCARE SINGAPORE 659674,2,SAINT LUKE'S ELDERCARE,1.34950448942588,103.741889031011,103.741889031011,659674,BUKIT BATOK STREET 11,SAINT LUKE'S ELDERCARE,17824.9090483785,36847.0572356824
21 BUKIT BATOK EAST AVENUE 6 SINGAPORE 659759,21,NIL,1.3475199299187,103.768367337416,103.768367337416,659759,BUKIT BATOK EAST AVENUE 6,21 BUKIT BATOK EAST AVENUE 6 SINGAPORE 659759,20771.6454855725,36627.5199176222
28 BUKIT BATOK EAST AVENUE 6 SHELL BUKIT BATOK NATURE PARK SINGAPORE 659760,28,SHELL BUKIT BATOK NATURE PARK,1.34759664749025,103.764934572264,103.764934572264,659760,BUKIT BATOK EAST AVENUE 6,SHELL BUKIT BATOK NATURE PARK,20389.6167670256,36636.0134165343
30 BUKIT BATOK EAST AVENUE 6 SINGAPORE 659761,30,NIL,1.34749904303048,103.764379573886,103.764379573886,659761,BUKIT BATOK EAST AVENUE 6,30 BUKIT BATOK EAST AVENUE 6 SINGAPORE 659761,20327.851253557,36625.2225473896
90 BUKIT BATOK EAST AVENUE 6 KEMING PRIMARY SCHOOL SINGAPORE 659762,90,KEMING PRIMARY SCHOOL,1.34524505261969,103.756264470434,103.756264470434,659762,BUKIT BATOK EAST AVENUE 6,KEMING PRIMARY SCHOOL,19424.7216024809,36376.0146448091
31 BUKIT BATOK EAST AVENUE 6 PARK NATURA SINGAPORE 659763,31,PARK NATURA,1.34687195171685,103.76563703292,103.76563703292,659763,BUKIT BATOK EAST AVENUE 6,PARK NATURA,20467.7906755405,36555.8780216016
33 BUKIT BATOK EAST AVENUE 6 PARK NATURA SINGAPORE 659764,33,PARK NATURA,1.34659866286059,103.766281026865,103.766281026865,659764,BUKIT BATOK EAST AVENUE 6,PARK NATURA,20539.4592981897,36525.6571348682
35 BUKIT BATOK EAST AVENUE 6 PARK NATURA SINGAPORE 659765,35,PARK NATURA,1.34659073027391,103.765589208744,103.765589208744,659765,BUKIT BATOK EAST AVENUE 6,PARK NATURA,20462.46750578,36524.7821177263
37 BUKIT BATOK EAST AVENUE 6 PARK NATURA SINGAPORE 659766,37,PARK NATURA,1.34621721609495,103.765573452316,103.765573452316,659766,BUKIT BATOK EAST AVENUE 6,PARK NATURA,20460.7128404956,36483.4808485843
50 BUKIT BATOK EAST AVENUE 5 REGENT HEIGHTS SINGAPORE 659801,50,REGENT HEIGHTS,1.35212089071653,103.756704783563,103.756704783563,659801,BUKIT BATOK EAST AVENUE 5,REGENT HEIGHTS,19473.7475940157,37136.3088332191
52 BUKIT BATOK EAST AVENUE 5 REGENT HEIGHTS SINGAPORE 659802,52,REGENT HEIGHTS,1.35240117439944,103.755987037715,103.755987037715,659802,BUKIT BATOK EAST AVENUE 5,REGENT HEIGHTS,19393.871504901,37167.3037328329
54 BUKIT BATOK EAST AVENUE 5 REGENT HEIGHTS SINGAPORE 659803,54,REGENT HEIGHTS,1.35281445258018,103.756430517087,103.756430517087,659803,BUKIT BATOK EAST AVENUE 5,REGENT HEIGHTS,19443.2272358499,37213.0003974978
56 BUKIT BATOK EAST AVENUE 5 REGENT HEIGHTS SINGAPORE 659804,56,REGENT HEIGHTS,1.35308068267662,103.756145809157,103.756145809157,659804,BUKIT BATOK EAST AVENUE 5,REGENT HEIGHTS,19411.5433763899,37242.4397951607
21 BUKIT BATOK EAST AVENUE 4 BUKIT BATOK NEIGHBOURHOOD POLICE CENTRE SINGAPORE 659840,21,BUKIT BATOK NEIGHBOURHOOD POLICE CENTRE,1.34908664466117,103.758531000555,103.758531000555,659840,BUKIT BATOK EAST AVENUE 4,BUKIT BATOK NEIGHBOURHOOD POLICE CENTRE,19676.9747669045,36800.7907762229
23 BUKIT BATOK EAST AVENUE 4 BUKIT BATOK EAST COMMUNITY CLUB (U/C) SINGAPORE 659841,23,BUKIT BATOK EAST COMMUNITY CLUB (U/C),1.34893153381681,103.758258278894,103.758258278894,659841,BUKIT BATOK EAST AVENUE 4,BUKIT BATOK EAST COMMUNITY CLUB (U/C),19646.6233343566,36783.6403312888
399A BUKIT BATOK WEST AVENUE 8 TEMPORARY SITE OFFICE SINGAPORE 659856,399A,TEMPORARY SITE OFFICE,1.3479861260749,103.739305231234,103.739305231234,659856,BUKIT BATOK WEST AVENUE 8,TEMPORARY SITE OFFICE,17537.3541529374,36679.1751072947
50 BUKIT BATOK EAST AVENUE 3 SINGAPORE 659879,50,NIL,1.34322449047593,103.758355084305,103.758355084305,659879,BUKIT BATOK EAST AVENUE 3,50 BUKIT BATOK EAST AVENUE 3 SINGAPORE 659879,19657.3773068273,36152.5837743953
5 BUKIT BATOK EAST AVENUE 2 CHURCH OF SAINT MARY OF ANGELS SINGAPORE 659918,5,CHURCH OF SAINT MARY OF ANGELS,1.34697364384301,103.759058564788,103.759058564788,659918,BUKIT BATOK EAST AVENUE 2,CHURCH OF SAINT MARY OF ANGELS,19735.679702932,36567.1439467501
30 BUKIT BATOK EAST AVENUE 2 AR - RAUDHAH MOSQUE KINDERGARTEN SINGAPORE 659919,30,AR - RAUDHAH MOSQUE KINDERGARTEN,1.35166029562859,103.756001926056,103.756001926056,659919,BUKIT BATOK EAST AVENUE 2,AR - RAUDHAH MOSQUE KINDERGARTEN,19395.5258015506,37085.3810134642
26 BUKIT BATOK EAST AVENUE 2 HILLVIEW REGENCY SINGAPORE 659920,26,HILLVIEW REGENCY,1.35213754685233,103.759354902417,103.759354902417,659920,BUKIT BATOK EAST AVENUE 2,HILLVIEW REGENCY,19768.676194042,37138.1414385606
28 BUKIT BATOK EAST AVENUE 2 HILLVIEW REGENCY SINGAPORE 659921,28,HILLVIEW REGENCY,1.3520262739648,103.757372166153,103.757372166153,659921,BUKIT BATOK EAST AVENUE 2,HILLVIEW REGENCY,19548.0194751406,37125.8442529403
100 BUKIT BATOK ROAD SINGAPORE 659956,100,NIL,1.37413360781035,103.753899186012,103.753899186012,659956,BUKIT BATOK ROAD,100 BUKIT BATOK ROAD SINGAPORE 659956,19161.5962691093,39570.3753031399
10 BUKIT BATOK CENTRAL DBS BUKIT BATOK MRT STATION SINGAPORE 659958,10,DBS BUKIT BATOK MRT STATION,1.3487108105756,103.749334517338,103.749334517338,659958,BUKIT BATOK CENTRAL,DBS BUKIT BATOK MRT STATION,18653.5063925972,36759.2663109694
21 BUKIT BATOK CENTRAL BUKIT BATOK COMMUNITY CLUB SINGAPORE 659959,21,BUKIT BATOK COMMUNITY CLUB,1.35013696992244,103.747511422417,103.747511422417,659959,BUKIT BATOK CENTRAL,BUKIT BATOK COMMUNITY CLUB,18450.6215808718,36916.9709811714
