ADDRESS,BLK_NO,BUILDING,LATITUDE,LONGITUDE,LONGTITUDE,POSTAL,ROAD_NAME,SEARCHVAL,X,Y
517E JURONG WEST STREET 52 SINGAPORE 645517,517E,NIL,1.34456777104819,103.719018884939,103.719018884939,645517,JURONG WEST STREET 52,517E JURONG WEST STREET 52 SINGAPORE 645517,15279.6877063084,36301.2866857033
660E JURONG WEST STREET 64 SINGAPORE 645660,660E,NIL,1.33629061551274,103.703826495343,103.703826495343,645660,JURONG WEST STREET 64,660E JURONG WEST STREET 64 SINGAPORE 645660,13588.8889272567,35386.1232410017
663E JURONG WEST STREET 64 SINGAPORE 645663,663E,NIL,1.33811999021618,103.702752649934,103.702752649934,645663,JURONG WEST STREET 64,663E JURONG WEST STREET 64 SINGAPORE 645663,13469.3917447766,35588.4129841682
664E JURONG WEST STREET 64 SINGAPORE 645664,664E,NIL,1.33898676155086,103.702538217629,103.702538217629,645664,JURONG WEST STREET 64,664E JURONG WEST STREET 64 SINGAPORE 645664,13445.5327644674,35684.2576442566
667E JURONG WEST STREET 65 SINGAPORE 645667,667E,NIL,1.3420378016685,103.702509787165,103.702509787165,645667,JURONG WEST STREET 65,667E JURONG WEST STREET 65 SINGAPORE 645667,13442.3867707755,36021.6271030121
668E JURONG WEST STREET 64 SINGAPORE 645668,668E,NIL,1.34121279918765,103.702729473013,103.702729473013,645668,JURONG WEST STREET 64,668E JURONG WEST STREET 64 SINGAPORE 645668,13466.8306193342,35930.4010042902
517F JURONG WEST STREET 52 SINGAPORE 646517,517F,NIL,1.34467699079129,103.71977049771,103.71977049771,646517,JURONG WEST STREET 52,517F JURONG WEST STREET 52 SINGAPORE 646517,15363.3347019069,36313.3597671743
20A JURONG WEST STREET 64 TEMPORARY SITE OFFICE SINGAPORE 648104,20A,TEMPORARY SITE OFFICE,1.33782429734832,103.705162579112,103.705162579112,648104,JURONG WEST STREET 64,TEMPORARY SITE OFFICE,13737.5901435586,35555.7025557719
11 BULIM WALK SINGAPORE 648105,11,NIL,1.35829443032679,103.702302208198,103.702302208198,648105,BULIM WALK,11 BULIM WALK SINGAPORE 648105,13419.3822859153,37819.208029408
1 BULIM LANE 2 BULIM SQUARE SINGAPORE 648110,1,BULIM SQUARE,1.35635676591016,103.703778064113,103.703778064113,648110,BULIM LANE 2,BULIM SQUARE,13583.6169103887,37604.9415780324
3 BULIM LANE 2 BULIM SQUARE SINGAPORE 648111,3,BULIM SQUARE,1.35696552166429,103.70430344885,103.70430344885,648111,BULIM LANE 2,BULIM SQUARE,13642.0899331253,37672.2517320998
2 BULIM LANE 1 BULIM SQUARE SINGAPORE 648115,2,BULIM SQUARE,1.35719515406396,103.702895984202,103.702895984202,648115,BULIM LANE 1,BULIM SQUARE,13485.4562955266,37697.6517765317
4 BULIM LANE 1 BULIM SQUARE SINGAPORE 648116,4,BULIM SQUARE,1.35777902666706,103.703457032096,103.703457032096,648116,BULIM LANE 1,BULIM SQUARE,13547.8980865562,37762.2102379296
10A JURONG WEST STREET 76 SINGAPORE 648120,10A,NIL,1.3477100894838,103.703728047548,103.703728047548,648120,JURONG WEST STREET 76,10A JURONG WEST STREET 76 SINGAPORE 648120,13577.9995963629,36648.8340869322
20 JURONG WEST STREET 26 MASJID MAAROF SINGAPORE 648125,20,MASJID MAAROF,1.34852417861926,103.705022920302,103.705022920302,648125,JURONG WEST STREET 26,MASJID MAAROF,13722.1096740905,36738.8445023559
22 JURONG WEST STREET 26 JURONG FIRE STATION SINGAPORE 648126,22,JURONG FIRE STATION,1.34802903340054,103.705191765813,103.705191765813,648126,JURONG WEST STREET 26,JURONG FIRE STATION,13740.8974656034,36684.0927466098
8 JURONG LAKE LINK LAKE GRANDE SINGAPORE 648130,8,LAKE GRANDE,1.3461174655128,103.724023037201,103.724023037201,648130,JURONG LAKE LINK,LAKE GRANDE,15836.6037753951,36472.6187891439
10 JURONG LAKE LINK LAKE GRANDE SINGAPORE 648131,10,LAKE GRANDE,1.34594578766091,103.724619105198,103.724619105198,648131,JURONG LAKE LINK,LAKE GRANDE,15902.9388463655,36453.632530462
10 JURONG WEST STREET 65 SINGAPORE 648135,10,NIL,1.34190096421275,103.700263646805,103.700263646805,648135,JURONG WEST STREET 65,10 JURONG WEST STREET 65 SINGAPORE 648135,13192.4142081216,36006.5097585432
36 JURONG WEST STREET 24 SAINT JOSEPH'S HOME SINGAPORE 648141,36,SAINT JOSEPH'S HOME,1.34990160884022,103.708190847405,103.708190847405,648141,JURONG WEST STREET 24,SAINT JOSEPH'S HOME,14074.6733882604,36891.1357134022
180 WESTWOOD AVENUE WESTWOOD RESIDENCES SINGAPORE 648145,180,WESTWOOD RESIDENCES,1.35189778502259,103.696214899323,103.696214899323,648145,WESTWOOD AVENUE,WESTWOOD RESIDENCES,12741.8934010118,37111.9351761136
182 WESTWOOD AVENUE WESTWOOD RESIDENCES SINGAPORE 648146,182,WESTWOOD RESIDENCES,1.35209459951596,103.696364769558,103.696364769558,648146,WESTWOOD AVENUE,WESTWOOD RESIDENCES,12758.5735420147,37133.6970391721
184 WESTWOOD AVENUE WESTWOOD RESIDENCES SINGAPORE 648147,184,WESTWOOD RESIDENCES,1.35232862572599,103.696534580674,103.696534580674,648147,WESTWOOD AVENUE,WESTWOOD RESIDENCES,12777.4731131913,37159.573471399
186 WESTWOOD AVENUE WESTWOOD RESIDENCES SINGAPORE 648148,186,WESTWOOD RESIDENCES,1.35253181543266,103.696689425324,103.696689425324,648148,WESTWOOD AVENUE,WESTWOOD RESIDENCES,12794.7068858845,37182.0402455293
188 WESTWOOD AVENUE WESTWOOD RESIDENCES SINGAPORE 648149,188,WESTWOOD RESIDENCES,1.35270661190301,103.696890988435,103.696890988435,648149,WESTWOOD AVENUE,WESTWOOD RESIDENCES,12817.1397296051,37201.3671401013
190 WESTWOOD AVENUE WESTWOOD RESIDENCES SINGAPORE 648150,190,WESTWOOD RESIDENCES,1.35254412517789,103.697100946172,103.697100946172,648150,WESTWOOD AVENUE,WESTWOOD RESIDENCES,12840.5047061518,37183.3988239784
192 WESTWOOD AVENUE WESTWOOD RESIDENCES SINGAPORE 648151,192,WESTWOOD RESIDENCES,1.35217106573849,103.696881352302,103.696881352302,648151,WESTWOOD AVENUE,WESTWOOD RESIDENCES,12816.0640054634,37142.1490709446
194 WESTWOOD AVENUE WESTWOOD RESIDENCES SINGAPORE 648152,194,WESTWOOD RESIDENCES,1.35192614346486,103.696737380882,103.696737380882,648152,WESTWOOD AVENUE,WESTWOOD RESIDENCES,12800.0400440795,37115.0676400177
196 WESTWOOD AVENUE WESTWOOD RESIDENCES SINGAPORE 648153,196,WESTWOOD RESIDENCES,1.3516797907212,103.696550995949,103.696550995949,648153,WESTWOOD AVENUE,WESTWOOD RESIDENCES,12779.295911707,37087.8283010181
11 JURONG LAKE LINK LAKEVILLE SINGAPORE 648155,11,LAKEVILLE,1.3453622775704,103.725373856017,103.725373856017,648155,JURONG LAKE LINK,LAKEVILLE,15986.9315931415,36389.1071217004
13 JURONG LAKE LINK LAKEVILLE SINGAPORE 648156,13,LAKEVILLE,1.34565751147426,103.725314555002,103.725314555002,648156,JURONG LAKE LINK,LAKEVILLE,15980.3334753709,36421.7529279515
2 JURONG LAKE LINK LAKE GRANDE SINGAPORE 648157,2,LAKE GRANDE,1.34547449129535,103.724623449937,103.724623449937,648157,JURONG LAKE LINK,LAKE GRANDE,15903.4200467709,36401.5188716408
4 JURONG LAKE LINK LAKE GRANDE SINGAPORE 648158,4,LAKE GRANDE,1.34602434625291,103.724280865595,103.724280865595,648158,JURONG LAKE LINK,LAKE GRANDE,15865.2968251156,36462.3208341151
6 JURONG LAKE LINK LAKE GRANDE SINGAPORE 648159,6,LAKE GRANDE,1.34559854116926,103.724023040178,103.724023040178,648159,JURONG LAKE LINK,LAKE GRANDE,15836.6015355643,36415.2386827637
1 JURONG LAKE LINK LAKEVILLE SINGAPORE 648160,1,LAKEVILLE,1.34598605175358,103.725377841597,103.725377841597,648160,JURONG LAKE LINK,LAKEVILLE,15987.3781972416,36458.0809857603
3 JURONG LAKE LINK LAKEVILLE SINGAPORE 648161,3,LAKEVILLE,1.34624623602849,103.725962781746,103.725962781746,648161,JURONG LAKE LINK,LAKEVILLE,16052.4769724179,36486.8480104338
5 JURONG LAKE LINK LAKEVILLE SINGAPORE 648162,5,LAKEVILLE,1.34587822164476,103.725980156981,103.725980156981,648162,JURONG LAKE LINK,LAKEVILLE,16054.4088567467,36446.154704012
7 JURONG LAKE LINK LAKEVILLE SINGAPORE 648163,7,LAKEVILLE,1.34550996907361,103.725978113952,103.725978113952,648163,JURONG LAKE LINK,LAKEVILLE,16054.1796978414,36405.4351552501
9 JURONG LAKE LINK LAKEVILLE SINGAPORE 648164,9,LAKEVILLE,1.34513697879955,103.725971213636,103.725971213636,648164,JURONG LAKE LINK,LAKEVILLE,16053.4099527476,36364.191758493
10 BULIM AVENUE SINGAPORE 648165,10,NIL,1.35511929792051,103.708489201723,103.708489201723,648165,BULIM AVENUE,10 BULIM AVENUE SINGAPORE 648165,14107.9066355387,37468.0808034781
8 BULIM AVENUE SINGAPORE 648166,8,NIL,1.35287453988314,103.709300451913,103.709300451913,648166,BULIM AVENUE,8 BULIM AVENUE SINGAPORE 648166,14198.1770226732,37219.8616953865
12 BULIM AVENUE SINGAPORE 648167,12,NIL,1.35723605378345,103.706990831742,103.706990831742,648167,BULIM AVENUE,12 BULIM AVENUE SINGAPORE 648167,13941.1670024646,37702.1500831991
21 BULIM DRIVE SINGAPORE 648170,21,NIL,1.36042342069436,103.706218900879,103.706218900879,648170,BULIM DRIVE,21 BULIM DRIVE SINGAPORE 648170,13855.2783297244,38054.5982342064
1 BULIM DRIVE CUSTOMS OPERATIONS COMMAND SINGAPORE 648171,1,CUSTOMS OPERATIONS COMMAND,1.35467398054836,103.700598183573,103.700598183573,648171,BULIM DRIVE,CUSTOMS OPERATIONS COMMAND,13229.7216168111,37418.8864311501
3 BULIM DRIVE SINGAPORE BOY'S HOME SINGAPORE 648172,3,SINGAPORE BOY'S HOME,1.35531455743399,103.700829921054,103.700829921054,648172,BULIM DRIVE,SINGAPORE BOY'S HOME,13255.5152963717,37489.7169333305
7 BULIM STREET SINGAPORE 648175,7,NIL,1.35511237981041,103.707175143059,103.707175143059,648175,BULIM STREET,7 BULIM STREET SINGAPORE 648175,13961.6665392602,37467.3234077208
20A BULIM STREET TEMPORARY WORKER DORMITORY SINGAPORE 648176,20A,TEMPORARY WORKER DORMITORY,1.35955653173627,103.707779538451,103.707779538451,648176,BULIM STREET,TEMPORARY WORKER DORMITORY,14028.9545068946,37958.7327497471
2 JURONG WEST STREET 23 SINGAPORE 648195,2,NIL,1.35129149082578,103.709577797254,103.709577797254,648195,JURONG WEST STREET 23,2 JURONG WEST STREET 23 SINGAPORE 648195,14229.0335673336,37044.8142272141
21 JURONG WEST STREET 23 GOLAZO FUTSAL SINGAPORE SINGAPORE 648196,21,GOLAZO FUTSAL SINGAPORE,1.35284351489551,103.707107979873,103.707107979873,648196,JURONG WEST STREET 23,GOLAZO FUTSAL SINGAPORE,13954.1789665204,37216.4436833262
20 JURONG WEST STREET 61 FRONTIER PRIMARY SCHOOL SINGAPORE 648200,20,FRONTIER PRIMARY SCHOOL,1.33664853395126,103.699886714517,103.699886714517,648200,JURONG WEST STREET 61,FRONTIER PRIMARY SCHOOL,13150.4339978369,35425.7236007992
26 JURONG WEST STREET 61 NATIONAL UNIVERSITY POLYCLINICS (PIONEER POLYCLINIC) SINGAPORE 648201,26,NATIONAL UNIVERSITY POLYCLINICS (PIONEER POLYCLINIC),1.33856179501564,103.699014641414,103.699014641414,648201,JURONG WEST STREET 61,NATIONAL UNIVERSITY POLYCLINICS (PIONEER POLYCLINIC),13053.392814084,35637.2880898025
50 JURONG WEST STREET 61 JURONG WEST HAWKER CENTRE SINGAPORE 648202,50,JURONG WEST HAWKER CENTRE,1.34131234750021,103.697401874008,103.697401874008,648202,JURONG WEST STREET 61,JURONG WEST HAWKER CENTRE,12873.9254030529,35941.4408578686
107 WESTWOOD AVENUE THE WOODS SINGAPORE 648205,107,THE WOODS,1.35238754185252,103.697555859648,103.697555859648,648205,WESTWOOD AVENUE,THE WOODS,12891.1306027696,37166.0817537941
109 WESTWOOD AVENUE THE WOODS SINGAPORE 648206,109,THE WOODS,1.35238557106252,103.697635129186,103.697635129186,648206,WESTWOOD AVENUE,THE WOODS,12899.9524184996,37165.8633400239
111 WESTWOOD AVENUE THE WOODS SINGAPORE 648207,111,THE WOODS,1.3524957393571,103.697837534721,103.697837534721,648207,WESTWOOD AVENUE,THE WOODS,12922.4786086818,37178.0439636391
113 WESTWOOD AVENUE THE WOODS SINGAPORE 648208,113,THE WOODS,1.35246430538016,103.697882274409,103.697882274409,648208,WESTWOOD AVENUE,THE WOODS,12927.457449859,37174.5678673163
115 WESTWOOD AVENUE THE WOODS SINGAPORE 648209,115,THE WOODS,1.35243443237002,103.697924761502,103.697924761502,648209,WESTWOOD AVENUE,THE WOODS,12932.1856115954,37171.2643893063
117 WESTWOOD AVENUE THE WOODS SINGAPORE 648210,117,THE WOODS,1.35240317876448,103.697969212339,103.697969212339,648210,WESTWOOD AVENUE,THE WOODS,12937.1323081749,37167.8082395848
119 WESTWOOD AVENUE THE WOODS SINGAPORE 648211,119,THE WOODS,1.35237063465691,103.698026021312,103.698026021312,648211,WESTWOOD AVENUE,THE WOODS,12943.4543213975,37164.2093157861
121 WESTWOOD AVENUE THE WOODS SINGAPORE 648212,121,THE WOODS,1.35220833870198,103.698149608757,103.698149608757,648212,WESTWOOD AVENUE,THE WOODS,12957.2072456954,37146.2626412716
123 WESTWOOD AVENUE THE WOODS SINGAPORE 648213,123,THE WOODS,1.35221766865149,103.697721573152,103.697721573152,648213,WESTWOOD AVENUE,THE WOODS,12909.5716442605,37147.2969588116
123A WESTWOOD AVENUE THE WOODS SINGAPORE 648214,123A,THE WOODS,1.35221925597018,103.697667064643,103.697667064643,648214,WESTWOOD AVENUE,THE WOODS,12903.505456036,37147.4728157967
123B WESTWOOD AVENUE THE WOODS SINGAPORE 648215,123B,THE WOODS,1.3522208042954,103.697615248159,103.697615248159,648215,WESTWOOD AVENUE,THE WOODS,12897.7388603138,37147.6443444602
123C WESTWOOD AVENUE THE WOODS SINGAPORE 648216,123C,THE WOODS,1.35222244172325,103.697561069827,103.697561069827,648216,WESTWOOD AVENUE,THE WOODS,12891.7094174214,37147.8257404864
123D WESTWOOD AVENUE THE WOODS SINGAPORE 648217,123D,THE WOODS,1.35222398183426,103.697509253887,103.697509253887,648217,WESTWOOD AVENUE,THE WOODS,12885.9428822361,37147.9963611122
123E WESTWOOD AVENUE THE WOODS SINGAPORE 648218,123E,THE WOODS,1.35222562444135,103.697454733681,103.697454733681,648218,WESTWOOD AVENUE,THE WOODS,12879.8753924882,37148.1783322301
125 WESTWOOD AVENUE THE WOODS SINGAPORE 648219,125,THE WOODS,1.35211642540536,103.697398021527,103.697398021527,648219,WESTWOOD AVENUE,THE WOODS,12873.5632768953,37136.1039795056
125A WESTWOOD AVENUE THE WOODS SINGAPORE 648220,125A,THE WOODS,1.35211486732261,103.697451478299,103.697451478299,648220,WESTWOOD AVENUE,THE WOODS,12879.512418827,37135.9313611928
125B WESTWOOD AVENUE THE WOODS SINGAPORE 648221,125B,THE WOODS,1.35211326878587,103.697505992789,103.697505992789,648221,WESTWOOD AVENUE,THE WOODS,12885.5792729473,37135.7542632204
125C WESTWOOD AVENUE THE WOODS SINGAPORE 648222,125C,THE WOODS,1.35211171964149,103.697557807911,103.697557807911,648222,WESTWOOD AVENUE,THE WOODS,12891.3457173295,37135.5826437529
125D WESTWOOD AVENUE THE WOODS SINGAPORE 648223,125D,THE WOODS,1.35211014106599,103.697611988141,103.697611988141,648223,WESTWOOD AVENUE,THE WOODS,12897.3753720978,37135.4077553432
125E WESTWOOD AVENUE THE WOODS SINGAPORE 648224,125E,THE WOODS,1.35210860122631,103.697663804894,103.697663804894,648224,WESTWOOD AVENUE,THE WOODS,12903.141998088,37135.2371649873
127 WESTWOOD AVENUE THE WOODS SINGAPORE 648225,127,THE WOODS,1.35210553796679,103.697879514154,103.697879514154,648225,WESTWOOD AVENUE,THE WOODS,12927.1480505299,37134.8971041907
127A WESTWOOD AVENUE THE WOODS SINGAPORE 648226,127A,THE WOODS,1.35210393942034,103.697934028645,103.697934028645,648226,WESTWOOD AVENUE,THE WOODS,12933.2149046501,37134.7200062182
127B WESTWOOD AVENUE THE WOODS SINGAPORE 648227,127B,THE WOODS,1.35210239054042,103.697985843767,103.697985843767,648227,WESTWOOD AVENUE,THE WOODS,12938.9813490314,37134.5484170169
127C WESTWOOD AVENUE THE WOODS SINGAPORE 648228,127C,THE WOODS,1.35210081168154,103.69804002427,103.69804002427,648228,WESTWOOD AVENUE,THE WOODS,12945.0110340677,37134.3734983392
127D WESTWOOD AVENUE THE WOODS SINGAPORE 648229,127D,THE WOODS,1.3520992715589,103.698091841023,103.698091841023,648229,WESTWOOD AVENUE,THE WOODS,12950.7776600579,37134.2028777152
127E WESTWOOD AVENUE THE WOODS SINGAPORE 648230,127E,THE WOODS,1.35209761771362,103.698146353341,103.698146353341,648230,WESTWOOD AVENUE,THE WOODS,12956.8442720342,37134.01966561
129 WESTWOOD AVENUE THE WOODS SINGAPORE 648232,129,THE WOODS,1.35190207091398,103.698141979899,103.698141979899,648232,WESTWOOD AVENUE,THE WOODS,12956.3563521365,37112.3970655464
131 WESTWOOD AVENUE THE WOODS SINGAPORE 648238,131,THE WOODS,1.35190365824295,103.698087471941,103.698087471941,648238,WESTWOOD AVENUE,THE WOODS,12950.2902244478,37112.5729225315
133 WESTWOOD AVENUE THE WOODS SINGAPORE 648239,133,THE WOODS,1.35190520685164,103.698035655463,103.698035655463,648239,WESTWOOD AVENUE,THE WOODS,12944.5236287266,37112.744481463
135 WESTWOOD AVENUE THE WOODS SINGAPORE 648240,135,THE WOODS,1.35190684428966,103.697981476865,103.697981476865,648240,WESTWOOD AVENUE,THE WOODS,12938.4941555662,37112.9258774892
137 WESTWOOD AVENUE THE WOODS SINGAPORE 648241,137,THE WOODS,1.35190838468411,103.697929660659,103.697929660659,648241,WESTWOOD AVENUE,THE WOODS,12932.727590112,37113.0965283811
139 WESTWOOD AVENUE THE WOODS SINGAPORE 648242,139,THE WOODS,1.35191002675402,103.697875141003,103.697875141003,648242,WESTWOOD AVENUE,THE WOODS,12926.6601609001,37113.278438963
141 WESTWOOD AVENUE THE WOODS SINGAPORE 648243,141,THE WOODS,1.35191250319564,103.697714102032,103.697714102032,648243,WESTWOOD AVENUE,THE WOODS,12908.7383061331,37113.5532722566
143 WESTWOOD AVENUE THE WOODS SINGAPORE 648244,143,THE WOODS,1.35191409024114,103.69765959353,103.69765959353,648244,WESTWOOD AVENUE,THE WOODS,12902.6721179085,37113.7290989738
145 WESTWOOD AVENUE THE WOODS SINGAPORE 648245,145,THE WOODS,1.35191563884058,103.697607777053,103.697607777053,648245,WESTWOOD AVENUE,THE WOODS,12896.9055221863,37113.9006579053
147 WESTWOOD AVENUE THE WOODS SINGAPORE 648246,147,THE WOODS,1.35191727626897,103.697553599,103.697553599,648246,WESTWOOD AVENUE,THE WOODS,12890.8761095619,37114.0820539314
149 WESTWOOD AVENUE THE WOODS SINGAPORE 648247,149,THE WOODS,1.35191881638048,103.697501783067,103.697501783067,648247,WESTWOOD AVENUE,THE WOODS,12885.1095743766,37114.2526745554
151 WESTWOOD AVENUE THE WOODS SINGAPORE 648248,151,THE WOODS,1.35192045898807,103.697447262867,103.697447262867,648248,WESTWOOD AVENUE,THE WOODS,12879.0420846278,37114.4346456733
153 WESTWOOD AVENUE THE WOODS SINGAPORE 648249,153,THE WOODS,1.35192217892777,103.69739524267,103.69739524267,648249,WESTWOOD AVENUE,THE WOODS,12873.2528181868,37114.6251523625
155 WESTWOOD AVENUE THE WOODS SINGAPORE 648250,155,THE WOODS,1.35192347967955,103.697341395903,103.697341395903,648250,WESTWOOD AVENUE,THE WOODS,12867.2602719665,37114.7693187706
157 WESTWOOD AVENUE THE WOODS SINGAPORE 648251,157,THE WOODS,1.35192421600049,103.697287654966,103.697287654966,648251,WESTWOOD AVENUE,THE WOODS,12861.2794999918,37114.8510725945
159 WESTWOOD AVENUE THE WOODS SINGAPORE 648252,159,THE WOODS,1.35181465759042,103.697231632578,103.697231632578,648252,WESTWOOD AVENUE,THE WOODS,12855.0441440055,37102.7369780075
161 WESTWOOD AVENUE THE WOODS SINGAPORE 648253,161,THE WOODS,1.35181381022289,103.697286928135,103.697286928135,648253,WESTWOOD AVENUE,THE WOODS,12861.1979277758,37102.6429353803
163 WESTWOOD AVENUE THE WOODS SINGAPORE 648254,163,THE WOODS,1.35181245189451,103.697339109863,103.697339109863,648254,WESTWOOD AVENUE,THE WOODS,12867.0051733991,37102.4924126975
165 WESTWOOD AVENUE THE WOODS SINGAPORE 648255,165,THE WOODS,1.35181116889449,103.697392234802,103.697392234802,648255,WESTWOOD AVENUE,THE WOODS,12872.9173883907,37102.3502137102
167 WESTWOOD AVENUE THE WOODS SINGAPORE 648256,167,THE WOODS,1.35180970186913,103.697444007212,103.697444007212,648256,WESTWOOD AVENUE,THE WOODS,12878.6790806996,37102.1876746379
169 WESTWOOD AVENUE THE WOODS SINGAPORE 648257,169,THE WOODS,1.35180810360561,103.697498521967,103.697498521967,648257,WESTWOOD AVENUE,THE WOODS,12884.7459650878,37102.0106069334
171 WESTWOOD AVENUE THE WOODS SINGAPORE 648258,171,THE WOODS,1.35180655418701,103.697550337083,103.697550337083,648258,WESTWOOD AVENUE,THE WOODS,12890.51240947,37101.838957198
173 WESTWOOD AVENUE THE WOODS SINGAPORE 648259,173,THE WOODS,1.35180497533726,103.697604517306,103.697604517306,648259,WESTWOOD AVENUE,THE WOODS,12896.5420642383,37101.6640385203
175 WESTWOOD AVENUE THE WOODS SINGAPORE 648260,175,THE WOODS,1.35180343549707,103.697656334053,103.697656334053,648260,WESTWOOD AVENUE,THE WOODS,12902.3086902276,37101.4934481643
177 WESTWOOD AVENUE THE WOODS SINGAPORE 648261,177,THE WOODS,1.35180178166098,103.697710846635,103.697710846635,648261,WESTWOOD AVENUE,THE WOODS,12908.3753324719,37101.3102360573
179 WESTWOOD AVENUE THE WOODS SINGAPORE 648262,179,THE WOODS,1.35179927018112,103.697871885329,103.697871885329,648262,WESTWOOD AVENUE,THE WOODS,12926.2971569709,37101.0315284636
181 WESTWOOD AVENUE THE WOODS SINGAPORE 648263,181,THE WOODS,1.35179767163414,103.697926399813,103.697926399813,648263,WESTWOOD AVENUE,THE WOODS,12932.3640110912,37100.8544304911
183 WESTWOOD AVENUE THE WOODS SINGAPORE 648264,183,THE WOODS,1.35179612275377,103.697978214928,103.697978214928,648264,WESTWOOD AVENUE,THE WOODS,12938.1304554734,37100.6828412917
185 WESTWOOD AVENUE THE WOODS SINGAPORE 648265,185,THE WOODS,1.35179454362063,103.698032395424,103.698032395424,648265,WESTWOOD AVENUE,THE WOODS,12944.1601405097,37100.507892346
187 WESTWOOD AVENUE THE WOODS SINGAPORE 648266,187,THE WOODS,1.35179300349747,103.698084212171,103.698084212171,648266,WESTWOOD AVENUE,THE WOODS,12949.9267664999,37100.337271722
189 WESTWOOD AVENUE THE WOODS SINGAPORE 648267,189,THE WOODS,1.35179134965167,103.698138724482,103.698138724482,648267,WESTWOOD AVENUE,THE WOODS,12955.9933784762,37100.1540596168
191 WESTWOOD AVENUE THE WOODS SINGAPORE 648268,191,THE WOODS,1.35159691504057,103.698134625401,103.698134625401,648268,WESTWOOD AVENUE,THE WOODS,12955.535998974,37078.6544383708
193 WESTWOOD AVENUE THE WOODS SINGAPORE 648269,193,THE WOODS,1.35159850209633,103.698080117178,103.698080117178,648269,WESTWOOD AVENUE,THE WOODS,12949.4698410174,37078.830265088
195 WESTWOOD AVENUE THE WOODS SINGAPORE 648270,195,THE WOODS,1.35160005097924,103.698028300434,103.698028300434,648270,WESTWOOD AVENUE,THE WOODS,12943.7032150272,37079.0018542875
197 WESTWOOD AVENUE THE WOODS SINGAPORE 648271,197,THE WOODS,1.35160168814406,103.697974122387,103.697974122387,648271,WESTWOOD AVENUE,THE WOODS,12937.6738024028,37079.1832200456
199 WESTWOOD AVENUE THE WOODS SINGAPORE 648272,199,THE WOODS,1.35160322853904,103.69792230646,103.69792230646,648272,WESTWOOD AVENUE,THE WOODS,12931.9072672175,37079.3538709376
201 WESTWOOD AVENUE THE WOODS SINGAPORE 648273,201,THE WOODS,1.3516048708832,103.697867786539,103.697867786539,648273,WESTWOOD AVENUE,THE WOODS,12925.8398077376,37079.5358117875
203 WESTWOOD AVENUE THE WOODS SINGAPORE 648274,203,THE WOODS,1.35160604077471,103.697759835535,103.697759835535,648274,WESTWOOD AVENUE,THE WOODS,12913.8260515165,37079.6658430453
205 WESTWOOD AVENUE THE WOODS SINGAPORE 648275,205,THE WOODS,1.35160762836944,103.697705327584,103.697705327584,648275,WESTWOOD AVENUE,THE WOODS,12907.7599238278,37079.8417302985
207 WESTWOOD AVENUE THE WOODS SINGAPORE 648276,207,THE WOODS,1.35160917642307,103.697653510841,103.697653510841,648276,WESTWOOD AVENUE,THE WOODS,12901.9932978377,37080.0132286958
209 WESTWOOD AVENUE THE WOODS SINGAPORE 648277,209,THE WOODS,1.35161081440062,103.697599332251,103.697599332251,648277,WESTWOOD AVENUE,THE WOODS,12895.9638246773,37080.194685258
211 WESTWOOD AVENUE THE WOODS SINGAPORE 648278,211,THE WOODS,1.35161235451376,103.697547516324,103.697547516324,648278,WESTWOOD AVENUE,THE WOODS,12890.1972894911,37080.3653058819
213 WESTWOOD AVENUE THE WOODS SINGAPORE 648279,213,THE WOODS,1.35161399630196,103.697492996403,103.697492996403,648279,WESTWOOD AVENUE,THE WOODS,12884.1298300112,37080.5471861959
215 WESTWOOD AVENUE THE WOODS SINGAPORE 648280,215,THE WOODS,1.35161555772631,103.697440513046,103.697440513046,648280,WESTWOOD AVENUE,THE WOODS,12878.289017193,37080.7201677226
217 WESTWOOD AVENUE THE WOODS SINGAPORE 648281,217,THE WOODS,1.35161748146327,103.69738611985,103.69738611985,648281,WESTWOOD AVENUE,THE WOODS,12872.2356625935,37080.9332240596
219 WESTWOOD AVENUE THE WOODS SINGAPORE 648282,219,THE WOODS,1.35161778159326,103.697334798174,103.697334798174,648282,WESTWOOD AVENUE,THE WOODS,12866.5241243346,37080.9667307176
221 WESTWOOD AVENUE THE WOODS SINGAPORE 648283,221,THE WOODS,1.3516192985396,103.697280009547,103.697280009547,648283,WESTWOOD AVENUE,THE WOODS,12860.4267600868,37081.1348088309
223 WESTWOOD AVENUE THE WOODS SINGAPORE 648284,223,THE WOODS,1.35152234482007,103.697372317991,103.697372317991,648284,WESTWOOD AVENUE,THE WOODS,12870.6990781324,37070.4135560505
225 WESTWOOD AVENUE THE WOODS SINGAPORE 648285,225,THE WOODS,1.35150480060756,103.697437264733,103.697437264733,648285,WESTWOOD AVENUE,THE WOODS,12877.9268305004,37068.4731966872
227 WESTWOOD AVENUE THE WOODS SINGAPORE 648286,227,THE WOODS,1.35150324000381,103.697489741017,103.697489741017,648286,WESTWOOD AVENUE,THE WOODS,12883.7668563509,37068.3003059644
229 WESTWOOD AVENUE THE WOODS SINGAPORE 648287,229,THE WOODS,1.35150164146481,103.697544255494,103.697544255494,648287,WESTWOOD AVENUE,THE WOODS,12889.8337104712,37068.1232079919
231 WESTWOOD AVENUE THE WOODS SINGAPORE 648288,231,THE WOODS,1.35150009204451,103.697596070331,103.697596070331,648288,WESTWOOD AVENUE,THE WOODS,12895.6001245845,37067.9515582547
233 WESTWOOD AVENUE THE WOODS SINGAPORE 648289,233,THE WOODS,1.35149851346676,103.697650250819,103.697650250819,648289,WESTWOOD AVENUE,THE WOODS,12901.6298096208,37067.776669845
235 WESTWOOD AVENUE THE WOODS SINGAPORE 648290,235,THE WOODS,1.35149697335122,103.697702067559,103.697702067559,648290,WESTWOOD AVENUE,THE WOODS,12907.396435611,37067.606049221
237 WESTWOOD AVENUE THE WOODS SINGAPORE 648291,237,THE WOODS,1.3514953195134,103.697756580135,103.697756580135,648291,WESTWOOD AVENUE,THE WOODS,12913.4630778553,37067.4228371158
239 WESTWOOD AVENUE THE WOODS SINGAPORE 648292,239,THE WOODS,1.35149411376261,103.697864530592,103.697864530592,648292,WESTWOOD AVENUE,THE WOODS,12925.4767735405,37067.2888407521
241 WESTWOOD AVENUE THE WOODS SINGAPORE 648293,241,THE WOODS,1.35149251548886,103.697919045341,103.697919045341,648293,WESTWOOD AVENUE,THE WOODS,12931.5436579287,37067.1117730476
243 WESTWOOD AVENUE THE WOODS SINGAPORE 648294,243,THE WOODS,1.35149096606053,103.697970860722,103.697970860722,648294,WESTWOOD AVENUE,THE WOODS,12937.3101325789,37066.9401233122
245 WESTWOOD AVENUE THE WOODS SINGAPORE 648295,245,THE WOODS,1.3514893874743,103.698025040667,103.698025040667,648295,WESTWOOD AVENUE,THE WOODS,12943.3397570793,37066.7652349025
247 WESTWOOD AVENUE THE WOODS SINGAPORE 648296,247,THE WOODS,1.35148784762436,103.698076857408,103.698076857408,648296,WESTWOOD AVENUE,THE WOODS,12949.1063830694,37066.5946445446
249 WESTWOOD AVENUE THE WOODS SINGAPORE 648297,249,THE WOODS,1.35148619377803,103.698131369984,103.698131369984,648297,WESTWOOD AVENUE,THE WOODS,12955.1730253138,37066.4114324395
105 WESTWOOD AVENUE THE WOODS SINGAPORE 648298,105,THE WOODS,1.35255225601748,103.697565205667,103.697565205667,648298,WESTWOOD AVENUE,THE WOODS,12892.171730605,37184.2949984409
121A WESTWOOD AVENUE THE WOODS SINGAPORE 648299,121A,THE WOODS,1.35220992630416,103.698095100792,103.698095100792,648299,WESTWOOD AVENUE,THE WOODS,12951.1411180068,37146.4385285247
121B WESTWOOD AVENUE THE WOODS SINGAPORE 648300,121B,THE WOODS,1.35221147491235,103.698043284308,103.698043284308,648300,WESTWOOD AVENUE,THE WOODS,12945.3745222846,37146.6100874562
121C WESTWOOD AVENUE THE WOODS SINGAPORE 648301,121C,THE WOODS,1.35221311234985,103.697989105703,103.697989105703,648301,WESTWOOD AVENUE,THE WOODS,12939.3450491242,37146.7914834842
121D WESTWOOD AVENUE THE WOODS SINGAPORE 648302,121D,THE WOODS,1.35221465247007,103.697937289491,103.697937289491,648302,WESTWOOD AVENUE,THE WOODS,12933.57848367,37146.9621041082
121E WESTWOOD AVENUE THE WOODS SINGAPORE 648303,121E,THE WOODS,1.35221629453947,103.697882769828,103.697882769828,648303,WESTWOOD AVENUE,THE WOODS,12927.5110544581,37147.1440146901
125F WESTWOOD AVENUE THE WOODS SINGAPORE 648304,125F,THE WOODS,1.35210694711705,103.697718317755,103.697718317755,648304,WESTWOOD AVENUE,THE WOODS,12909.2086706003,37135.0539226141
48 LAKESIDE DRIVE THE LAKEFRONT RESIDENCES SINGAPORE 648305,48,THE LAKEFRONT RESIDENCES,1.3430039675551,103.719009651994,103.719009651994,648305,LAKESIDE DRIVE,THE LAKEFRONT RESIDENCES,15278.6520872461,36128.368993938
31 JURONG WEST STREET 63 CITIBANK PIONEER SMRT STATION SINGAPORE 648310,31,CITIBANK PIONEER SMRT STATION,1.33755128782925,103.696942416972,103.696942416972,648310,JURONG WEST STREET 63,CITIBANK PIONEER SMRT STATION,12822.7695140401,35525.5637860782
50 LAKESIDE DRIVE CASPIAN SINGAPORE 648315,50,CASPIAN,1.34265740158581,103.718174762722,103.718174762722,648315,LAKESIDE DRIVE,CASPIAN,15185.7360059218,36090.0517847743
52 LAKESIDE DRIVE CASPIAN SINGAPORE 648316,52,CASPIAN,1.34245875579964,103.717693368001,103.717693368001,648316,LAKESIDE DRIVE,CASPIAN,15132.160857507,36068.0890331101
54 LAKESIDE DRIVE CASPIAN SINGAPORE 648317,54,CASPIAN,1.34309259667018,103.717865129148,103.717865129148,648317,LAKESIDE DRIVE,CASPIAN,15151.2793570105,36138.1751547661
56 LAKESIDE DRIVE CASPIAN SINGAPORE 648318,56,CASPIAN,1.34308454296515,103.717866134476,103.717866134476,648318,LAKESIDE DRIVE,CASPIAN,15151.3911972102,36137.2846101485
58 LAKESIDE DRIVE CASPIAN SINGAPORE 648319,58,CASPIAN,1.34308454296515,103.717866134476,103.717866134476,648319,LAKESIDE DRIVE,CASPIAN,15151.3911972102,36137.2846101485
60 LAKESIDE DRIVE CASPIAN SINGAPORE 648320,60,CASPIAN,1.34280248734962,103.718601989018,103.718601989018,648320,LAKESIDE DRIVE,CASPIAN,15233.2824984128,36106.0924238171
62 LAKESIDE DRIVE CASPIAN SINGAPORE 648321,62,CASPIAN,1.34280248707589,103.718601989018,103.718601989018,648321,LAKESIDE DRIVE,CASPIAN,15233.2824984128,36106.0923935492
42 LAKESIDE DRIVE THE LAKEFRONT RESIDENCES SINGAPORE 648322,42,THE LAKEFRONT RESIDENCES,1.34335239967805,103.719303577001,103.719303577001,648322,LAKESIDE DRIVE,THE LAKEFRONT RESIDENCES,15311.3646041323,36166.8953851368
44 LAKESIDE DRIVE THE LAKEFRONT RESIDENCES SINGAPORE 648323,44,THE LAKEFRONT RESIDENCES,1.34307801346736,103.719544716762,103.719544716762,648323,LAKESIDE DRIVE,THE LAKEFRONT RESIDENCES,15338.1994720642,36136.5538502187
46 LAKESIDE DRIVE THE LAKEFRONT RESIDENCES SINGAPORE 648324,46,THE LAKEFRONT RESIDENCES,1.34261418714372,103.719375567241,103.719375567241,648324,LAKESIDE DRIVE,THE LAKEFRONT RESIDENCES,15319.3725440484,36085.2670824435
2 JURONG WEST STREET 25 SINGAPORE 648325,2,NIL,1.3547096550712,103.702641921539,103.702641921539,648325,JURONG WEST STREET 25,2 JURONG WEST STREET 25 SINGAPORE 648325,13457.1671417812,37422.8187870588
4 JURONG WEST STREET 25 SINGAPORE 648326,4,NIL,1.35506832739666,103.702848629953,103.702848629953,648326,JURONG WEST STREET 25,4 JURONG WEST STREET 25 SINGAPORE 648326,13480.1736243283,37462.4778062068
61 JURONG WEST CENTRAL 3 BOON LAY BUS INTERCHANGE SINGAPORE 648330,61,BOON LAY BUS INTERCHANGE,1.33931887790074,103.705160843279,103.705160843279,648330,JURONG WEST CENTRAL 3,BOON LAY BUS INTERCHANGE,13737.4055996621,35720.9660495482
63 JURONG WEST CENTRAL 3 BOON LAY BUS INTERCHANGE SINGAPORE 648331,63,BOON LAY BUS INTERCHANGE,1.33931504032005,103.705350996191,103.705350996191,648331,JURONG WEST CENTRAL 3,BOON LAY BUS INTERCHANGE,13758.5676118182,35720.5406027697
65 JURONG WEST CENTRAL 3 THE CENTRIS SINGAPORE 648332,65,THE CENTRIS,1.33933029403445,103.705987854084,103.705987854084,648332,JURONG WEST CENTRAL 3,THE CENTRIS,13829.4433343662,35722.2235934678
67 JURONG WEST CENTRAL 3 THE CENTRIS SINGAPORE 648333,67,THE CENTRIS,1.33923531461316,103.705740339395,103.705740339395,648333,JURONG WEST CENTRAL 3,THE CENTRIS,13801.8969872091,35711.7226613406
69 JURONG WEST CENTRAL 3 THE CENTRIS SINGAPORE 648334,69,THE CENTRIS,1.3391498673131,103.705497422244,103.705497422244,648334,JURONG WEST CENTRAL 3,THE CENTRIS,13774.862350584,35702.2757209428
71 JURONG WEST CENTRAL 3 THE CENTRIS SINGAPORE 648335,71,THE CENTRIS,1.33905816316758,103.705246911621,103.705246911621,648335,JURONG WEST CENTRAL 3,THE CENTRIS,13746.9826015858,35692.13697551
73 JURONG WEST CENTRAL 3 THE CENTRIS SINGAPORE 648336,73,THE CENTRIS,1.33895780336537,103.704992223933,103.704992223933,648336,JURONG WEST CENTRAL 3,THE CENTRIS,13718.6379363583,35681.0411564298
75 JURONG WEST CENTRAL 3 THE CENTRIS SINGAPORE 648337,75,THE CENTRIS,1.33885383597361,103.704726254118,103.704726254118,648337,JURONG WEST CENTRAL 3,THE CENTRIS,13689.0376643613,35669.5464961305
77 JURONG WEST CENTRAL 3 THE CENTRIS SINGAPORE 648338,77,THE CENTRIS,1.33957317487386,103.704455860624,103.704455860624,648338,JURONG WEST CENTRAL 3,THE CENTRIS,13658.9498659512,35749.0890925992
79 JURONG WEST CENTRAL 3 THE CENTRIS SINGAPORE 648339,79,THE CENTRIS,1.33968348152631,103.704714018501,103.704714018501,648339,JURONG WEST CENTRAL 3,THE CENTRIS,13687.6807809193,35761.2847594023
81 JURONG WEST CENTRAL 3 THE CENTRIS SINGAPORE 648340,81,THE CENTRIS,1.33978570372637,103.704956221133,103.704956221133,648340,JURONG WEST CENTRAL 3,THE CENTRIS,13714.6359943552,35772.5865823794
83 JURONG WEST CENTRAL 3 THE CENTRIS SINGAPORE 648341,83,THE CENTRIS,1.33989482199824,103.705260058156,103.705260058156,648341,JURONG WEST CENTRAL 3,THE CENTRIS,13748.4505079929,35784.6505834535
85 JURONG WEST CENTRAL 3 THE CENTRIS SINGAPORE 648342,85,THE CENTRIS,1.33997167355627,103.705497146299,103.705497146299,648342,JURONG WEST CENTRAL 3,THE CENTRIS,13774.836380654,35793.1470788941
87 JURONG WEST CENTRAL 3 THE CENTRIS SINGAPORE 648343,87,THE CENTRIS,1.34005397048078,103.705755756385,103.705755756385,648343,JURONG WEST CENTRAL 3,THE CENTRIS,13803.617449671,35802.2455742639
10 JURONG WEST STREET 64 SINGAPORE 648345,10,NIL,1.33847300753294,103.706541532187,103.706541532187,648345,JURONG WEST STREET 64,10 JURONG WEST STREET 64 SINGAPORE 648345,13891.0570236286,35627.4258121327
60 JURONG WEST CENTRAL 3 JURONG MEDICAL CENTRE SINGAPORE 648346,60,JURONG MEDICAL CENTRE,1.34051876831483,103.704549717701,103.704549717701,648346,JURONG WEST CENTRAL 3,JURONG MEDICAL CENTRE,13669.4006742975,35853.6476933248
31 JURONG WEST STREET 24 ACE @ WORK ENRICHMENT PTE LTD (CORPORATION PRIMARY) SINGAPORE 648347,31,ACE @ WORK ENRICHMENT PTE LTD (CORPORATION PRIMARY),1.35148548772662,103.707578404944,103.707578404944,648347,JURONG WEST STREET 24,ACE @ WORK ENRICHMENT PTE LTD (CORPORATION PRIMARY),14006.5242964895,37066.276891252
61 JURONG WEST STREET 65 JURONG WEST SECONDARY SCHOOL SINGAPORE 648348,61,JURONG WEST SECONDARY SCHOOL,1.33525634519937,103.702098132579,103.702098132579,648348,JURONG WEST STREET 65,JURONG WEST SECONDARY SCHOOL,13396.5338325109,35271.7688310985
12 JURONG WEST STREET 76 SINGAPORE 648349,12,NIL,1.34742568731438,103.703602009626,103.703602009626,648349,JURONG WEST STREET 76,12 JURONG WEST STREET 76 SINGAPORE 648349,13563.9712636815,36617.3870139103
11 JURONG WEST STREET 25 WESTWOOD SECONDARY SCHOOL SINGAPORE 648350,11,WESTWOOD SECONDARY SCHOOL,1.3535261354002,103.701604293889,103.701604293889,648350,JURONG WEST STREET 25,WESTWOOD SECONDARY SCHOOL,13341.683615013,37291.9571268745
218 WESTWOOD AVENUE THE FLORAVALE SINGAPORE 648351,218,THE FLORAVALE,1.35101805543217,103.697190332993,103.697190332993,648351,WESTWOOD AVENUE,THE FLORAVALE,12850.4430169975,37014.6527868006
220 WESTWOOD AVENUE THE FLORAVALE SINGAPORE 648352,220,THE FLORAVALE,1.35118773611944,103.696951034746,103.696951034746,648352,WESTWOOD AVENUE,THE FLORAVALE,12823.8127909033,37033.4167574104
248 WESTWOOD AVENUE THE FLORAVALE SINGAPORE 648353,248,THE FLORAVALE,1.35099273375247,103.697821287489,103.697821287489,648353,WESTWOOD AVENUE,THE FLORAVALE,12920.6611978672,37011.8489121273
11 JURONG WEST STREET 65 BOON LAY SECONDARY SCHOOL SINGAPORE 648354,11,BOON LAY SECONDARY SCHOOL,1.34322372271823,103.701702919853,103.701702919853,648354,JURONG WEST STREET 65,BOON LAY SECONDARY SCHOOL,13352.5980077982,36152.7653520294
222 WESTWOOD AVENUE THE FLORAVALE SINGAPORE 648355,222,THE FLORAVALE,1.3511603133083,103.696398762093,103.696398762093,648355,WESTWOOD AVENUE,THE FLORAVALE,12762.3507139701,37030.3879310824
224 WESTWOOD AVENUE THE FLORAVALE SINGAPORE 648356,224,THE FLORAVALE,1.35106923126398,103.696526412174,103.696526412174,648356,WESTWOOD AVENUE,THE FLORAVALE,12776.5562051609,37020.3157146778
226 WESTWOOD AVENUE THE FLORAVALE SINGAPORE 648357,226,THE FLORAVALE,1.35137818374392,103.696147144634,103.696147144634,648357,WESTWOOD AVENUE,THE FLORAVALE,12734.3498022333,37054.4805802256
228 WESTWOOD AVENUE THE FLORAVALE SINGAPORE 648358,228,THE FLORAVALE,1.3514142686536,103.69585677257,103.69585677257,648358,WESTWOOD AVENUE,THE FLORAVALE,12702.0347947776,37058.4725035261
230 WESTWOOD AVENUE THE FLORAVALE SINGAPORE 648359,230,THE FLORAVALE,1.35100923093168,103.695608512316,103.695608512316,648359,WESTWOOD AVENUE,THE FLORAVALE,12674.4036064614,37013.6869354397
232 WESTWOOD AVENUE THE FLORAVALE SINGAPORE 648360,232,THE FLORAVALE,1.35084127792961,103.695848187214,103.695848187214,648360,WESTWOOD AVENUE,THE FLORAVALE,12701.075753713,36995.1139860749
234 WESTWOOD AVENUE THE FLORAVALE SINGAPORE 648361,234,THE FLORAVALE,1.35076724579408,103.696128678265,103.696128678265,648361,WESTWOOD AVENUE,THE FLORAVALE,12732.290883177,36986.9261029959
236 WESTWOOD AVENUE THE FLORAVALE SINGAPORE 648362,236,THE FLORAVALE,1.35059590518421,103.696366323811,103.696366323811,648362,WESTWOOD AVENUE,THE FLORAVALE,12758.7371707344,36967.9785873331
238 WESTWOOD AVENUE THE FLORAVALE SINGAPORE 648363,238,THE FLORAVALE,1.3505057846007,103.696781386822,103.696781386822,648363,WESTWOOD AVENUE,THE FLORAVALE,12804.9285958614,36958.0108862743
240 WESTWOOD AVENUE THE FLORAVALE SINGAPORE 648364,240,THE FLORAVALE,1.35053247796925,103.696909269355,103.696909269355,648364,WESTWOOD AVENUE,THE FLORAVALE,12819.1606926098,36960.9617120065
242 WESTWOOD AVENUE THE FLORAVALE SINGAPORE 648365,242,THE FLORAVALE,1.350500418105,103.697198825701,103.697198825701,648365,WESTWOOD AVENUE,THE FLORAVALE,12851.3849566504,36957.4148794077
244 WESTWOOD AVENUE THE FLORAVALE SINGAPORE 648366,244,THE FLORAVALE,1.35061367238423,103.697467712486,103.697467712486,648366,WESTWOOD AVENUE,THE FLORAVALE,12881.3098225044,36969.9363205191
246 WESTWOOD AVENUE THE FLORAVALE SINGAPORE 648367,246,THE FLORAVALE,1.35096144044171,103.697694845015,103.697694845015,648367,WESTWOOD AVENUE,THE FLORAVALE,12906.5893398253,37008.3894329295
30 JURONG WEST STREET 61 JURONG WEST PRIMARY SCHOOL SINGAPORE 648368,30,JURONG WEST PRIMARY SCHOOL,1.33901153395591,103.698965552387,103.698965552387,648368,JURONG WEST STREET 61,JURONG WEST PRIMARY SCHOOL,13047.9324395536,35687.0183567833
8 JURONG WEST STREET 76 SOKA CULTURE CENTRE SINGAPORE 648369,8,SOKA CULTURE CENTRE,1.34785911607933,103.704090589901,103.704090589901,648369,JURONG WEST STREET 76,SOKA CULTURE CENTRE,13618.3475148212,36665.31058494
2 JURONG WEST STREET 76 SINGAPORE 648370,2,NIL,1.34690580327108,103.703881231503,103.703881231503,648370,JURONG WEST STREET 76,2 JURONG WEST STREET 76 SINGAPORE 648370,13595.0425899541,36559.8990929704
41 WESTWOOD AVENUE WESTVILLE SINGAPORE 648371,41,WESTVILLE,1.3520840984936,103.699691531109,103.699691531109,648371,WESTWOOD AVENUE,WESTVILLE,13128.8054955155,37132.5152560156
43 WESTWOOD AVENUE WESTVILLE SINGAPORE 648372,43,WESTVILLE,1.35211689608118,103.699648852682,103.699648852682,648372,WESTWOOD AVENUE,WESTVILLE,13124.0560553866,37136.142117165
45 WESTWOOD AVENUE WESTVILLE SINGAPORE 648373,45,WESTVILLE,1.3521729790472,103.699578034028,103.699578034028,648373,WESTWOOD AVENUE,WESTVILLE,13116.175059394,37142.3439362235
47 WESTWOOD AVENUE WESTVILLE SINGAPORE 648374,47,WESTVILLE,1.35220596934678,103.699535480425,103.699535480425,648374,WESTWOOD AVENUE,WESTVILLE,13111.4395122696,37145.9921060335
49 WESTWOOD AVENUE WESTVILLE SINGAPORE 648375,49,WESTVILLE,1.35227303765369,103.699473214279,103.699473214279,648375,WESTWOOD AVENUE,WESTVILLE,13104.5103838295,37153.4085792806
51 WESTWOOD AVENUE WESTVILLE SINGAPORE 648376,51,WESTVILLE,1.35230763813557,103.699432321273,103.699432321273,648376,WESTWOOD AVENUE,WESTVILLE,13099.9596530134,37157.2347853687
53 WESTWOOD AVENUE WESTVILLE SINGAPORE 648377,53,WESTVILLE,1.35235022826253,103.699346217186,103.699346217186,648377,WESTWOOD AVENUE,WESTVILLE,13090.3774752636,37161.9447257798
55 WESTWOOD AVENUE WESTVILLE SINGAPORE 648378,55,WESTVILLE,1.35238102614946,103.699302091945,103.699302091945,648378,WESTWOOD AVENUE,WESTVILLE,13085.4670094615,37165.3504793085
57 WESTWOOD AVENUE WESTVILLE SINGAPORE 648379,57,WESTVILLE,1.35243378174284,103.699228632025,103.699228632025,648379,WESTWOOD AVENUE,WESTVILLE,13077.2920508115,37171.1843910255
58 WESTWOOD AVENUE WESTVILLE SINGAPORE 648380,58,WESTVILLE,1.35232081028212,103.700008403338,103.700008403338,648380,WESTWOOD AVENUE,WESTVILLE,13164.0713287042,37158.6877696607
59 WESTWOOD AVENUE WESTVILLE SINGAPORE 648381,59,WESTVILLE,1.352464458633,103.699184422747,103.699184422747,648381,WESTWOOD AVENUE,WESTVILLE,13072.3722322015,37174.5767661035
60 WESTWOOD AVENUE WESTVILLE SINGAPORE 648382,60,WESTVILLE,1.35235439884002,103.699968486244,103.699968486244,648382,WESTWOOD AVENUE,WESTVILLE,13159.6291994136,37162.4020750131
61 WESTWOOD AVENUE WESTVILLE SINGAPORE 648383,61,WESTVILLE,1.35251697853671,103.699110922853,103.699110922853,648383,WESTWOOD AVENUE,WESTVILLE,13064.1928241579,37180.3846170884
62 WESTWOOD AVENUE SINGAPORE 648384,62,NIL,1.35231773822757,103.699895287965,103.699895287965,648384,WESTWOOD AVENUE,62 WESTWOOD AVENUE SINGAPORE 648384,13151.4828137401,37158.3487682417
63 WESTWOOD AVENUE WESTVILLE SINGAPORE 648385,63,WESTVILLE,1.35254813310519,103.69906704155,103.69906704155,648385,WESTWOOD AVENUE,WESTVILLE,13059.3095087372,37183.8298097979
64 WESTWOOD AVENUE WESTVILLE SINGAPORE 648386,64,WESTVILLE,1.35242223018653,103.699883943561,103.699883943561,648386,WESTWOOD AVENUE,WESTVILLE,13150.2209414989,37169.9030564707
65 WESTWOOD AVENUE WESTVILLE SINGAPORE 648387,65,WESTVILLE,1.3526001968839,103.698992048798,103.698992048798,648387,WESTWOOD AVENUE,WESTVILLE,13050.9639597302,37189.587234322
66 WESTWOOD AVENUE WESTVILLE SINGAPORE 648388,66,WESTVILLE,1.35245732541773,103.699840057701,103.699840057701,648388,WESTWOOD AVENUE,WESTVILLE,13145.3371417904,37173.7839870751
67 WESTWOOD AVENUE WESTVILLE SINGAPORE 648389,67,WESTVILLE,1.35263022664214,103.69894740466,103.69894740466,648389,WESTWOOD AVENUE,WESTVILLE,13045.9957426153,37192.9080558866
68 WESTWOOD AVENUE WESTVILLE SINGAPORE 648390,68,WESTVILLE,1.35248890962543,103.699798689989,103.699798689989,648390,WESTWOOD AVENUE,WESTVILLE,13140.7335630748,37177.276670251
69 WESTWOOD AVENUE WESTVILLE SINGAPORE 648391,69,WESTVILLE,1.35268127592596,103.698871705636,103.698871705636,648391,WESTWOOD AVENUE,WESTVILLE,13037.5715876548,37198.5533072613
70 WESTWOOD AVENUE WESTVILLE SINGAPORE 648392,70,WESTVILLE,1.35252486852707,103.699755660262,103.699755660262,648392,WESTWOOD AVENUE,WESTVILLE,13135.945046979,37181.2530963439
71 WESTWOOD AVENUE WESTVILLE SINGAPORE 648393,71,WESTVILLE,1.35271096213485,103.69882682843,103.69882682843,648393,WESTWOOD AVENUE,WESTVILLE,13032.5774308778,37201.8361425083
72 WESTWOOD AVENUE WESTVILLE SINGAPORE 648394,72,WESTVILLE,1.35258257024719,103.699687981478,103.699687981478,648394,WESTWOOD AVENUE,WESTVILLE,13128.4134948589,37187.6338899918
73 WESTWOOD AVENUE WESTVILLE SINGAPORE 648395,73,WESTVILLE,1.35276282204513,103.698753099826,103.698753099826,648395,WESTWOOD AVENUE,WESTVILLE,13024.372567459,37207.5710173827
74 WESTWOOD AVENUE WESTVILLE SINGAPORE 648396,74,WESTVILLE,1.35261303333455,103.699643290271,103.699643290271,648396,WESTWOOD AVENUE,WESTVILLE,13123.4400413819,37191.0026257765
75 WESTWOOD AVENUE WESTVILLE SINGAPORE 648397,75,WESTVILLE,1.35279242913747,103.698708124982,103.698708124982,648397,WESTWOOD AVENUE,WESTVILLE,13019.3675444759,37210.8451051824
76 WESTWOOD AVENUE WESTVILLE SINGAPORE 648398,76,WESTVILLE,1.35264462468332,103.699597490698,103.699597490698,648398,WESTWOOD AVENUE,WESTVILLE,13118.3432458714,37194.496126188
77 WESTWOOD AVENUE WESTVILLE SINGAPORE 648399,77,WESTVILLE,1.35284407878068,103.69863374065,103.69863374065,648399,WESTWOOD AVENUE,WESTVILLE,13011.0897049494,37216.5567342453
78 WESTWOOD AVENUE WESTVILLE SINGAPORE 648400,78,WESTVILLE,1.3526743203167,103.699554472731,103.699554472731,648400,WESTWOOD AVENUE,WESTVILLE,13113.5560010308,37197.7799905464
79 WESTWOOD AVENUE WESTVILLE SINGAPORE 648401,79,WESTVILLE,1.35287514820063,103.698589718184,103.698589718184,648401,WESTWOOD AVENUE,WESTVILLE,13006.1906804442,37219.9925136138
80 WESTWOOD AVENUE WESTVILLE SINGAPORE 648402,80,WESTVILLE,1.352706034019,103.699508623649,103.699508623649,648402,WESTWOOD AVENUE,WESTVILLE,13108.4536967482,37201.2870207466
81 WESTWOOD AVENUE WESTVILLE SINGAPORE 648403,81,WESTVILLE,1.35292733357329,103.698516047484,103.698516047484,648403,WESTWOOD AVENUE,WESTVILLE,12997.9922641069,37225.7633771207
82 WESTWOOD AVENUE WESTVILLE SINGAPORE 648404,82,WESTVILLE,1.35273566258487,103.699465581478,103.699465581478,648404,WESTWOOD AVENUE,WESTVILLE,13103.6637580562,37204.5634694491
83 WESTWOOD AVENUE WESTVILLE SINGAPORE 648405,83,WESTVILLE,1.35295834878971,103.698471987757,103.698471987757,648405,WESTWOOD AVENUE,WESTVILLE,12993.0890928889,37229.1931634266
84 WESTWOOD AVENUE WESTVILLE SINGAPORE 648406,84,WESTVILLE,1.35276737573805,103.699419736474,103.699419736474,648406,WESTWOOD AVENUE,WESTVILLE,13098.5619077934,37208.0704391152
85 WESTWOOD AVENUE WESTVILLE SINGAPORE 648407,85,WESTVILLE,1.35301043286658,103.698398124498,103.698398124498,648407,WESTWOOD AVENUE,WESTVILLE,12984.8692468181,37234.9528277814
86 WESTWOOD AVENUE WESTVILLE SINGAPORE 648408,86,WESTVILLE,1.35279714965241,103.699376668726,103.699376668726,648408,WESTWOOD AVENUE,WESTVILLE,13093.7691239119,37211.3629601151
87 WESTWOOD AVENUE WESTVILLE SINGAPORE 648409,87,WESTVILLE,1.3530414234437,103.698354047908,103.698354047908,648409,WESTWOOD AVENUE,WESTVILLE,12979.9641989851,37238.3798899688
88 WESTWOOD AVENUE WESTVILLE SINGAPORE 648410,88,WESTVILLE,1.35282882447952,103.699330794892,103.699330794892,648410,WESTWOOD AVENUE,WESTVILLE,13088.6640652418,37214.8656922635
89 WESTWOOD AVENUE WESTVILLE SINGAPORE 648411,89,WESTVILLE,1.35309343936249,103.698280280111,103.698280280111,648411,WESTWOOD AVENUE,WESTVILLE,12971.7549769776,37244.1320175957
90 WESTWOOD AVENUE WESTVILLE SINGAPORE 648412,90,WESTVILLE,1.35285998313418,103.69928649175,103.69928649175,648412,WESTWOOD AVENUE,WESTVILLE,13083.7338041775,37218.3113389928
91 WESTWOOD AVENUE WESTVILLE SINGAPORE 648413,91,WESTVILLE,1.35312444389795,103.698236212492,103.698236212492,648413,WESTWOOD AVENUE,WESTVILLE,12966.8509279871,37247.5606234502
92 WESTWOOD AVENUE WESTVILLE SINGAPORE 648414,92,WESTVILLE,1.35290993850317,103.699214062486,103.699214062486,648414,WESTWOOD AVENUE,WESTVILLE,13075.6735309176,37223.8356092367
93 WESTWOOD AVENUE WESTVILLE SINGAPORE 648415,93,WESTVILLE,1.35316366646958,103.698154009776,103.698154009776,648415,WESTWOOD AVENUE,WESTVILLE,12957.7029141961,37251.8981768563
94 WESTWOOD AVENUE WESTVILLE SINGAPORE 648416,94,WESTVILLE,1.35293974103166,103.699168774316,103.699168774316,648416,WESTWOOD AVENUE,WESTVILLE,13070.6336392174,37227.1313083768
95 WESTWOOD AVENUE WESTVILLE SINGAPORE 648417,95,WESTVILLE,1.35320734473368,103.698118538086,103.698118538086,648417,WESTWOOD AVENUE,WESTVILLE,12953.7555756364,37256.7281298228
96 WESTWOOD AVENUE WESTVILLE SINGAPORE 648418,96,WESTVILLE,1.35297076434826,103.699122477861,103.699122477861,648418,WESTWOOD AVENUE,WESTVILLE,13065.4815441007,37230.5620027222
98 WESTWOOD AVENUE WESTVILLE SINGAPORE 648419,98,WESTVILLE,1.35299999050202,103.699079112595,103.699079112595,648419,WESTWOOD AVENUE,WESTVILLE,13060.655647045,37233.7939574886
100 WESTWOOD AVENUE WESTVILLE SINGAPORE 648420,100,WESTVILLE,1.35303111947953,103.699032856657,103.699032856657,648420,WESTWOOD AVENUE,WESTVILLE,13055.5080618579,37237.2363352757
102 WESTWOOD AVENUE WESTVILLE SINGAPORE 648421,102,WESTVILLE,1.35306031770907,103.698989460656,103.698989460656,648421,WESTWOOD AVENUE,WESTVILLE,13050.6787445201,37240.4652027078
104 WESTWOOD AVENUE WESTVILLE SINGAPORE 648422,104,WESTVILLE,1.35309144586247,103.698943187853,103.698943187853,648422,WESTWOOD AVENUE,WESTVILLE,13045.529282718,37243.9074896909
106 WESTWOOD AVENUE WESTVILLE SINGAPORE 648423,106,WESTVILLE,1.35312046013485,103.698899660497,103.698899660497,648423,WESTWOOD AVENUE,WESTVILLE,13040.685345944,37247.116017038
108 WESTWOOD AVENUE WESTVILLE SINGAPORE 648424,108,WESTVILLE,1.35315179852759,103.698853657209,103.698853657209,648424,WESTWOOD AVENUE,WESTVILLE,13035.5658797137,37250.5815498326
110 WESTWOOD AVENUE WESTVILLE SINGAPORE 648425,110,WESTVILLE,1.35318266459553,103.698810123764,103.698810123764,648425,WESTWOOD AVENUE,WESTVILLE,13030.7212770442,37253.9948400892
112 WESTWOOD AVENUE WESTVILLE SINGAPORE 648426,112,WESTVILLE,1.35323412192522,103.698737855681,103.698737855681,648426,WESTWOOD AVENUE,WESTVILLE,13022.6789526986,37259.6851907596
114 WESTWOOD AVENUE WESTVILLE SINGAPORE 648427,114,WESTVILLE,1.35326491756295,103.698692913943,103.698692913943,648427,WESTWOOD AVENUE,WESTVILLE,13017.6776224086,37263.0907021444
116 WESTWOOD AVENUE WESTVILLE SINGAPORE 648428,116,WESTVILLE,1.35329691265469,103.698647272071,103.698647272071,648428,WESTWOOD AVENUE,WESTVILLE,13012.5983823296,37266.6288478319
118 WESTWOOD AVENUE WESTVILLE SINGAPORE 648429,118,WESTVILLE,1.35332698850142,103.698604591583,103.698604591583,648429,WESTWOOD AVENUE,WESTVILLE,13007.8487000568,37269.9547544196
120 WESTWOOD AVENUE WESTVILLE SINGAPORE 648430,120,WESTVILLE,1.35337256182755,103.698569253334,103.698569253334,648430,WESTWOOD AVENUE,WESTVILLE,13003.9162230762,37274.994252637
122 WESTWOOD AVENUE WESTVILLE SINGAPORE 648431,122,WESTVILLE,1.35338909584282,103.698516274384,103.698516274384,648431,WESTWOOD AVENUE,WESTVILLE,12998.0203527957,37276.8228323366
124 WESTWOOD AVENUE WESTVILLE SINGAPORE 648432,124,WESTVILLE,1.35342116922377,103.69847073395,103.69847073395,648432,WESTWOOD AVENUE,WESTVILLE,12992.9524026737,37280.3696346693
126 WESTWOOD AVENUE WESTVILLE SINGAPORE 648433,126,WESTVILLE,1.35345123876322,103.698427913391,103.698427913391,648433,WESTWOOD AVENUE,WESTVILLE,12988.1871323893,37283.6948450916
128 WESTWOOD AVENUE WESTVILLE SINGAPORE 648434,128,WESTVILLE,1.35348349718052,103.69838228972,103.69838228972,648434,WESTWOOD AVENUE,WESTVILLE,12983.1099202652,37287.2621085811
130 WESTWOOD AVENUE WESTVILLE SINGAPORE 648435,130,WESTVILLE,1.35350976421404,103.698337837237,103.698337837237,648435,WESTWOOD AVENUE,WESTVILLE,12978.1630118098,37290.1668664422
132 WESTWOOD AVENUE WESTVILLE SINGAPORE 648436,132,WESTVILLE,1.35350440724146,103.697956565317,103.697956565317,648436,WESTWOOD AVENUE,WESTVILLE,12935.7316269595,37289.5768829044
134 WESTWOOD AVENUE WESTVILLE SINGAPORE 648437,134,WESTVILLE,1.35346711493854,103.697920036041,103.697920036041,648437,WESTWOOD AVENUE,WESTVILLE,12931.6660919227,37285.4535057507
136 WESTWOOD AVENUE WESTVILLE SINGAPORE 648438,136,WESTVILLE,1.35344017189457,103.697868824899,103.697868824899,648438,WESTWOOD AVENUE,WESTVILLE,12925.9666911252,37282.4745913278
138 WESTWOOD AVENUE WESTVILLE SINGAPORE 648439,138,WESTVILLE,1.35338870319663,103.697845444301,103.697845444301,648439,WESTWOOD AVENUE,WESTVILLE,12923.364370957,37276.7835747618
140 WESTWOOD AVENUE WESTVILLE SINGAPORE 648440,140,WESTVILLE,1.35334777946003,103.697807096795,103.697807096795,648440,WESTWOOD AVENUE,WESTVILLE,12919.0964641813,37272.2586625367
142 WESTWOOD AVENUE WESTVILLE SINGAPORE 648441,142,WESTVILLE,1.35330933113258,103.697769642324,103.697769642324,648441,WESTWOOD AVENUE,WESTVILLE,12914.9279574631,37268.007463688
144 WESTWOOD AVENUE WESTVILLE SINGAPORE 648442,144,WESTVILLE,1.35323507864732,103.697707889013,103.697707889013,648442,WESTWOOD AVENUE,WESTVILLE,12908.0550366687,37259.7973639071
146 WESTWOOD AVENUE WESTVILLE SINGAPORE 648443,146,WESTVILLE,1.35319183516319,103.697676782743,103.697676782743,648443,WESTWOOD AVENUE,WESTVILLE,12904.5929846913,37255.0159002524
148 WESTWOOD AVENUE WESTVILLE SINGAPORE 648444,148,WESTVILLE,1.35314542568205,103.697645477835,103.697645477835,648444,WESTWOOD AVENUE,WESTVILLE,12901.1088068178,37249.8843570966
150 WESTWOOD AVENUE WESTVILLE SINGAPORE 648445,150,WESTVILLE,1.35310267633468,103.697615276405,103.697615276405,648445,WESTWOOD AVENUE,WESTVILLE,12897.7474564221,37245.1575271506
152 WESTWOOD AVENUE WESTVILLE SINGAPORE 648446,152,WESTVILLE,1.3530562539782,103.69758380505,103.69758380505,648446,WESTWOOD AVENUE,WESTVILLE,12894.2447545417,37240.0245614015
154 WESTWOOD AVENUE WESTVILLE SINGAPORE 648447,154,WESTVILLE,1.35301379148336,103.697553281859,103.697553281859,648447,WESTWOOD AVENUE,WESTVILLE,12890.8475971213,37235.3294523023
156 WESTWOOD AVENUE WESTVILLE SINGAPORE 648448,156,WESTVILLE,1.35296750845691,103.697521828721,103.697521828721,648448,WESTWOOD AVENUE,WESTVILLE,12887.3469231967,37230.211892955
158 WESTWOOD AVENUE WESTVILLE SINGAPORE 648449,158,WESTVILLE,1.35292445554937,103.697491803009,103.697491803009,648449,WESTWOOD AVENUE,WESTVILLE,12884.0051259184,37225.4514958169
250 WESTWOOD AVENUE WESTVILLE SINGAPORE 648450,250,WESTVILLE,1.35112876395362,103.698297406786,103.698297406786,648450,WESTWOOD AVENUE,WESTVILLE,12973.648905254,37026.8875295706
251 WESTWOOD AVENUE WESTVILLE SINGAPORE 648451,251,WESTVILLE,1.35144090887681,103.698238397614,103.698238397614,648451,WESTWOOD AVENUE,WESTVILLE,12967.0837493185,37061.403382659
252 WESTWOOD AVENUE WESTVILLE SINGAPORE 648452,252,WESTVILLE,1.35107617334645,103.698295643475,103.698295643475,648452,WESTWOOD AVENUE,WESTVILLE,12973.452344968,37021.0723234657
253 WESTWOOD AVENUE WESTVILLE SINGAPORE 648453,253,WESTVILLE,1.35143930890477,103.698292067332,103.698292067332,648453,WESTWOOD AVENUE,WESTVILLE,12973.0565910805,37061.2261333447
254 WESTWOOD AVENUE WESTVILLE SINGAPORE 648454,254,WESTVILLE,1.35102021746364,103.698293646996,103.698293646996,648454,WESTWOOD AVENUE,WESTVILLE,12973.229814752,37014.8850027714
255 WESTWOOD AVENUE WESTVILLE SINGAPORE 648455,255,WESTVILLE,1.35143662397928,103.698382183296,103.698382183296,648455,WESTWOOD AVENUE,WESTVILLE,12983.0854940023,37060.9286898691
256 WESTWOOD AVENUE WESTVILLE SINGAPORE 648456,256,WESTVILLE,1.35096751925996,103.698291530666,103.698291530666,648456,WESTWOOD AVENUE,WESTVILLE,12972.9939666223,37009.0579013489
257 WESTWOOD AVENUE WESTVILLE SINGAPORE 648457,257,WESTVILLE,1.35143500128426,103.698435852471,103.698435852471,648457,WESTWOOD AVENUE,WESTVILLE,12989.0582752284,37060.7489283141
258 WESTWOOD AVENUE WESTVILLE SINGAPORE 648458,258,WESTVILLE,1.35091181437138,103.698289210792,103.698289210792,648458,WESTWOOD AVENUE,WESTVILLE,12972.7354477737,37002.8983363956
259 WESTWOOD AVENUE WESTVILLE SINGAPORE 648459,259,WESTVILLE,1.35143230704284,103.698525903161,103.698525903161,648459,WESTWOOD AVENUE,WESTVILLE,12999.0799138341,37060.4504557271
260 WESTWOOD AVENUE WESTVILLE SINGAPORE 648460,260,WESTVILLE,1.35085922892973,103.698286815953,103.698286815953,648460,WESTWOOD AVENUE,WESTVILLE,12972.4686052296,36997.0837053824
261 WESTWOOD AVENUE WESTVILLE SINGAPORE 648461,261,WESTVILLE,1.35143071363395,103.698579572879,103.698579572879,648461,WESTWOOD AVENUE,WESTVILLE,13005.0527555961,37060.2739328463
262 WESTWOOD AVENUE WESTVILLE SINGAPORE 648462,262,WESTVILLE,1.35080354322426,103.698284887996,103.698284887996,648462,WESTWOOD AVENUE,WESTVILLE,12972.2537025446,36990.926259188
263 WESTWOOD AVENUE WESTVILLE SINGAPORE 648463,263,WESTVILLE,1.35142747787317,103.698668336063,103.698668336063,648463,WESTWOOD AVENUE,WESTVILLE,13014.9311055662,37059.9155901857
264 WESTWOOD AVENUE WESTVILLE SINGAPORE 648464,264,WESTVILLE,1.3507511729913,103.698283481506,103.698283481506,648464,WESTWOOD AVENUE,WESTVILLE,12972.0968538532,36985.13541881
265 WESTWOOD AVENUE WESTVILLE SINGAPORE 648465,265,WESTVILLE,1.35142539012105,103.698722367264,103.698722367264,648465,WESTWOOD AVENUE,WESTVILLE,13020.9441734795,37059.6844033264
266 WESTWOOD AVENUE WESTVILLE SINGAPORE 648466,266,WESTVILLE,1.35074679841108,103.698620449154,103.698620449154,648466,WESTWOOD AVENUE,WESTVILLE,13009.5976446914,36984.649617672
267 WESTWOOD AVENUE WESTVILLE SINGAPORE 648467,267,WESTVILLE,1.35142393287013,103.698778144247,103.698778144247,648467,WESTWOOD AVENUE,WESTVILLE,13027.1515315808,37059.5229236335
268 WESTWOOD AVENUE WESTVILLE SINGAPORE 648468,268,WESTVILLE,1.3507993577997,103.698621967695,103.698621967695,648468,WESTWOOD AVENUE,WESTVILLE,13009.766963793,36990.4613732249
269 WESTWOOD AVENUE WESTVILLE SINGAPORE 648469,269,WESTVILLE,1.35142299111569,103.6988300896,103.6988300896,648469,WESTWOOD AVENUE,WESTVILLE,13032.9324743263,37059.4184688218
270 WESTWOOD AVENUE WESTVILLE SINGAPORE 648470,270,WESTVILLE,1.35085523399714,103.69862342785,103.69862342785,648470,WESTWOOD AVENUE,WESTVILLE,13009.9298055451,36996.6398859378
271 WESTWOOD AVENUE WESTVILLE SINGAPORE 648471,271,WESTVILLE,1.35142247003278,103.698885986745,103.698885986745,648471,WESTWOOD AVENUE,WESTVILLE,13039.1532108765,37059.3605056331
272 WESTWOOD AVENUE WESTVILLE SINGAPORE 648472,272,WESTVILLE,1.35090780324246,103.698624988818,103.698624988818,648472,WESTWOOD AVENUE,WESTVILLE,13010.1038464513,37002.4527311381
273 WESTWOOD AVENUE WESTVILLE SINGAPORE 648473,273,WESTVILLE,1.35142151459413,103.698938016683,103.698938016683,648473,WESTWOOD AVENUE,WESTVILLE,13044.9435669649,37059.2545374222
274 WESTWOOD AVENUE WESTVILLE SINGAPORE 648474,274,WESTVILLE,1.35096367479597,103.698626620318,103.698626620318,648474,WESTWOOD AVENUE,WESTVILLE,13010.2857570332,37008.6307292953
275 WESTWOOD AVENUE WESTVILLE SINGAPORE 648475,275,WESTVILLE,1.35142061110132,103.698993848575,103.698993848575,648475,WESTWOOD AVENUE,WESTVILLE,13051.157039199,37059.1542898603
276 WESTWOOD AVENUE WESTVILLE SINGAPORE 648476,276,WESTVILLE,1.35101635299212,103.698628279736,103.698628279736,648476,WESTWOOD AVENUE,WESTVILLE,13010.4707549503,37014.4556211531
277 WESTWOOD AVENUE WESTVILLE SINGAPORE 648477,277,WESTVILLE,1.35141939344382,103.699046217409,103.699046217409,648477,WESTWOOD AVENUE,WESTVILLE,13056.9851091951,37059.0193249211
278 WESTWOOD AVENUE WESTVILLE SINGAPORE 648478,278,WESTVILLE,1.35107220701031,103.698629616687,103.698629616687,648478,WESTWOOD AVENUE,WESTVILLE,13010.6198853059,37020.6316821594
280 WESTWOOD AVENUE WESTVILLE SINGAPORE 648479,280,WESTVILLE,1.35112475901472,103.698631254081,103.698631254081,648479,WESTWOOD AVENUE,WESTVILLE,13010.8024315154,37026.4426204767
282 WESTWOOD AVENUE WESTVILLE SINGAPORE 648480,282,WESTVILLE,1.35111833494897,103.698854967981,103.698854967981,648480,WESTWOOD AVENUE,WESTVILLE,13035.6993009858,37025.7308991086
284 WESTWOOD AVENUE WESTVILLE SINGAPORE 648481,284,WESTVILLE,1.35106573093884,103.698853397491,103.698853397491,648481,WESTWOOD AVENUE,WESTVILLE,13035.5242007002,37019.9142098725
286 WESTWOOD AVENUE WESTVILLE SINGAPORE 648482,286,WESTVILLE,1.35100976030521,103.698851967253,103.698851967253,648482,WESTWOOD AVENUE,WESTVILLE,13035.3646884263,37013.725254707
288 WESTWOOD AVENUE WESTVILLE SINGAPORE 648483,288,WESTVILLE,1.35095715600338,103.698850074743,103.698850074743,648483,WESTWOOD AVENUE,WESTVILLE,13035.153750848,37007.908535203
290 WESTWOOD AVENUE WESTVILLE SINGAPORE 648484,290,WESTVILLE,1.35090112461507,103.698848893911,103.698848893911,648484,WESTWOOD AVENUE,WESTVILLE,13035.0219943142,37001.7128605451
292 WESTWOOD AVENUE WESTVILLE SINGAPORE 648485,292,WESTVILLE,1.35084861420868,103.698847097675,103.698847097675,648485,WESTWOOD AVENUE,WESTVILLE,13034.8217716021,36995.9065229595
294 WESTWOOD AVENUE WESTVILLE SINGAPORE 648486,294,WESTVILLE,1.35079268847206,103.698845757731,103.698845757731,648486,WESTWOOD AVENUE,WESTVILLE,13034.6723082988,36989.7225317433
296 WESTWOOD AVENUE WESTVILLE SINGAPORE 648487,296,WESTVILLE,1.35074058070391,103.698843572275,103.698843572275,648487,WESTWOOD AVENUE,WESTVILLE,13034.4287721021,36983.9607183617
298 WESTWOOD AVENUE WESTVILLE SINGAPORE 648488,298,WESTVILLE,1.35073703813253,103.699179487878,103.699179487878,648488,WESTWOOD AVENUE,WESTVILLE,13071.8124863794,36983.566931894
300 WESTWOOD AVENUE WESTVILLE SINGAPORE 648489,300,WESTVILLE,1.35078915924056,103.699180352352,103.699180352352,648489,WESTWOOD AVENUE,WESTVILLE,13071.9090109793,36989.3302284069
302 WESTWOOD AVENUE WESTVILLE SINGAPORE 648490,302,WESTVILLE,1.35084512062434,103.699182797341,103.699182797341,648490,WESTWOOD AVENUE,WESTVILLE,13072.1814531004,36995.5181544609
304 WESTWOOD AVENUE WESTVILLE SINGAPORE 648491,304,WESTVILLE,1.35089764057192,103.699183875295,103.699183875295,648491,WESTWOOD AVENUE,WESTVILLE,13072.3017380675,37001.325551426
306 WESTWOOD AVENUE WESTVILLE SINGAPORE 648492,306,WESTVILLE,1.350953520105,103.699186234616,103.699186234616,648492,WESTWOOD AVENUE,WESTVILLE,13072.5646457747,37007.5044273529
308 WESTWOOD AVENUE WESTVILLE SINGAPORE 648493,308,WESTVILLE,1.35100597604313,103.699188103479,103.699188103479,648493,WESTWOOD AVENUE,WESTVILLE,13072.7729500383,37013.304741608
310 WESTWOOD AVENUE WESTVILLE SINGAPORE 648494,310,WESTVILLE,1.35106016603994,103.699189354318,103.699189354318,648494,WESTWOOD AVENUE,WESTVILLE,13072.9124854431,37019.2968035415
128 WESTWOOD CRESCENT WESTVILLE SINGAPORE 648495,128,WESTVILLE,1.35295740718747,103.700122147515,103.700122147515,648495,WESTWOOD CRESCENT,WESTVILLE,13176.7336672805,37229.0789017882
129 WESTWOOD CRESCENT WESTVILLE SINGAPORE 648496,129,WESTVILLE,1.35250083857833,103.700139915613,103.700139915613,648496,WESTWOOD CRESCENT,WESTVILLE,13178.7082900023,37178.5936302226
130 WESTWOOD CRESCENT WESTVILLE SINGAPORE 648497,130,WESTVILLE,1.35298723055628,103.700077196331,103.700077196331,648497,WESTWOOD CRESCENT,WESTVILLE,13171.7312776111,37232.376901295
131 WESTWOOD CRESCENT WESTVILLE SINGAPORE 648498,131,WESTVILLE,1.35253388042819,103.700098785533,103.700098785533,648498,WESTWOOD CRESCENT,WESTVILLE,13174.1311655045,37182.2474904135
132 WESTWOOD CRESCENT WESTVILLE SINGAPORE 648499,132,WESTVILLE,1.35301900476064,103.700031298018,103.700031298018,648499,WESTWOOD CRESCENT,WESTVILLE,13166.6234948235,37235.8906207196
133 WESTWOOD CRESCENT WESTVILLE SINGAPORE 648500,133,WESTVILLE,1.35257081493691,103.700056118299,103.700056118299,648500,WESTWOOD CRESCENT,WESTVILLE,13169.3829966309,37186.3317916002
134 WESTWOOD CRESCENT WESTVILLE SINGAPORE 648501,134,WESTVILLE,1.3530486577079,103.699988435349,103.699988435349,648501,WESTWOOD CRESCENT,WESTVILLE,13161.8535330016,37239.1697632726
135 WESTWOOD CRESCENT WESTVILLE SINGAPORE 648502,135,WESTVILLE,1.3526035964969,103.700015550134,103.700015550134,648502,WESTWOOD CRESCENT,WESTVILLE,13164.8684057873,37189.9568669386
136 WESTWOOD CRESCENT WESTVILLE SINGAPORE 648503,136,WESTVILLE,1.35308036237966,103.69994248781,103.69994248781,648503,WESTWOOD CRESCENT,WESTVILLE,13156.740271708,37242.6757946312
137 WESTWOOD CRESCENT WESTVILLE SINGAPORE 648504,137,WESTVILLE,1.35264013654429,103.69997267377,103.69997267377,648504,WESTWOOD CRESCENT,WESTVILLE,13160.0969608342,37193.9975519609
138 WESTWOOD CRESCENT WESTVILLE SINGAPORE 648505,138,WESTVILLE,1.3531101196084,103.699899468747,103.699899468747,648505,WESTWOOD CRESCENT,WESTVILLE,13151.9529057955,37245.9664692841
139 WESTWOOD CRESCENT WESTVILLE SINGAPORE 648506,139,WESTVILLE,1.35267410390374,103.699931988316,103.699931988316,648506,WESTWOOD CRESCENT,WESTVILLE,13155.5693244897,37197.7537482046
140 WESTWOOD CRESCENT WESTVILLE SINGAPORE 648507,140,WESTVILLE,1.35314185083301,103.699853571519,103.699853571519,648507,WESTWOOD CRESCENT,WESTVILLE,13146.8452440789,37249.4754366372
141 WESTWOOD CRESCENT WESTVILLE SINGAPORE 648508,141,WESTVILLE,1.35273218749369,103.699854574656,103.699854574656,648508,WESTWOOD CRESCENT,WESTVILLE,13146.954390428,37204.1768262256
142 WESTWOOD CRESCENT WESTVILLE SINGAPORE 648509,142,WESTVILLE,1.35317154784302,103.699810627523,103.699810627523,648509,WESTWOOD CRESCENT,WESTVILLE,13142.0662321299,37252.7594523337
143 WESTWOOD CRESCENT WESTVILLE SINGAPORE 648510,143,WESTVILLE,1.35276275576121,103.699811040431,103.699811040431,648510,WESTWOOD CRESCENT,WESTVILLE,13142.1096969545,37207.5571849141
144 WESTWOOD CRESCENT WESTVILLE SINGAPORE 648511,144,WESTVILLE,1.35320330397467,103.699764718597,103.699764718597,648511,WESTWOOD CRESCENT,WESTVILLE,13136.95726889,37256.2711740732
145 WESTWOOD CRESCENT WESTVILLE SINGAPORE 648512,145,WESTVILLE,1.35279446016318,103.699765218276,103.699765218276,648512,WESTWOOD CRESCENT,WESTVILLE,13137.0103892013,37211.0631860048
146 WESTWOOD CRESCENT WESTVILLE SINGAPORE 648513,146,WESTVILLE,1.35323504295911,103.699720594653,103.699720594653,648513,WESTWOOD CRESCENT,WESTVILLE,13132.0469544278,37259.7809889279
147 WESTWOOD CRESCENT WESTVILLE SINGAPORE 648514,147,WESTVILLE,1.35282422204292,103.699722205744,103.699722205744,648514,WESTWOOD CRESCENT,WESTVILLE,13132.2237497205,37214.3543752134
148 WESTWOOD CRESCENT WESTVILLE SINGAPORE 648515,148,WESTVILLE,1.35328506976382,103.699647785973,103.699647785973,648515,WESTWOOD CRESCENT,WESTVILLE,13123.9444573307,37265.3131591175
149 WESTWOOD CRESCENT WESTVILLE SINGAPORE 648516,149,WESTVILLE,1.35285593054789,103.699676364821,103.699676364821,648516,WESTWOOD CRESCENT,WESTVILLE,13127.1223534774,37217.8608303238
150 WESTWOOD CRESCENT WESTVILLE SINGAPORE 648517,150,WESTVILLE,1.35331494104567,103.699603195961,103.699603195961,648517,WESTWOOD CRESCENT,WESTVILLE,13118.9822635436,37268.6164555196
151 WESTWOOD CRESCENT WESTVILLE SINGAPORE 648518,151,WESTVILLE,1.3528856721671,103.699633306595,103.699633306595,648518,WESTWOOD CRESCENT,WESTVILLE,13122.3306289744,37221.1497797016
152 WESTWOOD CRESCENT WESTVILLE SINGAPORE 648519,152,WESTVILLE,1.35334671031077,103.699557266358,103.699557266358,648519,WESTWOOD CRESCENT,WESTVILLE,13113.8709999379,37272.1296301223
153 WESTWOOD CRESCENT WESTVILLE SINGAPORE 648520,153,WESTVILLE,1.35291743651457,103.699587520878,103.699587520878,648520,WESTWOOD CRESCENT,WESTVILLE,13117.235377132,37224.6624094807
154 WESTWOOD CRESCENT WESTVILLE SINGAPORE 648521,154,WESTVILLE,1.3533764086824,103.699514304405,103.699514304405,648521,WESTWOOD CRESCENT,WESTVILLE,13109.089990302,37275.4137971587
155 WESTWOOD CRESCENT WESTVILLE SINGAPORE 648522,155,WESTVILLE,1.3529471121655,103.699544516505,103.699544516505,648522,WESTWOOD CRESCENT,WESTVILLE,13112.4496456906,37227.9440642744
156 WESTWOOD CRESCENT WESTVILLE SINGAPORE 648523,156,WESTVILLE,1.35340817110367,103.699468399823,103.699468399823,648523,WESTWOOD CRESCENT,WESTVILLE,13103.9815113498,37278.9262150619
157 WESTWOOD CRESCENT WESTVILLE SINGAPORE 648524,157,WESTVILLE,1.35297888964329,103.699498607036,103.699498607036,648524,WESTWOOD CRESCENT,WESTVILLE,13107.3406219147,37231.4581469167
158 WESTWOOD CRESCENT WESTVILLE SINGAPORE 648525,158,WESTVILLE,1.35343790834375,103.699425443576,103.699425443576,648525,WESTWOOD CRESCENT,WESTVILLE,13099.2011373416,37282.214680152
159 WESTWOOD CRESCENT WESTVILLE SINGAPORE 648526,159,WESTVILLE,1.35300941733924,103.699454138837,103.699454138837,648526,WESTWOOD CRESCENT,WESTVILLE,13102.3919881843,37234.8340259455
160 WESTWOOD CRESCENT WESTVILLE SINGAPORE 648527,160,WESTVILLE,1.35346963271281,103.699379511796,103.699379511796,648527,WESTWOOD CRESCENT,WESTVILLE,13094.089631591,37285.7228908055
161 WESTWOOD CRESCENT WESTVILLE SINGAPORE 648528,161,WESTVILLE,1.35306029073667,103.699380378196,103.699380378196,648528,WESTWOOD CRESCENT,WESTVILLE,13094.1835531443,37240.4598150067
162 WESTWOOD CRESCENT WESTVILLE SINGAPORE 648529,162,WESTVILLE,1.35349936474887,103.69933653243,103.69933653243,648529,WESTWOOD CRESCENT,WESTVILLE,13089.3066848041,37289.0107808039
163 WESTWOOD CRESCENT WESTVILLE SINGAPORE 648530,163,WESTVILLE,1.35309054586217,103.699337156206,103.699337156206,648530,WESTWOOD CRESCENT,WESTVILLE,13089.3736073161,37243.8055471219
164 WESTWOOD CRESCENT WESTVILLE SINGAPORE 648531,164,WESTVILLE,1.35353102012972,103.699290496756,103.699290496756,648531,WESTWOOD CRESCENT,WESTVILLE,13084.1836166838,37292.5113639254
165 WESTWOOD CRESCENT WESTVILLE SINGAPORE 648532,165,WESTVILLE,1.35312221657943,103.699291238305,103.699291238305,648532,WESTWOOD CRESCENT,WESTVILLE,13084.2636452327,37247.3078252506
166 WESTWOOD CRESCENT WESTVILLE SINGAPORE 648533,166,WESTVILLE,1.3535622310738,103.699246352703,103.699246352703,648533,WESTWOOD CRESCENT,WESTVILLE,13079.2710623909,37295.9627918396
167 WESTWOOD CRESCENT WESTVILLE SINGAPORE 648534,167,WESTVILLE,1.35315204962083,103.699248243436,103.699248243436,648534,WESTWOOD CRESCENT,WESTVILLE,13079.4789731707,37250.6068841349
168 WESTWOOD CRESCENT WESTVILLE SINGAPORE 648535,168,WESTVILLE,1.35362586563892,103.699153981887,103.699153981887,648535,WESTWOOD CRESCENT,WESTVILLE,13068.9916011002,37302.9997651074
169 WESTWOOD CRESCENT WESTVILLE SINGAPORE 648536,169,WESTVILLE,1.35318370473842,103.699202415559,103.699202415559,648536,WESTWOOD CRESCENT,WESTVILLE,13074.3790297899,37254.1074369885
170 WESTWOOD CRESCENT WESTVILLE SINGAPORE 648537,170,WESTVILLE,1.35365554481755,103.699110597817,103.699110597817,648537,WESTWOOD CRESCENT,WESTVILLE,13064.1636155536,37306.281813385
171 WESTWOOD CRESCENT WESTVILLE SINGAPORE 648538,171,WESTVILLE,1.35321345264668,103.69915940927,103.69915940927,648538,WESTWOOD CRESCENT,WESTVILLE,13069.5930864727,37257.3970825318
172 WESTWOOD CRESCENT WESTVILLE SINGAPORE 648539,172,WESTVILLE,1.35368730586023,103.699064673914,103.699064673914,648539,WESTWOOD CRESCENT,WESTVILLE,13059.0529875746,37309.7940799482
173 WESTWOOD CRESCENT WESTVILLE SINGAPORE 648540,173,WESTVILLE,1.35324516497049,103.699113547662,103.699113547662,648540,WESTWOOD CRESCENT,WESTVILLE,13064.4893898629,37260.9039613921
174 WESTWOOD CRESCENT WESTVILLE SINGAPORE 648541,174,WESTVILLE,1.35371701024278,103.69902169155,103.69902169155,648541,WESTWOOD CRESCENT,WESTVILLE,13054.2697078399,37313.0789128803
175 WESTWOOD CRESCENT WESTVILLE SINGAPORE 648542,175,WESTVILLE,1.35327492218306,103.699070528043,103.699070528043,648542,WESTWOOD CRESCENT,WESTVILLE,13059.7019634135,37264.1946360469
176 WESTWOOD CRESCENT WESTVILLE SINGAPORE 648543,176,WESTVILLE,1.35374876361954,103.698975776621,103.698975776621,648543,WESTWOOD CRESCENT,WESTVILLE,13049.1600787053,37316.59033194
177 WESTWOOD CRESCENT WESTVILLE SINGAPORE 648544,177,WESTVILLE,1.35330665722395,103.699024653649,103.699024653649,648544,WESTWOOD CRESCENT,WESTVILLE,13054.5968442084,37267.7040271498
178 WESTWOOD CRESCENT WESTVILLE SINGAPORE 648545,178,WESTVILLE,1.35377841681582,103.698932856269,103.698932856269,648545,WESTWOOD CRESCENT,WESTVILLE,13044.38370007,37319.8695047591
179 WESTWOOD CRESCENT WESTVILLE SINGAPORE 648546,179,WESTVILLE,1.35333702232422,103.698980386167,103.698980386167,648546,WESTWOOD CRESCENT,WESTVILLE,13049.67054825,37271.0619269963
180 WESTWOOD CRESCENT WESTVILLE SINGAPORE 648547,180,WESTVILLE,1.35381010449922,103.698887018311,103.698887018311,648547,WESTWOOD CRESCENT,WESTVILLE,13039.2826367747,37323.3736595027
181 WESTWOOD CRESCENT WESTVILLE SINGAPORE 648548,181,WESTVILLE,1.35338781084215,103.698906519712,103.698906519712,648548,WESTWOOD CRESCENT,WESTVILLE,13041.4503389644,37276.6783329826
182 WESTWOOD CRESCENT WESTVILLE SINGAPORE 648549,182,WESTVILLE,1.35383982284308,103.698844118895,103.698844118895,648549,WESTWOOD CRESCENT,WESTVILLE,13034.5085887751,37326.6600361038
183 WESTWOOD CRESCENT WESTVILLE SINGAPORE 648550,183,WESTVILLE,1.35341838019288,103.698863127164,103.698863127164,648550,WESTWOOD CRESCENT,WESTVILLE,13036.6214151103,37280.0588127449
184 WESTWOOD CRESCENT WESTVILLE SINGAPORE 648551,184,WESTVILLE,1.35387071101945,103.698799470332,103.698799470332,648551,WESTWOOD CRESCENT,WESTVILLE,13029.5398873715,37330.0757780652
185 WESTWOOD CRESCENT WESTVILLE SINGAPORE 648552,185,WESTVILLE,1.35344998137623,103.698817288129,103.698817288129,648552,WESTWOOD CRESCENT,WESTVILLE,13031.5202307422,37283.5534028038
186 WESTWOOD CRESCENT WESTVILLE SINGAPORE 648553,186,WESTVILLE,1.35392419866323,103.698356164305,103.698356164305,648553,WESTWOOD CRESCENT,WESTVILLE,12980.2051624032,37335.9929267392
187 WESTWOOD CRESCENT WESTVILLE SINGAPORE 648554,187,WESTVILLE,1.35347988804243,103.698774303308,103.698774303308,648554,WESTWOOD CRESCENT,WESTVILLE,13026.7366785957,37286.8606037777
188 WESTWOOD CRESCENT WESTVILLE SINGAPORE 648555,188,WESTVILLE,1.35388497868977,103.698318672055,103.698318672055,648555,WESTWOOD CRESCENT,WESTVILLE,12976.0324484361,37331.6564024426
189 WESTWOOD CRESCENT WESTVILLE SINGAPORE 648556,189,WESTVILLE,1.35351153110094,103.698728394099,103.698728394099,648556,WESTWOOD CRESCENT,WESTVILLE,13021.6276850877,37290.3598248381
190 WESTWOOD CRESCENT WESTVILLE SINGAPORE 648557,190,WESTVILLE,1.35384455176964,103.698280084894,103.698280084894,648557,WESTWOOD CRESCENT,WESTVILLE,12971.7378755659,37327.1864266079
191 WESTWOOD CRESCENT WESTVILLE SINGAPORE 648558,191,WESTVILLE,1.35354123985724,103.698685413638,103.698685413638,648558,WESTWOOD CRESCENT,WESTVILLE,13016.844617229,37293.6451420598
192 WESTWOOD CRESCENT WESTVILLE SINGAPORE 648559,192,WESTVILLE,1.3538069167766,103.698243885262,103.698243885262,648559,WESTWOOD CRESCENT,WESTVILLE,12967.7090253253,37323.0251539387
193 WESTWOOD CRESCENT WESTVILLE SINGAPORE 648560,193,WESTVILLE,1.35357303757592,103.6986395667,103.6986395667,648560,WESTWOOD CRESCENT,WESTVILLE,13011.7425550893,37297.161464531
194 WESTWOOD CRESCENT WESTVILLE SINGAPORE 648561,194,WESTVILLE,1.35376650053012,103.698205282329,103.698205282329,648561,WESTWOOD CRESCENT,WESTVILLE,12963.4126969129,37318.5563585535
195 WESTWOOD CRESCENT WESTVILLE SINGAPORE 648562,195,WESTVILLE,1.35360270964536,103.698596497576,103.698596497576,648562,WESTWOOD CRESCENT,WESTVILLE,13006.9496198678,37300.4427258428
196 WESTWOOD CRESCENT WESTVILLE SINGAPORE 648563,196,WESTVILLE,1.35372881899974,103.698169047617,103.698169047617,648563,WESTWOOD CRESCENT,WESTVILLE,12959.3799421024,37314.389940327
197 WESTWOOD CRESCENT WESTVILLE SINGAPORE 648564,197,WESTVILLE,1.35363448218153,103.698550700409,103.698550700409,648564,WESTWOOD CRESCENT,WESTVILLE,13001.8530967701,37303.9562636595
198 WESTWOOD CRESCENT WESTVILLE SINGAPORE 648565,198,WESTVILLE,1.35368832254609,103.698130396279,103.698130396279,648565,WESTWOOD CRESCENT,WESTVILLE,12955.0782259889,37309.9122764245
199 WESTWOOD CRESCENT WESTVILLE SINGAPORE 648566,199,WESTVILLE,1.35366494934509,103.698505918602,103.698505918602,648566,WESTWOOD CRESCENT,WESTVILLE,12996.8695640545,37307.3254534639
200 WESTWOOD CRESCENT WESTVILLE SINGAPORE 648567,200,WESTVILLE,1.35365000750823,103.698092549328,103.698092549328,648567,WESTWOOD CRESCENT,WESTVILLE,12950.8660425702,37305.6758180838
202 WESTWOOD CRESCENT WESTVILLE SINGAPORE 648568,202,WESTVILLE,1.35358403849568,103.698031844282,103.698031844282,648568,WESTWOOD CRESCENT,WESTVILLE,12944.1098351208,37298.3816577587
204 WESTWOOD CRESCENT WESTVILLE SINGAPORE 648569,204,WESTVILLE,1.35354549793113,103.697994528516,103.697994528516,648569,WESTWOOD CRESCENT,WESTVILLE,12939.9567650752,37294.1202585995
11 WESTWOOD ROAD WESTVILLE SINGAPORE 648570,11,WESTVILLE,1.35132574301045,103.69920187813,103.69920187813,648570,WESTWOOD ROAD,WESTVILLE,13074.3078697603,37048.6629526839
13 WESTWOOD ROAD WESTVILLE SINGAPORE 648571,13,WESTVILLE,1.35137878649861,103.699205924675,103.699205924675,648571,WESTWOOD ROAD,WESTVILLE,13074.7585297702,37054.5282220319
15 WESTWOOD ROAD WESTVILLE SINGAPORE 648572,15,WESTVILLE,1.35143846651759,103.699208090413,103.699208090413,648572,WESTWOOD ROAD,WESTVILLE,13074.99991694,37061.127338646
17 WESTWOOD ROAD WESTVILLE SINGAPORE 648573,17,WESTVILLE,1.35150029572112,103.699217228145,103.699217228145,648573,WESTWOOD ROAD,WESTVILLE,13076.0172238732,37067.9640589319
19 WESTWOOD ROAD WESTVILLE SINGAPORE 648574,19,WESTVILLE,1.35155069333586,103.699251218343,103.699251218343,648574,WESTWOOD ROAD,WESTVILLE,13079.8002678184,37073.5365763437
21 WESTWOOD ROAD WESTVILLE SINGAPORE 648575,21,WESTVILLE,1.35159359209769,103.699280982441,103.699280982441,648575,WESTWOOD ROAD,WESTVILLE,13083.1129472964,37078.279932607
23 WESTWOOD ROAD WESTVILLE SINGAPORE 648576,23,WESTVILLE,1.35164005602909,103.699312234871,103.699312234871,648576,WESTWOOD ROAD,WESTVILLE,13086.591283449,37083.4174990915
25 WESTWOOD ROAD WESTVILLE SINGAPORE 648577,25,WESTVILLE,1.35168330405927,103.699341759884,103.699341759884,648577,WESTWOOD ROAD,WESTVILLE,13089.8773573693,37088.1994773038
27 WESTWOOD ROAD WESTVILLE SINGAPORE 648578,27,WESTVILLE,1.35172944063902,103.699373598987,103.699373598987,648578,WESTWOOD ROAD,WESTVILLE,13093.4209815627,37093.3008432779
29 WESTWOOD ROAD WESTVILLE SINGAPORE 648579,29,WESTVILLE,1.35177258383147,103.699403164533,103.699403164533,648579,WESTWOOD ROAD,WESTVILLE,13096.7115654126,37098.0712288525
31 WESTWOOD ROAD WESTVILLE SINGAPORE 648580,31,WESTVILLE,1.35186431321199,103.699469154845,103.699469154845,648580,WESTWOOD ROAD,WESTVILLE,13104.0561219295,37108.213818321
33 WESTWOOD ROAD WESTVILLE SINGAPORE 648581,33,WESTVILLE,1.35190776959729,103.699499516996,103.699499516996,648581,WESTWOOD ROAD,WESTVILLE,13107.4353607036,37113.018830467
35 WESTWOOD ROAD WESTVILLE SINGAPORE 648582,35,WESTVILLE,1.35195352349912,103.699531376796,103.699531376796,648582,WESTWOOD ROAD,WESTVILLE,13110.9812852638,37118.0778818019
37 WESTWOOD ROAD WESTVILLE SINGAPORE 648583,37,WESTVILLE,1.35199660486532,103.699561639698,103.699561639698,648583,WESTWOOD ROAD,WESTVILLE,13114.3494762238,37122.8414268121
1 WESTWOOD TERRACE WESTVILLE SINGAPORE 648584,1,WESTVILLE,1.35404562027581,103.69817191656,103.69817191656,648584,WESTWOOD TERRACE,WESTVILLE,12959.7011762131,37349.4202886038
2 WESTWOOD TERRACE WESTVILLE SINGAPORE 648585,2,WESTVILLE,1.35402810663442,103.698641343432,103.698641343432,648585,WESTWOOD TERRACE,WESTVILLE,13011.9430804821,37347.4808070101
3 WESTWOOD TERRACE WESTVILLE SINGAPORE 648586,3,WESTVILLE,1.3540085619737,103.698134631165,103.698134631165,648586,WESTWOOD TERRACE,WESTVILLE,12955.5514961816,37345.3227905761
4 WESTWOOD TERRACE WESTVILLE SINGAPORE 648587,4,WESTVILLE,1.35405758401292,103.698597084956,103.698597084956,648587,WESTWOOD TERRACE,WESTVILLE,13007.0177833671,37350.7405477855
5 WESTWOOD TERRACE WESTVILLE SINGAPORE 648588,5,WESTVILLE,1.3539684429458,103.698095090167,103.698095090167,648588,WESTWOOD TERRACE,WESTVILLE,12951.1507734936,37340.8868662212
6 WESTWOOD TERRACE WESTVILLE SINGAPORE 648589,6,WESTVILLE,1.35410670905651,103.698562547469,103.698562547469,648589,WESTWOOD TERRACE,WESTVILLE,13003.1744455993,37356.1727730911
7 WESTWOOD TERRACE WESTVILLE SINGAPORE 648590,7,WESTVILLE,1.3539315070497,103.698058673189,103.698058673189,648590,WESTWOOD TERRACE,WESTVILLE,12947.097739134,37336.8028979823
8 WESTWOOD TERRACE WESTVILLE SINGAPORE 648591,8,WESTVILLE,1.35413586377544,103.698519581441,103.698519581441,648591,WESTWOOD TERRACE,WESTVILLE,12998.3929819427,37359.396827912
9 WESTWOOD TERRACE WESTVILLE SINGAPORE 648592,9,WESTVILLE,1.35389141156408,103.698019172717,103.698019172717,648592,WESTWOOD TERRACE,WESTVILLE,12942.7015263746,37332.3695766758
10 WESTWOOD TERRACE WESTVILLE SINGAPORE 648593,10,WESTVILLE,1.35417728572548,103.698480210537,103.698480210537,648593,WESTWOOD TERRACE,WESTVILLE,12994.0116913002,37363.9773121551
11 WESTWOOD TERRACE WESTVILLE SINGAPORE 648594,11,WESTVILLE,1.35385438370145,103.697982905061,103.697982905061,648594,WESTWOOD TERRACE,WESTVILLE,12938.665109138,37328.2754383944
12 WESTWOOD TERRACE WESTVILLE SINGAPORE 648595,12,WESTVILLE,1.35420466738733,103.698435591803,103.698435591803,648595,WESTWOOD TERRACE,WESTVILLE,12989.0462891068,37367.0053212475
13 WESTWOOD TERRACE WESTVILLE SINGAPORE 648596,13,WESTVILLE,1.35381398136866,103.697943539509,103.697943539509,648596,WESTWOOD TERRACE,WESTVILLE,12934.2839092985,37323.8081866764
14 WESTWOOD TERRACE WESTVILLE SINGAPORE 648597,14,WESTVILLE,1.3542345904931,103.698388157426,103.698388157426,648597,WESTWOOD TERRACE,WESTVILLE,12983.7675527474,37370.3143685665
15 WESTWOOD TERRACE WESTVILLE SINGAPORE 648598,15,WESTVILLE,1.35377850776559,103.697907442843,103.697907442843,648598,WESTWOOD TERRACE,WESTVILLE,12930.2665306237,37319.8859100062
16 WESTWOOD TERRACE WESTVILLE SINGAPORE 648599,16,WESTVILLE,1.35426247777464,103.698344224315,103.698344224315,648599,WESTWOOD TERRACE,WESTVILLE,12978.8784561409,37373.3982826248
17 WESTWOOD TERRACE WESTVILLE SINGAPORE 648600,17,WESTVILLE,1.35371051986699,103.697844827548,103.697844827548,648600,WESTWOOD TERRACE,WESTVILLE,12923.297720857,37312.3685233034
18 WESTWOOD TERRACE WESTVILLE SINGAPORE 648601,18,WESTVILLE,1.35429246273963,103.698296750767,103.698296750767,648601,WESTWOOD TERRACE,WESTVILLE,12973.5953611908,37376.7141705081
19 WESTWOOD TERRACE WESTVILLE SINGAPORE 648602,19,WESTVILLE,1.35367117863983,103.697807627962,103.697807627962,648602,WESTWOOD TERRACE,WESTVILLE,12919.1575752404,37308.018590292
20 WESTWOOD TERRACE WESTVILLE SINGAPORE 648603,20,WESTVILLE,1.35432122346992,103.698252309553,103.698252309553,648603,WESTWOOD TERRACE,WESTVILLE,12968.6497239918,37379.8946697004
21 WESTWOOD TERRACE WESTVILLE SINGAPORE 648604,21,WESTVILLE,1.35363116663758,103.697768100568,103.697768100568,648604,WESTWOOD TERRACE,WESTVILLE,12914.7583659505,37303.5945007186
22 WESTWOOD TERRACE WESTVILLE SINGAPORE 648605,22,WESTVILLE,1.35437654253867,103.698091343645,103.698091343645,648605,WESTWOOD TERRACE,WESTVILLE,12950.7363442602,37386.01258591
23 WESTWOOD TERRACE WESTVILLE SINGAPORE 648606,23,WESTVILLE,1.35359268121916,103.697733090077,103.697733090077,648606,WESTWOOD TERRACE,WESTVILLE,12910.8618473345,37299.3391854241
24 WESTWOOD TERRACE WESTVILLE SINGAPORE 648607,24,WESTVILLE,1.35435502408483,103.698035959244,103.698035959244,648607,WESTWOOD TERRACE,WESTVILLE,12944.5725417882,37383.6335223895
25 WESTWOOD TERRACE WESTVILLE SINGAPORE 648608,25,WESTVILLE,1.35355227971624,103.697693936946,103.697693936946,648608,WESTWOOD TERRACE,WESTVILLE,12906.5042867912,37294.8720245119
26 WESTWOOD TERRACE WESTVILLE SINGAPORE 648609,26,WESTVILLE,1.35432298573305,103.697988567189,103.697988567189,648609,WESTWOOD TERRACE,WESTVILLE,12939.2981337495,37380.0911694523
27 WESTWOOD TERRACE WESTVILLE SINGAPORE 648610,27,WESTVILLE,1.35351452183771,103.697658230701,103.697658230701,648610,WESTWOOD TERRACE,WESTVILLE,12902.530342673,37290.697161518
28 WESTWOOD TERRACE WESTVILLE SINGAPORE 648611,28,WESTVILLE,1.35429246466395,103.697945804637,103.697945804637,648611,WESTWOOD TERRACE,WESTVILLE,12934.5389473299,37376.7165616788
29 WESTWOOD TERRACE WESTVILLE SINGAPORE 648612,29,WESTVILLE,1.35347402317539,103.697619371041,103.697619371041,648612,WESTWOOD TERRACE,WESTVILLE,12898.2054412831,37286.2192554697
30 WESTWOOD TERRACE WESTVILLE SINGAPORE 648613,30,WESTVILLE,1.35425132192163,103.6979070954,103.6979070954,648613,WESTWOOD TERRACE,WESTVILLE,12930.2307841349,37372.1674350668
31 WESTWOOD TERRACE WESTVILLE SINGAPORE 648614,31,WESTVILLE,1.35343633564972,103.697583746115,103.697583746115,648614,WESTWOOD TERRACE,WESTVILLE,12894.2405472919,37282.0521713477
32 WESTWOOD TERRACE WESTVILLE SINGAPORE 648615,32,WESTVILLE,1.35421465015124,103.697870271258,103.697870271258,648615,WESTWOOD TERRACE,WESTVILLE,12926.1324386038,37368.1126754321
33 WESTWOOD TERRACE WESTVILLE SINGAPORE 648616,33,WESTVILLE,1.35336281373436,103.697521697401,103.697521697401,648616,WESTWOOD TERRACE,WESTVILLE,12887.3347554673,37273.922856817
34 WESTWOOD TERRACE WESTVILLE SINGAPORE 648617,34,WESTVILLE,1.35417446872507,103.697831028895,103.697831028895,648617,WESTWOOD TERRACE,WESTVILLE,12921.7649501618,37363.6698499769
35 WESTWOOD TERRACE WESTVILLE SINGAPORE 648618,35,WESTVILLE,1.35331902637387,103.697496007847,103.697496007847,648618,WESTWOOD TERRACE,WESTVILLE,12884.4755206537,37269.0812204089
36 WESTWOOD TERRACE WESTVILLE SINGAPORE 648619,36,WESTVILLE,1.35413727168625,103.697794639131,103.697794639131,648619,WESTWOOD TERRACE,WESTVILLE,12917.7149425996,37359.5570060816
37 WESTWOOD TERRACE WESTVILLE SINGAPORE 648620,37,WESTVILLE,1.35327329020253,103.697463477106,103.697463477106,648620,WESTWOOD TERRACE,WESTVILLE,12880.8549249768,37264.0241364948
38 WESTWOOD TERRACE WESTVILLE SINGAPORE 648621,38,WESTVILLE,1.35409771679732,103.697754782885,103.697754782885,648621,WESTWOOD TERRACE,WESTVILLE,12913.2791393185,37355.1834640428
39 WESTWOOD TERRACE WESTVILLE SINGAPORE 648622,39,WESTVILLE,1.35323062106407,103.69743340867,103.69743340867,648622,WESTWOOD TERRACE,WESTVILLE,12877.5083756251,37259.306175068
40 WESTWOOD TERRACE WESTVILLE SINGAPORE 648623,40,WESTVILLE,1.3540594964081,103.69771592608,103.69771592608,648623,WESTWOOD TERRACE,WESTVILLE,12908.9545708764,37350.9574784245
41 WESTWOOD TERRACE WESTVILLE SINGAPORE 648624,41,WESTVILLE,1.35318427616085,103.697401746386,103.697401746386,648624,WESTWOOD TERRACE,WESTVILLE,12873.9844256211,37254.1817751564
42 WESTWOOD TERRACE WESTVILLE SINGAPORE 648625,42,WESTVILLE,1.35399642970719,103.697654145751,103.697654145751,648625,WESTWOOD TERRACE,WESTVILLE,12902.0787140876,37343.9842495322
43 WESTWOOD TERRACE WESTVILLE SINGAPORE 648626,43,WESTVILLE,1.35314079296119,103.697372007633,103.697372007633,648626,WESTWOOD TERRACE,WESTVILLE,12870.6745610656,37249.373796748
44 WESTWOOD TERRACE WESTVILLE SINGAPORE 648627,44,WESTVILLE,1.35395807087129,103.697616409501,103.697616409501,648627,WESTWOOD TERRACE,WESTVILLE,12897.8788497392,37339.7429483123
46 WESTWOOD TERRACE WESTVILLE SINGAPORE 648628,46,WESTVILLE,1.35391722320569,103.697577661637,103.697577661637,648628,WESTWOOD TERRACE,WESTVILLE,12893.5663884906,37335.2264505867
48 WESTWOOD TERRACE WESTVILLE SINGAPORE 648629,48,WESTVILLE,1.35388023392298,103.697541210946,103.697541210946,648629,WESTWOOD TERRACE,WESTVILLE,12889.509600901,37331.136580091
50 WESTWOOD TERRACE WESTVILLE SINGAPORE 648630,50,WESTVILLE,1.35383911008517,103.697502897447,103.697502897447,648630,WESTWOOD TERRACE,WESTVILLE,12885.2454776233,37326.589541968
52 WESTWOOD TERRACE WESTVILLE SINGAPORE 648631,52,WESTVILLE,1.35380225437351,103.697466281933,103.697466281933,648631,WESTWOOD TERRACE,WESTVILLE,12881.1703476356,37322.5144422483
54 WESTWOOD TERRACE WESTVILLE SINGAPORE 648632,54,WESTVILLE,1.35376111574153,103.697427760919,103.697427760919,648632,WESTWOOD TERRACE,WESTVILLE,12876.8831298854,37317.965769656
56 WESTWOOD TERRACE WESTVILLE SINGAPORE 648633,56,WESTVILLE,1.35372411003812,103.697391399986,103.697391399986,648633,WESTWOOD TERRACE,WESTVILLE,12872.8363307305,37313.8740830813
58 WESTWOOD TERRACE WESTVILLE SINGAPORE 648634,58,WESTVILLE,1.35368355962463,103.697352332813,103.697352332813,648634,WESTWOOD TERRACE,WESTVILLE,12868.48833487,37309.3904563859
60 WESTWOOD TERRACE WESTVILLE SINGAPORE 648635,60,WESTVILLE,1.35364434163913,103.697316356036,103.697316356036,648635,WESTWOOD TERRACE,WESTVILLE,12864.484274108,37305.0541439652
62 WESTWOOD TERRACE WESTVILLE SINGAPORE 648636,62,WESTVILLE,1.35357749866572,103.697247427851,103.697247427851,648636,WESTWOOD TERRACE,WESTVILLE,12856.8129141703,37297.6633985061
64 WESTWOOD TERRACE WESTVILLE SINGAPORE 648637,64,WESTVILLE,1.35353559538774,103.697216662298,103.697216662298,648637,WESTWOOD TERRACE,WESTVILLE,12853.3887879765,37293.0301268976
66 WESTWOOD TERRACE WESTVILLE SINGAPORE 648638,66,WESTVILLE,1.35349112837747,103.697181809353,103.697181809353,648638,WESTWOOD TERRACE,WESTVILLE,12849.509764255,37288.1133956239
68 WESTWOOD TERRACE WESTVILLE SINGAPORE 648639,68,WESTVILLE,1.35345042121158,103.697149335995,103.697149335995,648639,WESTWOOD TERRACE,WESTVILLE,12845.8955853917,37283.612395104
70 WESTWOOD TERRACE WESTVILLE SINGAPORE 648640,70,WESTVILLE,1.35341053757134,103.697109650318,103.697109650318,648640,WESTWOOD TERRACE,WESTVILLE,12841.4787601354,37279.2025012169
72 WESTWOOD TERRACE WESTVILLE SINGAPORE 648641,72,WESTVILLE,1.35336889482098,103.697077753604,103.697077753604,648641,WESTWOOD TERRACE,WESTVILLE,12837.9287493974,37274.5980447289
74 WESTWOOD TERRACE WESTVILLE SINGAPORE 648642,74,WESTVILLE,1.35332869177121,103.697038717972,103.697038717972,648642,WESTWOOD TERRACE,WESTVILLE,12833.5842646221,37270.1528281048
76 WESTWOOD TERRACE WESTVILLE SINGAPORE 648643,76,WESTVILLE,1.35328729522874,103.697004164308,103.697004164308,648643,WESTWOOD TERRACE,WESTVILLE,12829.7385659507,37265.5756128039
1 WESTWOOD WALK WESTVILLE SINGAPORE 648644,1,WESTVILLE,1.35306411051944,103.697961431183,103.697961431183,648644,WESTWOOD WALK,WESTVILLE,12936.2704273378,37240.8909521662
2 WESTWOOD WALK WESTVILLE SINGAPORE 648645,2,WESTVILLE,1.35277517152268,103.697766924197,103.697766924197,648645,WESTWOOD WALK,WESTVILLE,12914.622160024,37208.9426716007
3 WESTWOOD WALK WESTVILLE SINGAPORE 648646,3,WESTVILLE,1.3530330443971,103.698005455834,103.698005455834,648646,WESTWOOD WALK,WESTVILLE,12941.1696939869,37237.4555360153
4 WESTWOOD WALK WESTVILLE SINGAPORE 648647,4,WESTVILLE,1.35274421846164,103.697811069325,103.697811069325,648647,WESTWOOD WALK,WESTVILLE,12919.5348353889,37205.5197561271
5 WESTWOOD WALK WESTVILLE SINGAPORE 648648,5,WESTVILLE,1.35298120258141,103.698079236135,103.698079236135,648648,WESTWOOD WALK,WESTVILLE,12949.3803083217,37231.722658826
6 WESTWOOD WALK WESTVILLE SINGAPORE 648649,6,WESTVILLE,1.35269137158001,103.697886148635,103.697886148635,648649,WESTWOOD WALK,WESTVILLE,12927.8900096146,37199.6757349018
7 WESTWOOD WALK WESTVILLE SINGAPORE 648650,7,WESTVILLE,1.35295023363531,103.698123329045,103.698123329045,648650,WESTWOOD WALK,WESTVILLE,12954.2871722337,37228.2979878094
8 WESTWOOD WALK WESTVILLE SINGAPORE 648651,8,WESTVILLE,1.35266034241599,103.697930240729,103.697930240729,648651,WESTWOOD WALK,WESTVILLE,12932.7967827227,37196.2444049288
9 WESTWOOD WALK WESTVILLE SINGAPORE 648652,9,WESTVILLE,1.35289832393347,103.698197172171,103.698197172171,648652,WESTWOOD WALK,WESTVILLE,12962.5047784736,37222.5576041602
10 WESTWOOD WALK WESTVILLE SINGAPORE 648653,10,WESTVILLE,1.35260847815448,103.698004003885,103.698004003885,648653,WESTWOOD WALK,WESTVILLE,12941.0054901745,37190.5090457648
11 WESTWOOD WALK WESTVILLE SINGAPORE 648654,11,WESTVILLE,1.35286730653238,103.69824123054,103.69824123054,648654,WESTWOOD WALK,WESTVILLE,12967.4077983517,37219.1275757104
12 WESTWOOD WALK WESTVILLE SINGAPORE 648655,12,WESTVILLE,1.35257744871424,103.698048095976,103.698048095976,648655,WESTWOOD WALK,WESTVILLE,12945.9122632835,37187.0776855238
13 WESTWOOD WALK WESTVILLE SINGAPORE 648656,13,WESTVILLE,1.35281545978241,103.698315032045,103.698315032045,648656,WESTWOOD WALK,WESTVILLE,12975.6207735892,37213.3941536993
14 WESTWOOD WALK WESTVILLE SINGAPORE 648657,14,WESTVILLE,1.35252555078097,103.698121884424,103.698121884424,648657,WESTWOOD WALK,WESTVILLE,12954.1237856578,37181.3386033997
15 WESTWOOD WALK WESTVILLE SINGAPORE 648658,15,WESTVILLE,1.35278444347378,103.698359090955,103.698359090955,648658,WESTWOOD WALK,WESTVILLE,12980.5238540042,37209.9642463196
16 WESTWOOD WALK WESTVILLE SINGAPORE 648659,16,WESTVILLE,1.35249454241642,103.698165991469,103.698165991469,648659,WESTWOOD WALK,WESTVILLE,12959.032223505,37177.9095737915
17 WESTWOOD WALK WESTVILLE SINGAPORE 648660,17,WESTVILLE,1.35273251734235,103.698432981396,103.698432981396,648660,WESTWOOD WALK,WESTVILLE,12988.7467268724,37204.2220465932
18 WESTWOOD WALK WESTVILLE SINGAPORE 648661,18,WESTVILLE,1.35244299950481,103.698239695308,103.698239695308,648661,WESTWOOD WALK,WESTVILLE,12967.2343325373,37172.2097492423
19 WESTWOOD WALK WESTVILLE SINGAPORE 648662,19,WESTVILLE,1.35270152539434,103.698477057436,103.698477057436,648662,WESTWOOD WALK,WESTVILLE,12993.6517141694,37200.7948330641
20 WESTWOOD WALK WESTVILLE SINGAPORE 648663,20,WESTVILLE,1.35241179787539,103.698283667733,103.698283667733,648663,WESTWOOD WALK,WESTVILLE,12972.1277877325,37168.7593504377
21 WESTWOOD WALK WESTVILLE SINGAPORE 648664,21,WESTVILLE,1.35264924457296,103.698552218566,103.698552218566,648664,WESTWOOD WALK,WESTVILLE,13002.0159990583,37195.0134060308
22 WESTWOOD WALK WESTVILLE SINGAPORE 648665,22,WESTVILLE,1.35235812653636,103.698359473246,103.698359473246,648665,WESTWOOD WALK,WESTVILLE,12980.5637774747,37162.8241620474
23 WESTWOOD WALK WESTVILLE SINGAPORE 648666,23,WESTVILLE,1.35261914091688,103.69859689807,103.69859689807,648666,WESTWOOD WALK,WESTVILLE,13006.9881510111,37191.6844121087
24 WESTWOOD WALK WESTVILLE SINGAPORE 648667,24,WESTVILLE,1.3523277825406,103.698404043968,103.698404043968,648667,WESTWOOD WALK,WESTVILLE,12985.523822234,37159.4685928356
25 WESTWOOD WALK WESTVILLE SINGAPORE 648668,25,WESTVILLE,1.35256876935389,103.698671722111,103.698671722111,648668,WESTWOOD WALK,WESTVILLE,13015.3149338681,37186.1141042616
26 WESTWOOD WALK WESTVILLE SINGAPORE 648669,26,WESTVILLE,1.35227559172631,103.698478277099,103.698478277099,648669,WESTWOOD WALK,WESTVILLE,12993.7848327626,37153.697123969
27 WESTWOOD WALK WESTVILLE SINGAPORE 648670,27,WESTVILLE,1.3525386941645,103.698716420921,103.698716420921,648670,WESTWOOD WALK,WESTVILLE,13020.2892348478,37182.7882582117
28 WESTWOOD WALK WESTVILLE SINGAPORE 648671,28,WESTVILLE,1.35224550586702,103.698523019694,103.698523019694,648671,WESTWOOD WALK,WESTVILLE,12998.7640068876,37150.3700974658
29 WESTWOOD WALK WESTVILLE SINGAPORE 648672,29,WESTVILLE,1.35248831219669,103.698791267804,103.698791267804,648672,WESTWOOD WALK,WESTVILLE,13028.6185602155,37177.2168001793
30 WESTWOOD WALK WESTVILLE SINGAPORE 648673,30,WESTVILLE,1.35219443185866,103.698596950048,103.698596950048,648673,WESTWOOD WALK,WESTVILLE,13006.9913291493,37144.7221219726
31 WESTWOOD WALK WESTVILLE SINGAPORE 648674,31,WESTVILLE,1.35245823180365,103.698835962531,103.698835962531,648674,WESTWOOD WALK,WESTVILLE,13033.5924071753,37173.8903790377
32 WESTWOOD WALK WESTVILLE SINGAPORE 648675,32,WESTVILLE,1.35216396658654,103.69864137744,103.69864137744,648675,WESTWOOD WALK,WESTVILLE,13011.9354226822,37141.3531440459
33 WESTWOOD WALK WESTVILLE SINGAPORE 648676,33,WESTVILLE,1.35240709794059,103.698911726283,103.698911726283,648676,WESTWOOD WALK,WESTVILLE,13042.023765916,37168.2357748561
34 WESTWOOD WALK WESTVILLE SINGAPORE 648677,34,WESTVILLE,1.35211167026084,103.69871843477,103.69871843477,648677,WESTWOOD WALK,WESTVILLE,13020.5107359532,37135.5699917357
35 WESTWOOD WALK WESTVILLE SINGAPORE 648678,35,WESTVILLE,1.35237615580383,103.698955838482,103.698955838482,648678,WESTWOOD WALK,WESTVILLE,13046.9327788549,37164.8140701
36 WESTWOOD WALK WESTVILLE SINGAPORE 648679,36,WESTVILLE,1.35208048586439,103.698762368834,103.698762368834,648679,WESTWOOD WALK,WESTVILLE,13025.3999233628,37132.121499816
37 WESTWOOD WALK WESTVILLE SINGAPORE 648680,37,WESTVILLE,1.35232336871971,103.699028935047,103.699028935047,648680,WESTWOOD WALK,WESTVILLE,13055.0672994787,37158.9766775649
38 WESTWOOD WALK WESTVILLE SINGAPORE 648681,38,WESTVILLE,1.35202914373423,103.698838884329,103.698838884329,648681,WESTWOOD WALK,WESTVILLE,13033.9149428103,37126.4438616969
39 WESTWOOD WALK WESTVILLE SINGAPORE 648682,39,WESTVILLE,1.35229232994924,103.699072979254,103.699072979254,648682,WESTWOOD WALK,WESTVILLE,13059.9687454225,37155.5442882106
40 WESTWOOD WALK WESTVILLE SINGAPORE 648683,40,WESTVILLE,1.35199788843592,103.69888276971,103.69888276971,648683,WESTWOOD WALK,WESTVILLE,13038.7987122508,37122.9875303693
41 WESTWOOD WALK WESTVILLE SINGAPORE 648684,41,WESTVILLE,1.35223953712072,103.699146220778,103.699146220778,648684,WESTWOOD WALK,WESTVILLE,13068.1193988817,37149.7062600479
42 WESTWOOD WALK WESTVILLE SINGAPORE 648685,42,WESTVILLE,1.35195903632877,103.69861885658,103.69861885658,648685,WESTWOOD WALK,WESTVILLE,13009.4278413029,37118.6930785719
43 WESTWOOD WALK WESTVILLE SINGAPORE 648686,43,WESTVILLE,1.35220847371094,103.699190247849,103.699190247849,648686,WESTWOOD WALK,WESTVILLE,13073.0189379416,37146.271146575
44 WESTWOOD WALK WESTVILLE SINGAPORE 648687,44,WESTVILLE,1.35197949981593,103.69854704553,103.69854704553,648687,WESTWOOD WALK,WESTVILLE,13001.4361855621,37120.9562762491
45 WESTWOOD WALK WESTVILLE SINGAPORE 648688,45,WESTVILLE,1.35215570989306,103.699263474408,103.699263474408,648688,WESTWOOD WALK,WESTVILLE,13081.1679266626,37140.4363268185
46 WESTWOOD WALK WESTVILLE SINGAPORE 648689,46,WESTVILLE,1.35199962998459,103.698452349861,103.698452349861,648689,WESTWOOD WALK,WESTVILLE,12990.8977211351,37123.182758864
47 WESTWOOD WALK WESTVILLE SINGAPORE 648690,47,WESTVILLE,1.35212463553114,103.699307493861,103.699307493861,648690,WESTWOOD WALK,WESTVILLE,13086.066618219,37137.0000026263
48 WESTWOOD WALK WESTVILLE SINGAPORE 648691,48,WESTVILLE,1.35200123793717,103.698399395428,103.698399395428,648691,WESTWOOD WALK,WESTVILLE,12985.0044841692,37123.3608859479
49 WESTWOOD WALK WESTVILLE SINGAPORE 648692,49,WESTVILLE,1.35176569137778,103.699208204097,103.699208204097,648692,WESTWOOD WALK,WESTVILLE,13075.0145666441,37097.310291741
50 WESTWOOD WALK WESTVILLE SINGAPORE 648693,50,WESTVILLE,1.35207153639014,103.698310262982,103.698310262982,648693,WESTWOOD WALK,WESTVILLE,12975.08545403,37131.1347030103
51 WESTWOOD WALK WESTVILLE SINGAPORE 648694,51,WESTVILLE,1.35179660508042,103.699164592079,103.699164592079,648694,WESTWOOD WALK,WESTVILLE,13070.1612165272,37100.7288486268
52 WESTWOOD WALK WESTVILLE SINGAPORE 648695,52,WESTVILLE,1.35207297902384,103.698257641184,103.698257641184,648695,WESTWOOD WALK,WESTVILLE,12969.2292348081,37131.2945482321
53 WESTWOOD WALK WESTVILLE SINGAPORE 648696,53,WESTVILLE,1.35184721666341,103.699088651867,103.699088651867,648696,WESTWOOD WALK,WESTVILLE,13061.7102138652,37106.3257014956
55 WESTWOOD WALK WESTVILLE SINGAPORE 648697,55,WESTVILLE,1.35187742144106,103.699045824537,103.699045824537,648697,WESTWOOD WALK,WESTVILLE,13056.9441868812,37109.6658643037
57 WESTWOOD WALK WESTVILLE SINGAPORE 648698,57,WESTVILLE,1.351683836763,103.699031895025,103.699031895025,648698,WESTWOOD WALK,WESTVILLE,13055.3928013761,37088.260285683
59 WESTWOOD WALK WESTVILLE SINGAPORE 648699,59,WESTVILLE,1.35162036979971,103.699017474518,103.699017474518,648699,WESTWOOD WALK,WESTVILLE,13053.787569128,37081.2425023168
61 WESTWOOD WALK WESTVILLE SINGAPORE 648700,61,WESTVILLE,1.35163991938602,103.698873335774,103.698873335774,648700,WESTWOOD WALK,WESTVILLE,13037.7466274053,37083.4050892182
63 WESTWOOD WALK WESTVILLE SINGAPORE 648701,63,WESTVILLE,1.3516414265752,103.698819663064,103.698819663064,648701,WESTWOOD WALK,WESTVILLE,13031.7734526945,37083.5720776841
65 WESTWOOD WALK WESTVILLE SINGAPORE 648702,65,WESTVILLE,1.35164414683695,103.69872971218,103.69872971218,648702,WESTWOOD WALK,WESTVILLE,13021.7629224397,37083.8734257296
67 WESTWOOD WALK WESTVILLE SINGAPORE 648703,67,WESTVILLE,1.35164574846065,103.698676042185,103.698676042185,648703,WESTWOOD WALK,WESTVILLE,13015.7900504088,37084.0508566517
69 WESTWOOD WALK WESTVILLE SINGAPORE 648704,69,WESTVILLE,1.35164842217731,103.698585997199,103.698585997199,648704,WESTWOOD WALK,WESTVILLE,13005.7690474316,37084.34705914
71 WESTWOOD WALK WESTVILLE SINGAPORE 648705,71,WESTVILLE,1.35165002653514,103.698532327476,103.698532327476,648705,WESTWOOD WALK,WESTVILLE,12999.7962056687,37084.5247927401
73 WESTWOOD WALK WESTVILLE SINGAPORE 648706,73,WESTVILLE,1.35165270408016,103.69844230996,103.69844230996,648706,WESTWOOD WALK,WESTVILLE,12989.7782597579,37084.8214189801
75 WESTWOOD WALK WESTVILLE SINGAPORE 648707,75,WESTVILLE,1.35165429775923,103.698388640509,103.698388640509,648707,WESTWOOD WALK,WESTVILLE,12983.805448263,37084.9979721289
77 WESTWOOD WALK WESTVILLE SINGAPORE 648708,77,WESTVILLE,1.35165697693381,103.698298489453,103.698298489453,648708,WESTWOOD WALK,WESTVILLE,12973.7726407722,37085.2947799768
79 WESTWOOD WALK WESTVILLE SINGAPORE 648709,79,WESTVILLE,1.35165857882161,103.698244819458,103.698244819458,648709,WESTWOOD WALK,WESTVILLE,12967.7997687412,37085.472241167
30 WESTWOOD AVENUE WESTWOOD PARK SINGAPORE 648710,30,WESTWOOD PARK,1.35182955488557,103.700721693086,103.700721693086,648710,WESTWOOD AVENUE,WESTWOOD PARK,13243.4496608265,37104.3627622165
31 WESTWOOD AVENUE SINGAPORE 648711,31,NIL,1.35179835193947,103.700071751475,103.700071751475,648711,WESTWOOD AVENUE,31 WESTWOOD AVENUE SINGAPORE 648711,13171.1181087978,37100.9164495897
32 WESTWOOD AVENUE WESTWOOD PARK SINGAPORE 648712,32,WESTWOOD PARK,1.35185965142189,103.700676170493,103.700676170493,648712,WESTWOOD AVENUE,WESTWOOD PARK,13238.3836781234,37107.6909691691
33 WESTWOOD AVENUE WESTWOOD PARK SINGAPORE 648713,33,WESTWOOD PARK,1.3518526549096,103.700031920838,103.700031920838,648713,WESTWOOD AVENUE,WESTWOOD PARK,13166.6857257979,37106.9212543443
34 WESTWOOD AVENUE WESTWOOD PARK SINGAPORE 648714,34,WESTWOOD PARK,1.35189155425703,103.700629583286,103.700629583286,648714,WESTWOOD AVENUE,WESTWOOD PARK,13233.1992265331,37111.2189145479
35 WESTWOOD AVENUE WESTWOOD PARK SINGAPORE 648715,35,WESTWOOD PARK,1.35188409393665,103.699988611508,103.699988611508,648715,WESTWOOD AVENUE,WESTWOOD PARK,13161.8660639469,37110.3978954889
36 WESTWOOD AVENUE WESTWOOD PARK SINGAPORE 648716,36,WESTWOOD PARK,1.35192070219826,103.700587014134,103.700587014134,648716,WESTWOOD AVENUE,WESTWOOD PARK,13228.4619238656,37114.4422126692
37 WESTWOOD AVENUE WESTWOOD PARK SINGAPORE 648717,37,WESTWOOD PARK,1.35191692333589,103.699941933946,103.699941933946,648717,WESTWOOD AVENUE,WESTWOOD PARK,13156.6715633851,37114.0282979924
38 WESTWOOD AVENUE WESTWOOD PARK SINGAPORE 648718,38,WESTWOOD PARK,1.35195259846178,103.700540425022,103.700540425022,648718,WESTWOOD AVENUE,WESTWOOD PARK,13223.2772603985,37117.9694316164
39 WESTWOOD AVENUE WESTWOOD PARK SINGAPORE 648719,39,WESTWOOD PARK,1.35194771266287,103.699896239689,103.699896239689,648719,WESTWOOD AVENUE,WESTWOOD PARK,13151.5864815842,37117.4331132136
40 WESTWOOD AVENUE WESTWOOD PARK SINGAPORE 648720,40,WESTWOOD PARK,1.35198174913846,103.70049785478,103.70049785478,648720,WESTWOOD AVENUE,WESTWOOD PARK,13218.5398366591,37121.1930324174
42 WESTWOOD AVENUE WESTVILLE SINGAPORE 648721,42,WESTVILLE,1.3520136478637,103.700451267297,103.700451267297,648721,WESTWOOD AVENUE,WESTVILLE,13213.3553547999,37124.7205237765
44 WESTWOOD AVENUE WESTVILLE SINGAPORE 648722,44,WESTVILLE,1.35204510490282,103.700406832257,103.700406832257,648722,WESTWOOD AVENUE,WESTVILLE,13208.4104137644,37128.1991626099
46 WESTWOOD AVENUE WESTVILLE SINGAPORE 648723,46,WESTVILLE,1.35209511880436,103.700332864737,103.700332864737,648723,WESTWOOD AVENUE,WESTVILLE,13200.1789447879,37133.7299102023
48 WESTWOOD AVENUE WESTVILLE SINGAPORE 648724,48,WESTVILLE,1.35212546199897,103.700287959236,103.700287959236,648724,WESTWOOD AVENUE,WESTVILLE,13195.1816401407,37137.0853886083
50 WESTWOOD AVENUE WESTVILLE SINGAPORE 648725,50,WESTVILLE,1.35215736208827,103.700241372292,103.700241372292,648725,WESTWOOD AVENUE,WESTVILLE,13189.9972188175,37140.6130313072
52 WESTWOOD AVENUE WESTVILLE SINGAPORE 648726,52,WESTVILLE,1.35218631566342,103.700198650563,103.700198650563,648726,WESTWOOD AVENUE,WESTVILLE,13185.2429358112,37143.8148391601
54 WESTWOOD AVENUE WESTVILLE SINGAPORE 648727,54,WESTVILLE,1.35221840901392,103.700152214008,103.700152214008,648727,WESTWOOD AVENUE,WESTVILLE,13180.0752526829,37147.3638510555
56 WESTWOOD AVENUE WESTVILLE SINGAPORE 648728,56,WESTVILLE,1.35225060730995,103.700107717727,103.700107717727,648728,WESTWOOD AVENUE,WESTVILLE,13175.1235013511,37150.9244555887
1 WESTWOOD CRESCENT WESTWOOD PARK SINGAPORE 648729,1,WESTWOOD PARK,1.35166607584688,103.699706013043,103.699706013043,648729,WESTWOOD CRESCENT,WESTWOOD PARK,13130.4146323344,37086.2922311127
2 WESTWOOD CRESCENT WESTWOOD PARK SINGAPORE 648730,2,WESTWOOD PARK,1.35133424263883,103.699521970665,103.699521970665,648730,WESTWOOD CRESCENT,WESTWOOD PARK,13109.9307138175,37049.6008364279
3 WESTWOOD CRESCENT WESTWOOD PARK SINGAPORE 648731,3,WESTWOOD PARK,1.35166829306792,103.699765184369,103.699765184369,648731,WESTWOOD CRESCENT,WESTWOOD PARK,13136.9997651391,37086.5370385647
4 WESTWOOD CRESCENT WESTWOOD PARK SINGAPORE 648732,4,WESTWOOD PARK,1.35133254755608,103.699573893212,103.699573893212,648732,WESTWOOD CRESCENT,WESTWOOD PARK,13115.7091140524,37049.4130841251
5 WESTWOOD CRESCENT WESTWOOD PARK SINGAPORE 648733,5,WESTWOOD PARK,1.35167147680629,103.69985351586,103.69985351586,648733,WESTWOOD CRESCENT,WESTWOOD PARK,13146.8301100871,37086.888540661
6 WESTWOOD CRESCENT WESTWOOD PARK SINGAPORE 648734,6,WESTWOOD PARK,1.35132857028778,103.699663918133,103.699663918133,648734,WESTWOOD CRESCENT,WESTWOOD PARK,13125.7278771987,37048.9727454968
7 WESTWOOD CRESCENT WESTWOOD PARK SINGAPORE 648735,7,WESTWOOD PARK,1.35166955295724,103.699906888877,103.699906888877,648735,WESTWOOD CRESCENT,WESTWOOD PARK,13152.7699294798,37086.6754843239
8 WESTWOOD CRESCENT WESTWOOD PARK SINGAPORE 648736,8,WESTWOOD PARK,1.3513274965176,103.699719769072,103.699719769072,648736,WESTWOOD CRESCENT,WESTWOOD PARK,13131.9434681917,37048.853671249
9 WESTWOOD CRESCENT WESTWOOD PARK SINGAPORE 648737,9,WESTWOOD PARK,1.35166839928157,103.699963266919,103.699963266919,648737,WESTWOOD CRESCENT,WESTWOOD PARK,13159.0441798242,37086.547571823
10 WESTWOOD CRESCENT WESTWOOD PARK SINGAPORE 648738,10,WESTWOOD PARK,1.35132596426703,103.699771074224,103.699771074224,648738,WESTWOOD CRESCENT,WESTWOOD PARK,13137.6531601036,37048.6839283966
11 WESTWOOD CRESCENT WESTWOOD PARK SINGAPORE 648739,11,WESTWOOD PARK,1.35166731650161,103.700014697435,103.700014697435,648739,WESTWOOD CRESCENT,WESTWOOD PARK,13164.7678252775,37086.4275289997
12 WESTWOOD CRESCENT WESTWOOD PARK SINGAPORE 648740,12,WESTWOOD PARK,1.35132428585482,103.699827552917,103.699827552917,648740,WESTWOOD CRESCENT,WESTWOOD PARK,13143.9386096029,37048.4979921728
13 WESTWOOD CRESCENT WESTWOOD PARK SINGAPORE 648741,13,WESTWOOD PARK,1.35166616610871,103.700071084724,103.700071084724,648741,WESTWOOD CRESCENT,WESTWOOD PARK,13171.0431047333,37086.2999797165
14 WESTWOOD CRESCENT WESTWOOD PARK SINGAPORE 648742,14,WESTWOOD PARK,1.3513227557925,103.69987887058,103.69987887058,648742,WESTWOOD CRESCENT,WESTWOOD PARK,13149.649693842,37048.3284914643
15 WESTWOOD CRESCENT WESTWOOD PARK SINGAPORE 648743,15,WESTWOOD PARK,1.35166508359978,103.700122508168,103.700122508168,648743,WESTWOOD CRESCENT,WESTWOOD PARK,13176.7659632191,37086.1799671613
16 WESTWOOD CRESCENT WESTWOOD PARK SINGAPORE 648744,16,WESTWOOD PARK,1.35132107573519,103.699935346282,103.699935346282,648744,WESTWOOD CRESCENT,WESTWOOD PARK,13155.9348103935,37048.1423736326
17 WESTWOOD CRESCENT WESTWOOD PARK SINGAPORE 648745,17,WESTWOOD PARK,1.35166393265713,103.700178899809,103.700178899809,648745,WESTWOOD CRESCENT,WESTWOOD PARK,13183.0417269627,37086.0523573421
18 WESTWOOD CRESCENT WESTWOOD PARK SINGAPORE 648746,18,WESTWOOD PARK,1.35131976489744,103.69998607456,103.69998607456,648746,WESTWOOD CRESCENT,WESTWOOD PARK,13161.5803039121,37047.997117579
19 WESTWOOD CRESCENT WESTWOOD PARK SINGAPORE 648747,19,WESTWOOD PARK,1.35166285698934,103.700230325429,103.700230325429,648747,WESTWOOD CRESCENT,WESTWOOD PARK,13188.7648275923,37085.9331014864
20 WESTWOOD CRESCENT WESTWOOD PARK SINGAPORE 648748,20,WESTWOOD PARK,1.35131739212334,103.700079100653,103.700079100653,648748,WESTWOOD CRESCENT,WESTWOOD PARK,13171.9330742592,37047.7341796029
21 WESTWOOD CRESCENT WESTWOOD PARK SINGAPORE 648749,21,WESTWOOD PARK,1.35166242984311,103.700287646102,103.700287646102,648749,WESTWOOD CRESCENT,WESTWOOD PARK,13195.143986769,37085.8855202161
22 WESTWOOD CRESCENT WESTWOOD PARK SINGAPORE 648750,22,WESTWOOD PARK,1.3513160123307,103.700130347866,103.700130347866,648750,WESTWOOD CRESCENT,WESTWOOD PARK,13177.6363190906,37047.5812960174
23 WESTWOOD CRESCENT WESTWOOD PARK SINGAPORE 648751,23,WESTWOOD PARK,1.35165129261263,103.700379028589,103.700379028589,648751,WESTWOOD CRESCENT,WESTWOOD PARK,13205.3137871539,37084.6534619387
24 WESTWOOD CRESCENT WESTWOOD PARK SINGAPORE 648752,24,WESTWOOD PARK,1.35131435690967,103.700186937525,103.700186937525,648752,WESTWOOD CRESCENT,WESTWOOD PARK,13183.9341179272,37047.3979023043
25 WESTWOOD CRESCENT WESTWOOD PARK SINGAPORE 648753,25,WESTWOOD PARK,1.35162698786517,103.700452290278,103.700452290278,648753,WESTWOOD CRESCENT,WESTWOOD PARK,13213.4668620517,37081.9655136447
26 WESTWOOD CRESCENT WESTWOOD PARK SINGAPORE 648754,26,WESTWOOD PARK,1.3513130266593,103.700238167873,103.700238167873,648754,WESTWOOD CRESCENT,WESTWOOD PARK,13189.6354861436,37047.2504972238
28 WESTWOOD CRESCENT WESTWOOD PARK SINGAPORE 648755,28,WESTWOOD PARK,1.35131137342316,103.700294713744,103.700294713744,648755,WESTWOOD CRESCENT,WESTWOOD PARK,13195.9284118349,37047.0673456546
30 WESTWOOD CRESCENT WESTWOOD PARK SINGAPORE 648756,30,WESTWOOD PARK,1.35131004125655,103.700345983256,103.700345983256,648756,WESTWOOD CRESCENT,WESTWOOD PARK,13201.6341386409,37046.9197286982
32 WESTWOOD CRESCENT WESTWOOD PARK SINGAPORE 648757,32,WESTWOOD PARK,1.351308386921,103.700402494314,103.700402494314,648757,WESTWOOD CRESCENT,WESTWOOD PARK,13207.9231900303,37046.7364560571
34 WESTWOOD CRESCENT WESTWOOD PARK SINGAPORE 648758,34,WESTWOOD PARK,1.35130705858649,103.700453803263,103.700453803263,648758,WESTWOOD CRESCENT,WESTWOOD PARK,13213.633305694,37046.5892628506
36 WESTWOOD CRESCENT WESTWOOD PARK SINGAPORE 648759,36,WESTWOOD PARK,1.35130540397227,103.700510270805,103.700510270805,648759,WESTWOOD CRESCENT,WESTWOOD PARK,13219.9175142059,37046.4059599414
38 WESTWOOD CRESCENT WESTWOOD PARK SINGAPORE 648760,38,WESTWOOD PARK,1.3513042444925,103.700560930537,103.700560930537,648760,WESTWOOD CRESCENT,WESTWOOD PARK,13225.5553801926,37046.2774420828
40 WESTWOOD CRESCENT WESTWOOD PARK SINGAPORE 648761,40,WESTWOOD PARK,1.35130635794146,103.700789391622,103.700789391622,648761,WESTWOOD CRESCENT,WESTWOOD PARK,13250.9806075869,37046.5097488575
42 WESTWOOD CRESCENT WESTWOOD PARK SINGAPORE 648762,42,WESTWOOD PARK,1.35130575627962,103.700844268046,103.700844268046,648762,WESTWOOD CRESCENT,WESTWOOD PARK,13257.0877483943,37046.4428868815
44 WESTWOOD CRESCENT WESTWOOD PARK SINGAPORE 648763,44,WESTWOOD PARK,1.35130410520628,103.700900581106,103.700900581106,648763,WESTWOOD CRESCENT,WESTWOOD PARK,13263.3547646906,37046.2599774562
46 WESTWOOD CRESCENT WESTWOOD PARK SINGAPORE 648764,46,WESTWOOD PARK,1.3513025953849,103.700952038564,103.700952038564,648764,WESTWOOD CRESCENT,WESTWOOD PARK,13269.0814066743,37046.0927165784
48 WESTWOOD CRESCENT WESTWOOD PARK SINGAPORE 648765,48,WESTWOOD PARK,1.35130094649902,103.7010083538,103.7010083538,648765,WESTWOOD CRESCENT,WESTWOOD PARK,13275.3486651145,37045.9100492969
50 WESTWOOD CRESCENT WESTWOOD PARK SINGAPORE 648766,50,WESTWOOD PARK,1.35129832988656,103.701063169954,103.701063169954,648766,WESTWOOD CRESCENT,WESTWOOD PARK,13281.4490864286,37045.6203846931
52 WESTWOOD CRESCENT WESTWOOD PARK SINGAPORE 648767,52,WESTWOOD PARK,1.35129594117465,103.701150837301,103.701150837301,648767,WESTWOOD CRESCENT,WESTWOOD PARK,13291.2054866925,37045.3557214439
54 WESTWOOD CRESCENT WESTWOOD PARK SINGAPORE 648768,54,WESTWOOD PARK,1.35129516089124,103.70120815853,103.70120815853,648768,WESTWOOD CRESCENT,WESTWOOD PARK,13297.5847064042,37045.2690944728
56 WESTWOOD CRESCENT WESTWOOD PARK SINGAPORE 648769,56,WESTWOOD PARK,1.35129357086097,103.701259638839,103.701259638839,648769,WESTWOOD CRESCENT,WESTWOOD PARK,13303.3138908986,37045.0929650757
58 WESTWOOD CRESCENT WESTWOOD PARK SINGAPORE 648770,58,WESTWOOD PARK,1.35129192361019,103.701315952443,103.701315952443,648770,WESTWOOD CRESCENT,WESTWOOD PARK,13309.5809677308,37044.9104794022
60 WESTWOOD CRESCENT WESTWOOD PARK SINGAPORE 648771,60,WESTWOOD PARK,1.35129041624342,103.701367408814,103.701367408814,648771,WESTWOOD CRESCENT,WESTWOOD PARK,13315.3074886426,37044.7434909362
62 WESTWOOD CRESCENT WESTWOOD PARK SINGAPORE 648772,62,WESTWOOD PARK,1.35128875831378,103.701423708003,103.701423708003,648772,WESTWOOD CRESCENT,WESTWOOD PARK,13321.5729612717,37044.5598248113
64 WESTWOOD CRESCENT WESTWOOD PARK SINGAPORE 648773,64,WESTWOOD PARK,1.35128725888306,103.70147516655,103.70147516655,648773,WESTWOOD CRESCENT,WESTWOOD PARK,13327.2997243274,37044.3937141169
66 WESTWOOD CRESCENT WESTWOOD PARK SINGAPORE 648774,66,WESTWOOD PARK,1.3513481473613,103.701531155307,103.701531155307,648774,WESTWOOD CRESCENT,WESTWOOD PARK,13333.5310244029,37051.1261309311
68 WESTWOOD CRESCENT WESTWOOD PARK SINGAPORE 648775,68,WESTWOOD PARK,1.35135408043115,103.701584948915,103.701584948915,648775,WESTWOOD CRESCENT,WESTWOOD PARK,13339.5176986344,37051.7818565294
70 WESTWOOD CRESCENT WESTWOOD PARK SINGAPORE 648776,70,WESTWOOD PARK,1.35155981612945,103.701584647086,103.701584647086,648776,WESTWOOD CRESCENT,WESTWOOD PARK,13339.4853421599,37074.5311217513
72 WESTWOOD CRESCENT WESTWOOD PARK SINGAPORE 648777,72,WESTWOOD PARK,1.35161757917036,103.70159117875,103.70159117875,648777,WESTWOOD CRESCENT,WESTWOOD PARK,13340.2125910046,37080.9182414077
74 WESTWOOD CRESCENT WESTWOOD PARK SINGAPORE 648778,74,WESTWOOD PARK,1.35168143248925,103.701597919235,103.701597919235,648778,WESTWOOD CRESCENT,WESTWOOD PARK,13340.9631159287,37087.9787934348
76 WESTWOOD CRESCENT WESTWOOD PARK SINGAPORE 648779,76,WESTWOOD PARK,1.35173960093396,103.701604570818,103.701604570818,648779,WESTWOOD CRESCENT,WESTWOOD PARK,13341.7037129542,37094.4107399732
78 WESTWOOD CRESCENT WESTWOOD PARK SINGAPORE 648780,78,WESTWOOD PARK,1.35184337574932,103.70160359427,103.70160359427,648780,WESTWOOD CRESCENT,WESTWOOD PARK,13341.5956562525,37105.885665549
80 WESTWOOD CRESCENT WESTWOOD PARK SINGAPORE 648781,80,WESTWOOD PARK,1.35189528526652,103.701584408977,103.701584408977,648781,WESTWOOD CRESCENT,WESTWOOD PARK,13339.4608553611,37111.6256859805
82 WESTWOOD CRESCENT LITTLE TREE HOUSE @ WESTWOOD PTE. LTD. SINGAPORE 648782,82,LITTLE TREE HOUSE @ WESTWOOD PTE. LTD.,1.35199600466777,103.701523005145,103.701523005145,648782,WESTWOOD CRESCENT,LITTLE TREE HOUSE @ WESTWOOD PTE. LTD.,13332.6278883051,37122.7631235383
84 WESTWOOD CRESCENT WESTWOOD PARK SINGAPORE 648783,84,WESTWOOD PARK,1.35200946261332,103.701461145017,103.701461145017,648783,WESTWOOD CRESCENT,WESTWOOD PARK,13325.7436170168,37124.2516121734
86 WESTWOOD CRESCENT WESTWOOD PARK SINGAPORE 648784,86,WESTWOOD PARK,1.35206320896343,103.70138356574,103.70138356574,648784,WESTWOOD CRESCENT,WESTWOOD PARK,13317.1102194851,37130.1950939912
88 WESTWOOD CRESCENT WESTWOOD PARK SINGAPORE 648785,88,WESTWOOD PARK,1.35209369419936,103.701337808413,103.701337808413,648785,WESTWOOD CRESCENT,WESTWOOD PARK,13312.0181155121,37133.5662814826
90 WESTWOOD CRESCENT WESTWOOD PARK SINGAPORE 648786,90,WESTWOOD PARK,1.35212584040582,103.701291409403,103.701291409403,648786,WESTWOOD CRESCENT,WESTWOOD PARK,13306.8546093656,37137.121135097
92 WESTWOOD CRESCENT WESTWOOD PARK SINGAPORE 648787,92,WESTWOOD PARK,1.35215521556591,103.701249008051,103.701249008051,648787,WESTWOOD CRESCENT,WESTWOOD PARK,13302.135982044,37140.3695556466
94 WESTWOOD CRESCENT WESTWOOD PARK SINGAPORE 648788,94,WESTWOOD PARK,1.35218736368634,103.701202605231,103.701202605231,648788,WESTWOOD CRESCENT,WESTWOOD PARK,13296.9720521457,37143.9246211369
96 WESTWOOD CRESCENT WESTWOOD PARK SINGAPORE 648789,96,WESTWOOD PARK,1.35221950259638,103.701157982224,103.701157982224,648789,WESTWOOD CRESCENT,WESTWOOD PARK,13292.0061959336,37147.4786575176
98 WESTWOOD CRESCENT WESTWOOD PARK SINGAPORE 648790,98,WESTWOOD PARK,1.35226829149139,103.70108756407,103.70108756407,648790,WESTWOOD CRESCENT,WESTWOOD PARK,13284.169724145,37152.8739256151
100 WESTWOOD CRESCENT WESTWOOD PARK SINGAPORE 648791,100,WESTWOOD PARK,1.35229877918456,103.701041807824,103.701041807824,648791,WESTWOOD CRESCENT,WESTWOOD PARK,13279.0777412448,37156.2453855183
101 WESTWOOD CRESCENT WESTWOOD PARK SINGAPORE 648792,101,WESTWOOD PARK,1.35200875740402,103.700840210679,103.700840210679,648792,WESTWOOD CRESCENT,WESTWOOD PARK,13256.6404481307,37124.1773950774
102 WESTWOOD CRESCENT WESTWOOD PARK SINGAPORE 648793,102,WESTWOOD PARK,1.35233092346817,103.70099540527,103.70099540527,648793,WESTWOOD CRESCENT,WESTWOOD PARK,13273.9138416145,37159.8000272568
103 WESTWOOD CRESCENT WESTWOOD PARK SINGAPORE 648794,103,WESTWOOD PARK,1.3520378774588,103.700798196633,103.700798196633,648794,WESTWOOD CRESCENT,WESTWOOD PARK,13251.9649224179,37127.3976058643
104 WESTWOOD CRESCENT WESTWOOD PARK SINGAPORE 648795,104,WESTWOOD PARK,1.35236030081242,103.700953008263,103.700953008263,648795,WESTWOOD CRESCENT,WESTWOOD PARK,13269.1956985807,37163.0486899503
105 WESTWOOD CRESCENT WESTWOOD PARK SINGAPORE 648796,105,WESTWOOD PARK,1.3520700551335,103.700751797344,103.700751797344,648796,WESTWOOD CRESCENT,WESTWOOD PARK,13246.8013860034,37130.9559402987
106 WESTWOOD CRESCENT WESTWOOD PARK SINGAPORE 648797,106,WESTWOOD PARK,1.35239244974763,103.700906607611,103.700906607611,648797,WESTWOOD CRESCENT,WESTWOOD PARK,13264.0320108263,37166.6038462445
107 WESTWOOD CRESCENT WESTWOOD PARK SINGAPORE 648798,107,WESTWOOD PARK,1.35209945875192,103.700709399794,103.700709399794,648798,WESTWOOD CRESCENT,WESTWOOD PARK,13242.0831824336,37134.2075087167
108 WESTWOOD CRESCENT WESTWOOD PARK SINGAPORE 648799,108,WESTWOOD PARK,1.35242182544747,103.700864206251,103.700864206251,648799,WESTWOOD CRESCENT,WESTWOOD PARK,13259.3133835047,37169.85232733
109 WESTWOOD CRESCENT WESTWOOD PARK SINGAPORE 648800,109,WESTWOOD PARK,1.35213163669862,103.700663004855,103.700663004855,648800,WESTWOOD CRESCENT,WESTWOOD PARK,13236.9201303069,37137.7658734191
110 WESTWOOD CRESCENT WESTWOOD PARK SINGAPORE 648801,110,WESTWOOD PARK,1.35245397383315,103.700817803693,103.700817803693,648801,WESTWOOD CRESCENT,WESTWOOD PARK,13254.1494838744,37173.4074230902
111 WESTWOOD CRESCENT WESTWOOD PARK SINGAPORE 648802,111,WESTWOOD PARK,1.3521610386729,103.700620608118,103.700620608118,648802,WESTWOOD CRESCENT,WESTWOOD PARK,13232.202017541,37141.0172602292
112 WESTWOOD CRESCENT WESTWOOD PARK SINGAPORE 648803,112,WESTWOOD PARK,1.35248611410372,103.700773182036,103.700773182036,648803,WESTWOOD CRESCENT,WESTWOOD PARK,13249.1837790022,37176.961610809
113 WESTWOOD CRESCENT WESTWOOD PARK SINGAPORE 648804,113,WESTWOOD PARK,1.35219321853355,103.700574209097,103.700574209097,648804,WESTWOOD CRESCENT,WESTWOOD PARK,13227.0385113945,37144.5758368075
114 WESTWOOD CRESCENT WESTWOOD PARK SINGAPORE 648805,114,WESTWOOD PARK,1.35253618340373,103.700700925237,103.700700925237,648805,WESTWOOD CRESCENT,WESTWOOD PARK,13241.1426956439,37182.4984725341
115 WESTWOOD CRESCENT WESTWOOD PARK SINGAPORE 648806,115,WESTWOOD PARK,1.35222373003128,103.700528454477,103.700528454477,648806,WESTWOOD CRESCENT,WESTWOOD PARK,13221.9467101023,37147.9499300234
116 WESTWOOD CRESCENT WESTWOOD PARK SINGAPORE 648807,116,WESTWOOD PARK,1.35256665658062,103.70065516735,103.70065516735,648807,WESTWOOD CRESCENT,WESTWOOD PARK,13236.0505311349,37185.8683282342
117 WESTWOOD CRESCENT WESTWOOD PARK SINGAPORE 648808,117,WESTWOOD PARK,1.35227383655113,103.700456183809,103.700456183809,648808,WESTWOOD CRESCENT,WESTWOOD PARK,13213.9040830769,37153.4909081962
118 WESTWOOD CRESCENT WESTWOOD PARK SINGAPORE 648809,118,WESTWOOD PARK,1.35259881919537,103.700608757171,103.700608757171,648809,WESTWOOD CRESCENT,WESTWOOD PARK,13230.8857840011,37189.4249979295
119 WESTWOOD CRESCENT WESTWOOD PARK SINGAPORE 648810,119,WESTWOOD PARK,1.3523060022721,103.700411563782,103.700411563782,648810,WESTWOOD CRESCENT,WESTWOOD PARK,13208.9385598116,37157.0479108375
120 WESTWOOD CRESCENT WESTWOOD PARK SINGAPORE 648811,120,WESTWOOD PARK,1.35262818530927,103.700566369403,103.700566369403,648811,WESTWOOD CRESCENT,WESTWOOD PARK,13226.1686700787,37192.6724196337
121 WESTWOOD CRESCENT WESTWOOD PARK SINGAPORE 648812,121,WESTWOOD PARK,1.35233817747463,103.70036516394,103.70036516394,648812,WESTWOOD CRESCENT,WESTWOOD PARK,13203.774962862,37160.60597286
122 WESTWOOD CRESCENT WESTWOOD PARK SINGAPORE 648813,122,WESTWOOD PARK,1.35266034053206,103.700519972548,103.700519972548,648813,WESTWOOD CRESCENT,WESTWOOD PARK,13221.0054060761,37196.2282720935
123 WESTWOOD CRESCENT WESTWOOD PARK SINGAPORE 648814,123,WESTWOOD PARK,1.35236758382282,103.700322770188,103.700322770188,648814,WESTWOOD CRESCENT,WESTWOOD PARK,13199.0571830431,37163.8578439578
124 WESTWOOD CRESCENT WESTWOOD PARK SINGAPORE 648815,124,WESTWOOD PARK,1.3526897249829,103.700477560299,103.700477560299,648815,WESTWOOD CRESCENT,WESTWOOD PARK,13216.2855680352,37199.4777217526
125 WESTWOOD CRESCENT WESTWOOD PARK SINGAPORE 648816,125,WESTWOOD PARK,1.35239976367706,103.700276374151,103.700276374151,648816,WESTWOOD CRESCENT,WESTWOOD PARK,13193.8940098453,37167.4164205361
126 WESTWOOD CRESCENT WESTWOOD PARK SINGAPORE 648817,126,WESTWOOD PARK,1.35272324775678,103.700430934092,103.700430934092,648817,WESTWOOD CRESCENT,WESTWOOD PARK,13211.0967881233,37203.1847930588
127 WESTWOOD CRESCENT WESTWOOD PARK SINGAPORE 648818,127,WESTWOOD PARK,1.35243027681069,103.700230618708,103.700230618708,648818,WESTWOOD CRESCENT,WESTWOOD PARK,13188.8021177482,37170.7906953618
1 WESTWOOD DRIVE WESTWOOD PARK SINGAPORE 648819,1,WESTWOOD PARK,1.35111680392627,103.699494662001,103.699494662001,648819,WESTWOOD DRIVE,WESTWOOD PARK,13106.8902343167,37025.557675438
2 WESTWOOD DRIVE WESTWOOD PARK SINGAPORE 648820,2,WESTWOOD PARK,1.35076455006693,103.699484260234,103.699484260234,648820,WESTWOOD DRIVE,WESTWOOD PARK,13105.7304862523,36986.607199518
3 WESTWOOD DRIVE WESTWOOD PARK SINGAPORE 648821,3,WESTWOOD PARK,1.35111437976431,103.699549166182,103.699549166182,648821,WESTWOOD DRIVE,WESTWOOD PARK,13112.9559382536,37025.2892892249
4 WESTWOOD DRIVE WESTWOOD PARK SINGAPORE 648822,4,WESTWOOD PARK,1.35076414660161,103.699538883694,103.699538883694,648822,WESTWOOD DRIVE,WESTWOOD PARK,13111.809477835,36986.5622515623
5 WESTWOOD DRIVE WESTWOOD PARK SINGAPORE 648823,5,WESTWOOD PARK,1.35111274076728,103.699605519215,103.699605519215,648823,WESTWOOD DRIVE,WESTWOOD PARK,13119.2274039444,37025.1077115908
6 WESTWOOD DRIVE WESTWOOD PARK SINGAPORE 648824,6,WESTWOOD PARK,1.35076317742996,103.699595298965,103.699595298965,648824,WESTWOOD DRIVE,WESTWOOD PARK,13118.0878748931,36986.4547396842
7 WESTWOOD DRIVE WESTWOOD PARK SINGAPORE 648825,7,WESTWOOD PARK,1.35111131938706,103.699656948105,103.699656948105,648825,WESTWOOD DRIVE,WESTWOOD PARK,13124.9508677889,37024.9502272718
8 WESTWOOD DRIVE WESTWOOD PARK SINGAPORE 648826,8,WESTWOOD PARK,1.35076215816039,103.69964670362,103.69964670362,648826,WESTWOOD DRIVE,WESTWOOD PARK,13123.808644888,36986.3417190332
9 WESTWOOD DRIVE WESTWOOD PARK SINGAPORE 648827,9,WESTWOOD PARK,1.35110967819906,103.699713327248,103.699713327248,648827,WESTWOOD DRIVE,WESTWOOD PARK,13131.2252392061,37024.7684074938
10 WESTWOOD DRIVE WESTWOOD PARK SINGAPORE 648828,10,WESTWOOD PARK,1.35076118734406,103.699703123242,103.699703123242,648828,WESTWOOD DRIVE,WESTWOOD PARK,13130.0875262339,36986.2340255473
11 WESTWOOD DRIVE WESTWOOD PARK SINGAPORE 648829,11,WESTWOOD PARK,1.3511082617425,103.699764733836,103.699764733836,648829,WESTWOOD DRIVE,WESTWOOD PARK,13136.946221076,37024.6114679985
12 WESTWOOD DRIVE WESTWOOD PARK SINGAPORE 648830,12,WESTWOOD PARK,1.35076016615646,103.699754535241,103.699754535241,648830,WESTWOOD DRIVE,WESTWOOD PARK,13135.8091134643,36986.1207930204
13 WESTWOOD DRIVE WESTWOOD PARK SINGAPORE 648831,13,WESTWOOD PARK,1.35110661918467,103.699821137457,103.699821137457,648831,WESTWOOD DRIVE,WESTWOOD PARK,13143.2233166117,37024.4294968806
14 WESTWOOD DRIVE WESTWOOD PARK SINGAPORE 648832,14,WESTWOOD PARK,1.35075919670614,103.699810952688,103.699810952688,648832,WESTWOOD DRIVE,WESTWOOD PARK,13142.0877526663,36986.0132508744
15 WESTWOOD DRIVE WESTWOOD PARK SINGAPORE 648833,15,WESTWOOD PARK,1.35110520245061,103.699872517935,103.699872517935,648833,WESTWOOD DRIVE,WESTWOOD PARK,13148.9413927551,37024.2725271173
16 WESTWOOD DRIVE WESTWOOD PARK SINGAPORE 648834,16,WESTWOOD PARK,1.35075817524258,103.699862366319,103.699862366319,648834,WESTWOOD DRIVE,WESTWOOD PARK,13147.8095215047,36985.8999880794
17 WESTWOOD DRIVE WESTWOOD PARK SINGAPORE 648835,17,WESTWOOD PARK,1.35110356016541,103.699928947122,103.699928947122,648835,WESTWOOD DRIVE,WESTWOOD PARK,13155.2213334814,37024.0905862674
18 WESTWOOD DRIVE WESTWOOD PARK SINGAPORE 648836,18,WESTWOOD PARK,1.35075720414724,103.69991878159,103.69991878159,648836,WESTWOOD DRIVE,WESTWOOD PARK,13154.0879185628,36985.7922643255
19 WESTWOOD DRIVE WESTWOOD PARK SINGAPORE 648837,19,WESTWOOD PARK,1.35109818636626,103.699980489371,103.699980489371,648837,WESTWOOD DRIVE,WESTWOOD PARK,13160.9573888071,37023.4960625302
20 WESTWOOD DRIVE WESTWOOD PARK SINGAPORE 648838,20,WESTWOOD PARK,1.35075495325102,103.699973352932,103.699973352932,648838,WESTWOOD DRIVE,WESTWOOD PARK,13160.1610986916,36985.543037748
21 WESTWOOD DRIVE WESTWOOD PARK SINGAPORE 648839,21,WESTWOOD PARK,1.35110142790024,103.700069691163,103.700069691163,648839,WESTWOOD DRIVE,WESTWOOD PARK,13170.8845913028,37023.8539511692
22 WESTWOOD DRIVE WESTWOOD PARK SINGAPORE 648840,22,WESTWOOD PARK,1.35075270079655,103.700059229014,103.700059229014,648840,WESTWOOD DRIVE,WESTWOOD PARK,13169.7181540141,36985.2934479527
23 WESTWOOD DRIVE WESTWOOD PARK SINGAPORE 648841,23,WESTWOOD PARK,1.35109893063378,103.700124105596,103.700124105596,648841,WESTWOOD DRIVE,WESTWOOD PARK,13176.9403068051,37023.5774834063
24 WESTWOOD DRIVE WESTWOOD PARK SINGAPORE 648842,24,WESTWOOD PARK,1.35075223463728,103.700113920472,103.700113920472,648842,WESTWOOD DRIVE,WESTWOOD PARK,13175.8047125926,36985.2415686287
25 WESTWOOD DRIVE WESTWOOD PARK SINGAPORE 648843,25,WESTWOOD PARK,1.35109738879865,103.700180467599,103.700180467599,648843,WESTWOOD DRIVE,WESTWOOD PARK,13183.2127713393,37023.4066509064
26 WESTWOOD DRIVE WESTWOOD PARK SINGAPORE 648844,26,WESTWOOD PARK,1.35075135304729,103.700170351242,103.700170351242,648844,WESTWOOD DRIVE,WESTWOOD PARK,13182.0848349258,36985.1437425055
27 WESTWOOD DRIVE WESTWOOD PARK SINGAPORE 648845,27,WESTWOOD PARK,1.35109587214731,103.700231895679,103.700231895679,648845,WESTWOOD DRIVE,WESTWOOD PARK,13188.9361443799,37023.238633329
28 WESTWOOD DRIVE WESTWOOD PARK SINGAPORE 648846,28,WESTWOOD PARK,1.35075024316017,103.700221757534,103.700221757534,648846,WESTWOOD DRIVE,WESTWOOD PARK,13187.8057865286,36985.0207031518
29 WESTWOOD DRIVE WESTWOOD PARK SINGAPORE 648847,29,WESTWOOD PARK,1.35109433332154,103.700288272914,103.700288272914,648847,WESTWOOD DRIVE,WESTWOOD PARK,13195.2103039213,37023.068133777
30 WESTWOOD DRIVE WESTWOOD PARK SINGAPORE 648848,30,WESTWOOD PARK,1.35074936074578,103.700278176065,103.700278176065,648848,WESTWOOD DRIVE,WESTWOOD PARK,13194.0845468026,36984.9227862246
31 WESTWOOD DRIVE WESTWOOD PARK SINGAPORE 648849,31,WESTWOOD PARK,1.35109281173913,103.700339672709,103.700339672709,648849,WESTWOOD DRIVE,WESTWOOD PARK,13200.9305290915,37022.8995713759
32 WESTWOOD DRIVE WESTWOOD PARK SINGAPORE 648850,32,WESTWOOD PARK,1.35074825359384,103.700329585349,103.700329585349,648850,WESTWOOD DRIVE,WESTWOOD PARK,13199.8058313532,36984.8000495508
33 WESTWOOD DRIVE WESTWOOD PARK SINGAPORE 648851,33,WESTWOOD PARK,1.35109127291259,103.700396081764,103.700396081764,648851,WESTWOOD DRIVE,WESTWOOD PARK,13207.208229987,37022.7290718239
34 WESTWOOD DRIVE WESTWOOD PARK SINGAPORE 648852,34,WESTWOOD PARK,1.35074737008209,103.700386005512,103.700386005512,648852,WESTWOOD DRIVE,WESTWOOD PARK,13206.084773235,36984.7020115517
35 WESTWOOD DRIVE WESTWOOD PARK SINGAPORE 648853,35,WESTWOOD PARK,1.35108974941056,103.700447460345,103.700447460345,648853,WESTWOOD DRIVE,WESTWOOD PARK,13212.9260942545,37022.560297545
36 WESTWOOD DRIVE WESTWOOD PARK SINGAPORE 648854,36,WESTWOOD PARK,1.35074626320159,103.700437415069,103.700437415069,648854,WESTWOOD DRIVE,WESTWOOD PARK,13211.8060880536,36984.5793051459
37 WESTWOOD DRIVE WESTWOOD PARK SINGAPORE 648855,37,WESTWOOD PARK,1.35108821331991,103.700503888983,103.700503888983,648855,WESTWOOD DRIVE,WESTWOOD PARK,13219.2059744447,37022.3901006728
38 WESTWOOD DRIVE WESTWOOD PARK SINGAPORE 648856,38,WESTWOOD PARK,1.35074537694951,103.700493826529,103.700493826529,648856,WESTWOOD DRIVE,WESTWOOD PARK,13218.08406136,36984.4809644669
39 WESTWOOD DRIVE WESTWOOD PARK SINGAPORE 648857,39,WESTWOOD PARK,1.35108624356263,103.700554002626,103.700554002626,648857,WESTWOOD DRIVE,WESTWOOD PARK,13224.7830623202,37022.1719895825
40 WESTWOOD DRIVE WESTWOOD PARK SINGAPORE 648858,40,WESTWOOD PARK,1.3507430644465,103.700548325529,103.700548325529,648858,WESTWOOD DRIVE,WESTWOOD PARK,13224.1491902051,36984.224927593
41 WESTWOOD DRIVE WESTWOOD PARK SINGAPORE 648859,41,WESTWOOD PARK,1.35109978537755,103.700783382079,103.700783382079,648859,WESTWOOD DRIVE,WESTWOOD PARK,13250.3105652314,37023.6679846775
42 WESTWOOD DRIVE WESTWOOD PARK SINGAPORE 648860,42,WESTWOOD PARK,1.35072558684163,103.700781037252,103.700781037252,648860,WESTWOOD DRIVE,WESTWOOD PARK,13250.0473548453,36982.2909245044
43 WESTWOOD DRIVE WESTWOOD PARK SINGAPORE 648861,43,WESTWOOD PARK,1.35109717561317,103.700838200132,103.700838200132,648861,WESTWOOD DRIVE,WESTWOOD PARK,13256.4111984223,37023.3790767733
44 WESTWOOD DRIVE WESTWOOD PARK SINGAPORE 648862,44,WESTWOOD PARK,1.3507249589007,103.700835919647,103.700835919647,648862,WESTWOOD DRIVE,WESTWOOD PARK,13256.1551615475,36982.221156802
45 WESTWOOD DRIVE WESTWOOD PARK SINGAPORE 648863,45,WESTWOOD PARK,1.35109552262331,103.700894511555,103.700894511555,648863,WESTWOOD DRIVE,WESTWOOD PARK,13262.6780331107,37023.1959554721
46 WESTWOOD DRIVE WESTWOOD PARK SINGAPORE 648864,46,WESTWOOD PARK,1.35072327963219,103.700892238951,103.700892238951,648864,WESTWOOD DRIVE,WESTWOOD PARK,13262.4228740083,36982.0351297744
47 WESTWOOD DRIVE WESTWOOD PARK SINGAPORE 648865,47,WESTWOOD PARK,1.35109401362287,103.700945970369,103.700945970369,648865,WESTWOOD DRIVE,WESTWOOD PARK,13268.4048264334,37023.0287853982
48 WESTWOOD DRIVE WESTWOOD PARK SINGAPORE 648866,48,WESTWOOD PARK,1.35072174709023,103.700943701022,103.700943701022,648866,WESTWOOD DRIVE,WESTWOOD PARK,13268.1500305468,36981.8653566539
49 WESTWOOD DRIVE WESTWOOD PARK SINGAPORE 648867,49,WESTWOOD PARK,1.35109236117814,103.701002285328,103.701002285328,648867,WESTWOOD DRIVE,WESTWOOD PARK,13274.6720546065,37022.845724633
50 WESTWOOD DRIVE WESTWOOD PARK SINGAPORE 648868,50,WESTWOOD PARK,1.35072006891409,103.701000020053,103.701000020053,648868,WESTWOOD DRIVE,WESTWOOD PARK,13274.4177127397,36981.6794506982
51 WESTWOOD DRIVE WESTWOOD PARK SINGAPORE 648869,51,WESTWOOD PARK,1.35109175513119,103.70105716066,103.70105716066,648869,WESTWOOD DRIVE,WESTWOOD PARK,13280.7790743411,37022.7783783693
52 WESTWOOD DRIVE WESTWOOD PARK SINGAPORE 648870,52,WESTWOOD PARK,1.35071743368708,103.701054842451,103.701054842451,648870,WESTWOOD DRIVE,WESTWOOD PARK,13280.5188302174,36981.3877278715
53 WESTWOOD DRIVE WESTWOOD PARK SINGAPORE 648871,53,WESTWOOD PARK,1.3510891874001,103.701144867989,103.701144867989,648871,WESTWOOD DRIVE,WESTWOOD PARK,13290.5399239985,37022.4939198568
54 WESTWOOD DRIVE WESTWOOD PARK SINGAPORE 648872,54,WESTWOOD PARK,1.35071482325289,103.701142556568,103.701142556568,648872,WESTWOOD DRIVE,WESTWOOD PARK,13290.2804365736,36981.0985475536
55 WESTWOOD DRIVE WESTWOOD PARK SINGAPORE 648873,55,WESTWOOD PARK,1.35108657790106,103.701199683866,103.701199683866,648873,WESTWOOD DRIVE,WESTWOOD PARK,13296.6403150447,37022.2050422207
56 WESTWOOD DRIVE WESTWOOD PARK SINGAPORE 648874,56,WESTWOOD PARK,1.35071419667225,103.701197436517,103.701197436517,648874,WESTWOOD DRIVE,WESTWOOD PARK,13296.3879708638,36981.0289311912
57 WESTWOOD DRIVE WESTWOOD PARK SINGAPORE 648875,57,WESTWOOD PARK,1.35108492654522,103.701255997466,103.701255997466,648875,WESTWOOD DRIVE,WESTWOOD PARK,13302.9073918769,37022.0221025273
58 WESTWOOD DRIVE WESTWOOD PARK SINGAPORE 648876,58,WESTWOOD PARK,1.35071251903739,103.701253751468,103.701253751468,648876,WESTWOOD DRIVE,WESTWOOD PARK,13302.6551990369,36980.8430857714
59 WESTWOOD DRIVE WESTWOOD PARK SINGAPORE 648877,59,WESTWOOD PARK,1.35108341452597,103.701307455464,103.701307455464,648877,WESTWOOD DRIVE,WESTWOOD PARK,13308.6340943966,37021.8545995057
60 WESTWOOD DRIVE WESTWOOD PARK SINGAPORE 648878,60,WESTWOOD PARK,1.35071099004589,103.701305207556,103.701305207556,648878,WESTWOOD DRIVE,WESTWOOD PARK,13308.3816896798,36980.6737061348
61 WESTWOOD DRIVE WESTWOOD PARK SINGAPORE 648879,61,WESTWOOD PARK,1.35108177603212,103.701363753016,103.701363753016,648879,WESTWOOD DRIVE,WESTWOOD PARK,13314.8993854178,37021.6730824076
62 WESTWOOD DRIVE WESTWOOD PARK SINGAPORE 648880,62,WESTWOOD PARK,1.35070931076631,103.701361526044,103.701361526044,648880,WESTWOOD DRIVE,WESTWOOD PARK,13314.6493113367,36980.4876791071
63 WESTWOOD DRIVE WESTWOOD PARK SINGAPORE 648881,63,WESTWOOD PARK,1.35108024950261,103.701415209112,103.701415209112,648881,WESTWOOD DRIVE,WESTWOOD PARK,13320.6258760616,37021.5039751828
64 WESTWOOD DRIVE WESTWOOD PARK SINGAPORE 648882,64,WESTWOOD PARK,1.35070777629822,103.701412988931,103.701412988931,648882,WESTWOOD DRIVE,WESTWOOD PARK,13320.3765586792,36980.3176941108
65 WESTWOOD DRIVE WESTWOOD PARK SINGAPORE 648883,65,WESTWOOD PARK,1.35107860827006,103.701471527062,103.701471527062,648883,WESTWOOD DRIVE,WESTWOOD PARK,13326.8934371816,37021.3221554048
66 WESTWOOD DRIVE WESTWOOD PARK SINGAPORE 648884,66,WESTWOOD PARK,1.35070701599202,103.70146533978,103.70146533978,648884,WESTWOOD DRIVE,WESTWOOD PARK,13326.2026309893,36980.2333069723
67 WESTWOOD DRIVE WESTWOOD PARK SINGAPORE 648885,67,WESTWOOD PARK,1.35107799728557,103.701526408922,103.701526408922,648885,WESTWOOD DRIVE,WESTWOOD PARK,13333.0011833478,37021.2542643156
1 JURONG WEST CENTRAL 2 DBS JURONG POINT BRANCH SINGAPORE 648886,1,DBS JURONG POINT BRANCH,1.33945200436319,103.706685012654,103.706685012654,648886,JURONG WEST CENTRAL 2,DBS JURONG POINT BRANCH,13907.0304980157,35735.67771223
2 LAKEPOINT DRIVE LAKEPOINT CONDOMINIUM SINGAPORE 648923,2,LAKEPOINT CONDOMINIUM,1.34047509435306,103.716756016953,103.716756016953,648923,LAKEPOINT DRIVE,LAKEPOINT CONDOMINIUM,15027.8332014987,35848.7503940947
4 LAKEPOINT DRIVE LAKEPOINT CONDOMINIUM SINGAPORE 648924,4,LAKEPOINT CONDOMINIUM,1.34133453950567,103.717158279023,103.717158279023,648924,LAKEPOINT DRIVE,LAKEPOINT CONDOMINIUM,15072.6052397974,35943.7815113161
6 LAKEPOINT DRIVE LAKEPOINT CONDOMINIUM SINGAPORE 648925,6,LAKEPOINT CONDOMINIUM,1.34128625590853,103.717423207084,103.717423207084,648925,LAKEPOINT DRIVE,LAKEPOINT CONDOMINIUM,15102.0886773765,35938.4411493409
8 LAKEPOINT DRIVE LAKEPOINT CONDOMINIUM SINGAPORE 648926,8,LAKEPOINT CONDOMINIUM,1.34139640607955,103.717872132929,103.717872132929,648926,LAKEPOINT DRIVE,LAKEPOINT CONDOMINIUM,15152.0499496078,35950.6186553538
10 LAKEPOINT DRIVE LAKEPOINT CONDOMINIUM SINGAPORE 648927,10,LAKEPOINT CONDOMINIUM,1.34183750827489,103.718352500863,103.718352500863,648927,LAKEPOINT DRIVE,LAKEPOINT CONDOMINIUM,15205.5121076396,35999.3910617214
21 JURONG WEST STREET 93 CALTEX JURONG WEST SINGAPORE 648964,21,CALTEX JURONG WEST,1.33871535049004,103.692805994945,103.692805994945,648964,JURONG WEST STREET 93,CALTEX JURONG WEST,12362.4357660739,35654.30623338
20 JURONG WEST STREET 93 JURONG WEST SPORTS & RECREATION CENTRE SINGAPORE 648965,20,JURONG WEST SPORTS & RECREATION CENTRE,1.33821088716936,103.69386868465,103.69386868465,648965,JURONG WEST STREET 93,JURONG WEST SPORTS & RECREATION CENTRE,12480.6989531256,35598.5183440149
50 JURONG WEST STREET 93 NTUC HEALTH (JURONG WEST) SINGAPORE 648967,50,NTUC HEALTH (JURONG WEST),1.34095341114557,103.691445047454,103.691445047454,648967,JURONG WEST STREET 93,NTUC HEALTH (JURONG WEST),12210.9907267792,35901.7890122309
11 JURONG WEST STREET 93 SINGAPORE 648968,11,NIL,1.33663323063922,103.693744742943,103.693744742943,648968,JURONG WEST STREET 93,11 JURONG WEST STREET 93 SINGAPORE 648968,12466.8956023669,35424.0694252215
20 JURONG WEST STREET 92 SINGAPORE 649000,20,NIL,1.34079304701319,103.690470022063,103.690470022063,649000,JURONG WEST STREET 92,20 JURONG WEST STREET 92 SINGAPORE 649000,12102.4795511337,35884.0630215872
5 JURONG WEST STREET 91 SHG STUDENT CARE (XINGNAN PRIMARY SCHOOL) SINGAPORE 649036,5,SHG STUDENT CARE (XINGNAN PRIMARY SCHOOL),1.34270639669225,103.687588478681,103.687588478681,649036,JURONG WEST STREET 91,SHG STUDENT CARE (XINGNAN PRIMARY SCHOOL),11781.8064267524,36095.6510288138
31 JURONG WEST STREET 91 KIDZ TREEHOUSE @ JUYING PRIMARY SINGAPORE 649037,31,KIDZ TREEHOUSE @ JUYING PRIMARY,1.3388763709006,103.687889547387,103.687889547387,649037,JURONG WEST STREET 91,KIDZ TREEHOUSE @ JUYING PRIMARY,11815.2870542612,35672.1430048458
33 JURONG WEST STREET 91 JUYING SECONDARY SCHOOL SINGAPORE 649038,33,JUYING SECONDARY SCHOOL,1.33817883513509,103.687206505485,103.687206505485,649038,JURONG WEST STREET 91,JUYING SECONDARY SCHOOL,11739.2669549324,35595.0173371434
60 JURONG WEST STREET 91 NANYANG COMMUNITY CLUB SINGAPORE 649040,60,NANYANG COMMUNITY CLUB,1.34236402992035,103.69232022763,103.69232022763,649040,JURONG WEST STREET 91,NANYANG COMMUNITY CLUB,12308.3981228666,36057.7628683206
1 JURONG WEST STREET 91 SINGAPORE 649041,1,NIL,1.34298940506671,103.691864154487,103.691864154487,649041,JURONG WEST STREET 91,1 JURONG WEST STREET 91 SINGAPORE 649041,12257.645978489,36126.9167966153
21 JURONG WEST STREET 81 ONE WORLD INTERNATIONAL SCHOOL (NANYANG CAMPUS) SINGAPORE 649075,21,ONE WORLD INTERNATIONAL SCHOOL (NANYANG CAMPUS),1.34760230573674,103.694815618532,103.694815618532,649075,JURONG WEST STREET 81,ONE WORLD INTERNATIONAL SCHOOL (NANYANG CAMPUS),12586.1417421903,36636.9704599101
23 JURONG WEST STREET 81 SINGAPORE 649076,23,NIL,1.34883617453427,103.695003812477,103.695003812477,649076,JURONG WEST STREET 81,23 JURONG WEST STREET 81 SINGAPORE 649076,12607.0934523959,36773.4045769684
2 JURONG WEST STREET 75 JURONG WEST TELEPHONE EXCHANGE SINGAPORE 649112,2,JURONG WEST TELEPHONE EXCHANGE,1.34666919718668,103.702284216027,103.702284216027,649112,JURONG WEST STREET 75,JURONG WEST TELEPHONE EXCHANGE,13417.3105635019,36533.7458297648
1 JURONG WEST STREET 74 GEK POH VILLE COMMUNITY CLUB (PENDING U/C) SINGAPORE 649149,1,GEK POH VILLE COMMUNITY CLUB (PENDING U/C),1.34872282721415,103.698821970733,103.698821970733,649149,JURONG WEST STREET 74,GEK POH VILLE COMMUNITY CLUB (PENDING U/C),13032.0124184256,36760.8473590985
5 JURONG WEST STREET 74 CENTRE OF NEW LIFE SINGAPORE 649151,5,CENTRE OF NEW LIFE,1.34938102403954,103.698930157409,103.698930157409,649151,JURONG WEST STREET 74,CENTRE OF NEW LIFE,13044.0564426305,36833.6269378234
1 JURONG WEST STREET 73 MOE KINDERGARTEN @ WESTWOOD SINGAPORE 649188,1,MOE KINDERGARTEN @ WESTWOOD,1.3477109654722,103.700467520791,103.700467520791,649188,JURONG WEST STREET 73,MOE KINDERGARTEN @ WESTWOOD,13215.1381995771,36648.9504975975
1 JURONG WEST STREET 72 NASCANS @ WEST GROVE SINGAPORE 649223,1,NASCANS @ WEST GROVE,1.34471211768915,103.698964212988,103.698964212988,649223,JURONG WEST STREET 72,NASCANS @ WEST GROVE,13047.8179963073,36317.3614973016
6 JURONG WEST STREET 52 RULANG PRIMARY SCHOOL SINGAPORE 649295,6,RULANG PRIMARY SCHOOL,1.34684445616169,103.719009824408,103.719009824408,649295,JURONG WEST STREET 52,RULANG PRIMARY SCHOOL,15278.691163213,36553.0314388052
8 JURONG WEST STREET 52 DBS JURONG SPRING COMMUNITY CLUB SINGAPORE 649296,8,DBS JURONG SPRING COMMUNITY CLUB,1.34833016937052,103.718178976162,103.718178976162,649296,JURONG WEST STREET 52,DBS JURONG SPRING COMMUNITY CLUB,15186.2345196139,36717.318699304
6A JURONG WEST STREET 52 GRACE ORCHARD SCHOOL SINGAPORE 649297,6A,GRACE ORCHARD SCHOOL,1.3476384958259,103.71820509361,103.71820509361,649297,JURONG WEST STREET 52,GRACE ORCHARD SCHOOL,15189.1374916648,36640.8366802745
6B JURONG WEST STREET 52 NTUC HEALTH (JURONG SPRING) SINGAPORE 649298,6B,NTUC HEALTH (JURONG SPRING),1.34804027788982,103.718157825415,103.718157825415,649298,JURONG WEST STREET 52,NTUC HEALTH (JURONG SPRING),15183.8791559255,36685.2640267741
8 JURONG WEST STREET 51 MOE KINDERGARTEN @ SHUQUN SINGAPORE 649332,8,MOE KINDERGARTEN @ SHUQUN,1.34686967259067,103.721559387203,103.721559387203,649332,JURONG WEST STREET 51,MOE KINDERGARTEN @ SHUQUN,15562.4299923396,36555.8065891601
47 JURONG WEST STREET 42 CHOICE RETREAT HOUSE SINGAPORE 649368,47,CHOICE RETREAT HOUSE,1.35135368226066,103.716391791934,103.716391791934,649368,JURONG WEST STREET 42,CHOICE RETREAT HOUSE,14987.356462501,37051.6534900106
741 JURONG WEST STREET 42 SINGAPORE 649369,741,NIL,1.35295806904325,103.723971759285,103.723971759285,649369,JURONG WEST STREET 42,741 JURONG WEST STREET 42 SINGAPORE 649369,15830.9311012262,37229.0194252003
931 JURONG WEST STREET 42 SINGAPORE 649370,931,NIL,1.35204084533242,103.726657928521,103.726657928521,649370,JURONG WEST STREET 42,931 JURONG WEST STREET 42 SINGAPORE 649370,16129.8673639055,37127.5840263758
60 JURONG WEST STREET 42 HUA YI SECONDARY SCHOOL SINGAPORE 649371,60,HUA YI SECONDARY SCHOOL,1.35235629697621,103.721726596827,103.721726596827,649371,JURONG WEST STREET 42,HUA YI SECONDARY SCHOOL,15581.0664439332,37162.4897916298
35 JURONG WEST STREET 41 YUHUA SECONDARY SCHOOL SINGAPORE 649406,35,YUHUA SECONDARY SCHOOL,1.34721844938907,103.722581522719,103.722581522719,649406,JURONG WEST STREET 41,YUHUA SECONDARY SCHOOL,15676.1843394646,36594.3674253244
60 JURONG WEST STREET 41 SINGAPORE 649407,60,NIL,1.34930351884835,103.720290699301,103.720290699301,649407,JURONG WEST STREET 41,60 JURONG WEST STREET 41 SINGAPORE 649407,15421.2512780307,36824.9359100498
62 JURONG WEST STREET 41 JURONG WEST UNITED TEMPLE SINGAPORE 649408,62,JURONG WEST UNITED TEMPLE,1.34939210660659,103.720121767733,103.720121767733,649408,JURONG WEST STREET 41,JURONG WEST UNITED TEMPLE,15402.4515003962,36834.732385125
64 JURONG WEST STREET 41 JURONG WEST UNITED TEMPLE SINGAPORE 649409,64,JURONG WEST UNITED TEMPLE,1.34939210660659,103.720121767733,103.720121767733,649409,JURONG WEST STREET 41,JURONG WEST UNITED TEMPLE,15402.4515003962,36834.732385125
5 JURONG WEST STREET 41 FUHUA SECONDARY SCHOOL SINGAPORE 649410,5,FUHUA SECONDARY SCHOOL,1.34687989714198,103.726759673876,103.726759673876,649410,JURONG WEST STREET 41,FUHUA SECONDARY SCHOOL,16141.1654941877,36556.9112494942
29 JURONG WEST STREET 41 THE LAKESHORE SINGAPORE 649411,29,THE LAKESHORE,1.34580853500809,103.723382334919,103.723382334919,649411,JURONG WEST STREET 41,THE LAKESHORE,15765.2990041776,36438.4619748779
31 JURONG WEST STREET 41 THE LAKESHORE SINGAPORE 649412,31,THE LAKESHORE,1.34555810302633,103.722613082394,103.722613082394,649412,JURONG WEST STREET 41,THE LAKESHORE,15679.6882520635,36410.7743065059
33 JURONG WEST STREET 41 THE LAKESHORE SINGAPORE 649413,33,THE LAKESHORE,1.34626066853523,103.722832489094,103.722832489094,649413,JURONG WEST STREET 41,THE LAKESHORE,15704.1093693664,36488.4594476186
7 JURONG WEST STREET 41 CANADIAN INTERNATIONAL SCHOOL (LAKESIDE CAMPUS) SINGAPORE 649414,7,CANADIAN INTERNATIONAL SCHOOL (LAKESIDE CAMPUS),1.34569489816085,103.727193103253,103.727193103253,649414,JURONG WEST STREET 41,CANADIAN INTERNATIONAL SCHOOL (LAKESIDE CAMPUS),16189.3957706979,36425.8777882364
21 JURONG WEST AVENUE 5 SHELL JURONG WEST SINGAPORE 649481,21,SHELL JURONG WEST,1.35009221256305,103.701211181784,103.701211181784,649481,JURONG WEST AVENUE 5,SHELL JURONG WEST,13297.9139312636,36912.2528381385
2 JURONG WEST AVENUE 5 JURONG POLICE DIVISIONAL HEADQUARTER SINGAPORE 649482,2,JURONG POLICE DIVISIONAL HEADQUARTER,1.3509077849843,103.702166632608,103.702166632608,649482,JURONG WEST AVENUE 5,JURONG POLICE DIVISIONAL HEADQUARTER,13404.2500495994,37002.4291523788
1 JURONG WEST AVENUE 5 SINGAPORE 649483,1,NIL,1.34988154179299,103.702687484208,103.702687484208,649483,JURONG WEST AVENUE 5,1 JURONG WEST AVENUE 5 SINGAPORE 649483,13462.2090311684,36888.9490029179
3 JURONG WEST AVENUE 5 SINGAPORE 649484,3,NIL,1.34987064861736,103.703027085952,103.703027085952,649484,JURONG WEST AVENUE 5,3 JURONG WEST AVENUE 5 SINGAPORE 649484,13500.0029371614,36887.7424605507
5 JURONG WEST AVENUE 5 SCAL ACADEMY SINGAPORE 649485,5,SCAL ACADEMY,1.34970414499777,103.703072680741,103.703072680741,649485,JURONG WEST AVENUE 5,SCAL ACADEMY,13505.0761539126,36869.3310211487
7 JURONG WEST AVENUE 5 SINGAPORE 649486,7,NIL,1.34878489718303,103.703415655017,103.703415655017,649486,JURONG WEST AVENUE 5,7 JURONG WEST AVENUE 5 SINGAPORE 649486,13543.24002547,36767.682989737
9 JURONG WEST AVENUE 5 SINGAPORE 649487,9,NIL,1.34908075400694,103.702881301202,103.702881301202,649487,JURONG WEST AVENUE 5,9 JURONG WEST AVENUE 5 SINGAPORE 649487,13483.7740009921,36800.4005916454
11 JURONG WEST AVENUE 5 SINGAPORE 649488,11,NIL,1.34860795030681,103.702971130695,103.702971130695,649488,JURONG WEST AVENUE 5,11 JURONG WEST AVENUE 5 SINGAPORE 649488,13493.7682470717,36748.1197022144
13 JURONG WEST AVENUE 5 SINGAPORE 649489,13,NIL,1.34839425880924,103.701782527445,103.701782527445,649489,JURONG WEST AVENUE 5,13 JURONG WEST AVENUE 5 SINGAPORE 649489,13361.4883199753,36724.4978412893
15 JURONG WEST AVENUE 5 SINGAPORE 649490,15,NIL,1.34872354547554,103.702024673706,103.702024673706,649490,JURONG WEST AVENUE 5,15 JURONG WEST AVENUE 5 SINGAPORE 649490,13388.4385391939,36760.9073199742
17 JURONG WEST AVENUE 5 SINGAPORE 649491,17,NIL,1.34922739117796,103.701628120766,103.701628120766,649491,JURONG WEST AVENUE 5,17 JURONG WEST AVENUE 5 SINGAPORE 649491,13344.3095139405,36816.6225359105
19 JURONG WEST AVENUE 5 SINGAPORE 649492,19,NIL,1.34990979104684,103.701801134342,103.701801134342,649492,JURONG WEST AVENUE 5,19 JURONG WEST AVENUE 5 SINGAPORE 649492,13363.5681239404,36892.0779860038
10 JURONG WEST AVENUE 1 DBS EXXONMOBIL JURONG WEST AVENUE 1 SINGAPORE 649517,10,DBS EXXONMOBIL JURONG WEST AVENUE 1,1.35103728086402,103.723672290015,103.723672290015,649517,JURONG WEST AVENUE 1,DBS EXXONMOBIL JURONG WEST AVENUE 1,15797.593913692,37016.6295888163
39 JURONG WEST AVENUE 1 BOON TONG SAN TEMPLE SINGAPORE 649518,39,BOON TONG SAN TEMPLE,1.35073925061095,103.721629112956,103.721629112956,649518,JURONG WEST AVENUE 1,BOON TONG SAN TEMPLE,15570.209348442,36983.6852191743
100 JURONG WEST AVENUE 1 CALTEX JURONG SPRING SINGAPORE 649519,100,CALTEX JURONG SPRING,1.34959933358692,103.714802129766,103.714802129766,649519,JURONG WEST AVENUE 1,CALTEX JURONG SPRING,14810.4351337245,36857.6747298148
6 JURONG WEST AVENUE 1 JURONG GREEN COMMUNITY CLUB SINGAPORE 649520,6,JURONG GREEN COMMUNITY CLUB,1.35055603902827,103.725341552003,103.725341552003,649520,JURONG WEST AVENUE 1,JURONG GREEN COMMUNITY CLUB,15983.3619687501,36963.4079099149
30 JURONG WEST STREET 24 SINGAPORE 649696,30,NIL,1.34917250597288,103.707198295428,103.707198295428,649696,JURONG WEST STREET 24,30 JURONG WEST STREET 24 SINGAPORE 649696,13964.2090196246,36810.5207525361
32 JURONG WEST STREET 24 SINGAPORE 649697,32,NIL,1.34979800298725,103.707634672999,103.707634672999,649697,JURONG WEST STREET 24,32 JURONG WEST STREET 24 SINGAPORE 649697,14012.7766630817,36879.6826715786
101 JALAN BAHAR CIVIL DEFENCE ACADEMY SINGAPORE 649734,101,CIVIL DEFENCE ACADEMY,1.36608056045315,103.692418589374,103.692418589374,649734,JALAN BAHAR,CIVIL DEFENCE ACADEMY,12319.4971806202,38680.2231106199
91 JALAN BAHAR NATIONAL SERVICE TRAINING INSTITUTE SINGAPORE 649735,91,NATIONAL SERVICE TRAINING INSTITUTE,1.3648952534406,103.690687524445,103.690687524445,649735,JALAN BAHAR,NATIONAL SERVICE TRAINING INSTITUTE,12126.8419485474,38549.1688552555
60A JALAN BAHAR TEMPORARY SITE OFFICE SINGAPORE 649736,60A,TEMPORARY SITE OFFICE,1.35659683224295,103.696671157665,103.696671157665,649736,JALAN BAHAR,TEMPORARY SITE OFFICE,12792.6992407925,37631.530458061
16A JURONG WEST STREET 64 TEMPORARY SITE OFFICE SINGAPORE 649753,16A,TEMPORARY SITE OFFICE,1.33823153204685,103.706370679869,103.706370679869,649753,JURONG WEST STREET 64,TEMPORARY SITE OFFICE,13872.0415563425,35600.7256064601
51 CORPORATION ROAD SINGAPORE 649806,51,NIL,1.34150711914561,103.714768467677,103.714768467677,649806,CORPORATION ROAD,51 CORPORATION ROAD SINGAPORE 649806,14806.6454308229,35962.8772795647
500 CORPORATION ROAD SINGAPORE 649808,500,NIL,1.34542200582377,103.716518474677,103.716518474677,649808,CORPORATION ROAD,500 CORPORATION ROAD SINGAPORE 649808,15001.4233868616,36395.7569674551
800 CORPORATION ROAD SINGAPORE 649809,800,NIL,1.35048483150774,103.713459069456,103.713459069456,649809,CORPORATION ROAD,800 CORPORATION ROAD SINGAPORE 649809,14660.9720420036,36955.596106533
450 CORPORATION ROAD PARC VISTA SINGAPORE 649810,450,PARC VISTA,1.34462755554801,103.71838138374,103.71838138374,649810,CORPORATION ROAD,PARC VISTA,15208.7409750707,36307.9006941654
452 CORPORATION ROAD PARC VISTA SINGAPORE 649811,452,PARC VISTA,1.34437441495254,103.718068832634,103.718068832634,649811,CORPORATION ROAD,PARC VISTA,15173.9560698755,36279.9112842623
454 CORPORATION ROAD PARC VISTA SINGAPORE 649812,454,PARC VISTA,1.3441300441316,103.717761466942,103.717761466942,649812,CORPORATION ROAD,PARC VISTA,15139.7482843259,36252.8915697541
456 CORPORATION ROAD PARC VISTA SINGAPORE 649813,456,PARC VISTA,1.34395613825222,103.717310386857,103.717310386857,649813,CORPORATION ROAD,PARC VISTA,15089.5469869832,36233.6642871182
458 CORPORATION ROAD PARC VISTA SINGAPORE 649814,458,PARC VISTA,1.34397478538951,103.716886229568,103.716886229568,649814,CORPORATION ROAD,PARC VISTA,15042.3429161925,36235.7284425348
460 CORPORATION ROAD PARC VISTA SINGAPORE 649815,460,PARC VISTA,1.34448615859842,103.716695935199,103.716695935199,649815,CORPORATION ROAD,PARC VISTA,15021.1678888043,36292.2746054288
462 CORPORATION ROAD PARC VISTA SINGAPORE 649816,462,PARC VISTA,1.34477710083075,103.717005534795,103.717005534795,649816,CORPORATION ROAD,PARC VISTA,15055.6245377157,36324.443933079
464 CORPORATION ROAD PARC VISTA SINGAPORE 649817,464,PARC VISTA,1.3444177663379,103.717307539241,103.717307539241,649817,CORPORATION ROAD,PARC VISTA,15089.2325026328,36284.7088807542
700 CORPORATION ROAD JURONG WEST NEIGHBOURHOOD POLICE CENTRE SINGAPORE 649818,700,JURONG WEST NEIGHBOURHOOD POLICE CENTRE,1.34932652839146,103.714522612582,103.714522612582,649818,CORPORATION ROAD,JURONG WEST NEIGHBOURHOOD POLICE CENTRE,14779.3264567591,36827.5107771568
80 CORPORATION ROAD LAKEHOLMZ SINGAPORE 649819,80,LAKEHOLMZ,1.34189705923069,103.716309075246,103.716309075246,649819,CORPORATION ROAD,LAKEHOLMZ,14978.10081576,36005.9866975173
82 CORPORATION ROAD LAKEHOLMZ SINGAPORE 649820,82,LAKEHOLMZ,1.34200448013599,103.716687628699,103.716687628699,649820,CORPORATION ROAD,LAKEHOLMZ,15020.2303682761,36017.8627646808
84 CORPORATION ROAD LAKEHOLMZ SINGAPORE 649821,84,LAKEHOLMZ,1.34216410436411,103.717086690756,103.717086690756,649821,CORPORATION ROAD,LAKEHOLMZ,15064.6425807849,36035.5111179464
86 CORPORATION ROAD LAKEHOLMZ SINGAPORE 649822,86,LAKEHOLMZ,1.34264214246002,103.716941487641,103.716941487641,649822,CORPORATION ROAD,LAKEHOLMZ,15048.4855310768,36088.371003639
88 CORPORATION ROAD LAKEHOLMZ SINGAPORE 649823,88,LAKEHOLMZ,1.34260353007147,103.716508444052,103.716508444052,649823,CORPORATION ROAD,LAKEHOLMZ,15000.2921815058,36084.1037324909
90 CORPORATION ROAD LAKEHOLMZ SINGAPORE 649824,90,LAKEHOLMZ,1.34226751765488,103.716270247824,103.716270247824,649824,CORPORATION ROAD,LAKEHOLMZ,14973.7816955559,36046.9503878374
31 CORPORATION ROAD SINGAPORE 649825,31,NIL,1.33914807253802,103.715254927054,103.715254927054,649825,CORPORATION ROAD,31 CORPORATION ROAD SINGAPORE 649825,14860.7706393059,35702.0228016712
201 BOON LAY WAY SINGAPORE 649845,201,NIL,1.34431086238332,103.720435722427,103.720435722427,649845,BOON LAY WAY,201 BOON LAY WAY SINGAPORE 649845,15437.365195862,36272.8716474138
301 BOON LAY WAY BOON LAY XCHANGE SINGAPORE 649846,301,BOON LAY XCHANGE,1.33849328515951,103.705845404968,103.705845404968,649846,BOON LAY WAY,BOON LAY XCHANGE,13813.5854231408,35629.6720294729
333 BOON LAY WAY KOWABUNGA! EDUCATION PTE LTD LLP (BOON LAY) SINGAPORE 649848,333,KOWABUNGA! EDUCATION PTE LTD LLP (BOON LAY),1.33500720790366,103.706278743989,103.706278743989,649848,BOON LAY WAY,KOWABUNGA! EDUCATION PTE LTD LLP (BOON LAY),13861.7916063368,35244.1959994566
291 BOON LAY WAY SINGAPORE 649849,291,NIL,1.33917483361225,103.70865558407,103.70865558407,649849,BOON LAY WAY,291 BOON LAY WAY SINGAPORE 649849,14126.3329365216,35705.0182726793
10 BOON LAY PLACE BOON LAY COMMUNITY CLUB SINGAPORE 649882,10,BOON LAY COMMUNITY CLUB,1.34822553220747,103.711494942235,103.711494942235,649882,BOON LAY PLACE,BOON LAY COMMUNITY CLUB,14442.3737276029,36705.7846300881
88 BOON LAY PLACE HOCKEY VILLAGE SINGAPORE 649883,88,HOCKEY VILLAGE,1.34775855208035,103.711179874402,103.711179874402,649883,BOON LAY PLACE,HOCKEY VILLAGE,14407.3075117674,36654.1499923766
90 BOON LAY PLACE SINGAPORE 649884,90,NIL,1.34737934295091,103.711938497735,103.711938497735,649884,BOON LAY PLACE,90 BOON LAY PLACE SINGAPORE 649884,14491.7319707945,36612.2146695126
325 BOON LAY PLACE SINGAPORE 649886,325,NIL,1.34543391702792,103.714106395859,103.714106395859,649886,BOON LAY PLACE,325 BOON LAY PLACE SINGAPORE 649886,14732.9850235041,36397.0870334636
118 BOON LAY DRIVE TUAS PEK KONG KENG TEMPLE SINGAPORE 649923,118,TUAS PEK KONG KENG TEMPLE,1.34488135615311,103.713302930711,103.713302930711,649923,BOON LAY DRIVE,TUAS PEK KONG KENG TEMPLE,14643.5649851039,36335.9919255674
120 BOON LAY DRIVE JURONG CHURCH OF CHRIST SINGAPORE 649924,120,JURONG CHURCH OF CHRIST,1.34466294787788,103.713042790623,103.713042790623,649924,BOON LAY DRIVE,JURONG CHURCH OF CHRIST,14614.6129927831,36311.8428266328
2 BOON LAY DRIVE SUMMERDALE SINGAPORE 649925,2,SUMMERDALE,1.3425169918577,103.711734070194,103.711734070194,649925,BOON LAY DRIVE,SUMMERDALE,14468.9546168838,36074.5606609751
4 BOON LAY DRIVE SUMMERDALE SINGAPORE 649926,4,SUMMERDALE,1.34242024904631,103.711946065971,103.711946065971,649926,BOON LAY DRIVE,SUMMERDALE,14492.5469665248,36063.8621394504
6 BOON LAY DRIVE SUMMERDALE SINGAPORE 649927,6,SUMMERDALE,1.34183676871732,103.711924318214,103.711924318214,649927,BOON LAY DRIVE,SUMMERDALE,14490.1234696042,35999.3438436668
8 BOON LAY DRIVE SUMMERDALE SINGAPORE 649928,8,SUMMERDALE,1.34208643424195,103.712458256214,103.712458256214,649928,BOON LAY DRIVE,SUMMERDALE,14549.5464832773,36026.9476999938
10 BOON LAY DRIVE SUMMERDALE SINGAPORE 649929,10,SUMMERDALE,1.34267591390792,103.712231441321,103.712231441321,649929,BOON LAY DRIVE,SUMMERDALE,14524.3076158585,36092.1307412367
20 BOON LAY DRIVE BIG HEART STUDENT CARE (BOON LAY GARDEN PRIMARY SCHOOL) SINGAPORE 649930,20,BIG HEART STUDENT CARE (BOON LAY GARDEN PRIMARY SCHOOL),1.34284013791617,103.712858381937,103.712858381937,649930,BOON LAY DRIVE,BIG HEART STUDENT CARE (BOON LAY GARDEN PRIMARY SCHOOL),14594.0803428125,36110.2863859087
31 BOON LAY DRIVE SINGAPORE 649934,31,NIL,1.34282124281792,103.710461074137,103.710461074137,649934,BOON LAY DRIVE,31 BOON LAY DRIVE SINGAPORE 649934,14327.2853493635,36108.2103351746
2 BOON LAY AVENUE SHELL BOON LAY SINGAPORE 649960,2,SHELL BOON LAY,1.34400341378114,103.70771034902,103.70771034902,649960,BOON LAY AVENUE,SHELL BOON LAY,14021.1655558413,36238.9446276817
6 BOON LAY AVENUE SINGAPORE 649961,6,NIL,1.34459584223718,103.708190688947,103.708190688947,649961,BOON LAY AVENUE,6 BOON LAY AVENUE SINGAPORE 649961,14074.6256253822,36304.4497505389
35 BOON LAY AVENUE SINGAPORE 649962,35,NIL,1.34921906614435,103.710493691859,103.710493691859,649962,BOON LAY AVENUE,35 BOON LAY AVENUE SINGAPORE 649962,14330.9509837991,36815.6503888089
200 BOON LAY AVENUE CHURCH OF SAINT FRANCIS OF ASSISI SINGAPORE 649964,200,CHURCH OF SAINT FRANCIS OF ASSISI,1.34804040348048,103.711184664543,103.711184664543,649964,BOON LAY AVENUE,CHURCH OF SAINT FRANCIS OF ASSISI,14407.8421654319,36685.3157244921
35A BOON LAY AVENUE SINGAPORE 649965,35A,NIL,1.34972026925739,103.709874194573,103.709874194573,649965,BOON LAY AVENUE,35A BOON LAY AVENUE SINGAPORE 649965,14262.0105053261,36871.0744872782
