ADDRESS,BLK_NO,BUILDING,LATITUDE,LONGITUDE,LONGTITUDE,POSTAL,ROAD_NAME,SEARCHVAL,X,Y
78B JALAN DERMAWAN HILLVIEW GARDEN ESTATE SINGAPORE 667957,78B,HILLVIEW GARDEN ESTATE,1.36069716996747,103.759275690019,103.759275690019,667957,JALAN DERMAWAN,HILLVIEW GARDEN ESTATE,19759.8897010488,38084.621955296
105 HILLVIEW RISE KINGSFORD . HILLVIEW PEAK SINGAPORE 667968,105,KINGSFORD . HILLVIEW PEAK,1.36484389694134,103.763727582766,103.763727582766,667968,HILLVIEW RISE,KINGSFORD . HILLVIEW PEAK,20255.3469621446,38543.1314821523
1 HILLVIEW RISE DBS HILLVIEW COMMUNITY CLUB SINGAPORE 667970,1,DBS HILLVIEW COMMUNITY CLUB,1.36194319593553,103.764296962629,103.764296962629,667970,HILLVIEW RISE,DBS HILLVIEW COMMUNITY CLUB,20318.7030278901,38222.3846854977
8 HILLVIEW RISE MIDWOOD SINGAPORE 667971,8,MIDWOOD,1.36286208839026,103.763433915546,103.763433915546,667971,HILLVIEW RISE,MIDWOOD,20222.6589017892,38323.9939738903
10 HILLVIEW RISE MIDWOOD SINGAPORE 667972,10,MIDWOOD,1.36410574565492,103.763670992519,103.763670992519,667972,HILLVIEW RISE,MIDWOOD,20249.0467721373,38461.5105951168
70 PHOENIX ROAD HILLSTA SINGAPORE 667973,70,HILLSTA,1.37652535037895,103.756538865376,103.756538865376,667973,PHOENIX ROAD,HILLSTA,19455.3688743021,39834.8326699398
2 HILLVIEW RISE THE HILLIER SINGAPORE 667978,2,THE HILLIER,1.36393203094063,103.764583569188,103.764583569188,667978,HILLVIEW RISE,THE HILLIER,20350.6052708523,38442.2991729025
4 HILLVIEW RISE HILLV2 SINGAPORE 667979,4,HILLV2,1.36355095770679,103.76423610633,103.76423610633,667979,HILLVIEW RISE,HILLV2,20311.9355304828,38400.1631127708
6 HILLVIEW RISE THE HILLIER SINGAPORE 667980,6,THE HILLIER,1.36303389442686,103.764128549082,103.764128549082,667980,HILLVIEW RISE,THE HILLIER,20299.9640283668,38342.9891918954
101 HILLVIEW RISE KINGSFORD . HILLVIEW PEAK SINGAPORE 667981,101,KINGSFORD . HILLVIEW PEAK,1.36478651146586,103.764763618001,103.764763618001,667981,HILLVIEW RISE,KINGSFORD . HILLVIEW PEAK,20370.6452791197,38536.7827725671
103 HILLVIEW RISE KINGSFORD . HILLVIEW PEAK SINGAPORE 667982,103,KINGSFORD . HILLVIEW PEAK,1.3647903996751,103.764168933657,103.764168933657,667982,HILLVIEW RISE,KINGSFORD . HILLVIEW PEAK,20304.4639392383,38537.2146058902
78A JALAN DERMAWAN HILLVIEW GARDEN ESTATE SINGAPORE 667987,78A,HILLVIEW GARDEN ESTATE,1.36068414732565,103.759441458211,103.759441458211,667987,JALAN DERMAWAN,HILLVIEW GARDEN ESTATE,19778.3377344441,38083.1814111471
54 GOMBAK RISE BUKIT GOMBAK CAMP SINGAPORE 667988,54,BUKIT GOMBAK CAMP,1.36782598904503,103.75745445245,103.75745445245,667988,GOMBAK RISE,BUKIT GOMBAK CAMP,19557.2319294689,38872.8974417895
1 PHOENIX WALK PHOENIX HEIGHTS SINGAPORE 668105,1,PHOENIX HEIGHTS,1.37596230396663,103.75775275301,103.75775275301,668105,PHOENIX WALK,PHOENIX HEIGHTS,19590.4576400192,39772.5694902819
2 PHOENIX WALK PHOENIX HEIGHTS SINGAPORE 668106,2,PHOENIX HEIGHTS,1.37563312337387,103.757867068758,103.757867068758,668106,PHOENIX WALK,PHOENIX HEIGHTS,19603.178426072,39736.1699394956
3 PHOENIX WALK PHOENIX HEIGHTS SINGAPORE 668107,3,PHOENIX HEIGHTS,1.37605882453747,103.757907422593,103.757907422593,668107,PHOENIX WALK,PHOENIX HEIGHTS,19607.6708002146,39783.2417089287
4 PHOENIX WALK PHOENIX HEIGHTS SINGAPORE 668108,4,PHOENIX HEIGHTS,1.37573774236438,103.758092270532,103.758092270532,668108,PHOENIX WALK,PHOENIX HEIGHTS,19628.240982485,39747.7373942956
5 PHOENIX WALK PHOENIX HEIGHTS SINGAPORE 668109,5,PHOENIX HEIGHTS,1.376148324002,103.758101117132,103.758101117132,668109,PHOENIX WALK,PHOENIX HEIGHTS,19629.2269317871,39793.1374327205
6 PHOENIX WALK PHOENIX HEIGHTS SINGAPORE 668110,6,PHOENIX HEIGHTS,1.37586328121008,103.758295834066,103.758295834066,668110,PHOENIX WALK,PHOENIX HEIGHTS,19650.895539186,39761.6181402896
7 PHOENIX WALK MONTESSORI @ GRACELAND PTE LTD SINGAPORE 668111,7,MONTESSORI @ GRACELAND PTE LTD,1.37628509311549,103.758282343478,103.758282343478,668111,PHOENIX WALK,MONTESSORI @ GRACELAND PTE LTD,19649.3956697891,39808.2600438185
8 PHOENIX WALK PHOENIX HEIGHTS SINGAPORE 668112,8,PHOENIX HEIGHTS,1.37597871971748,103.758477720075,103.758477720075,668112,PHOENIX WALK,PHOENIX HEIGHTS,19671.1376165133,39774.3821187541
9 PHOENIX WALK PHOENIX HEIGHTS SINGAPORE 668113,9,PHOENIX HEIGHTS,1.37639989849496,103.758499315998,103.758499315998,668113,PHOENIX WALK,PHOENIX HEIGHTS,19673.5424380871,39820.9538913649
10 PHOENIX WALK PHOENIX HEIGHTS SINGAPORE 668114,10,PHOENIX HEIGHTS,1.37611251706912,103.758647313684,103.758647313684,668114,PHOENIX WALK,PHOENIX HEIGHTS,19690.0117625836,39789.1761708874
11 PHOENIX WALK PHOENIX HEIGHTS SINGAPORE 668115,11,PHOENIX HEIGHTS,1.37676531424811,103.758681462182,103.758681462182,668115,PHOENIX WALK,PHOENIX HEIGHTS,19693.8143293783,39861.3591071181
15 PHOENIX WALK PHOENIX HEIGHTS SINGAPORE 668116,15,PHOENIX HEIGHTS,1.37666783202761,103.758750223035,103.758750223035,668116,PHOENIX WALK,PHOENIX HEIGHTS,19701.4662270015,39850.5797700752
17 PHOENIX WALK PHOENIX HEIGHTS SINGAPORE 668118,17,PHOENIX HEIGHTS,1.3765186007378,103.758838897663,103.758838897663,668118,PHOENIX WALK,PHOENIX HEIGHTS,19711.3341042493,39834.0782101769
19 PHOENIX WALK PHOENIX HEIGHTS SINGAPORE 668119,19,PHOENIX HEIGHTS,1.37642365006493,103.758901303076,103.758901303076,668119,PHOENIX WALK,PHOENIX HEIGHTS,19718.278729897,39823.5788217168
21 PHOENIX WALK PHOENIX HEIGHTS SINGAPORE 668120,21,PHOENIX HEIGHTS,1.37628001442822,103.758999296078,103.758999296078,668120,PHOENIX WALK,PHOENIX HEIGHTS,19729.1836488033,39807.6959696729
23 PHOENIX WALK PHOENIX HEIGHTS SINGAPORE 668121,23,PHOENIX HEIGHTS,1.37619499297056,103.759056734551,103.759056734551,668121,PHOENIX WALK,PHOENIX HEIGHTS,19735.5755508002,39798.2945220545
2 PHOENIX ROAD THE ARDEN SINGAPORE 668156,2,THE ARDEN,1.37722474671689,103.756802169138,103.756802169138,668156,PHOENIX ROAD,THE ARDEN,19484.6738215815,39912.1674894094
4 PHOENIX ROAD THE ARDEN SINGAPORE 668158,4,THE ARDEN,1.37690199925909,103.756893686726,103.756893686726,668158,PHOENIX ROAD,THE ARDEN,19494.857454435,39876.4793573115
6 PHOENIX ROAD THE ARDEN SINGAPORE 668159,6,THE ARDEN,1.3765865450876,103.756984005168,103.756984005168,668159,PHOENIX ROAD,THE ARDEN,19504.9076660164,39841.5976853725
21 PHOENIX ROAD SINGAPORE 668169,21,NIL,1.3770937319737,103.75743055252,103.75743055252,668169,PHOENIX ROAD,21 PHOENIX ROAD SINGAPORE 668169,19554.6046684822,39897.6782964077
23 PHOENIX ROAD SINGAPORE 668170,23,NIL,1.3770387385144,103.757446481935,103.757446481935,668170,PHOENIX ROAD,23 PHOENIX ROAD SINGAPORE 668170,19556.377222144,39891.5973374061
25 PHOENIX ROAD SINGAPORE 668171,25,NIL,1.37695091030585,103.757471617268,103.757471617268,668171,PHOENIX ROAD,25 PHOENIX ROAD SINGAPORE 668171,19559.1741654482,39881.8856429551
27 PHOENIX ROAD SINGAPORE 668172,27,NIL,1.37689580570823,103.757487470531,103.757487470531,668172,PHOENIX ROAD,27 PHOENIX ROAD SINGAPORE 668172,19560.9382440746,39875.7923951522
29 PHOENIX ROAD SINGAPORE 668173,29,NIL,1.37681003742317,103.757506756601,103.757506756601,668173,PHOENIX ROAD,29 PHOENIX ROAD SINGAPORE 668173,19563.0842441209,39866.3084975462
31 PHOENIX ROAD SINGAPORE 668174,31,NIL,1.37675152076925,103.757523256465,103.757523256465,668174,PHOENIX ROAD,31 PHOENIX ROAD SINGAPORE 668174,19564.9202697445,39859.8379593268
33 PHOENIX ROAD SINGAPORE 668175,33,NIL,1.37666894141711,103.757540944823,103.757540944823,668175,PHOENIX ROAD,33 PHOENIX ROAD SINGAPORE 668175,19566.8884756537,39850.7066837326
35 PHOENIX ROAD SINGAPORE 668176,35,NIL,1.37661288614177,103.757556683608,103.757556683608,668176,PHOENIX ROAD,35 PHOENIX ROAD SINGAPORE 668176,19568.6398114599,39844.5083152223
13 PHOENIX ROAD SINGAPORE 668177,13,NIL,1.3773869954573,103.757339390046,103.757339390046,668177,PHOENIX ROAD,13 PHOENIX ROAD SINGAPORE 668177,19544.4604445435,39930.1062337104
15 PHOENIX ROAD SINGAPORE 668178,15,NIL,1.37732956579003,103.757355662238,103.757355662238,668178,PHOENIX ROAD,15 PHOENIX ROAD SINGAPORE 668178,19546.2711358648,39923.7558896542
17 PHOENIX ROAD SINGAPORE 668179,17,NIL,1.37723860499914,103.757381162674,103.757381162674,668179,PHOENIX ROAD,17 PHOENIX ROAD SINGAPORE 668179,19549.108698803,39913.6978083979
19 PHOENIX ROAD SINGAPORE 668180,19,NIL,1.37718117916415,103.757397450637,103.757397450637,668180,PHOENIX ROAD,19 PHOENIX ROAD SINGAPORE 668180,19550.9211456673,39907.3478880934
26 PHOENIX ROAD HILLSTA SINGAPORE 668181,26,HILLSTA,1.37636681424593,103.757223707803,103.757223707803,668181,PHOENIX ROAD,HILLSTA,19531.5828400664,39817.3000917099
28 PHOENIX ROAD HILLSTA SINGAPORE 668182,28,HILLSTA,1.37634936460372,103.757163700131,103.757163700131,668182,PHOENIX ROAD,HILLSTA,19524.904663479,39815.3708104286
30 PHOENIX ROAD HILLSTA SINGAPORE 668183,30,HILLSTA,1.37632983286659,103.757092588142,103.757092588142,668183,PHOENIX ROAD,HILLSTA,19516.9907056522,39813.2113411296
32 PHOENIX ROAD HILLSTA SINGAPORE 668184,32,HILLSTA,1.37631212977877,103.757033636034,103.757033636034,668184,PHOENIX ROAD,HILLSTA,19510.4299991103,39811.2540316954
34 PHOENIX ROAD HILLSTA SINGAPORE 668185,34,HILLSTA,1.37629169171764,103.756962782185,103.756962782185,668185,PHOENIX ROAD,HILLSTA,19502.5447656,39808.9943451025
36 PHOENIX ROAD HILLSTA SINGAPORE 668186,36,HILLSTA,1.37627509969566,103.75690347239,103.75690347239,668186,PHOENIX ROAD,HILLSTA,19495.9442566587,39807.159893414
38 PHOENIX ROAD HILLSTA SINGAPORE 668187,38,HILLSTA,1.37625273474082,103.756779074794,103.756779074794,668187,PHOENIX ROAD,HILLSTA,19482.1002559979,39804.6873320919
40 PHOENIX ROAD HILLSTA SINGAPORE 668188,40,HILLSTA,1.37622347893874,103.756725587129,103.756725587129,668188,PHOENIX ROAD,HILLSTA,19476.147633248,39801.4525624048
42 PHOENIX ROAD HILLSTA SINGAPORE 668189,42,HILLSTA,1.37618763070578,103.75665967456,103.75665967456,668189,PHOENIX ROAD,HILLSTA,19468.8122479301,39797.488879133
44 PHOENIX ROAD HILLSTA SINGAPORE 668190,44,HILLSTA,1.37615831549565,103.756606016368,103.756606016368,668190,PHOENIX ROAD,HILLSTA,19462.8406471545,39794.2475412916
46 PHOENIX ROAD HILLSTA SINGAPORE 668191,46,HILLSTA,1.37612211223205,103.756540216686,103.756540216686,668191,PHOENIX ROAD,HILLSTA,19455.5178230498,39790.244600445
48 PHOENIX ROAD HILLSTA SINGAPORE 668192,48,HILLSTA,1.3760929358133,103.756486913698,103.756486913698,668192,PHOENIX ROAD,HILLSTA,19449.5857522609,39787.0186084732
50 PHOENIX ROAD HILLSTA SINGAPORE 668193,50,HILLSTA,1.3760560288067,103.756421932156,103.756421932156,668193,PHOENIX ROAD,HILLSTA,19442.3539742511,39782.9378486406
52 PHOENIX ROAD HILLSTA SINGAPORE 668194,52,HILLSTA,1.37602749922538,103.756368933496,103.756368933496,668194,PHOENIX ROAD,HILLSTA,19436.4557733368,39779.7833799124
54 PHOENIX ROAD HILLSTA SINGAPORE 668195,54,HILLSTA,1.37599275780059,103.756289766249,103.756289766249,668195,PHOENIX ROAD,HILLSTA,19427.6453080997,39775.9421306346
56 PHOENIX ROAD HILLSTA SINGAPORE 668196,56,HILLSTA,1.37597381056203,103.756230292267,103.756230292267,668196,PHOENIX ROAD,HILLSTA,19421.0265172962,39773.8472532146
58 PHOENIX ROAD HILLSTA SINGAPORE 668197,58,HILLSTA,1.37594968607915,103.75615814502,103.75615814502,668197,PHOENIX ROAD,HILLSTA,19412.9973292556,39771.1799476855
60 PHOENIX ROAD HILLSTA SINGAPORE 668198,60,HILLSTA,1.37593119707581,103.756098981082,103.756098981082,668198,PHOENIX ROAD,HILLSTA,19406.4130439544,39769.1357388683
62 PHOENIX ROAD HILLSTA SINGAPORE 668199,62,HILLSTA,1.37590827187192,103.756028688971,103.756028688971,668199,PHOENIX ROAD,HILLSTA,19398.5903138304,39766.6010373756
64 PHOENIX ROAD HILLSTA SINGAPORE 668200,64,HILLSTA,1.37588961918398,103.755969848696,103.755969848696,668200,PHOENIX ROAD,HILLSTA,19392.0420474289,39764.5387283061
66 PHOENIX ROAD HILLSTA SINGAPORE 668201,66,HILLSTA,1.37647653498516,103.756181306462,103.756181306462,668201,PHOENIX ROAD,HILLSTA,19415.5767970961,39829.436191123
68 PHOENIX ROAD HILLSTA SINGAPORE 668202,68,HILLSTA,1.37696502576865,103.756365133255,103.756365133255,668202,PHOENIX ROAD,HILLSTA,19436.0361985462,39883.450406909
1 PHOENIX RISE HUA MEI GARDENS SINGAPORE 668203,1,HUA MEI GARDENS,1.3752429533041,103.758589128676,103.758589128676,668203,PHOENIX RISE,HUA MEI GARDENS,19683.5334757604,39693.0243513007
2 PHOENIX RISE HUA MEI GARDENS SINGAPORE 668204,2,HUA MEI GARDENS,1.37503836619084,103.758115195556,103.758115195556,668204,PHOENIX RISE,HUA MEI GARDENS,19630.789819126,39670.4037855454
3 PHOENIX RISE HUA MEI GARDENS SINGAPORE 668205,3,HUA MEI GARDENS,1.37518129237653,103.758582833181,103.758582833181,668205,PHOENIX RISE,HUA MEI GARDENS,19682.8326508654,39686.2062155567
4 PHOENIX RISE HUA MEI GARDENS SINGAPORE 668206,4,HUA MEI GARDENS,1.3747898601498,103.758163791376,103.758163791376,668206,PHOENIX RISE,HUA MEI GARDENS,19636.1970733451,39642.9250570647
5 PHOENIX RISE HUA MEI GARDENS SINGAPORE 668207,5,HUA MEI GARDENS,1.37512431817723,103.758572695013,103.758572695013,668207,PHOENIX RISE,HUA MEI GARDENS,19681.7041998962,39679.9063282292
6 PHOENIX RISE HUA MEI GARDENS SINGAPORE 668208,6,HUA MEI GARDENS,1.37476365927901,103.758085787672,103.758085787672,668208,PHOENIX RISE,HUA MEI GARDENS,19627.516124811,39640.0281688794
7 PHOENIX RISE HUA MEI GARDENS SINGAPORE 668209,7,HUA MEI GARDENS,1.37506733302853,103.758562554943,103.758562554943,668209,PHOENIX RISE,HUA MEI GARDENS,19680.575537052,39673.6052301843
8 PHOENIX RISE HUA MEI GARDENS SINGAPORE 668210,8,HUA MEI GARDENS,1.37495233727648,103.757866373748,103.757866373748,668210,PHOENIX RISE,HUA MEI GARDENS,19603.098700203,39660.8920111265
9 PHOENIX RISE HUA MEI GARDENS SINGAPORE 668211,9,HUA MEI GARDENS,1.37501036047159,103.758552418409,103.758552418409,668211,PHOENIX RISE,HUA MEI GARDENS,19679.4472676907,39667.3055244647
10 PHOENIX RISE HUA MEI GARDENS SINGAPORE 668212,10,HUA MEI GARDENS,1.37468353357809,103.757911236222,103.757911236222,668212,PHOENIX RISE,HUA MEI GARDENS,19608.0904052733,39631.1688813847
11 PHOENIX RISE HUA MEI GARDENS SINGAPORE 668213,11,HUA MEI GARDENS,1.37495267801488,103.758547440259,103.758547440259,668213,PHOENIX RISE,HUA MEI GARDENS,19678.8930609087,39660.9273035955
12 PHOENIX RISE HUA MEI GARDENS SINGAPORE 668214,12,HUA MEI GARDENS,1.37465789397159,103.757837020093,103.757837020093,668214,PHOENIX RISE,HUA MEI GARDENS,19599.8309686808,39628.3340425659
13 PHOENIX RISE HUA MEI GARDENS SINGAPORE 668215,13,HUA MEI GARDENS,1.37489640550305,103.758532140718,103.758532140718,668215,PHOENIX RISE,HUA MEI GARDENS,19677.1902144132,39654.70502338
14 PHOENIX RISE HUA MEI GARDENS SINGAPORE 668216,14,HUA MEI GARDENS,1.37483850213905,103.757680926225,103.757680926225,668216,PHOENIX RISE,HUA MEI GARDENS,19582.4602636294,39648.3053425103
15 PHOENIX RISE HUA MEI GARDENS SINGAPORE 668217,15,HUA MEI GARDENS,1.3748394291136,103.758521999833,103.758521999833,668217,PHOENIX RISE,HUA MEI GARDENS,19676.0614607641,39648.4048939087
16 PHOENIX RISE HUA MEI GARDENS SINGAPORE 668218,16,HUA MEI GARDENS,1.37458173949507,103.75766025843,103.75766025843,668218,PHOENIX RISE,HUA MEI GARDENS,19580.1592915067,39619.9138829783
17 PHOENIX RISE HUA MEI GARDENS SINGAPORE 668219,17,HUA MEI GARDENS,1.37477932697295,103.758529264099,103.758529264099,668219,PHOENIX RISE,HUA MEI GARDENS,19676.8696764652,39641.7590737958
18 PHOENIX RISE SINGAPORE 668220,18,NIL,1.37455610028123,103.757590004775,103.757590004775,668220,PHOENIX RISE,18 PHOENIX RISE SINGAPORE 668220,19572.3408291684,39617.0790744275
19 PHOENIX RISE HUA MEI GARDENS SINGAPORE 668221,19,HUA MEI GARDENS,1.37472155137193,103.758513221557,103.758513221557,668221,PHOENIX RISE,HUA MEI GARDENS,19675.0841378383,39635.3705920801
20 PHOENIX RISE HUA MEI GARDENS SINGAPORE 668222,20,HUA MEI GARDENS,1.37445168245343,103.757262580753,103.757262580753,668222,PHOENIX RISE,HUA MEI GARDENS,19535.9021721473,39605.5342298113
21 PHOENIX RISE HUA MEI GARDENS SINGAPORE 668223,21,HUA MEI GARDENS,1.37458308375747,103.758479004599,103.758479004599,668223,PHOENIX RISE,HUA MEI GARDENS,19671.2757293228,39620.0596535895
22 PHOENIX RISE HUA MEI GARDENS SINGAPORE 668224,22,HUA MEI GARDENS,1.37426060581663,103.757251812608,103.757251812608,668224,PHOENIX RISE,HUA MEI GARDENS,19534.7031362401,39584.405966457
23 PHOENIX RISE HUA MEI GARDENS SINGAPORE 668225,23,HUA MEI GARDENS,1.37444550574128,103.75830509382,103.75830509382,668225,PHOENIX RISE,HUA MEI GARDENS,19651.9211092787,39604.8475703318
24 PHOENIX RISE HUA MEI GARDENS SINGAPORE 668226,24,HUA MEI GARDENS,1.37420800643347,103.757319386462,103.757319386462,668226,PHOENIX RISE,HUA MEI GARDENS,19542.2230957225,39578.5895496327
25 PHOENIX RISE HUA MEI GARDENS SINGAPORE 668227,25,HUA MEI GARDENS,1.37441630731925,103.758229910645,103.758229910645,668227,PHOENIX RISE,HUA MEI GARDENS,19643.5540397353,39601.6192174573
27 PHOENIX RISE HUA MEI GARDENS SINGAPORE 668228,27,HUA MEI GARDENS,1.37435990522829,103.758099040268,103.758099040268,668228,PHOENIX RISE,HUA MEI GARDENS,19628.9895702582,39595.3830139674
29 PHOENIX RISE HUA MEI GARDENS SINGAPORE 668229,29,HUA MEI GARDENS,1.37429496004861,103.758040709519,103.758040709519,668229,PHOENIX RISE,HUA MEI GARDENS,19622.4978444511,39588.2019045632
31 PHOENIX RISE HUA MEI GARDENS SINGAPORE 668230,31,HUA MEI GARDENS,1.37427707565185,103.757900301259,103.757900301259,668230,PHOENIX RISE,HUA MEI GARDENS,19606.8720583925,39586.2248301338
33 PHOENIX RISE HUA MEI GARDENS SINGAPORE 668231,33,HUA MEI GARDENS,1.37420741233711,103.757839590846,103.757839590846,668231,PHOENIX RISE,HUA MEI GARDENS,19600.1154877273,39578.5220217612
35 PHOENIX RISE HUA MEI GARDENS SINGAPORE 668232,35,HUA MEI GARDENS,1.37416104297796,103.75771434906,103.75771434906,668232,PHOENIX RISE,HUA MEI GARDENS,19586.1774444412,39573.3951701447
37 PHOENIX RISE HUA MEI GARDENS SINGAPORE 668233,37,HUA MEI GARDENS,1.37416600409694,103.75763672354,103.75763672354,668233,PHOENIX RISE,HUA MEI GARDENS,19577.5386894764,39573.9440194927
39 PHOENIX RISE HUA MEI GARDENS SINGAPORE 668234,39,HUA MEI GARDENS,1.37406282569929,103.757402137511,103.757402137511,668234,PHOENIX RISE,HUA MEI GARDENS,19551.4317665529,39562.5358953569
1 PHOENIX GARDEN PHOENIX HEIGHTS SINGAPORE 668269,1,PHOENIX HEIGHTS,1.37645034269114,103.757566801486,103.757566801486,668269,PHOENIX GARDEN,PHOENIX HEIGHTS,19569.7652356308,39826.5350351501
2 PHOENIX GARDEN PHOENIX HEIGHTS SINGAPORE 668270,2,PHOENIX HEIGHTS,1.37614564457646,103.757692726236,103.757692726236,668270,PHOENIX GARDEN,PHOENIX HEIGHTS,19583.7780408366,39792.8425922915
3 PHOENIX GARDEN PHOENIX HEIGHTS SINGAPORE 668271,3,PHOENIX HEIGHTS,1.37649897611913,103.757649591371,103.757649591371,668271,PHOENIX GARDEN,PHOENIX HEIGHTS,19578.9789006775,39831.9123846013
4 PHOENIX GARDEN SINGAPORE 668272,4,NIL,1.3761771237476,103.757853510887,103.757853510887,668272,PHOENIX GARDEN,4 PHOENIX GARDEN SINGAPORE 668272,19601.671504234,39796.3228353281
5 PHOENIX GARDEN PHOENIX HEIGHTS SINGAPORE 668273,5,PHOENIX HEIGHTS,1.37656923986788,103.757783095537,103.757783095537,668273,PHOENIX GARDEN,PHOENIX HEIGHTS,19593.8365155775,39839.6813285183
6 PHOENIX GARDEN PHOENIX HEIGHTS SINGAPORE 668274,6,PHOENIX HEIGHTS,1.37634698118503,103.758027966609,103.758027966609,668274,PHOENIX GARDEN,PHOENIX HEIGHTS,19621.0868721223,39815.1042100284
7 PHOENIX GARDEN PHOENIX HEIGHTS SINGAPORE 668275,7,PHOENIX HEIGHTS,1.37662969396869,103.75787717847,103.75787717847,668275,PHOENIX GARDEN,PHOENIX HEIGHTS,19604.3069981122,39846.3657100424
8 PHOENIX GARDEN PHOENIX HEIGHTS SINGAPORE 668276,8,PHOENIX HEIGHTS,1.37645460840416,103.758224705964,103.758224705964,668276,PHOENIX GARDEN,PHOENIX HEIGHTS,19642.981914307,39827.0044007748
9 PHOENIX GARDEN PHOENIX HEIGHTS SINGAPORE 668277,9,PHOENIX HEIGHTS,1.3767057732577,103.758005333444,103.758005333444,668277,PHOENIX GARDEN,PHOENIX HEIGHTS,19618.5693325764,39854.7777275424
10 PHOENIX GARDEN PHOENIX HEIGHTS SINGAPORE 668278,10,PHOENIX HEIGHTS,1.37657410885303,103.758398456974,103.758398456974,668278,PHOENIX GARDEN,PHOENIX HEIGHTS,19662.3186762407,39840.217556119
11 PHOENIX GARDEN PHOENIX HEIGHTS SINGAPORE 668279,11,PHOENIX HEIGHTS,1.37676192884173,103.758096716309,103.758096716309,668279,PHOENIX GARDEN,PHOENIX HEIGHTS,19628.7393145692,39860.986810917
12 PHOENIX GARDEN PHOENIX HEIGHTS SINGAPORE 668280,12,PHOENIX HEIGHTS,1.37683582861473,103.758856416093,103.758856416093,668280,PHOENIX GARDEN,PHOENIX HEIGHTS,19713.284784996,39869.1556251664
14 PHOENIX GARDEN PHOENIX HEIGHTS SINGAPORE 668281,14,PHOENIX HEIGHTS,1.37673901793474,103.75891899999,103.75891899999,668281,PHOENIX GARDEN,PHOENIX HEIGHTS,19720.249266441,39858.4505657572
15 PHOENIX GARDEN PHOENIX HEIGHTS SINGAPORE 668282,15,PHOENIX HEIGHTS,1.37683510483293,103.758222384406,103.758222384406,668282,PHOENIX GARDEN,PHOENIX HEIGHTS,19642.7248785896,39869.0778061803
16 PHOENIX GARDEN PHOENIX HEIGHTS SINGAPORE 668283,16,PHOENIX HEIGHTS,1.37656320550003,103.759023169027,103.759023169027,668283,PHOENIX GARDEN,PHOENIX HEIGHTS,19731.8413896495,39839.0097424965
17 PHOENIX GARDEN PHOENIX HEIGHTS SINGAPORE 668284,17,PHOENIX HEIGHTS,1.37688403056526,103.758304527813,103.758304527813,668284,PHOENIX GARDEN,PHOENIX HEIGHTS,19651.8665966401,39874.4874818381
18 PHOENIX GARDEN PHOENIX HEIGHTS SINGAPORE 668285,18,PHOENIX HEIGHTS,1.37648281743591,103.759095595074,103.759095595074,668285,PHOENIX GARDEN,PHOENIX HEIGHTS,19739.9012391577,39830.1205805019
19 PHOENIX GARDEN PHOENIX HEIGHTS SINGAPORE 668286,19,PHOENIX HEIGHTS,1.37696011707977,103.758436802219,103.758436802219,668286,PHOENIX GARDEN,PHOENIX HEIGHTS,19666.5873699849,39882.9002863057
20 PHOENIX GARDEN PHOENIX HEIGHTS SINGAPORE 668287,20,PHOENIX HEIGHTS,1.3763336070709,103.759197362501,103.759197362501,668287,PHOENIX GARDEN,PHOENIX HEIGHTS,19751.2261868734,39813.6212907024
21 PHOENIX GARDEN PHOENIX HEIGHTS SINGAPORE 668288,21,PHOENIX HEIGHTS,1.37700718515276,103.75852435129,103.75852435129,668288,PHOENIX GARDEN,PHOENIX HEIGHTS,19676.330664211,39888.1045331582
22 PHOENIX GARDEN PHOENIX HEIGHTS SINGAPORE 668289,22,PHOENIX HEIGHTS,1.37625139707807,103.759244841803,103.759244841803,668289,PHOENIX GARDEN,PHOENIX HEIGHTS,19756.5097661112,39804.5307558123
23 PHOENIX GARDEN PHOENIX HEIGHTS SINGAPORE 668290,23,PHOENIX HEIGHTS,1.37707936497768,103.758657686825,103.758657686825,668290,PHOENIX GARDEN,PHOENIX HEIGHTS,19691.1695129611,39896.085352961
24 PHOENIX GARDEN PHOENIX HEIGHTS SINGAPORE 668291,24,PHOENIX HEIGHTS,1.37632584667788,103.759633843822,103.759633843822,668291,PHOENIX GARDEN,PHOENIX HEIGHTS,19799.8011551825,39812.7616799641
25 PHOENIX GARDEN PHOENIX HEIGHTS SINGAPORE 668292,25,PHOENIX HEIGHTS,1.37713750896431,103.758741419413,103.758741419413,668292,PHOENIX GARDEN,PHOENIX HEIGHTS,19700.4881171081,39902.514333237
26 PHOENIX GARDEN SINGAPORE 668293,26,NIL,1.376420734361,103.759675371386,103.759675371386,668293,PHOENIX GARDEN,26 PHOENIX GARDEN SINGAPORE 668293,19804.4229854923,39823.2537435722
27 PHOENIX GARDEN PHOENIX HEIGHTS SINGAPORE 668294,27,PHOENIX HEIGHTS,1.37721493093381,103.758880388587,103.758880388587,668294,PHOENIX GARDEN,PHOENIX HEIGHTS,19715.9539368721,39911.0747849289
28 PHOENIX GARDEN PHOENIX HEIGHTS SINGAPORE 668295,28,PHOENIX HEIGHTS,1.37641488414691,103.759569720527,103.759569720527,668295,PHOENIX GARDEN,PHOENIX HEIGHTS,19792.665326681,39822.607219439
29 PHOENIX GARDEN PHOENIX HEIGHTS SINGAPORE 668296,29,PHOENIX HEIGHTS,1.3772638289967,103.758962502649,103.758962502649,668296,PHOENIX GARDEN,PHOENIX HEIGHTS,19725.0923859803,39916.4814035203
30 PHOENIX GARDEN PHOENIX HEIGHTS SINGAPORE 668297,30,PHOENIX HEIGHTS,1.3764561802697,103.759534639322,103.759534639322,668297,PHOENIX GARDEN,PHOENIX HEIGHTS,19788.761362141,39827.1736593395
31 PHOENIX GARDEN PHOENIX HEIGHTS SINGAPORE 668298,31,PHOENIX HEIGHTS,1.3773321295845,103.75910854169,103.75910854169,668298,PHOENIX GARDEN,PHOENIX HEIGHTS,19741.3449614448,39924.0332351904
32 PHOENIX GARDEN PHOENIX HEIGHTS SINGAPORE 668299,32,PHOENIX HEIGHTS,1.37649585266732,103.759492607182,103.759492607182,668299,PHOENIX GARDEN,PHOENIX HEIGHTS,19784.0838387413,39831.5605798271
33 PHOENIX GARDEN PHOENIX HEIGHTS SINGAPORE 668300,33,PHOENIX HEIGHTS,1.37739292089233,103.75918571189,103.75918571189,668300,PHOENIX GARDEN,PHOENIX HEIGHTS,19749.9332596809,39930.7549674064
34 PHOENIX GARDEN PHOENIX HEIGHTS SINGAPORE 668301,34,PHOENIX HEIGHTS,1.37654530259836,103.759470698243,103.759470698243,668301,PHOENIX GARDEN,PHOENIX HEIGHTS,19781.6458131885,39837.0285818893
36 PHOENIX GARDEN PHOENIX HEIGHTS SINGAPORE 668302,36,PHOENIX HEIGHTS,1.37659211489511,103.759441717913,103.759441717913,668302,PHOENIX GARDEN,PHOENIX HEIGHTS,19778.4208200602,39842.2049519289
38 PHOENIX GARDEN PHOENIX HEIGHTS SINGAPORE 668303,38,PHOENIX HEIGHTS,1.37662867200009,103.759401605226,103.759401605226,668303,PHOENIX GARDEN,PHOENIX HEIGHTS,19773.9568978213,39846.2473924942
40 PHOENIX GARDEN SINGAPORE 668304,40,NIL,1.37663691726849,103.759336863475,103.759336863475,668304,PHOENIX GARDEN,40 PHOENIX GARDEN SINGAPORE 668304,19766.751967513,39847.1593365762
42 PHOENIX GARDEN PHOENIX HEIGHTS SINGAPORE 668305,42,PHOENIX HEIGHTS,1.37671773550403,103.759338689774,103.759338689774,668305,PHOENIX GARDEN,PHOENIX HEIGHTS,19766.9554894352,39856.0958074294
44 PHOENIX GARDEN PHOENIX HEIGHTS SINGAPORE 668306,44,PHOENIX HEIGHTS,1.3768183634994,103.759288139518,103.759288139518,668306,PHOENIX GARDEN,PHOENIX HEIGHTS,19761.3302149298,39867.2229236029
46 PHOENIX GARDEN PHOENIX HEIGHTS SINGAPORE 668307,46,PHOENIX HEIGHTS,1.37685785614697,103.759249219909,103.759249219909,668307,PHOENIX GARDEN,PHOENIX HEIGHTS,19756.9990783352,39871.5899580251
48 PHOENIX GARDEN PHOENIX HEIGHTS SINGAPORE 668308,48,PHOENIX HEIGHTS,1.37690593156764,103.75921548587,103.75921548587,668308,PHOENIX GARDEN,PHOENIX HEIGHTS,19753.2450613873,39876.9060148094
50 PHOENIX GARDEN PHOENIX HEIGHTS SINGAPORE 668309,50,PHOENIX HEIGHTS,1.37694780708974,103.75918638846,103.75918638846,668309,PHOENIX GARDEN,PHOENIX HEIGHTS,19750.0070227571,39881.5365017634
52 PHOENIX GARDEN PHOENIX HEIGHTS SINGAPORE 668310,52,PHOENIX HEIGHTS,1.37699589920631,103.759152631028,103.759152631028,668310,PHOENIX GARDEN,PHOENIX HEIGHTS,19746.2504027616,39886.8544048946
54 PHOENIX GARDEN PHOENIX HEIGHTS SINGAPORE 668311,54,PHOENIX HEIGHTS,1.37703208684181,103.759114916658,103.759114916658,668311,PHOENIX GARDEN,PHOENIX HEIGHTS,19742.0533836037,39890.855983682
56 PHOENIX GARDEN PHOENIX HEIGHTS SINGAPORE 668312,56,PHOENIX HEIGHTS,1.3771548839597,103.759329099617,103.759329099617,668312,PHOENIX GARDEN,PHOENIX HEIGHTS,19765.8897234611,39904.4335352816
58 PHOENIX GARDEN PHOENIX HEIGHTS SINGAPORE 668313,58,PHOENIX HEIGHTS,1.37711498745517,103.759382338431,103.759382338431,668313,PHOENIX GARDEN,PHOENIX HEIGHTS,19771.814408862,39900.0217950474
60 PHOENIX GARDEN PHOENIX HEIGHTS SINGAPORE 668314,60,PHOENIX HEIGHTS,1.37705846097028,103.759403594844,103.759403594844,668314,PHOENIX GARDEN,PHOENIX HEIGHTS,19774.1797912531,39893.7713050693
62 PHOENIX GARDEN PHOENIX HEIGHTS SINGAPORE 668315,62,PHOENIX HEIGHTS,1.37702488102999,103.759445263987,103.759445263987,668315,PHOENIX GARDEN,PHOENIX HEIGHTS,19778.8169371625,39890.0580590945
64 PHOENIX GARDEN SINGAPORE 668316,64,NIL,1.37692938581902,103.759408932615,103.759408932615,668316,PHOENIX GARDEN,64 PHOENIX GARDEN SINGAPORE 668316,19774.7733766818,39879.4988005627
66 PHOENIX GARDEN PHOENIX HEIGHTS SINGAPORE 668317,66,PHOENIX HEIGHTS,1.37693524799377,103.75951163306,103.75951163306,668317,PHOENIX GARDEN,PHOENIX HEIGHTS,19786.2026884053,39880.1466564871
68 PHOENIX GARDEN PHOENIX HEIGHTS SINGAPORE 668318,68,PHOENIX HEIGHTS,1.37684740850663,103.759562195428,103.759562195428,668318,PHOENIX GARDEN,PHOENIX HEIGHTS,19791.8293552389,39870.4336302429
70 PHOENIX GARDEN PHOENIX HEIGHTS SINGAPORE 668320,70,PHOENIX HEIGHTS,1.37678596174878,103.759585778771,103.759585778771,668320,PHOENIX GARDEN,PHOENIX HEIGHTS,19794.4536802312,39863.6390732583
71 PHOENIX GARDEN PHOENIX HEIGHTS SINGAPORE 668321,71,PHOENIX HEIGHTS,1.37622983659239,103.760110109755,103.760110109755,668321,PHOENIX GARDEN,PHOENIX HEIGHTS,19852.8033609334,39802.143731812
72 PHOENIX GARDEN PHOENIX HEIGHTS SINGAPORE 668322,72,PHOENIX HEIGHTS,1.37674193706406,103.759621019444,103.759621019444,668322,PHOENIX GARDEN,PHOENIX HEIGHTS,19798.3753818087,39858.7709220983
73 PHOENIX GARDEN PHOENIX HEIGHTS SINGAPORE 668323,73,PHOENIX HEIGHTS,1.37617624826594,103.760022522527,103.760022522527,668323,PHOENIX GARDEN,PHOENIX HEIGHTS,19843.0557989208,39796.2185015883
74 PHOENIX GARDEN PHOENIX HEIGHTS SINGAPORE 668324,74,PHOENIX HEIGHTS,1.37670838642325,103.759663154479,103.759663154479,668324,PHOENIX GARDEN,PHOENIX HEIGHTS,19803.0643767742,39855.0609147977
75 PHOENIX GARDEN PHOENIX HEIGHTS SINGAPORE 668325,75,PHOENIX HEIGHTS,1.37610202819184,103.759873997541,103.759873997541,668325,PHOENIX GARDEN,PHOENIX HEIGHTS,19826.5265438175,39788.0121247713
76 PHOENIX GARDEN PHOENIX HEIGHTS SINGAPORE 668326,76,PHOENIX HEIGHTS,1.37665710014014,103.759688979708,103.759688979708,668326,PHOENIX GARDEN,PHOENIX HEIGHTS,19805.9382310249,39849.3898448329
77 PHOENIX GARDEN PHOENIX HEIGHTS SINGAPORE 668327,77,PHOENIX HEIGHTS,1.37607458818242,103.759760566292,103.759760566292,668327,PHOENIX GARDEN,PHOENIX HEIGHTS,19813.9029482603,39784.9783344939
78 PHOENIX GARDEN PHOENIX HEIGHTS SINGAPORE 668328,78,PHOENIX HEIGHTS,1.37661839195613,103.759726412914,103.759726412914,668328,PHOENIX GARDEN,PHOENIX HEIGHTS,19810.1039530877,39845.1095584501
79 PHOENIX GARDEN PHOENIX HEIGHTS SINGAPORE 668329,79,PHOENIX HEIGHTS,1.37601872503121,103.759608292606,103.759608292606,668329,PHOENIX GARDEN,PHOENIX HEIGHTS,19796.9565700721,39778.8017892018
80 PHOENIX GARDEN PHOENIX HEIGHTS SINGAPORE 668330,80,PHOENIX HEIGHTS,1.37656999185865,103.759759445513,103.759759445513,668330,PHOENIX GARDEN,PHOENIX HEIGHTS,19813.7799089067,39839.7576038372
81 PHOENIX GARDEN SINGAPORE 668331,81,NIL,1.37594139628127,103.75944637356,103.75944637356,668331,PHOENIX GARDEN,81 PHOENIX GARDEN SINGAPORE 668331,19778.9367075739,39770.2517194282
82 PHOENIX GARDEN PHOENIX HEIGHTS SINGAPORE 668332,82,PHOENIX HEIGHTS,1.37651780111638,103.75977498939,103.75977498939,668332,PHOENIX GARDEN,PHOENIX HEIGHTS,19815.5095728356,39833.9865587223
83 PHOENIX GARDEN SINGAPORE 668333,83,NIL,1.37588199172876,103.759325858513,103.759325858513,668333,PHOENIX GARDEN,83 PHOENIX GARDEN SINGAPORE 668333,19765.5246613091,39763.6834761575
84 PHOENIX GARDEN PHOENIX HEIGHTS SINGAPORE 668334,84,PHOENIX HEIGHTS,1.37647902576485,103.759817976147,103.759817976147,668334,PHOENIX GARDEN,PHOENIX HEIGHTS,19820.293336858,39829.6988264173
85 PHOENIX GARDEN PHOENIX HEIGHTS SINGAPORE 668335,85,PHOENIX HEIGHTS,1.37590925096028,103.759233262766,103.759233262766,668335,PHOENIX GARDEN,PHOENIX HEIGHTS,19755.2199867889,39766.6979857292
86 PHOENIX GARDEN PHOENIX HEIGHTS SINGAPORE 668336,86,PHOENIX HEIGHTS,1.37642749898748,103.759838804839,103.759838804839,668336,PHOENIX GARDEN,PHOENIX HEIGHTS,19822.6111379797,39824.0011811629
87 PHOENIX GARDEN PHOENIX HEIGHTS SINGAPORE 668337,87,PHOENIX HEIGHTS,1.37585202079602,103.759056055691,103.759056055691,668337,PHOENIX GARDEN,PHOENIX HEIGHTS,19735.4988214616,39760.3703729287
88 PHOENIX GARDEN PHOENIX HEIGHTS SINGAPORE 668338,88,PHOENIX HEIGHTS,1.37601811640663,103.758799180237,103.758799180237,668338,PHOENIX GARDEN,PHOENIX HEIGHTS,19706.9123150436,39778.7372881286
89 PHOENIX GARDEN PHOENIX HEIGHTS SINGAPORE 668339,89,PHOENIX HEIGHTS,1.37576801206471,103.758997284592,103.758997284592,668339,PHOENIX GARDEN,PHOENIX HEIGHTS,19728.958031252,39751.0813103337
90 PHOENIX GARDEN SINGAPORE 668340,90,NIL,1.37577453969521,103.75850769614,103.75850769614,668340,PHOENIX GARDEN,90 PHOENIX GARDEN SINGAPORE 668340,19674.4728759071,39751.8048059475
91 PHOENIX GARDEN PHOENIX HEIGHTS SINGAPORE 668341,91,PHOENIX HEIGHTS,1.37563333517304,103.75888672363,103.75888672363,668341,PHOENIX GARDEN,PHOENIX HEIGHTS,19716.6534905117,39736.1897952929
93 PHOENIX GARDEN PHOENIX HEIGHTS SINGAPORE 668342,93,PHOENIX HEIGHTS,1.37554598714712,103.758827092646,103.758827092646,668342,PHOENIX GARDEN,PHOENIX HEIGHTS,19710.0169929378,39726.5314935632
88A PHOENIX GARDEN PHOENIX HEIGHTS SINGAPORE 668343,88A,PHOENIX HEIGHTS,1.3759325817041,103.75872599672,103.75872599672,668343,PHOENIX GARDEN,PHOENIX HEIGHTS,19698.7675941093,39769.2795420587
70 PHOENIX AVENUE HUA MEI GARDENS SINGAPORE 668377,70,HUA MEI GARDENS,1.3747029140062,103.757281626051,103.757281626051,668377,PHOENIX AVENUE,HUA MEI GARDENS,19538.0225654785,39633.3140944634
79 PHOENIX AVENUE PHOENIX RESIDENCES SINGAPORE 668382,79,PHOENIX RESIDENCES,1.37525459469413,103.757531008357,103.757531008357,668382,PHOENIX AVENUE,PHOENIX RESIDENCES,19565.7777011879,39694.3153110743
81 PHOENIX AVENUE PHOENIX RESIDENCES SINGAPORE 668383,81,PHOENIX RESIDENCES,1.37513322287524,103.757303595176,103.757303595176,668383,PHOENIX AVENUE,PHOENIX RESIDENCES,19540.4689752627,39680.8954254016
83 PHOENIX AVENUE PHOENIX RESIDENCES SINGAPORE 668384,83,PHOENIX RESIDENCES,1.37540371918058,103.757211757355,103.757211757355,668384,PHOENIX AVENUE,PHOENIX RESIDENCES,19530.2495051157,39710.8058836963
85 PHOENIX AVENUE PHOENIX RESIDENCES SINGAPORE 668385,85,PHOENIX RESIDENCES,1.37547898050058,103.757439743986,103.757439743986,668385,PHOENIX AVENUE,PHOENIX RESIDENCES,19555.6218846105,39719.1270972434
87 PHOENIX AVENUE PHOENIX HEIGHTS SINGAPORE 668386,87,PHOENIX HEIGHTS,1.37539785701993,103.757960442368,103.757960442368,668386,PHOENIX AVENUE,PHOENIX HEIGHTS,19613.5689405939,39710.1550312415
89 PHOENIX AVENUE PHOENIX HEIGHTS SINGAPORE 668387,89,PHOENIX HEIGHTS,1.37553125564729,103.758184064655,103.758184064655,668387,PHOENIX AVENUE,PHOENIX HEIGHTS,19638.4558216305,39724.9048013147
91 PHOENIX AVENUE PHOENIX HEIGHTS SINGAPORE 668388,91,PHOENIX HEIGHTS,1.37565609741114,103.758408857563,103.758408857563,668388,PHOENIX AVENUE,PHOENIX HEIGHTS,19663.4729458001,39738.7083942182
72 PHOENIX AVENUE HUA MEI GARDENS SINGAPORE 668389,72,HUA MEI GARDENS,1.37476272471609,103.757542686079,103.757542686079,668389,PHOENIX AVENUE,HUA MEI GARDENS,19567.0755620617,39639.9267408643
6 LORONG KEMUNCHUP HILLVIEW GARDEN ESTATE SINGAPORE 668493,6,HILLVIEW GARDEN ESTATE,1.36056496160176,103.761337440771,103.761337440771,668493,LORONG KEMUNCHUP,HILLVIEW GARDEN ESTATE,19989.3382098405,38069.99607208
8 LORONG KEMUNCHUP HILLVIEW GARDEN ESTATE SINGAPORE 668494,8,HILLVIEW GARDEN ESTATE,1.36052445229494,103.761186380296,103.761186380296,668494,LORONG KEMUNCHUP,HILLVIEW GARDEN ESTATE,19972.5267965924,38065.517257994
1 JALAN ZAMRUD HILLVIEW GARDEN ESTATE SINGAPORE 668599,1,HILLVIEW GARDEN ESTATE,1.35965135295775,103.762451368054,103.762451368054,668599,JALAN ZAMRUD,HILLVIEW GARDEN ESTATE,20113.3024321618,37968.9701385386
3 JALAN ZAMRUD HILLVIEW GARDEN ESTATE SINGAPORE 668600,3,HILLVIEW GARDEN ESTATE,1.35970544029361,103.762412780172,103.762412780172,668600,JALAN ZAMRUD,HILLVIEW GARDEN ESTATE,20109.0082225073,37974.9509710502
5 JALAN ZAMRUD HILLVIEW GARDEN ESTATE SINGAPORE 668601,5,HILLVIEW GARDEN ESTATE,1.35975063671089,103.762371437957,103.762371437957,668601,JALAN ZAMRUD,HILLVIEW GARDEN ESTATE,20104.4074587151,37979.9486994483
7 JALAN ZAMRUD HILLVIEW GARDEN ESTATE SINGAPORE 668602,7,HILLVIEW GARDEN ESTATE,1.35979912587386,103.762330652655,103.762330652655,668602,JALAN ZAMRUD,HILLVIEW GARDEN ESTATE,20099.8686837526,37985.3105214238
9 JALAN ZAMRUD HILLVIEW GARDEN ESTATE SINGAPORE 668603,9,HILLVIEW GARDEN ESTATE,1.35980239488412,103.762259909775,103.762259909775,668603,JALAN ZAMRUD,HILLVIEW GARDEN ESTATE,20091.9958298476,37985.6722238306
11 JALAN ZAMRUD HILLVIEW GARDEN ESTATE SINGAPORE 668604,11,HILLVIEW GARDEN ESTATE,1.35983749142779,103.76221077596,103.76221077596,668604,JALAN ZAMRUD,HILLVIEW GARDEN ESTATE,20086.5279185893,37989.553184703
11A JALAN ZAMRUD HILLVIEW GARDEN ESTATE SINGAPORE 668605,11A,HILLVIEW GARDEN ESTATE,1.35987160032121,103.762160908103,103.762160908103,668605,JALAN ZAMRUD,HILLVIEW GARDEN ESTATE,20080.9783140421,37993.3249386903
12 JALAN ZAMRUD HILLVIEW GARDEN ESTATE SINGAPORE 668606,12,HILLVIEW GARDEN ESTATE,1.36009462061257,103.762416394005,103.762416394005,668606,JALAN ZAMRUD,HILLVIEW GARDEN ESTATE,20109.4116644626,38017.9845677037
14 JALAN ZAMRUD HILLVIEW GARDEN ESTATE SINGAPORE 668607,14,HILLVIEW GARDEN ESTATE,1.36018050679334,103.762401240701,103.762401240701,668607,JALAN ZAMRUD,HILLVIEW GARDEN ESTATE,20107.7255561613,38027.4814805426
15 JALAN ZAMRUD HILLVIEW GARDEN ESTATE SINGAPORE 668608,15,HILLVIEW GARDEN ESTATE,1.35991023052857,103.762113497705,103.762113497705,668608,JALAN ZAMRUD,HILLVIEW GARDEN ESTATE,20075.7022109963,37997.5966289639
16 JALAN ZAMRUD HILLVIEW GARDEN ESTATE SINGAPORE 668609,16,HILLVIEW GARDEN ESTATE,1.36021833388059,103.762354065584,103.762354065584,668609,JALAN ZAMRUD,HILLVIEW GARDEN ESTATE,20102.4756349223,38031.6643645521
17 JALAN ZAMRUD HILLVIEW GARDEN ESTATE SINGAPORE 668610,17,HILLVIEW GARDEN ESTATE,1.35996136132563,103.762076716647,103.762076716647,668610,JALAN ZAMRUD,HILLVIEW GARDEN ESTATE,20071.6090715583,38003.250536982
18 JALAN ZAMRUD HILLVIEW GARDEN ESTATE SINGAPORE 668611,18,HILLVIEW GARDEN ESTATE,1.36024647083899,103.762297911128,103.762297911128,668611,JALAN ZAMRUD,HILLVIEW GARDEN ESTATE,20096.2263859315,38034.7757922076
19 JALAN ZAMRUD HILLVIEW GARDEN ESTATE SINGAPORE 668612,19,HILLVIEW GARDEN ESTATE,1.35998868825081,103.762018812857,103.762018812857,668612,JALAN ZAMRUD,HILLVIEW GARDEN ESTATE,20065.1651388975,38006.2724016719
20 JALAN ZAMRUD HILLVIEW GARDEN ESTATE SINGAPORE 668613,20,HILLVIEW GARDEN ESTATE,1.36027269311524,103.762244425374,103.762244425374,668613,JALAN ZAMRUD,HILLVIEW GARDEN ESTATE,20090.2741263974,38037.6754953153
21 JALAN ZAMRUD HILLVIEW GARDEN ESTATE SINGAPORE 668614,21,HILLVIEW GARDEN ESTATE,1.36005881566367,103.761940049829,103.761940049829,668614,JALAN ZAMRUD,HILLVIEW GARDEN ESTATE,20056.3999545639,38014.0269985646
22 JALAN ZAMRUD HILLVIEW GARDEN ESTATE SINGAPORE 668615,22,HILLVIEW GARDEN ESTATE,1.3603192127649,103.762203507664,103.762203507664,668615,JALAN ZAMRUD,HILLVIEW GARDEN ESTATE,20085.7206109269,38042.8195391484
23 JALAN ZAMRUD HILLVIEW GARDEN ESTATE SINGAPORE 668616,23,HILLVIEW GARDEN ESTATE,1.36007524317064,103.761884553903,103.761884553903,668616,JALAN ZAMRUD,HILLVIEW GARDEN ESTATE,20050.2239540946,38015.8436526787
24 JALAN ZAMRUD HILLVIEW GARDEN ESTATE SINGAPORE 668617,24,HILLVIEW GARDEN ESTATE,1.3603613851721,103.762159437857,103.762159437857,668617,JALAN ZAMRUD,HILLVIEW GARDEN ESTATE,20080.8162895255,38047.4828971308
25 JALAN ZAMRUD HILLVIEW GARDEN ESTATE SINGAPORE 668618,25,HILLVIEW GARDEN ESTATE,1.36011069529196,103.761835664574,103.761835664574,668618,JALAN ZAMRUD,HILLVIEW GARDEN ESTATE,20044.7832537536,38019.7639316618
26 JALAN ZAMRUD HILLVIEW GARDEN ESTATE SINGAPORE 668619,26,HILLVIEW GARDEN ESTATE,1.36039344976732,103.762107516344,103.762107516344,668619,JALAN ZAMRUD,HILLVIEW GARDEN ESTATE,20075.0381314335,38051.028609816
27 JALAN ZAMRUD HILLVIEW GARDEN ESTATE SINGAPORE 668620,27,HILLVIEW GARDEN ESTATE,1.36015198075012,103.761789970268,103.761789970268,668620,JALAN ZAMRUD,HILLVIEW GARDEN ESTATE,20039.6981416848,38024.329221379
28 JALAN ZAMRUD HILLVIEW GARDEN ESTATE SINGAPORE 668621,28,HILLVIEW GARDEN ESTATE,1.36041209769158,103.762048474843,103.762048474843,668621,JALAN ZAMRUD,HILLVIEW GARDEN ESTATE,20068.467557529,38053.0907978136
29 JALAN ZAMRUD HILLVIEW GARDEN ESTATE SINGAPORE 668622,29,HILLVIEW GARDEN ESTATE,1.36019637591014,103.761747626635,103.761747626635,668622,JALAN ZAMRUD,HILLVIEW GARDEN ESTATE,20034.9859311758,38029.2383553889
31 JALAN ZAMRUD HILLVIEW GARDEN ESTATE SINGAPORE 668623,31,HILLVIEW GARDEN ESTATE,1.36022178869379,103.761692377668,103.761692377668,668623,JALAN ZAMRUD,HILLVIEW GARDEN ESTATE,20028.8374443036,38032.0485560708
33 JALAN ZAMRUD HILLVIEW GARDEN ESTATE SINGAPORE 668624,33,HILLVIEW GARDEN ESTATE,1.36026767298613,103.761650993254,103.761650993254,668624,JALAN ZAMRUD,HILLVIEW GARDEN ESTATE,20024.231988973,38037.1223479118
35 JALAN ZAMRUD HILLVIEW GARDEN ESTATE SINGAPORE 668625,35,HILLVIEW GARDEN ESTATE,1.36030302902005,103.761602035927,103.761602035927,668625,JALAN ZAMRUD,HILLVIEW GARDEN ESTATE,20018.783721636,38041.0320028327
37 JALAN ZAMRUD HILLVIEW GARDEN ESTATE SINGAPORE 668626,37,HILLVIEW GARDEN ESTATE,1.360320472699,103.761540224366,103.761540224366,668626,JALAN ZAMRUD,HILLVIEW GARDEN ESTATE,20011.9048683168,38042.961041972
39 JALAN ZAMRUD HILLVIEW GARDEN ESTATE SINGAPORE 668627,39,HILLVIEW GARDEN ESTATE,1.36037735344542,103.761501154698,103.761501154698,668627,JALAN ZAMRUD,HILLVIEW GARDEN ESTATE,20007.5570540633,38049.2507592551
2 JALAN REMAJA HILLVIEW GARDEN ESTATE SINGAPORE 668663,2,HILLVIEW GARDEN ESTATE,1.35809039718141,103.760746706379,103.760746706379,668663,JALAN REMAJA,HILLVIEW GARDEN ESTATE,19923.5880979225,37796.3731057923
2A JALAN REMAJA HILLVIEW GARDEN ESTATE SINGAPORE 668664,2A,HILLVIEW GARDEN ESTATE,1.35800861169913,103.760821945706,103.760821945706,668664,JALAN REMAJA,HILLVIEW GARDEN ESTATE,19931.9610999906,37787.329425741
2B JALAN REMAJA HILLVIEW GARDEN ESTATE SINGAPORE 668665,2B,HILLVIEW GARDEN ESTATE,1.35797643887342,103.760869509017,103.760869509017,668665,JALAN REMAJA,HILLVIEW GARDEN ESTATE,19937.2542439112,37783.7717572022
2C JALAN REMAJA HILLVIEW GARDEN ESTATE SINGAPORE 668666,2C,HILLVIEW GARDEN ESTATE,1.35794786685395,103.760912240537,103.760912240537,668666,JALAN REMAJA,HILLVIEW GARDEN ESTATE,19942.0096771009,37780.6122639906
2D JALAN REMAJA HILLVIEW GARDEN ESTATE SINGAPORE 668667,2D,HILLVIEW GARDEN ESTATE,1.35791738576541,103.760962172447,103.760962172447,668667,JALAN REMAJA,HILLVIEW GARDEN ESTATE,19947.5664248914,37777.2416515909
2E JALAN REMAJA HILLVIEW GARDEN ESTATE SINGAPORE 668668,2E,HILLVIEW GARDEN ESTATE,1.35788952956313,103.761005173474,103.761005173474,668668,JALAN REMAJA,HILLVIEW GARDEN ESTATE,19952.3518536529,37774.1613091566
2F JALAN REMAJA HILLVIEW GARDEN ESTATE SINGAPORE 668669,2F,HILLVIEW GARDEN ESTATE,1.35785670089265,103.761053486913,103.761053486913,668669,JALAN REMAJA,HILLVIEW GARDEN ESTATE,19957.7284766724,37770.5311185289
2G JALAN REMAJA HILLVIEW GARDEN ESTATE SINGAPORE 668670,2G,HILLVIEW GARDEN ESTATE,1.35782909381613,103.761097511926,103.761097511926,668670,JALAN REMAJA,HILLVIEW GARDEN ESTATE,19962.6278643934,37767.4783199597
2M JALAN REMAJA CENTURY MANSIONS SINGAPORE 668671,2M,CENTURY MANSIONS,1.35738951423417,103.762088063021,103.762088063021,668671,JALAN REMAJA,CENTURY MANSIONS,20072.8634070717,37718.8685434703
4 JALAN REMAJA HILLVIEW GARDEN ESTATE SINGAPORE 668672,4,HILLVIEW GARDEN ESTATE,1.35811812461348,103.760690988765,103.760690988765,668672,JALAN REMAJA,HILLVIEW GARDEN ESTATE,19917.3874593144,37799.4392525423
6 JALAN REMAJA HILLVIEW GARDEN ESTATE SINGAPORE 668673,6,HILLVIEW GARDEN ESTATE,1.35815192435773,103.760638654098,103.760638654098,668673,JALAN REMAJA,HILLVIEW GARDEN ESTATE,19911.5633241553,37803.1768339761
8 JALAN REMAJA HILLVIEW GARDEN ESTATE SINGAPORE 668674,8,HILLVIEW GARDEN ESTATE,1.35820217001404,103.760597215177,103.760597215177,668674,JALAN REMAJA,HILLVIEW GARDEN ESTATE,19906.951815228,37808.7328856029
10 JALAN REMAJA HILLVIEW GARDEN ESTATE SINGAPORE 668675,10,HILLVIEW GARDEN ESTATE,1.35825416047949,103.760502854798,103.760502854798,668675,JALAN REMAJA,HILLVIEW GARDEN ESTATE,19896.4507620297,37814.4820469655
12 JALAN REMAJA HILLVIEW GARDEN ESTATE SINGAPORE 668676,12,HILLVIEW GARDEN ESTATE,1.35827798784334,103.760449788533,103.760449788533,668676,JALAN REMAJA,HILLVIEW GARDEN ESTATE,19890.5451757265,37817.1169354841
14 JALAN REMAJA HILLVIEW GARDEN ESTATE SINGAPORE 668677,14,HILLVIEW GARDEN ESTATE,1.35832206288604,103.760404106668,103.760404106668,668677,JALAN REMAJA,HILLVIEW GARDEN ESTATE,19885.461455985,37821.9906862229
16 JALAN REMAJA HILLVIEW GARDEN ESTATE SINGAPORE 668678,16,HILLVIEW GARDEN ESTATE,1.35835946645613,103.760356458603,103.760356458603,668678,JALAN REMAJA,HILLVIEW GARDEN ESTATE,19880.1588987214,37826.1267456617
18 JALAN REMAJA HILLVIEW GARDEN ESTATE SINGAPORE 668679,18,HILLVIEW GARDEN ESTATE,1.3584022933223,103.760312298487,103.760312298487,668679,JALAN REMAJA,HILLVIEW GARDEN ESTATE,19875.2445283495,37830.862474395
20 JALAN REMAJA HILLVIEW GARDEN ESTATE SINGAPORE 668680,20,HILLVIEW GARDEN ESTATE,1.35843827977261,103.760246531856,103.760246531856,668680,JALAN REMAJA,HILLVIEW GARDEN ESTATE,19867.9255785467,37834.8418970183
21 JALAN REMAJA HILLVIEW GARDEN ESTATE SINGAPORE 668681,21,HILLVIEW GARDEN ESTATE,1.35810051309484,103.759949023813,103.759949023813,668681,JALAN REMAJA,HILLVIEW GARDEN ESTATE,19834.8152192822,37797.4943529814
22 JALAN REMAJA HILLVIEW GARDEN ESTATE SINGAPORE 668682,22,HILLVIEW GARDEN ESTATE,1.35850193736069,103.760128675234,103.760128675234,668682,JALAN REMAJA,HILLVIEW GARDEN ESTATE,19854.8097045021,37841.8812311869
23 JALAN REMAJA HILLVIEW GARDEN ESTATE SINGAPORE 668683,23,HILLVIEW GARDEN ESTATE,1.35815525949593,103.75990011651,103.75990011651,668683,JALAN REMAJA,HILLVIEW GARDEN ESTATE,19829.3725817902,37803.5481010638
24 JALAN REMAJA HILLVIEW GARDEN ESTATE SINGAPORE 668684,24,HILLVIEW GARDEN ESTATE,1.35855085892563,103.760086031475,103.760086031475,668684,JALAN REMAJA,HILLVIEW GARDEN ESTATE,19850.0641084071,37847.2908765767
25 JALAN REMAJA HILLVIEW GARDEN ESTATE SINGAPORE 668685,25,HILLVIEW GARDEN ESTATE,1.35819505534489,103.75979442291,103.75979442291,668685,JALAN REMAJA,HILLVIEW GARDEN ESTATE,19817.6102314414,37807.9488842878
26 JALAN REMAJA HILLVIEW GARDEN ESTATE SINGAPORE 668686,26,HILLVIEW GARDEN ESTATE,1.35856436843453,103.760022660005,103.760022660005,668686,JALAN REMAJA,HILLVIEW GARDEN ESTATE,19843.0116379326,37848.7849042527
27 JALAN REMAJA HILLVIEW GARDEN ESTATE SINGAPORE 668687,27,HILLVIEW GARDEN ESTATE,1.35822800411505,103.759744731062,103.759744731062,668687,JALAN REMAJA,HILLVIEW GARDEN ESTATE,19812.0802102806,37811.5923625603
28 JALAN REMAJA HILLVIEW GARDEN ESTATE SINGAPORE 668688,28,HILLVIEW GARDEN ESTATE,1.35859794732518,103.759972430706,103.759972430706,668688,JALAN REMAJA,HILLVIEW GARDEN ESTATE,19837.421807236,37852.4980594236
29 JALAN REMAJA HILLVIEW GARDEN ESTATE SINGAPORE 668689,29,HILLVIEW GARDEN ESTATE,1.35829092277379,103.759641446206,103.759641446206,668689,JALAN REMAJA,HILLVIEW GARDEN ESTATE,19800.5860040002,37818.5499429051
30 JALAN REMAJA HILLVIEW GARDEN ESTATE SINGAPORE 668690,30,HILLVIEW GARDEN ESTATE,1.35863152457232,103.759922203036,103.759922203036,668690,JALAN REMAJA,HILLVIEW GARDEN ESTATE,19831.8321581474,37856.2110329866
31 JALAN REMAJA HILLVIEW GARDEN ESTATE SINGAPORE 668691,31,HILLVIEW GARDEN ESTATE,1.35834132829994,103.759592020363,103.759592020363,668691,JALAN REMAJA,HILLVIEW GARDEN ESTATE,19795.0856454633,37824.1237013042
32 JALAN REMAJA HILLVIEW GARDEN ESTATE SINGAPORE 668692,32,HILLVIEW GARDEN ESTATE,1.35866510017609,103.759871980261,103.759871980261,668692,JALAN REMAJA,HILLVIEW GARDEN ESTATE,19826.2430538815,37859.9238249399
33 JALAN REMAJA HILLVIEW GARDEN ESTATE SINGAPORE 668693,33,HILLVIEW GARDEN ESTATE,1.35833342079656,103.759452285032,103.759452285032,668693,JALAN REMAJA,HILLVIEW GARDEN ESTATE,19779.5346818604,37823.2498040777
34 JALAN REMAJA HILLVIEW GARDEN ESTATE SINGAPORE 668694,34,HILLVIEW GARDEN ESTATE,1.35869867304143,103.759821758573,103.759821758573,668694,JALAN REMAJA,HILLVIEW GARDEN ESTATE,19820.6540706884,37863.6363142151
35 JALAN REMAJA HILLVIEW GARDEN ESTATE SINGAPORE 668695,35,HILLVIEW GARDEN ESTATE,1.35843684649487,103.759441084844,103.759441084844,668695,JALAN REMAJA,HILLVIEW GARDEN ESTATE,19778.2885792386,37834.6861379743
36 JALAN REMAJA HILLVIEW GARDEN ESTATE SINGAPORE 668696,36,HILLVIEW GARDEN ESTATE,1.35873129034621,103.759772880754,103.759772880754,668696,JALAN REMAJA,HILLVIEW GARDEN ESTATE,19815.2146416027,37867.2431379594
38 JALAN REMAJA HILLVIEW GARDEN ESTATE SINGAPORE 668698,38,HILLVIEW GARDEN ESTATE,1.35880938774354,103.759687131448,103.759687131448,668698,JALAN REMAJA,HILLVIEW GARDEN ESTATE,19805.6719938396,37875.8790477328
40 JALAN REMAJA HILLVIEW GARDEN ESTATE SINGAPORE 668700,40,HILLVIEW GARDEN ESTATE,1.35882680683152,103.759619426976,103.759619426976,668700,JALAN REMAJA,HILLVIEW GARDEN ESTATE,19798.1373241171,37877.8053930216
42 JALAN REMAJA HILLVIEW GARDEN ESTATE SINGAPORE 668702,42,HILLVIEW GARDEN ESTATE,1.35887238005619,103.759575719598,103.759575719598,668702,JALAN REMAJA,HILLVIEW GARDEN ESTATE,19793.273349938,37882.844800435
44 JALAN REMAJA HILLVIEW GARDEN ESTATE SINGAPORE 668703,44,HILLVIEW GARDEN ESTATE,1.35889372313742,103.759518193224,103.759518193224,668703,JALAN REMAJA,HILLVIEW GARDEN ESTATE,19786.8713989696,37885.2050069999
46 JALAN REMAJA HILLVIEW GARDEN ESTATE SINGAPORE 668704,46,HILLVIEW GARDEN ESTATE,1.35891113510013,103.759459276891,103.759459276891,668704,JALAN REMAJA,HILLVIEW GARDEN ESTATE,19780.3147483366,37887.1305350531
48 JALAN REMAJA HILLVIEW GARDEN ESTATE SINGAPORE 668705,48,HILLVIEW GARDEN ESTATE,1.35893723136781,103.759404865332,103.759404865332,668705,JALAN REMAJA,HILLVIEW GARDEN ESTATE,19774.2594565861,37890.0163148884
50 JALAN REMAJA HILLVIEW GARDEN ESTATE SINGAPORE 668706,50,HILLVIEW GARDEN ESTATE,1.35898075178039,103.759358341409,103.759358341409,668706,JALAN REMAJA,HILLVIEW GARDEN ESTATE,19769.082027168,37894.8287426922
52 JALAN REMAJA HILLVIEW GARDEN ESTATE SINGAPORE 668707,52,HILLVIEW GARDEN ESTATE,1.35900438588174,103.759305912368,103.759305912368,668707,JALAN REMAJA,HILLVIEW GARDEN ESTATE,19763.2473587506,37897.4422620144
54 JALAN REMAJA HILLVIEW GARDEN ESTATE SINGAPORE 668708,54,HILLVIEW GARDEN ESTATE,1.35904269795029,103.759249508739,103.759249508739,668708,JALAN REMAJA,HILLVIEW GARDEN ESTATE,19756.9704145547,37901.678811159
55 JALAN REMAJA HILLVIEW GARDEN ESTATE SINGAPORE 668709,55,HILLVIEW GARDEN ESTATE,1.3588523960863,103.758642282238,103.758642282238,668709,JALAN REMAJA,HILLVIEW GARDEN ESTATE,19689.3924493687,37880.6382644214
56 JALAN REMAJA HILLVIEW GARDEN ESTATE SINGAPORE 668710,56,HILLVIEW GARDEN ESTATE,1.35916189365538,103.759052293259,103.759052293259,668710,JALAN REMAJA,HILLVIEW GARDEN ESTATE,19735.0230087573,37914.8595494926
57 JALAN REMAJA HILLVIEW GARDEN ESTATE SINGAPORE 668711,57,HILLVIEW GARDEN ESTATE,1.35889193721422,103.758586386348,103.758586386348,668711,JALAN REMAJA,HILLVIEW GARDEN ESTATE,19683.1720154993,37885.0107168127
58 JALAN REMAJA HILLVIEW GARDEN ESTATE SINGAPORE 668712,58,HILLVIEW GARDEN ESTATE,1.35918830393556,103.758999529593,103.758999529593,668712,JALAN REMAJA,HILLVIEW GARDEN ESTATE,19729.1511107208,37917.7800467052
59 JALAN REMAJA HILLVIEW GARDEN ESTATE SINGAPORE 668713,59,HILLVIEW GARDEN ESTATE,1.35893366368205,103.758482093867,103.758482093867,668713,JALAN REMAJA,HILLVIEW GARDEN ESTATE,19671.5656058025,37889.6249801274
60 JALAN REMAJA HILLVIEW GARDEN ESTATE SINGAPORE 668714,60,HILLVIEW GARDEN ESTATE,1.35923936444822,103.758887006501,103.758887006501,668714,JALAN REMAJA,HILLVIEW GARDEN ESTATE,19716.628761569,37923.4264482632
61 JALAN REMAJA HILLVIEW GARDEN ESTATE SINGAPORE 668715,61,HILLVIEW GARDEN ESTATE,1.35896614255307,103.758427762878,103.758427762878,668715,JALAN REMAJA,HILLVIEW GARDEN ESTATE,19665.5193036431,37893.2165185381
62 JALAN REMAJA HILLVIEW GARDEN ESTATE SINGAPORE 668716,62,HILLVIEW GARDEN ESTATE,1.35925737289004,103.758820303143,103.758820303143,668716,JALAN REMAJA,HILLVIEW GARDEN ESTATE,19709.2055082945,37925.4179605208
63 JALAN REMAJA HILLVIEW GARDEN ESTATE SINGAPORE 668717,63,HILLVIEW GARDEN ESTATE,1.35901148387997,103.758321975218,103.758321975218,668717,JALAN REMAJA,HILLVIEW GARDEN ESTATE,19653.746510841,37898.2305008452
64 JALAN REMAJA HILLVIEW GARDEN ESTATE SINGAPORE 668718,64,HILLVIEW GARDEN ESTATE,1.35932947535384,103.758729666534,103.758729666534,668718,JALAN REMAJA,HILLVIEW GARDEN ESTATE,19699.1189448647,37933.3910014518
65 JALAN REMAJA HILLVIEW GARDEN ESTATE SINGAPORE 668719,65,HILLVIEW GARDEN ESTATE,1.35904937064417,103.758268773038,103.758268773038,668719,JALAN REMAJA,HILLVIEW GARDEN ESTATE,19647.8258510819,37902.4200135432
66 JALAN REMAJA HILLVIEW GARDEN ESTATE SINGAPORE 668720,66,HILLVIEW GARDEN ESTATE,1.35933765950302,103.758662188066,103.758662188066,668720,JALAN REMAJA,HILLVIEW GARDEN ESTATE,19691.6093975678,37934.2961957715
68 JALAN REMAJA HILLVIEW GARDEN ESTATE SINGAPORE 668721,68,HILLVIEW GARDEN ESTATE,1.35943227483932,103.758580753939,103.758580753939,668721,JALAN REMAJA,HILLVIEW GARDEN ESTATE,19682.5470421715,37944.7585664876
70 JALAN REMAJA HILLVIEW GARDEN ESTATE SINGAPORE 668722,70,HILLVIEW GARDEN ESTATE,1.35943678481715,103.758517959582,103.758517959582,668722,JALAN REMAJA,HILLVIEW GARDEN ESTATE,19675.5587700903,37945.2574736625
72 JALAN REMAJA HILLVIEW GARDEN ESTATE SINGAPORE 668723,72,HILLVIEW GARDEN ESTATE,1.35949817092462,103.758410252877,103.758410252877,668723,JALAN REMAJA,HILLVIEW GARDEN ESTATE,19663.5724669304,37952.0456138365
74 JALAN REMAJA HILLVIEW GARDEN ESTATE SINGAPORE 668724,74,HILLVIEW GARDEN ESTATE,1.3595286869165,103.758349084142,103.758349084142,668724,JALAN REMAJA,HILLVIEW GARDEN ESTATE,19656.7651973926,37955.4201308042
76 JALAN REMAJA HILLVIEW GARDEN ESTATE SINGAPORE 668725,76,HILLVIEW GARDEN ESTATE,1.35958248025236,103.758251145744,103.758251145744,668725,JALAN REMAJA,HILLVIEW GARDEN ESTATE,19645.8659688681,37961.3686673772
78 JALAN REMAJA HILLVIEW GARDEN ESTATE SINGAPORE 668726,78,HILLVIEW GARDEN ESTATE,1.35958950867624,103.758165800815,103.758165800815,668726,JALAN REMAJA,HILLVIEW GARDEN ESTATE,19636.3680874528,37962.1461308058
9 JALAN REMAJA SINGAPORE 668727,9,NIL,1.35748115260584,103.760981888831,103.760981888831,668727,JALAN REMAJA,9 JALAN REMAJA SINGAPORE 668727,19949.7591889724,37729.0051096082
2K JALAN REMAJA MONT BOTANIK RESIDENCES SINGAPORE 668728,2K,MONT BOTANIK RESIDENCES,1.35756071006283,103.76155942152,103.76155942152,668728,JALAN REMAJA,MONT BOTANIK RESIDENCES,20014.0322232842,37737.8002592456
2L JALAN REMAJA MONT BOTANIK RESIDENCES SINGAPORE 668729,2L,MONT BOTANIK RESIDENCES,1.35773107543266,103.76172181892,103.76172181892,668729,JALAN REMAJA,MONT BOTANIK RESIDENCES,20032.1057509175,37756.6378718596
1 JALAN INTAN HILLVIEW GARDEN ESTATE SINGAPORE 668761,1,HILLVIEW GARDEN ESTATE,1.35911484198399,103.762066168059,103.762066168059,668761,JALAN INTAN,HILLVIEW GARDEN ESTATE,20070.4323734241,37909.6467065327
2 JALAN INTAN HILLVIEW GARDEN ESTATE SINGAPORE 668762,2,HILLVIEW GARDEN ESTATE,1.35943783908984,103.762296075255,103.762296075255,668762,JALAN INTAN,HILLVIEW GARDEN ESTATE,20096.0194437271,37945.3613533843
3 JALAN INTAN HILLVIEW GARDEN ESTATE SINGAPORE 668763,3,HILLVIEW GARDEN ESTATE,1.3591573523377,103.762018321309,103.762018321309,668763,JALAN INTAN,HILLVIEW GARDEN ESTATE,20065.1077205325,37914.3474454749
4 JALAN INTAN HILLVIEW GARDEN ESTATE SINGAPORE 668764,4,HILLVIEW GARDEN ESTATE,1.35946727525562,103.762242368307,103.762242368307,668764,JALAN INTAN,HILLVIEW GARDEN ESTATE,20090.0425763223,37948.6164328884
5 JALAN INTAN HILLVIEW GARDEN ESTATE SINGAPORE 668765,5,HILLVIEW GARDEN ESTATE,1.35921474759508,103.761984544615,103.761984544615,668765,JALAN INTAN,HILLVIEW GARDEN ESTATE,20061.3489515102,37920.6940363012
6 JALAN INTAN HILLVIEW GARDEN ESTATE SINGAPORE 668766,6,HILLVIEW GARDEN ESTATE,1.35950983743217,103.762197360727,103.762197360727,668766,JALAN INTAN,HILLVIEW GARDEN ESTATE,20085.0338909123,37953.3228924815
7 JALAN INTAN HILLVIEW GARDEN ESTATE SINGAPORE 668767,7,HILLVIEW GARDEN ESTATE,1.35921151399853,103.761911163759,103.761911163759,668767,JALAN INTAN,HILLVIEW GARDEN ESTATE,20053.1824981635,37920.3367227539
8 JALAN INTAN HILLVIEW GARDEN ESTATE SINGAPORE 668768,8,HILLVIEW GARDEN ESTATE,1.35953832377408,103.762144691671,103.762144691671,668768,JALAN INTAN,HILLVIEW GARDEN ESTATE,20079.1725261342,37956.4729420822
9 JALAN INTAN HILLVIEW GARDEN ESTATE SINGAPORE 668769,9,HILLVIEW GARDEN ESTATE,1.35927698277521,103.761879079071,103.761879079071,668769,JALAN INTAN,HILLVIEW GARDEN ESTATE,20049.6120565357,37927.5760374907
10 JALAN INTAN HILLVIEW GARDEN ESTATE SINGAPORE 668770,10,HILLVIEW GARDEN ESTATE,1.35957384077796,103.762095859198,103.762095859198,668770,JALAN INTAN,HILLVIEW GARDEN ESTATE,20073.7381518008,37960.4003945775
11 JALAN INTAN HILLVIEW GARDEN ESTATE SINGAPORE 668771,11,HILLVIEW GARDEN ESTATE,1.35930404403811,103.761825739089,103.761825739089,668771,JALAN INTAN,HILLVIEW GARDEN ESTATE,20043.6760206409,37930.5685119685
11A JALAN INTAN HILLVIEW GARDEN ESTATE SINGAPORE 668772,11A,HILLVIEW GARDEN ESTATE,1.35933930645941,103.761776745614,103.761776745614,668772,JALAN INTAN,HILLVIEW GARDEN ESTATE,20038.2237276621,37934.467815239
12 JALAN INTAN HILLVIEW GARDEN ESTATE SINGAPORE 668773,12,HILLVIEW GARDEN ESTATE,1.35959071423077,103.762032196051,103.762032196051,668773,JALAN INTAN,HILLVIEW GARDEN ESTATE,20066.6532340487,37962.266385505
14 JALAN INTAN HILLVIEW GARDEN ESTATE SINGAPORE 668774,14,HILLVIEW GARDEN ESTATE,1.35965912314407,103.762008409044,103.762008409044,668774,JALAN INTAN,HILLVIEW GARDEN ESTATE,20064.0062383367,37969.8307783883
15 JALAN INTAN HILLVIEW GARDEN ESTATE SINGAPORE 668775,15,HILLVIEW GARDEN ESTATE,1.35935990503109,103.761718887999,103.761718887999,668775,JALAN INTAN,HILLVIEW GARDEN ESTATE,20031.7849102905,37936.7456928901
16 JALAN INTAN HILLVIEW GARDEN ESTATE SINGAPORE 668776,16,HILLVIEW GARDEN ESTATE,1.35968040492223,103.761949360955,103.761949360955,668776,JALAN INTAN,HILLVIEW GARDEN ESTATE,20057.4349379996,37972.1842049267
17 JALAN INTAN HILLVIEW GARDEN ESTATE SINGAPORE 668777,17,HILLVIEW GARDEN ESTATE,1.35938115687072,103.761592542832,103.761592542832,668777,JALAN INTAN,HILLVIEW GARDEN ESTATE,20017.7242211336,37939.0960320942
18 JALAN INTAN HILLVIEW GARDEN ESTATE SINGAPORE 668778,18,HILLVIEW GARDEN ESTATE,1.35971713623864,103.761901833391,103.761901833391,668778,JALAN INTAN,HILLVIEW GARDEN ESTATE,20052.1457894528,37976.2459261976
19 JALAN INTAN HILLVIEW GARDEN ESTATE SINGAPORE 668779,19,HILLVIEW GARDEN ESTATE,1.35947319334086,103.761588896973,103.761588896973,668779,JALAN INTAN,HILLVIEW GARDEN ESTATE,20017.3187814923,37949.2729757223
20 JALAN INTAN HILLVIEW GARDEN ESTATE SINGAPORE 668780,20,HILLVIEW GARDEN ESTATE,1.35976070269633,103.761855586911,103.761855586911,668780,JALAN INTAN,HILLVIEW GARDEN ESTATE,20046.9992333772,37981.0634390209
21 JALAN INTAN HILLVIEW GARDEN ESTATE SINGAPORE 668781,21,HILLVIEW GARDEN ESTATE,1.35950971112052,103.76154076236,103.76154076236,668781,JALAN INTAN,HILLVIEW GARDEN ESTATE,20011.962074806,37953.3110879678
22 JALAN INTAN HILLVIEW GARDEN ESTATE SINGAPORE 668782,22,HILLVIEW GARDEN ESTATE,1.35981195129125,103.761766980478,103.761766980478,668782,JALAN INTAN,HILLVIEW GARDEN ESTATE,20037.1385296425,37986.7305438817
23 JALAN INTAN HILLVIEW GARDEN ESTATE SINGAPORE 668783,23,HILLVIEW GARDEN ESTATE,1.35954263831778,103.761491617997,103.761491617997,668783,JALAN INTAN,HILLVIEW GARDEN ESTATE,20006.4929830963,37956.9521750677
24 JALAN INTAN HILLVIEW GARDEN ESTATE SINGAPORE 668784,24,HILLVIEW GARDEN ESTATE,1.35984872833621,103.761720093687,103.761720093687,668784,JALAN INTAN,HILLVIEW GARDEN ESTATE,20031.9206924653,37990.7973199058
25 JALAN INTAN HILLVIEW GARDEN ESTATE SINGAPORE 668785,25,HILLVIEW GARDEN ESTATE,1.35959735222164,103.76145337685,103.76145337685,668785,JALAN INTAN,HILLVIEW GARDEN ESTATE,20002.237365121,37963.0022909939
26 JALAN INTAN HILLVIEW GARDEN ESTATE SINGAPORE 668786,26,HILLVIEW GARDEN ESTATE,1.35988091891583,103.761670733391,103.761670733391,668786,JALAN INTAN,HILLVIEW GARDEN ESTATE,20026.4275679765,37994.3569558617
27 JALAN INTAN HILLVIEW GARDEN ESTATE SINGAPORE 668787,27,HILLVIEW GARDEN ESTATE,1.35961534865707,103.761394671548,103.761394671548,668787,JALAN INTAN,HILLVIEW GARDEN ESTATE,19995.7042024434,37964.9924411904
28 JALAN INTAN HILLVIEW GARDEN ESTATE SINGAPORE 668788,28,HILLVIEW GARDEN ESTATE,1.35991656620786,103.761621964544,103.761621964544,668788,JALAN INTAN,HILLVIEW GARDEN ESTATE,20021.0002763513,37998.2988159172
29 JALAN INTAN HILLVIEW GARDEN ESTATE SINGAPORE 668789,29,HILLVIEW GARDEN ESTATE,1.35966584568972,103.761355826732,103.761355826732,668789,JALAN INTAN,HILLVIEW GARDEN ESTATE,19991.3813895453,37970.5762788262
30 JALAN INTAN HILLVIEW GARDEN ESTATE SINGAPORE 668790,30,HILLVIEW GARDEN ESTATE,1.35995117192518,103.761572495655,103.761572495655,668790,JALAN INTAN,HILLVIEW GARDEN ESTATE,20015.4950749371,38002.1255062949
31 JALAN INTAN HILLVIEW GARDEN ESTATE SINGAPORE 668791,31,HILLVIEW GARDEN ESTATE,1.35969821524803,103.761305301822,103.761305301822,668791,JALAN INTAN,HILLVIEW GARDEN ESTATE,19985.7586575504,37974.1557100452
32 JALAN INTAN HILLVIEW GARDEN ESTATE SINGAPORE 668792,32,HILLVIEW GARDEN ESTATE,1.35998629774389,103.761523377601,103.761523377601,668792,JALAN INTAN,HILLVIEW GARDEN ESTATE,20010.0289192218,38006.0097058415
33 JALAN INTAN HILLVIEW GARDEN ESTATE SINGAPORE 668793,33,HILLVIEW GARDEN ESTATE,1.35976071621403,103.761209727248,103.761209727248,668793,JALAN INTAN,HILLVIEW GARDEN ESTATE,19975.1225183401,37981.0670711789
34 JALAN INTAN HILLVIEW GARDEN ESTATE SINGAPORE 668794,34,HILLVIEW GARDEN ESTATE,1.36001638925449,103.761471254339,103.761471254339,668794,JALAN INTAN,HILLVIEW GARDEN ESTATE,20004.228302286,38009.3372469004
35 JALAN INTAN HILLVIEW GARDEN ESTATE SINGAPORE 668795,35,HILLVIEW GARDEN ESTATE,1.35980087622233,103.761169044706,103.761169044706,668795,JALAN INTAN,HILLVIEW GARDEN ESTATE,19970.5951544074,37985.5078989472
36 JALAN INTAN HILLVIEW GARDEN ESTATE SINGAPORE 668796,36,HILLVIEW GARDEN ESTATE,1.36005713627345,103.761425561949,103.761425561949,668796,JALAN INTAN,HILLVIEW GARDEN ESTATE,19999.143402094,38013.8429994918
37 JALAN INTAN HILLVIEW GARDEN ESTATE SINGAPORE 668797,37,HILLVIEW GARDEN ESTATE,1.35981569419108,103.761105368282,103.761105368282,668797,JALAN INTAN,HILLVIEW GARDEN ESTATE,19963.5087535232,37987.1466075853
38 JALAN INTAN HILLVIEW GARDEN ESTATE SINGAPORE 668798,38,HILLVIEW GARDEN ESTATE,1.3600994025762,103.761382156573,103.761382156573,668798,JALAN INTAN,HILLVIEW GARDEN ESTATE,19994.3130253758,38018.5167393927
39 JALAN INTAN HILLVIEW GARDEN ESTATE SINGAPORE 668799,39,HILLVIEW GARDEN ESTATE,1.35988036213922,103.761077461982,103.761077461982,668799,JALAN INTAN,HILLVIEW GARDEN ESTATE,19960.4033189295,37994.2973582018
40 JALAN INTAN HILLVIEW GARDEN ESTATE SINGAPORE 668800,40,HILLVIEW GARDEN ESTATE,1.36013657295185,103.761334772855,103.761334772855,668800,JALAN INTAN,HILLVIEW GARDEN ESTATE,19989.0398885924,38022.6270105094
41 JALAN INTAN HILLVIEW GARDEN ESTATE SINGAPORE 668801,41,HILLVIEW GARDEN ESTATE,1.35990710634694,103.76102234271,103.76102234271,668801,JALAN INTAN,HILLVIEW GARDEN ESTATE,19954.2692698855,37997.2547823545
42 JALAN INTAN HILLVIEW GARDEN ESTATE SINGAPORE 668802,42,HILLVIEW GARDEN ESTATE,1.36015015637113,103.761243132243,103.761243132243,668802,JALAN INTAN,HILLVIEW GARDEN ESTATE,19978.841394159,38024.1293013468
43 JALAN INTAN HILLVIEW GARDEN ESTATE SINGAPORE 668803,43,HILLVIEW GARDEN ESTATE,1.35994250233395,103.76097341693,103.76097341693,668803,JALAN INTAN,HILLVIEW GARDEN ESTATE,19948.8245136347,38001.168856401
45 JALAN INTAN HILLVIEW GARDEN ESTATE SINGAPORE 668804,45,HILLVIEW GARDEN ESTATE,1.35996656538128,103.760910997579,103.760910997579,668804,JALAN INTAN,HILLVIEW GARDEN ESTATE,19941.8780416399,38003.8298359215
47 JALAN INTAN HILLVIEW GARDEN ESTATE SINGAPORE 668805,47,HILLVIEW GARDEN ESTATE,1.36018944461119,103.76043525847,103.76043525847,668805,JALAN INTAN,HILLVIEW GARDEN ESTATE,19888.9345255084,38028.4762983639
1 JALAN GUMILANG HILLVIEW GARDEN ESTATE SINGAPORE 668840,1,HILLVIEW GARDEN ESTATE,1.3580050849725,103.761296515693,103.761296515693,668840,JALAN GUMILANG,HILLVIEW GARDEN ESTATE,19984.775281027,37786.9378791042
2 JALAN GUMILANG HILLVIEW GARDEN ESTATE SINGAPORE 668841,2,HILLVIEW GARDEN ESTATE,1.35833358445224,103.761490092296,103.761490092296,668841,JALAN GUMILANG,HILLVIEW GARDEN ESTATE,20006.3192146011,37823.2610637676
3 JALAN GUMILANG HILLVIEW GARDEN ESTATE SINGAPORE 668842,3,HILLVIEW GARDEN ESTATE,1.35804644805929,103.761247371926,103.761247371926,668842,JALAN GUMILANG,HILLVIEW GARDEN ESTATE,19979.3062801212,37791.5117649268
4 JALAN GUMILANG HILLVIEW GARDEN ESTATE SINGAPORE 668843,4,HILLVIEW GARDEN ESTATE,1.35838692734057,103.761455518828,103.761455518828,668843,JALAN GUMILANG,HILLVIEW GARDEN ESTATE,20002.4717603875,37829.1595673617
5 JALAN GUMILANG HILLVIEW GARDEN ESTATE SINGAPORE 668844,5,HILLVIEW GARDEN ESTATE,1.35809300703508,103.761203915326,103.761203915326,668844,JALAN GUMILANG,HILLVIEW GARDEN ESTATE,19974.470213023,37796.6601673495
6 JALAN GUMILANG HILLVIEW GARDEN ESTATE SINGAPORE 668845,6,HILLVIEW GARDEN ESTATE,1.35840255920601,103.76139450236,103.76139450236,668845,JALAN GUMILANG,HILLVIEW GARDEN ESTATE,19995.6813803837,37830.8882627171
7 JALAN GUMILANG HILLVIEW GARDEN ESTATE SINGAPORE 668846,7,HILLVIEW GARDEN ESTATE,1.35812579363836,103.761158424196,103.761158424196,668846,JALAN GUMILANG,HILLVIEW GARDEN ESTATE,19969.40768087,37800.2856967077
8 JALAN GUMILANG HILLVIEW GARDEN ESTATE SINGAPORE 668847,8,HILLVIEW GARDEN ESTATE,1.35845873271576,103.761358384517,103.761358384517,668847,JALAN GUMILANG,HILLVIEW GARDEN ESTATE,19991.6620645579,37837.0997675303
9 JALAN GUMILANG HILLVIEW GARDEN ESTATE SINGAPORE 668848,9,HILLVIEW GARDEN ESTATE,1.3581530909311,103.76109887933,103.76109887933,668848,JALAN GUMILANG,HILLVIEW GARDEN ESTATE,19962.7811111948,37803.3042924553
10 JALAN GUMILANG HILLVIEW GARDEN ESTATE SINGAPORE 668849,10,HILLVIEW GARDEN ESTATE,1.35848217989091,103.761305546454,103.761305546454,668849,JALAN GUMILANG,HILLVIEW GARDEN ESTATE,19985.7818730939,37839.6926138196
11 JALAN GUMILANG HILLVIEW GARDEN ESTATE SINGAPORE 668850,11,HILLVIEW GARDEN ESTATE,1.3581798040926,103.761048952967,103.761048952967,668850,JALAN GUMILANG,HILLVIEW GARDEN ESTATE,19957.224968764,37806.2582660578
12 JALAN GUMILANG HILLVIEW GARDEN ESTATE SINGAPORE 668851,12,HILLVIEW GARDEN ESTATE,1.35852646160509,103.761259415831,103.761259415831,668851,JALAN GUMILANG,HILLVIEW GARDEN ESTATE,19980.6482111793,37844.5892168861
14 JALAN GUMILANG HILLVIEW GARDEN ESTATE SINGAPORE 668853,14,HILLVIEW GARDEN ESTATE,1.35856059409138,103.761211895428,103.761211895428,668853,JALAN GUMILANG,HILLVIEW GARDEN ESTATE,19975.3598496001,37848.36357392
15 JALAN GUMILANG HILLVIEW GARDEN ESTATE SINGAPORE 668854,15,HILLVIEW GARDEN ESTATE,1.35824222653452,103.760963913505,103.760963913505,668854,JALAN GUMILANG,HILLVIEW GARDEN ESTATE,19947.7612599032,37813.1609100122
16 JALAN GUMILANG HILLVIEW GARDEN ESTATE SINGAPORE 668855,16,HILLVIEW GARDEN ESTATE,1.35860721331364,103.761169326279,103.761169326279,668855,JALAN GUMILANG,HILLVIEW GARDEN ESTATE,19970.6225469327,37853.5186352991
17 JALAN GUMILANG HILLVIEW GARDEN ESTATE SINGAPORE 668856,17,HILLVIEW GARDEN ESTATE,1.35829763072717,103.760923763336,103.760923763336,668856,JALAN GUMILANG,HILLVIEW GARDEN ESTATE,19943.2931909505,37819.2873617932
18 JALAN GUMILANG HILLVIEW GARDEN ESTATE SINGAPORE 668857,18,HILLVIEW GARDEN ESTATE,1.35862231444965,103.761109834527,103.761109834527,668857,JALAN GUMILANG,HILLVIEW GARDEN ESTATE,19964.0018492462,37855.1886410322
19 JALAN GUMILANG HILLVIEW GARDEN ESTATE SINGAPORE 668858,19,HILLVIEW GARDEN ESTATE,1.35832387637701,103.760865680918,103.760865680918,668858,JALAN GUMILANG,HILLVIEW GARDEN ESTATE,19936.8293722235,37822.1896679476
20 JALAN GUMILANG HILLVIEW GARDEN ESTATE SINGAPORE 668859,20,HILLVIEW GARDEN ESTATE,1.35869957292227,103.761033688822,103.761033688822,668859,JALAN GUMILANG,HILLVIEW GARDEN ESTATE,19955.5279639885,37863.7317491677
21 JALAN GUMILANG HILLVIEW GARDEN ESTATE SINGAPORE 668860,21,HILLVIEW GARDEN ESTATE,1.35836851467587,103.760825956169,103.760825956169,668860,JALAN GUMILANG,HILLVIEW GARDEN ESTATE,19932.4086121302,37827.1256799288
22 JALAN GUMILANG HILLVIEW GARDEN ESTATE SINGAPORE 668861,22,HILLVIEW GARDEN ESTATE,1.35872255605176,103.760978820724,103.760978820724,668861,JALAN GUMILANG,HILLVIEW GARDEN ESTATE,19949.4218522934,37866.2732912246
23 JALAN GUMILANG HILLVIEW GARDEN ESTATE SINGAPORE 668862,23,HILLVIEW GARDEN ESTATE,1.35839512850135,103.760768130756,103.760768130756,668862,JALAN GUMILANG,HILLVIEW GARDEN ESTATE,19925.9733966477,37830.0686965212
24 JALAN GUMILANG HILLVIEW GARDEN ESTATE SINGAPORE 668863,24,HILLVIEW GARDEN ESTATE,1.35877186726423,103.760939832346,103.760939832346,668863,JALAN GUMILANG,HILLVIEW GARDEN ESTATE,19945.0830579,37871.7260079551
25 JALAN GUMILANG HILLVIEW GARDEN ESTATE SINGAPORE 668864,25,HILLVIEW GARDEN ESTATE,1.35844334265673,103.760713239608,103.760713239608,668864,JALAN GUMILANG,HILLVIEW GARDEN ESTATE,19919.864802978,37835.4001597092
26 JALAN GUMILANG HILLVIEW GARDEN ESTATE SINGAPORE 668865,26,HILLVIEW GARDEN ESTATE,1.35879362674123,103.760882800972,103.760882800972,668865,JALAN GUMILANG,HILLVIEW GARDEN ESTATE,19938.7361946618,37874.1322521251
27 JALAN GUMILANG HILLVIEW GARDEN ESTATE SINGAPORE 668866,27,HILLVIEW GARDEN ESTATE,1.35848744269823,103.760625121344,103.760625121344,668866,JALAN GUMILANG,HILLVIEW GARDEN ESTATE,19910.0584000051,37840.2768161744
28 JALAN GUMILANG HILLVIEW GARDEN ESTATE SINGAPORE 668867,28,HILLVIEW GARDEN ESTATE,1.35882864182081,103.760829110447,103.760829110447,668867,JALAN GUMILANG,HILLVIEW GARDEN ESTATE,19932.7611736041,37878.0042234063
29 JALAN GUMILANG HILLVIEW GARDEN ESTATE SINGAPORE 668868,29,HILLVIEW GARDEN ESTATE,1.35852866821689,103.760580414331,103.760580414331,668868,JALAN GUMILANG,HILLVIEW GARDEN ESTATE,19905.083160718,37844.8354772013
30 JALAN GUMILANG HILLVIEW GARDEN ESTATE SINGAPORE 668869,30,HILLVIEW GARDEN ESTATE,1.35887933067843,103.760788517899,103.760788517899,668869,JALAN GUMILANG,HILLVIEW GARDEN ESTATE,19928.2438586419,37883.6092788987
31 JALAN GUMILANG HILLVIEW GARDEN ESTATE SINGAPORE 668870,31,HILLVIEW GARDEN ESTATE,1.35857626738026,103.760537517137,103.760537517137,668870,JALAN GUMILANG,HILLVIEW GARDEN ESTATE,19900.3093548613,37850.0988979619
32 JALAN GUMILANG HILLVIEW GARDEN ESTATE SINGAPORE 668871,32,HILLVIEW GARDEN ESTATE,1.35892943515094,103.760703829351,103.760703829351,668871,JALAN GUMILANG,HILLVIEW GARDEN ESTATE,19918.8191652121,37889.1498635858
33 JALAN GUMILANG HILLVIEW GARDEN ESTATE SINGAPORE 668872,33,HILLVIEW GARDEN ESTATE,1.3585963688425,103.760480264424,103.760480264424,668872,JALAN GUMILANG,HILLVIEW GARDEN ESTATE,19893.9378534853,37852.3218089547
34 JALAN GUMILANG HILLVIEW GARDEN ESTATE SINGAPORE 668873,34,HILLVIEW GARDEN ESTATE,1.3589693275831,103.760658807965,103.760658807965,668873,JALAN GUMILANG,HILLVIEW GARDEN ESTATE,19913.8089361358,37893.5611195341
35 JALAN GUMILANG HILLVIEW GARDEN ESTATE SINGAPORE 668874,35,HILLVIEW GARDEN ESTATE,1.35862752871384,103.760428262451,103.760428262451,668874,JALAN GUMILANG,HILLVIEW GARDEN ESTATE,19888.1507360702,37855.767485952
36 JALAN GUMILANG HILLVIEW GARDEN ESTATE SINGAPORE 668875,36,HILLVIEW GARDEN ESTATE,1.35900611106971,103.760608405318,103.760608405318,668875,JALAN GUMILANG,HILLVIEW GARDEN ESTATE,19908.1998247327,37897.6286219899
37 JALAN GUMILANG HILLVIEW GARDEN ESTATE SINGAPORE 668876,37,HILLVIEW GARDEN ESTATE,1.35867970604028,103.760393970216,103.760393970216,668876,JALAN GUMILANG,HILLVIEW GARDEN ESTATE,19884.3345789509,37861.5371084735
38 JALAN GUMILANG HILLVIEW GARDEN ESTATE SINGAPORE 668877,38,HILLVIEW GARDEN ESTATE,1.35904289885966,103.760564550262,103.760564550262,668877,JALAN GUMILANG,HILLVIEW GARDEN ESTATE,19903.3193847705,37901.6965784654
39 JALAN GUMILANG HILLVIEW GARDEN ESTATE SINGAPORE 668878,39,HILLVIEW GARDEN ESTATE,1.35871479105013,103.760344870397,103.760344870397,668878,JALAN GUMILANG,HILLVIEW GARDEN ESTATE,19878.8704511905,37865.4167980906
40 JALAN GUMILANG HILLVIEW GARDEN ESTATE SINGAPORE 668879,40,HILLVIEW GARDEN ESTATE,1.3590872295799,103.760519199917,103.760519199917,668879,JALAN GUMILANG,HILLVIEW GARDEN ESTATE,19898.272561701,37906.5985994991
41 JALAN GUMILANG HILLVIEW GARDEN ESTATE SINGAPORE 668880,41,HILLVIEW GARDEN ESTATE,1.35881824489392,103.760214940294,103.760214940294,668880,JALAN GUMILANG,HILLVIEW GARDEN ESTATE,19864.4110721536,37876.8566430714
42 JALAN GUMILANG HILLVIEW GARDEN ESTATE SINGAPORE 668881,42,HILLVIEW GARDEN ESTATE,1.35910994396783,103.760457834539,103.760457834539,668881,JALAN GUMILANG,HILLVIEW GARDEN ESTATE,19891.443378143,37909.1104486641
43 JALAN GUMILANG HILLVIEW GARDEN ESTATE SINGAPORE 668882,43,HILLVIEW GARDEN ESTATE,1.3588566945795,103.760164468784,103.760164468784,668882,JALAN GUMILANG,HILLVIEW GARDEN ESTATE,19858.7943029506,37881.1083867438
44 JALAN GUMILANG HILLVIEW GARDEN ESTATE SINGAPORE 668883,44,HILLVIEW GARDEN ESTATE,1.35915886769819,103.7603601705,103.7603601705,668883,JALAN GUMILANG,HILLVIEW GARDEN ESTATE,19880.5746597461,37914.5205178056
45 JALAN GUMILANG HILLVIEW GARDEN ESTATE SINGAPORE 668884,45,HILLVIEW GARDEN ESTATE,1.35888249549949,103.760109839388,103.760109839388,668884,JALAN GUMILANG,HILLVIEW GARDEN ESTATE,19852.7147665452,37883.9615074247
46 JALAN GUMILANG HILLVIEW GARDEN ESTATE SINGAPORE 668885,46,HILLVIEW GARDEN ESTATE,1.35921171791578,103.760318788864,103.760318788864,668885,JALAN GUMILANG,HILLVIEW GARDEN ESTATE,19875.9695373634,37920.3645692989
47 JALAN GUMILANG HILLVIEW GARDEN ESTATE SINGAPORE 668886,47,HILLVIEW GARDEN ESTATE,1.35890615094281,103.76005655444,103.76005655444,668886,JALAN GUMILANG,HILLVIEW GARDEN ESTATE,19846.7848447831,37886.5773876496
48 JALAN GUMILANG HILLVIEW GARDEN ESTATE SINGAPORE 668887,48,HILLVIEW GARDEN ESTATE,1.35924272388138,103.760264699723,103.760264699723,668887,JALAN GUMILANG,HILLVIEW GARDEN ESTATE,19869.9501434416,37923.7932356894
49 JALAN GUMILANG HILLVIEW GARDEN ESTATE SINGAPORE 668888,49,HILLVIEW GARDEN ESTATE,1.35891920571706,103.759991107241,103.759991107241,668888,JALAN GUMILANG,HILLVIEW GARDEN ESTATE,19839.5013690572,37888.0211402066
50 JALAN GUMILANG HILLVIEW GARDEN ESTATE SINGAPORE 668889,50,HILLVIEW GARDEN ESTATE,1.35927183271116,103.760214101745,103.760214101745,668889,JALAN GUMILANG,HILLVIEW GARDEN ESTATE,19864.3192693582,37927.0121146869
51 JALAN GUMILANG HILLVIEW GARDEN ESTATE SINGAPORE 668890,51,HILLVIEW GARDEN ESTATE,1.35895239320857,103.759942177726,103.759942177726,668890,JALAN GUMILANG,HILLVIEW GARDEN ESTATE,19834.0561890546,37891.691012159
52 JALAN GUMILANG HILLVIEW GARDEN ESTATE SINGAPORE 668891,52,HILLVIEW GARDEN ESTATE,1.35929089448767,103.760155527505,103.760155527505,668891,JALAN GUMILANG,HILLVIEW GARDEN ESTATE,19857.8006958496,37929.1200678758
53 JALAN GUMILANG HILLVIEW GARDEN ESTATE SINGAPORE 668892,53,HILLVIEW GARDEN ESTATE,1.35899102026649,103.759891698045,103.759891698045,668892,JALAN GUMILANG,HILLVIEW GARDEN ESTATE,19828.4385118131,37895.9623694848
54 JALAN GUMILANG HILLVIEW GARDEN ESTATE SINGAPORE 668893,54,HILLVIEW GARDEN ESTATE,1.35931887807632,103.760098456216,103.760098456216,668893,JALAN GUMILANG,HILLVIEW GARDEN ESTATE,19851.4494134858,37932.2145454604
55 JALAN GUMILANG HILLVIEW GARDEN ESTATE SINGAPORE 668894,55,HILLVIEW GARDEN ESTATE,1.35902147652982,103.759836382846,103.759836382846,668894,JALAN GUMILANG,HILLVIEW GARDEN ESTATE,19822.2826698199,37899.3302577659
56 JALAN GUMILANG HILLVIEW GARDEN ESTATE SINGAPORE 668895,56,HILLVIEW GARDEN ESTATE,1.35936621959238,103.760008961061,103.760008961061,668895,JALAN GUMILANG,HILLVIEW GARDEN ESTATE,19841.4897939796,37937.4496353883
57 JALAN GUMILANG HILLVIEW GARDEN ESTATE SINGAPORE 668896,57,HILLVIEW GARDEN ESTATE,1.3590553981858,103.75973442391,103.75973442391,668896,JALAN GUMILANG,HILLVIEW GARDEN ESTATE,19810.9359291559,37903.0814900603
58 JALAN GUMILANG HILLVIEW GARDEN ESTATE SINGAPORE 668897,58,HILLVIEW GARDEN ESTATE,1.35940510963421,103.759965013453,103.759965013453,668897,JALAN GUMILANG,HILLVIEW GARDEN ESTATE,19836.5990629029,37941.7500499785
59 JALAN GUMILANG HILLVIEW GARDEN ESTATE SINGAPORE 668898,59,HILLVIEW GARDEN ESTATE,1.3590869654108,103.759684273803,103.759684273803,668898,JALAN GUMILANG,HILLVIEW GARDEN ESTATE,19805.3549064426,37906.5722058173
60 JALAN GUMILANG HILLVIEW GARDEN ESTATE SINGAPORE 668899,60,HILLVIEW GARDEN ESTATE,1.35943319242172,103.759911617664,103.759911617664,668899,JALAN GUMILANG,HILLVIEW GARDEN ESTATE,19830.6568220714,37944.8554845713
61 JALAN GUMILANG HILLVIEW GARDEN ESTATE SINGAPORE 668900,61,HILLVIEW GARDEN ESTATE,1.35911883669472,103.759632269341,103.759632269341,668900,JALAN GUMILANG,HILLVIEW GARDEN ESTATE,19799.5675166156,37910.0965493061
62 JALAN GUMILANG HILLVIEW GARDEN ESTATE SINGAPORE 668901,62,HILLVIEW GARDEN ESTATE,1.35946903750869,103.759860326746,103.759860326746,668901,JALAN GUMILANG,HILLVIEW GARDEN ESTATE,19824.9488554336,37948.8192283791
63 JALAN GUMILANG HILLVIEW GARDEN ESTATE SINGAPORE 668902,63,HILLVIEW GARDEN ESTATE,1.35914247455448,103.759577244815,103.759577244815,668902,JALAN GUMILANG,HILLVIEW GARDEN ESTATE,19793.4440008299,37912.71049238
64 JALAN GUMILANG HILLVIEW GARDEN ESTATE SINGAPORE 668903,64,HILLVIEW GARDEN ESTATE,1.35948392700161,103.759800391105,103.759800391105,668903,JALAN GUMILANG,HILLVIEW GARDEN ESTATE,19818.2787603978,37950.4658369608
65 JALAN GUMILANG HILLVIEW GARDEN ESTATE SINGAPORE 668904,65,HILLVIEW GARDEN ESTATE,1.35917049081537,103.759523812856,103.759523812856,668904,JALAN GUMILANG,HILLVIEW GARDEN ESTATE,19787.4977343567,37915.8085718527
66 JALAN GUMILANG HILLVIEW GARDEN ESTATE SINGAPORE 668905,66,HILLVIEW GARDEN ESTATE,1.35952690066087,103.759705449988,103.759705449988,668905,JALAN GUMILANG,HILLVIEW GARDEN ESTATE,19807.7130547855,37955.2179709412
67 JALAN GUMILANG HILLVIEW GARDEN ESTATE SINGAPORE 668906,67,HILLVIEW GARDEN ESTATE,1.35920599049743,103.759474273758,103.759474273758,668906,JALAN GUMILANG,HILLVIEW GARDEN ESTATE,19781.9847238027,37919.7341174651
68 JALAN GUMILANG HILLVIEW GARDEN ESTATE SINGAPORE 668907,68,HILLVIEW GARDEN ESTATE,1.3595509074479,103.759657207479,103.759657207479,668907,JALAN GUMILANG,HILLVIEW GARDEN ESTATE,19802.3443014417,37957.8726849891
69 JALAN GUMILANG HILLVIEW GARDEN ESTATE SINGAPORE 668908,69,HILLVIEW GARDEN ESTATE,1.3592205508911,103.759412283612,103.759412283612,668908,JALAN GUMILANG,HILLVIEW GARDEN ESTATE,19775.0859844182,37921.3443439323
70 JALAN GUMILANG HILLVIEW GARDEN ESTATE SINGAPORE 668909,70,HILLVIEW GARDEN ESTATE,1.35957453972862,103.759598786214,103.759598786214,668909,JALAN GUMILANG,HILLVIEW GARDEN ESTATE,19795.8427688079,37960.4860227034
71 JALAN GUMILANG HILLVIEW GARDEN ESTATE SINGAPORE 668910,71,HILLVIEW GARDEN ESTATE,1.35926677676306,103.759362070768,103.759362070768,668910,JALAN GUMILANG,HILLVIEW GARDEN ESTATE,19769.4980303356,37926.455940485
72 JALAN GUMILANG HILLVIEW GARDEN ESTATE SINGAPORE 668911,72,HILLVIEW GARDEN ESTATE,1.35961508657455,103.759525169036,103.759525169036,668911,JALAN GUMILANG,HILLVIEW GARDEN ESTATE,19787.6501639225,37964.9697402027
1 JALAN DERMAWAN HILLVIEW GARDEN ESTATE SINGAPORE 668946,1,HILLVIEW GARDEN ESTATE,1.35857222955069,103.761647512169,103.761647512169,668946,JALAN DERMAWAN,HILLVIEW GARDEN ESTATE,20023.8390197409,37849.6487222407
2 JALAN DERMAWAN CHERIE HEARTS KIDZ LODGE PTE. LTD. SINGAPORE 668947,2,CHERIE HEARTS KIDZ LODGE PTE. LTD.,1.35884961898497,103.761904463885,103.761904463885,668947,JALAN DERMAWAN,CHERIE HEARTS KIDZ LODGE PTE. LTD.,20052.4356962014,37880.3202084489
3 JALAN DERMAWAN HILLVIEW GARDEN ESTATE SINGAPORE 668948,3,HILLVIEW GARDEN ESTATE,1.35858002049368,103.761582170668,103.761582170668,668948,JALAN DERMAWAN,HILLVIEW GARDEN ESTATE,20016.5672879927,37850.5104214679
4 JALAN DERMAWAN HILLVIEW GARDEN ESTATE SINGAPORE 668949,4,HILLVIEW GARDEN ESTATE,1.35894861474006,103.761870023161,103.761870023161,668949,JALAN DERMAWAN,HILLVIEW GARDEN ESTATE,20048.6031641029,37891.2667760998
5 JALAN DERMAWAN HILLVIEW GARDEN ESTATE SINGAPORE 668950,5,HILLVIEW GARDEN ESTATE,1.35863543307215,103.761547479098,103.761547479098,668950,JALAN DERMAWAN,HILLVIEW GARDEN ESTATE,20012.7066974733,37856.6377812885
6 JALAN DERMAWAN HILLVIEW GARDEN ESTATE SINGAPORE 668951,6,HILLVIEW GARDEN ESTATE,1.35897607547727,103.761810789962,103.761810789962,668951,JALAN DERMAWAN,HILLVIEW GARDEN ESTATE,20042.0112815369,37894.3034418337
7 JALAN DERMAWAN HILLVIEW GARDEN ESTATE SINGAPORE 668952,7,HILLVIEW GARDEN ESTATE,1.35867696758551,103.761500522832,103.761500522832,668952,JALAN DERMAWAN,HILLVIEW GARDEN ESTATE,20007.4811419602,37861.2306148689
8 JALAN DERMAWAN HILLVIEW GARDEN ESTATE SINGAPORE 668953,8,HILLVIEW GARDEN ESTATE,1.35900945547692,103.761763058254,103.761763058254,668953,JALAN DERMAWAN,HILLVIEW GARDEN ESTATE,20036.6994017344,37897.9945921805
9 JALAN DERMAWAN HILLVIEW GARDEN ESTATE SINGAPORE 668954,9,HILLVIEW GARDEN ESTATE,1.35871132845439,103.761455836975,103.761455836975,668954,JALAN DERMAWAN,HILLVIEW GARDEN ESTATE,20002.5082333079,37865.0302154012
10 JALAN DERMAWAN HILLVIEW GARDEN ESTATE SINGAPORE 668955,10,HILLVIEW GARDEN ESTATE,1.35903864254413,103.761709679594,103.761709679594,668955,JALAN DERMAWAN,HILLVIEW GARDEN ESTATE,20030.7590677859,37901.2221278194
11 JALAN DERMAWAN HILLVIEW GARDEN ESTATE SINGAPORE 668956,11,HILLVIEW GARDEN ESTATE,1.35874761915357,103.761402549765,103.761402549765,668956,JALAN DERMAWAN,HILLVIEW GARDEN ESTATE,19996.5780996699,37869.0432354864
12 JALAN DERMAWAN HILLVIEW GARDEN ESTATE SINGAPORE 668957,12,HILLVIEW GARDEN ESTATE,1.35908850651235,103.761673280164,103.761673280164,668957,JALAN DERMAWAN,HILLVIEW GARDEN ESTATE,20026.7083943291,37906.7359556109
14 JALAN DERMAWAN HILLVIEW GARDEN ESTATE SINGAPORE 668959,14,HILLVIEW GARDEN ESTATE,1.3591247594639,103.761620763462,103.761620763462,668959,JALAN DERMAWAN,HILLVIEW GARDEN ESTATE,20020.8640098888,37910.7447987143
15 JALAN DERMAWAN HILLVIEW GARDEN ESTATE SINGAPORE 668960,15,HILLVIEW GARDEN ESTATE,1.35878100660837,103.761357235937,103.761357235937,668960,JALAN DERMAWAN,HILLVIEW GARDEN ESTATE,19991.5353022423,37872.7352030687
16 JALAN DERMAWAN HILLVIEW GARDEN ESTATE SINGAPORE 668961,16,HILLVIEW GARDEN ESTATE,1.35915427480999,103.761560802112,103.761560802112,668961,JALAN DERMAWAN,HILLVIEW GARDEN ESTATE,20014.1910999306,37914.0086559337
17 JALAN DERMAWAN HILLVIEW GARDEN ESTATE SINGAPORE 668962,17,HILLVIEW GARDEN ESTATE,1.35880626735793,103.761298479036,103.761298479036,668962,JALAN DERMAWAN,HILLVIEW GARDEN ESTATE,19984.9964189157,37875.5286050178
18 JALAN DERMAWAN HILLVIEW GARDEN ESTATE SINGAPORE 668963,18,HILLVIEW GARDEN ESTATE,1.35921021660209,103.761483368403,103.761483368403,668963,JALAN DERMAWAN,HILLVIEW GARDEN ESTATE,20005.5738049662,37920.1946751066
19 JALAN DERMAWAN HILLVIEW GARDEN ESTATE SINGAPORE 668964,19,HILLVIEW GARDEN ESTATE,1.35884089665304,103.761250414114,103.761250414114,668964,JALAN DERMAWAN,HILLVIEW GARDEN ESTATE,19979.6474608332,37879.3578984421
20 JALAN DERMAWAN HILLVIEW GARDEN ESTATE SINGAPORE 668965,20,HILLVIEW GARDEN ESTATE,1.35926344345748,103.76144068754,103.76144068754,668965,JALAN DERMAWAN,HILLVIEW GARDEN ESTATE,20000.8240924254,37926.0803753436
21 JALAN DERMAWAN HILLVIEW GARDEN ESTATE SINGAPORE 668966,21,HILLVIEW GARDEN ESTATE,1.35890165681234,103.761168364532,103.761168364532,668966,JALAN DERMAWAN,HILLVIEW GARDEN ESTATE,19970.5164879179,37886.0767249316
22 JALAN DERMAWAN HILLVIEW GARDEN ESTATE SINGAPORE 668967,22,HILLVIEW GARDEN ESTATE,1.35930359450775,103.761393222159,103.761393222159,668967,JALAN DERMAWAN,HILLVIEW GARDEN ESTATE,19995.5418752469,37930.5202345345
23 JALAN DERMAWAN HILLVIEW GARDEN ESTATE SINGAPORE 668968,23,HILLVIEW GARDEN ESTATE,1.35894428502854,103.761126364472,103.761126364472,668968,JALAN DERMAWAN,HILLVIEW GARDEN ESTATE,19965.8425058723,37890.7904791087
24 JALAN DERMAWAN HILLVIEW GARDEN ESTATE SINGAPORE 668969,24,HILLVIEW GARDEN ESTATE,1.35932166258122,103.761331888469,103.761331888469,668969,JALAN DERMAWAN,HILLVIEW GARDEN ESTATE,19988.716202775,37932.5183149446
25 JALAN DERMAWAN HILLVIEW GARDEN ESTATE SINGAPORE 668970,25,HILLVIEW GARDEN ESTATE,1.3589723940253,103.761069769703,103.761069769703,668970,JALAN DERMAWAN,HILLVIEW GARDEN ESTATE,19959.5442530159,37893.8988194279
26 JALAN DERMAWAN HILLVIEW GARDEN ESTATE SINGAPORE 668971,26,HILLVIEW GARDEN ESTATE,1.35935874171852,103.761281660698,103.761281660698,668971,JALAN DERMAWAN,HILLVIEW GARDEN ESTATE,19983.1265536863,37936.6185068227
27 JALAN DERMAWAN HILLVIEW GARDEN ESTATE SINGAPORE 668972,27,HILLVIEW GARDEN ESTATE,1.35900703426253,103.761021632156,103.761021632156,668972,JALAN DERMAWAN,HILLVIEW GARDEN ESTATE,19954.1872133818,37897.7293235715
28 JALAN DERMAWAN HILLVIEW GARDEN ESTATE SINGAPORE 668973,28,HILLVIEW GARDEN ESTATE,1.35939207935046,103.761236334619,103.761236334619,668973,JALAN DERMAWAN,HILLVIEW GARDEN ESTATE,19978.0823941994,37940.304965632
29 JALAN DERMAWAN HILLVIEW GARDEN ESTATE SINGAPORE 668974,29,HILLVIEW GARDEN ESTATE,1.35904729284552,103.760972976052,103.760972976052,668974,JALAN DERMAWAN,HILLVIEW GARDEN ESTATE,19948.7724829707,37902.1810780801
30 JALAN DERMAWAN HILLVIEW GARDEN ESTATE SINGAPORE 668975,30,HILLVIEW GARDEN ESTATE,1.35943046769958,103.761184470316,103.761184470316,668975,JALAN DERMAWAN,HILLVIEW GARDEN ESTATE,19972.3106226521,37944.5499292761
31 JALAN DERMAWAN HILLVIEW GARDEN ESTATE SINGAPORE 668976,31,HILLVIEW GARDEN ESTATE,1.35907746600414,103.760923727063,103.760923727063,668976,JALAN DERMAWAN,HILLVIEW GARDEN ESTATE,19943.2917380873,37905.5176389981
32 JALAN DERMAWAN HILLVIEW GARDEN ESTATE SINGAPORE 668977,32,HILLVIEW GARDEN ESTATE,1.35946201786565,103.761139485347,103.761139485347,668977,JALAN DERMAWAN,HILLVIEW GARDEN ESTATE,19967.3044192176,37948.038738152
33 JALAN DERMAWAN HILLVIEW GARDEN ESTATE SINGAPORE 668978,33,HILLVIEW GARDEN ESTATE,1.35913633302611,103.760842000903,103.760842000903,668978,JALAN DERMAWAN,HILLVIEW GARDEN ESTATE,19934.1967538036,37912.0271321125
34 JALAN DERMAWAN HILLVIEW GARDEN ESTATE SINGAPORE 668979,34,HILLVIEW GARDEN ESTATE,1.35952606656733,103.761054907338,103.761054907338,668979,JALAN DERMAWAN,HILLVIEW GARDEN ESTATE,19957.8920751251,37955.1212041974
35 JALAN DERMAWAN HILLVIEW GARDEN ESTATE SINGAPORE 668980,35,HILLVIEW GARDEN ESTATE,1.35917315318697,103.760791277865,103.760791277865,668980,JALAN DERMAWAN,HILLVIEW GARDEN ESTATE,19928.5519867167,37916.0986904781
36 JALAN DERMAWAN HILLVIEW GARDEN ESTATE SINGAPORE 668981,36,HILLVIEW GARDEN ESTATE,1.35956304340885,103.760998471125,103.760998471125,668981,JALAN DERMAWAN,HILLVIEW GARDEN ESTATE,19951.6114987712,37959.2101061177
37 JALAN DERMAWAN HILLVIEW GARDEN ESTATE SINGAPORE 668982,37,HILLVIEW GARDEN ESTATE,1.35920867372139,103.760742449733,103.760742449733,668982,JALAN DERMAWAN,HILLVIEW GARDEN ESTATE,19923.118096672,37920.0265364572
38 JALAN DERMAWAN HILLVIEW GARDEN ESTATE SINGAPORE 668983,38,HILLVIEW GARDEN ESTATE,1.35959966265245,103.760947737207,103.760947737207,668983,JALAN DERMAWAN,HILLVIEW GARDEN ESTATE,19945.9655209649,37963.2594477832
39 JALAN DERMAWAN HILLVIEW GARDEN ESTATE SINGAPORE 668984,39,HILLVIEW GARDEN ESTATE,1.35925174978887,103.76070153783,103.76070153783,668984,JALAN DERMAWAN,HILLVIEW GARDEN ESTATE,19918.5652168291,37924.7898090538
40 JALAN DERMAWAN HILLVIEW GARDEN ESTATE SINGAPORE 668985,40,HILLVIEW GARDEN ESTATE,1.35963264387786,103.760902418473,103.760902418473,668985,JALAN DERMAWAN,HILLVIEW GARDEN ESTATE,19940.9221787136,37966.9064976778
41 JALAN DERMAWAN HILLVIEW GARDEN ESTATE SINGAPORE 668986,41,HILLVIEW GARDEN ESTATE,1.35926997626304,103.760637806105,103.760637806105,668986,JALAN DERMAWAN,HILLVIEW GARDEN ESTATE,19911.4726715442,37926.8054146264
42 JALAN DERMAWAN HILLVIEW GARDEN ESTATE SINGAPORE 668987,42,HILLVIEW GARDEN ESTATE,1.35966535216885,103.760847309363,103.760847309363,668987,JALAN DERMAWAN,HILLVIEW GARDEN ESTATE,19934.789279853,37970.5234006587
43 JALAN DERMAWAN HILLVIEW GARDEN ESTATE SINGAPORE 668988,43,HILLVIEW GARDEN ESTATE,1.35931161980528,103.760594242186,103.760594242186,668988,JALAN DERMAWAN,HILLVIEW GARDEN ESTATE,19906.6246485924,37931.4102948643
44 JALAN DERMAWAN HILLVIEW GARDEN ESTATE SINGAPORE 668989,44,HILLVIEW GARDEN ESTATE,1.35970273097333,103.76080418318,103.76080418318,668989,JALAN DERMAWAN,HILLVIEW GARDEN ESTATE,19929.989958087,37974.6567057129
45 JALAN DERMAWAN HILLVIEW GARDEN ESTATE SINGAPORE 668990,45,HILLVIEW GARDEN ESTATE,1.35940374124145,103.76052209679,103.76052209679,668990,JALAN DERMAWAN,HILLVIEW GARDEN ESTATE,19898.5960053755,37941.5968637131
46 JALAN DERMAWAN HILLVIEW GARDEN ESTATE SINGAPORE 668991,46,HILLVIEW GARDEN ESTATE,1.35981691008289,103.76064224039,103.76064224039,668991,JALAN DERMAWAN,HILLVIEW GARDEN ESTATE,19911.96797683,37987.2826016359
47 JALAN DERMAWAN HILLVIEW GARDEN ESTATE SINGAPORE 668992,47,HILLVIEW GARDEN ESTATE,1.35942918769935,103.760467933021,103.760467933021,668992,JALAN DERMAWAN,HILLVIEW GARDEN ESTATE,19892.5682877582,37944.4107873552
48 JALAN DERMAWAN HILLVIEW GARDEN ESTATE SINGAPORE 668993,48,HILLVIEW GARDEN ESTATE,1.35986685391294,103.760559069991,103.760559069991,668993,JALAN DERMAWAN,HILLVIEW GARDEN ESTATE,19902.712239285,37992.8054190166
49 JALAN DERMAWAN HILLVIEW GARDEN ESTATE SINGAPORE 668994,49,HILLVIEW GARDEN ESTATE,1.35945797377944,103.760416576504,103.760416576504,668994,JALAN DERMAWAN,HILLVIEW GARDEN ESTATE,19886.8529962683,37947.593980398
50 JALAN DERMAWAN HILLVIEW GARDEN ESTATE SINGAPORE 668995,50,HILLVIEW GARDEN ESTATE,1.35991008210665,103.760425900481,103.760425900481,668995,JALAN DERMAWAN,HILLVIEW GARDEN ESTATE,19887.8921566857,37997.5858232938
51 JALAN DERMAWAN HILLVIEW GARDEN ESTATE SINGAPORE 668996,51,HILLVIEW GARDEN ESTATE,1.35948148325456,103.760360829336,103.760360829336,668996,JALAN DERMAWAN,HILLVIEW GARDEN ESTATE,19880.64905845,37950.1937277876
52 JALAN DERMAWAN HILLVIEW GARDEN ESTATE SINGAPORE 668997,52,HILLVIEW GARDEN ESTATE,1.35992031805331,103.760308538491,103.760308538491,668997,JALAN DERMAWAN,HILLVIEW GARDEN ESTATE,19874.8311584955,37998.718057761
53 JALAN DERMAWAN HILLVIEW GARDEN ESTATE SINGAPORE 668998,53,HILLVIEW GARDEN ESTATE,1.35949625969841,103.760300559439,103.760300559439,668998,JALAN DERMAWAN,HILLVIEW GARDEN ESTATE,19873.9417640623,37951.8278356921
54 JALAN DERMAWAN HILLVIEW GARDEN ESTATE SINGAPORE 668999,54,HILLVIEW GARDEN ESTATE,1.36003014228472,103.760244357947,103.760244357947,668999,JALAN DERMAWAN,HILLVIEW GARDEN ESTATE,19867.6889737174,38010.8620873839
55 JALAN DERMAWAN HILLVIEW GARDEN ESTATE SINGAPORE 669000,55,HILLVIEW GARDEN ESTATE,1.35952784807962,103.760252614252,103.760252614252,669000,JALAN DERMAWAN,HILLVIEW GARDEN ESTATE,19868.6061238926,37955.3208820857
56 JALAN DERMAWAN HILLVIEW GARDEN ESTATE SINGAPORE 669001,56,HILLVIEW GARDEN ESTATE,1.36005346526858,103.760150277673,103.760150277673,669001,JALAN DERMAWAN,HILLVIEW GARDEN ESTATE,19857.2190057384,38013.4413433485
57 JALAN DERMAWAN HILLVIEW GARDEN ESTATE SINGAPORE 669002,57,HILLVIEW GARDEN ESTATE,1.35958739966312,103.760161288314,103.760161288314,669002,JALAN DERMAWAN,HILLVIEW GARDEN ESTATE,19858.4428008562,37961.9061056953
58 JALAN DERMAWAN HILLVIEW GARDEN ESTATE SINGAPORE 669003,58,HILLVIEW GARDEN ESTATE,1.36005970664132,103.759988809427,103.759988809427,669003,JALAN DERMAWAN,HILLVIEW GARDEN ESTATE,19839.2494788971,38014.132028468
59 JALAN DERMAWAN HILLVIEW GARDEN ESTATE SINGAPORE 669004,59,HILLVIEW GARDEN ESTATE,1.35961134949517,103.760112130605,103.760112130605,669004,JALAN DERMAWAN,HILLVIEW GARDEN ESTATE,19852.9721957464,37964.5545240026
60 JALAN DERMAWAN HILLVIEW GARDEN ESTATE SINGAPORE 669005,60,HILLVIEW GARDEN ESTATE,1.36016613305716,103.759943734049,103.759943734049,669005,JALAN DERMAWAN,HILLVIEW GARDEN ESTATE,19834.233468635,38025.9002810735
61 JALAN DERMAWAN HILLVIEW GARDEN ESTATE SINGAPORE 669006,61,HILLVIEW GARDEN ESTATE,1.35963585748071,103.760054459158,103.760054459158,669006,JALAN DERMAWAN,HILLVIEW GARDEN ESTATE,19846.5541119436,37967.2646889966
62 JALAN DERMAWAN HILLVIEW GARDEN ESTATE SINGAPORE 669007,62,HILLVIEW GARDEN ESTATE,1.36023037040158,103.759844113158,103.759844113158,669007,JALAN DERMAWAN,HILLVIEW GARDEN ESTATE,19823.1470326316,38033.0036622956
62A JALAN DERMAWAN HILLVIEW GARDEN ESTATE SINGAPORE 669008,62A,HILLVIEW GARDEN ESTATE,1.36023051627233,103.759789599549,103.759789599549,669008,JALAN DERMAWAN,HILLVIEW GARDEN ESTATE,19817.0802995833,38033.0199767388
62B JALAN DERMAWAN HILLVIEW GARDEN ESTATE SINGAPORE 669009,62B,HILLVIEW GARDEN ESTATE,1.36025375998645,103.759699792854,103.759699792854,669009,JALAN DERMAWAN,HILLVIEW GARDEN ESTATE,19807.0859324317,38035.5904549882
62C JALAN DERMAWAN HILLVIEW GARDEN ESTATE SINGAPORE 669010,62C,HILLVIEW GARDEN ESTATE,1.36026528294106,103.759643257833,103.759643257833,669010,JALAN DERMAWAN,HILLVIEW GARDEN ESTATE,19800.7942779958,38036.8647976387
63 JALAN DERMAWAN HILLVIEW GARDEN ESTATE SINGAPORE 669011,63,HILLVIEW GARDEN ESTATE,1.35966908022954,103.760003744366,103.760003744366,669011,JALAN DERMAWAN,HILLVIEW GARDEN ESTATE,19840.9102528952,37970.9384655207
64 JALAN DERMAWAN HILLVIEW GARDEN ESTATE SINGAPORE 669012,64,HILLVIEW GARDEN ESTATE,1.3602873563848,103.760194957673,103.760194957673,669012,JALAN DERMAWAN,HILLVIEW GARDEN ESTATE,19862.1921565346,38039.303700963
65 JALAN DERMAWAN HILLVIEW GARDEN ESTATE SINGAPORE 669013,65,HILLVIEW GARDEN ESTATE,1.35970633971658,103.759953168703,103.759953168703,669013,JALAN DERMAWAN,HILLVIEW GARDEN ESTATE,19835.2818910554,37975.0586040001
66 JALAN DERMAWAN HILLVIEW GARDEN ESTATE SINGAPORE 669014,66,HILLVIEW GARDEN ESTATE,1.36052233265579,103.759830350132,103.759830350132,669014,JALAN DERMAWAN,HILLVIEW GARDEN ESTATE,19821.6163504263,38065.2874331921
66A JALAN DERMAWAN HILLVIEW GARDEN ESTATE SINGAPORE 669015,66A,HILLVIEW GARDEN ESTATE,1.36059109159959,103.759831801773,103.759831801773,669015,JALAN DERMAWAN,HILLVIEW GARDEN ESTATE,19821.7781328,38072.8904480226
67 JALAN DERMAWAN HILLVIEW GARDEN ESTATE SINGAPORE 669016,67,HILLVIEW GARDEN ESTATE,1.35973038412758,103.759890886971,103.759890886971,669016,JALAN DERMAWAN,HILLVIEW GARDEN ESTATE,19828.3507346595,37977.7175252978
68 JALAN DERMAWAN HILLVIEW GARDEN ESTATE SINGAPORE 669017,68,HILLVIEW GARDEN ESTATE,1.36071444456623,103.759823217681,103.759823217681,669017,JALAN DERMAWAN,HILLVIEW GARDEN ESTATE,19820.8232384492,38086.5302305967
68A JALAN DERMAWAN HILLVIEW GARDEN ESTATE SINGAPORE 669018,68A,HILLVIEW GARDEN ESTATE,1.36079340225772,103.759825239622,103.759825239622,669018,JALAN DERMAWAN,HILLVIEW GARDEN ESTATE,19821.0485230517,38095.2609699648
69 JALAN DERMAWAN HILLVIEW GARDEN ESTATE SINGAPORE 669019,69,HILLVIEW GARDEN ESTATE,1.35978142510752,103.75980061954,103.75980061954,669019,JALAN DERMAWAN,HILLVIEW GARDEN ESTATE,19818.3051843476,37983.3616870251
70 JALAN DERMAWAN HILLVIEW GARDEN ESTATE SINGAPORE 669020,70,HILLVIEW GARDEN ESTATE,1.36091389658286,103.759841759176,103.759841759176,669020,JALAN DERMAWAN,HILLVIEW GARDEN ESTATE,19822.8873635987,38108.5845731813
70A JALAN DERMAWAN HILLVIEW GARDEN ESTATE SINGAPORE 669021,70A,HILLVIEW GARDEN ESTATE,1.36098629804976,103.759850939503,103.759850939503,669021,JALAN DERMAWAN,HILLVIEW GARDEN ESTATE,19823.9092712654,38116.5903338026
71 JALAN DERMAWAN HILLVIEW GARDEN ESTATE SINGAPORE 669022,71,HILLVIEW GARDEN ESTATE,1.35978750779313,103.759731583781,103.759731583781,669022,JALAN DERMAWAN,HILLVIEW GARDEN ESTATE,19810.6223225771,37984.034514036
72 JALAN DERMAWAN HILLVIEW GARDEN ESTATE SINGAPORE 669023,72,HILLVIEW GARDEN ESTATE,1.36113851630372,103.759857217585,103.759857217585,669023,JALAN DERMAWAN,HILLVIEW GARDEN ESTATE,19824.6084616892,38133.4218449928
73 JALAN DERMAWAN HILLVIEW GARDEN ESTATE SINGAPORE 669024,73,HILLVIEW GARDEN ESTATE,1.35981999408961,103.759677472817,103.759677472817,669024,JALAN DERMAWAN,HILLVIEW GARDEN ESTATE,19804.6005072165,37987.6268696822
74 JALAN DERMAWAN HILLVIEW GARDEN ESTATE SINGAPORE 669025,74,HILLVIEW GARDEN ESTATE,1.36108639068145,103.759329501217,103.759329501217,669025,JALAN DERMAWAN,HILLVIEW GARDEN ESTATE,19765.8795836866,38127.6598500032
75 JALAN DERMAWAN HILLVIEW GARDEN ESTATE SINGAPORE 669026,75,HILLVIEW GARDEN ESTATE,1.35984192639288,103.759624773465,103.759624773465,669026,JALAN DERMAWAN,HILLVIEW GARDEN ESTATE,19798.7357524233,37990.0522129498
76 JALAN DERMAWAN HILLVIEW GARDEN ESTATE SINGAPORE 669027,76,HILLVIEW GARDEN ESTATE,1.36088782508199,103.75937537879,103.75937537879,669027,JALAN DERMAWAN,HILLVIEW GARDEN ESTATE,19770.9845515518,38105.7033032756
77 JALAN DERMAWAN HILLVIEW GARDEN ESTATE SINGAPORE 669028,77,HILLVIEW GARDEN ESTATE,1.3598639747472,103.759562835023,103.759562835023,669028,JALAN DERMAWAN,HILLVIEW GARDEN ESTATE,19791.8427942237,37992.4904201105
78 JALAN DERMAWAN HILLVIEW GARDEN ESTATE SINGAPORE 669029,78,HILLVIEW GARDEN ESTATE,1.36074746168569,103.759441568339,103.759441568339,669029,JALAN DERMAWAN,HILLVIEW GARDEN ESTATE,19778.3502048533,38090.1823957805
79 JALAN DERMAWAN HILLVIEW GARDEN ESTATE SINGAPORE 669030,79,HILLVIEW GARDEN ESTATE,1.36002034423743,103.759189953606,103.759189953606,669030,JALAN DERMAWAN,HILLVIEW GARDEN ESTATE,19750.3459333703,38009.7822467964
80 JALAN DERMAWAN HILLVIEW GARDEN ESTATE SINGAPORE 669031,80,HILLVIEW GARDEN ESTATE,1.36055770080074,103.759428767492,103.759428767492,669031,JALAN DERMAWAN,HILLVIEW GARDEN ESTATE,19776.9249763042,38069.1996306237
81 JALAN DERMAWAN HILLVIEW GARDEN ESTATE SINGAPORE 669032,81,HILLVIEW GARDEN ESTATE,1.35990112470508,103.759236189116,103.759236189116,669032,JALAN DERMAWAN,HILLVIEW GARDEN ESTATE,19755.4910063148,37996.5993897039
82 JALAN DERMAWAN HILLVIEW GARDEN ESTATE SINGAPORE 669033,82,HILLVIEW GARDEN ESTATE,1.36031249740635,103.759313315739,103.759313315739,669033,JALAN DERMAWAN,HILLVIEW GARDEN ESTATE,19764.0757026607,38042.0866604578
83 JALAN DERMAWAN HILLVIEW GARDEN ESTATE SINGAPORE 669034,83,HILLVIEW GARDEN ESTATE,1.35972641089758,103.759214404401,103.759214404401,669034,JALAN DERMAWAN,HILLVIEW GARDEN ESTATE,19753.0660262629,37977.2804858796
84 JALAN DERMAWAN HILLVIEW GARDEN ESTATE SINGAPORE 669035,84,HILLVIEW GARDEN ESTATE,1.36033115368582,103.75904879252,103.75904879252,669035,JALAN DERMAWAN,HILLVIEW GARDEN ESTATE,19734.6373946453,38044.1504829284
85 JALAN DERMAWAN HILLVIEW GARDEN ESTATE SINGAPORE 669036,85,HILLVIEW GARDEN ESTATE,1.3596383084087,103.759178965939,103.759178965939,669036,JALAN DERMAWAN,HILLVIEW GARDEN ESTATE,19749.1218355736,37967.5386747848
86 JALAN DERMAWAN HILLVIEW GARDEN ESTATE SINGAPORE 669037,86,HILLVIEW GARDEN ESTATE,1.36041742921869,103.759020241455,103.759020241455,669037,JALAN DERMAWAN,HILLVIEW GARDEN ESTATE,19731.4602854662,38053.690497376
87 JALAN DERMAWAN HILLVIEW GARDEN ESTATE SINGAPORE 669038,87,HILLVIEW GARDEN ESTATE,1.35946615936288,103.759118131947,103.759118131947,669038,JALAN DERMAWAN,HILLVIEW GARDEN ESTATE,19742.3511297591,37948.5035030413
88 JALAN DERMAWAN HILLVIEW GARDEN ESTATE SINGAPORE 669039,88,HILLVIEW GARDEN ESTATE,1.36054477761274,103.759047988275,103.759047988275,669039,JALAN DERMAWAN,HILLVIEW GARDEN ESTATE,19734.5486186491,38067.7719503678
89 JALAN DERMAWAN HILLVIEW GARDEN ESTATE SINGAPORE 669040,89,HILLVIEW GARDEN ESTATE,1.35937341141918,103.759067031524,103.759067031524,669040,JALAN DERMAWAN,HILLVIEW GARDEN ESTATE,19736.663926959,37938.2480745297
90 JALAN DERMAWAN HILLVIEW GARDEN ESTATE SINGAPORE 669041,90,HILLVIEW GARDEN ESTATE,1.36064878171025,103.759019364863,103.759019364863,669041,JALAN DERMAWAN,HILLVIEW GARDEN ESTATE,19731.3635187224,38079.2723010499
91 JALAN DERMAWAN HILLVIEW GARDEN ESTATE SINGAPORE 669042,91,HILLVIEW GARDEN ESTATE,1.36003208196685,103.758988962741,103.758988962741,669042,JALAN DERMAWAN,HILLVIEW GARDEN ESTATE,19727.9780144757,38011.0808341019
92 JALAN DERMAWAN HILLVIEW GARDEN ESTATE SINGAPORE 669043,92,HILLVIEW GARDEN ESTATE,1.36075059680051,103.7590271259,103.7590271259,669043,JALAN DERMAWAN,HILLVIEW GARDEN ESTATE,19732.2275788533,38090.5304775927
93 JALAN DERMAWAN HILLVIEW GARDEN ESTATE SINGAPORE 669044,93,HILLVIEW GARDEN ESTATE,1.35994681120081,103.758987607637,103.758987607637,669044,JALAN DERMAWAN,HILLVIEW GARDEN ESTATE,19727.8269167012,38001.6520242263
94 JALAN DERMAWAN HILLVIEW GARDEN ESTATE SINGAPORE 669045,94,HILLVIEW GARDEN ESTATE,1.36084949720213,103.759053080987,103.759053080987,669045,JALAN DERMAWAN,HILLVIEW GARDEN ESTATE,19735.1164157558,38101.4663001113
95 JALAN DERMAWAN HILLVIEW GARDEN ESTATE SINGAPORE 669046,95,HILLVIEW GARDEN ESTATE,1.35979633636815,103.75894661676,103.75894661676,669046,JALAN DERMAWAN,HILLVIEW GARDEN ESTATE,19723.2645932473,37985.0134108961
96 JALAN DERMAWAN HILLVIEW GARDEN ESTATE SINGAPORE 669047,96,HILLVIEW GARDEN ESTATE,1.36098533187875,103.759046273576,103.759046273576,669047,JALAN DERMAWAN,HILLVIEW GARDEN ESTATE,19734.3592924103,38116.4862422068
97 JALAN DERMAWAN HILLVIEW GARDEN ESTATE SINGAPORE 669048,97,HILLVIEW GARDEN ESTATE,1.35971319488107,103.75892480152,103.75892480152,669048,JALAN DERMAWAN,HILLVIEW GARDEN ESTATE,19720.8365258612,37975.8201162014
98 JALAN DERMAWAN HILLVIEW GARDEN ESTATE SINGAPORE 669049,98,HILLVIEW GARDEN ESTATE,1.36107144550974,103.759049010847,103.759049010847,669049,JALAN DERMAWAN,HILLVIEW GARDEN ESTATE,19734.6642120788,38126.0082472041
99 JALAN DERMAWAN HILLVIEW GARDEN ESTATE SINGAPORE 669050,99,HILLVIEW GARDEN ESTATE,1.35957372467951,103.758884873474,103.758884873474,669050,JALAN DERMAWAN,HILLVIEW GARDEN ESTATE,19716.3925199555,37960.3983363546
100 JALAN DERMAWAN HILLVIEW GARDEN ESTATE SINGAPORE 669051,100,HILLVIEW GARDEN ESTATE,1.36054415026278,103.758407260958,103.758407260958,669051,JALAN DERMAWAN,HILLVIEW GARDEN ESTATE,19663.243090732,38067.7047857121
101 JALAN DERMAWAN HILLVIEW GARDEN ESTATE SINGAPORE 669052,101,HILLVIEW GARDEN ESTATE,1.35948753453415,103.758851096751,103.758851096751,669052,JALAN DERMAWAN,HILLVIEW GARDEN ESTATE,19712.6332666464,37950.8679773938
102 JALAN DERMAWAN HILLVIEW GARDEN ESTATE SINGAPORE 669053,102,HILLVIEW GARDEN ESTATE,1.3604798815802,103.758325413928,103.758325413928,669053,JALAN DERMAWAN,HILLVIEW GARDEN ESTATE,19654.1342437118,38060.5985592995
103 JALAN DERMAWAN HILLVIEW GARDEN ESTATE SINGAPORE 669054,103,HILLVIEW GARDEN ESTATE,1.35968672667178,103.758461480058,103.758461480058,669054,JALAN DERMAWAN,HILLVIEW GARDEN ESTATE,19669.2741075596,37972.8949879874
104 JALAN DERMAWAN HILLVIEW GARDEN ESTATE SINGAPORE 669055,104,HILLVIEW GARDEN ESTATE,1.36041097499262,103.758198259345,103.758198259345,669055,JALAN DERMAWAN,HILLVIEW GARDEN ESTATE,19639.9831743566,38052.9796537776
105 JALAN DERMAWAN HILLVIEW GARDEN ESTATE SINGAPORE 669056,105,HILLVIEW GARDEN ESTATE,1.35976998911562,103.758482129037,103.758482129037,669056,JALAN DERMAWAN,HILLVIEW GARDEN ESTATE,19671.5723858308,37982.1016611308
106 JALAN DERMAWAN HILLVIEW GARDEN ESTATE SINGAPORE 669057,106,HILLVIEW GARDEN ESTATE,1.36035486561871,103.75812174039,103.75812174039,669057,JALAN DERMAWAN,HILLVIEW GARDEN ESTATE,19631.4673074055,38046.7756251562
107 JALAN DERMAWAN HILLVIEW GARDEN ESTATE SINGAPORE 669058,107,HILLVIEW GARDEN ESTATE,1.36001430658296,103.75867144199,103.75867144199,669058,JALAN DERMAWAN,HILLVIEW GARDEN ESTATE,19692.641566081,38009.1164116897
108 JALAN DERMAWAN HILLVIEW GARDEN ESTATE SINGAPORE 669059,108,HILLVIEW GARDEN ESTATE,1.36029600327724,103.757948219817,103.757948219817,669059,JALAN DERMAWAN,HILLVIEW GARDEN ESTATE,19612.1562732579,38040.2675243691
109 JALAN DERMAWAN HILLVIEW GARDEN ESTATE SINGAPORE 669060,109,HILLVIEW GARDEN ESTATE,1.36001979778604,103.758587619624,103.758587619624,669060,JALAN DERMAWAN,HILLVIEW GARDEN ESTATE,19683.3131248392,38009.7238901239
111 JALAN DERMAWAN HILLVIEW GARDEN ESTATE SINGAPORE 669062,111,HILLVIEW GARDEN ESTATE,1.35998361881444,103.758429528479,103.758429528479,669062,JALAN DERMAWAN,HILLVIEW GARDEN ESTATE,19665.7192842113,38005.7239458077
112 JALAN DERMAWAN HILLVIEW GARDEN ESTATE SINGAPORE 669063,112,HILLVIEW GARDEN ESTATE,1.3601676279726,103.757820650162,103.757820650162,669063,JALAN DERMAWAN,HILLVIEW GARDEN ESTATE,19597.9588030837,38026.0728691164
113 JALAN DERMAWAN HILLVIEW GARDEN ESTATE SINGAPORE 669064,113,HILLVIEW GARDEN ESTATE,1.3599678651933,103.758349559063,103.758349559063,669064,JALAN DERMAWAN,HILLVIEW GARDEN ESTATE,19656.8195586912,38003.9822654892
114 JALAN DERMAWAN HILLVIEW GARDEN ESTATE SINGAPORE 669065,114,HILLVIEW GARDEN ESTATE,1.36008034761854,103.757780762164,103.757780762164,669065,JALAN DERMAWAN,HILLVIEW GARDEN ESTATE,19593.5194281796,38016.4219830446
115 JALAN DERMAWAN HILLVIEW GARDEN ESTATE SINGAPORE 669066,115,HILLVIEW GARDEN ESTATE,1.35991065254468,103.758198702912,103.758198702912,669066,JALAN DERMAWAN,HILLVIEW GARDEN ESTATE,19640.0308161629,37997.6564990357
117 JALAN DERMAWAN HILLVIEW GARDEN ESTATE SINGAPORE 669067,117,HILLVIEW GARDEN ESTATE,1.35985876481314,103.758117831381,103.758117831381,669067,JALAN DERMAWAN,HILLVIEW GARDEN ESTATE,19631.0305706682,37991.9192935247
119 JALAN DERMAWAN HILLVIEW GARDEN ESTATE SINGAPORE 669068,119,HILLVIEW GARDEN ESTATE,1.35973117478042,103.758013983614,103.758013983614,669068,JALAN DERMAWAN,HILLVIEW GARDEN ESTATE,19619.4730740339,37977.8113863152
121 JALAN DERMAWAN HILLVIEW GARDEN ESTATE SINGAPORE 669070,121,HILLVIEW GARDEN ESTATE,1.35966874649615,103.757961633911,103.757961633911,669070,JALAN DERMAWAN,HILLVIEW GARDEN ESTATE,19613.6469411878,37970.9085607529
123 JALAN DERMAWAN HILLVIEW GARDEN ESTATE SINGAPORE 669071,123,HILLVIEW GARDEN ESTATE,1.35944879074443,103.757775851387,103.757775851387,669071,JALAN DERMAWAN,HILLVIEW GARDEN ESTATE,19592.9707301706,37946.587600207
125 JALAN DERMAWAN HILLVIEW GARDEN ESTATE SINGAPORE 669073,125,HILLVIEW GARDEN ESTATE,1.3594027429019,103.75763707945,103.75763707945,669073,JALAN DERMAWAN,HILLVIEW GARDEN ESTATE,19577.5268546948,37941.4963437393
126 JALAN DERMAWAN HILLVIEW COURT SINGAPORE 669074,126,HILLVIEW COURT,1.36053138624991,103.757143492074,103.757143492074,669074,JALAN DERMAWAN,HILLVIEW COURT,19522.6002105391,38066.2978087571
126A JALAN DERMAWAN HILLVIEW COURT SINGAPORE 669075,126A,HILLVIEW COURT,1.36048575094143,103.75709258143,103.75709258143,669075,JALAN DERMAWAN,HILLVIEW COURT,19516.9342861306,38061.2518634591
126B JALAN DERMAWAN HILLVIEW COURT SINGAPORE 669076,126B,HILLVIEW COURT,1.36042598882943,103.757058569214,103.757058569214,669076,JALAN DERMAWAN,HILLVIEW COURT,19513.1489115516,38054.6437875219
127 JALAN DERMAWAN THE HILLOFT SINGAPORE 669077,127,THE HILLOFT,1.3592961718446,103.757633737443,103.757633737443,669077,JALAN DERMAWAN,THE HILLOFT,19577.1545584956,37929.7122609783
128 JALAN DERMAWAN HILLVIEW COURT SINGAPORE 669078,128,HILLVIEW COURT,1.36036609876924,103.757038158615,103.757038158615,669078,JALAN DERMAWAN,HILLVIEW COURT,19510.8772388371,38048.0215159021
128A JALAN DERMAWAN HILLVIEW COURT SINGAPORE 669079,128A,HILLVIEW COURT,1.36029963709907,103.75703146624,103.75703146624,669079,JALAN DERMAWAN,HILLVIEW COURT,19510.132222686,38040.6725402586
128B JALAN DERMAWAN HILLVIEW COURT SINGAPORE 669080,128B,HILLVIEW COURT,1.36023503222068,103.757026767677,103.757026767677,669080,JALAN DERMAWAN,HILLVIEW COURT,19509.6091011232,38033.5288723502
130 JALAN DERMAWAN HILLVIEW COURT SINGAPORE 669081,130,HILLVIEW COURT,1.36017114996119,103.757038172081,103.757038172081,669081,JALAN DERMAWAN,HILLVIEW COURT,19510.8780560726,38026.4650513809
130A JALAN DERMAWAN HILLVIEW COURT SINGAPORE 669082,130A,HILLVIEW COURT,1.3601085627922,103.75706872912,103.75706872912,669082,JALAN DERMAWAN,HILLVIEW COURT,19514.2784824353,38019.5443677083
130B JALAN DERMAWAN HILLVIEW COURT SINGAPORE 669083,130B,HILLVIEW COURT,1.36004716406723,103.757087449919,103.757087449919,669083,JALAN DERMAWAN,HILLVIEW COURT,19516.3616764145,38012.7551378887
132 JALAN DERMAWAN HILLVIEW COURT SINGAPORE 669084,132,HILLVIEW COURT,1.35998374963988,103.757108210614,103.757108210614,669084,JALAN DERMAWAN,HILLVIEW COURT,19518.6718802722,38005.7430146374
132A JALAN DERMAWAN HILLVIEW COURT SINGAPORE 669085,132A,HILLVIEW COURT,1.35991862388422,103.757130491172,103.757130491172,669085,JALAN DERMAWAN,HILLVIEW COURT,19521.1512216227,37998.5416559502
132B JALAN DERMAWAN HILLVIEW COURT SINGAPORE 669086,132B,HILLVIEW COURT,1.35985112774225,103.757157130248,103.757157130248,669086,JALAN DERMAWAN,HILLVIEW COURT,19524.1156074116,37991.0781765264
136 JALAN DERMAWAN HILLVIEW GARDEN ESTATE SINGAPORE 669087,136,HILLVIEW GARDEN ESTATE,1.35993425607539,103.757593061785,103.757593061785,669087,JALAN DERMAWAN,HILLVIEW GARDEN ESTATE,19572.6300397534,38000.2685654946
138 JALAN DERMAWAN HILLVIEW ESTATE SINGAPORE 669088,138,HILLVIEW ESTATE,1.35984443507774,103.757549126032,103.757549126032,669088,JALAN DERMAWAN,HILLVIEW ESTATE,19567.7401864482,37990.3367622644
140 JALAN DERMAWAN SUMMIT VILLE SINGAPORE 669089,140,SUMMIT VILLE,1.35981611895798,103.757415380489,103.757415380489,669089,JALAN DERMAWAN,SUMMIT VILLE,19552.8557541147,37987.2061749771
80A JALAN DERMAWAN HILLVIEW GARDEN ESTATE SINGAPORE 669090,80A,HILLVIEW GARDEN ESTATE,1.36048880997535,103.759420289862,103.759420289862,669090,JALAN DERMAWAN,HILLVIEW GARDEN ESTATE,19775.9812811082,38061.5820568949
80B JALAN DERMAWAN HILLVIEW GARDEN ESTATE SINGAPORE 669091,80B,HILLVIEW GARDEN ESTATE,1.36052082452295,103.759265425512,103.759265425512,669091,JALAN DERMAWAN,HILLVIEW GARDEN ESTATE,19758.7467819834,38065.122593753
64A JALAN DERMAWAN HILLVIEW GARDEN ESTATE SINGAPORE 669092,64A,HILLVIEW GARDEN ESTATE,1.36050723308971,103.760154908024,103.760154908024,669092,JALAN DERMAWAN,HILLVIEW GARDEN ESTATE,19857.7358315596,38063.6167010274
139 JALAN DERMAWAN SUMMIT VILLE SINGAPORE 669093,139,SUMMIT VILLE,1.35949771217416,103.757288588162,103.757288588162,669093,JALAN DERMAWAN,SUMMIT VILLE,19538.7441239422,37951.9987892658
141 JALAN DERMAWAN SUMMIT VILLE SINGAPORE 669094,141,SUMMIT VILLE,1.3594499769589,103.757234283047,103.757234283047,669094,JALAN DERMAWAN,SUMMIT VILLE,19532.7004248295,37946.7206582651
142 JALAN DERMAWAN SUMMIT VILLE SINGAPORE 669095,142,SUMMIT VILLE,1.35978016048262,103.757385087641,103.757385087641,669095,JALAN DERMAWAN,SUMMIT VILLE,19549.4843850164,37983.230172636
143 JALAN DERMAWAN SUMMIT VILLE SINGAPORE 669096,143,SUMMIT VILLE,1.35943553122072,103.757189662835,103.757189662835,669096,JALAN DERMAWAN,SUMMIT VILLE,19527.7346594203,37945.1234772988
144 JALAN DERMAWAN SUMMIT VILLE SINGAPORE 669098,144,SUMMIT VILLE,1.35970876417137,103.757315894924,103.757315894924,669098,JALAN DERMAWAN,SUMMIT VILLE,19541.7837862074,37975.3357679266
146 JALAN DERMAWAN SUMMIT VILLE SINGAPORE 669099,146,SUMMIT VILLE,1.35967431581231,103.757283537993,103.757283537993,669099,JALAN DERMAWAN,SUMMIT VILLE,19538.1827133801,37971.5267540514
148 JALAN DERMAWAN SUMMIT VILLE SINGAPORE 669100,148,SUMMIT VILLE,1.35963943959724,103.757173168612,103.757173168612,669100,JALAN DERMAWAN,SUMMIT VILLE,19525.8997537121,37967.6707037296
150 JALAN DERMAWAN SUMMIT VILLE SINGAPORE 669101,150,SUMMIT VILLE,1.35962539022927,103.757128758622,103.757128758622,669101,JALAN DERMAWAN,SUMMIT VILLE,19520.9573854543,37966.1173508056
137 JALAN DERMAWAN SUMMIT VILLE SINGAPORE 669102,137,SUMMIT VILLE,1.35951211109827,103.757333081637,103.757333081637,669102,JALAN DERMAWAN,SUMMIT VILLE,19543.6957844701,37953.590794405
127A JALAN DERMAWAN THE HILLOFT SINGAPORE 669106,127A,THE HILLOFT,1.35926241387407,103.757602351179,103.757602351179,669106,JALAN DERMAWAN,THE HILLOFT,19573.661512102,37925.9795829579
127B JALAN DERMAWAN THE HILLOFT SINGAPORE 669107,127B,THE HILLOFT,1.35921674325715,103.757559882196,103.757559882196,669107,JALAN DERMAWAN,THE HILLOFT,19568.9350453727,37920.9297028221
127C JALAN DERMAWAN THE HILLOFT SINGAPORE 669108,127C,THE HILLOFT,1.35918298473829,103.757528496478,103.757528496478,669108,JALAN DERMAWAN,THE HILLOFT,19565.442059516,37917.1969642658
127D JALAN DERMAWAN THE HILLOFT SINGAPORE 669109,127D,THE HILLOFT,1.35913730974114,103.757486047624,103.757486047624,669109,JALAN DERMAWAN,THE HILLOFT,19560.7178326175,37912.1465998441
127E JALAN DERMAWAN THE HILLOFT SINGAPORE 669110,127E,THE HILLOFT,1.35910355176884,103.757454661364,103.757454661364,669110,JALAN DERMAWAN,THE HILLOFT,19557.2247862248,37908.4139218237
127F JALAN DERMAWAN THE HILLOFT SINGAPORE 669111,127F,THE HILLOFT,1.3590578836137,103.757412208977,103.757412208977,669111,JALAN DERMAWAN,THE HILLOFT,19552.5001658425,37903.3643140998
127G JALAN DERMAWAN THE HILLOFT SINGAPORE 669112,127G,THE HILLOFT,1.35902412564055,103.75738082272,103.75738082272,669112,JALAN DERMAWAN,THE HILLOFT,19549.0071194489,37899.6316360794
129 JALAN DERMAWAN THE HILLOFT SINGAPORE 669113,129,THE HILLOFT,1.35896443163821,103.757345109021,103.757345109021,669113,JALAN DERMAWAN,THE HILLOFT,19545.032388363,37893.0310968701
131 JALAN DERMAWAN THE HILLOFT SINGAPORE 669114,131,THE HILLOFT,1.35921684463297,103.757277303891,103.757277303891,669114,JALAN DERMAWAN,THE HILLOFT,19537.4873367222,37920.9419008195
131A JALAN DERMAWAN THE HILLOFT SINGAPORE 669115,131A,THE HILLOFT,1.35926300169164,103.757320221616,103.757320221616,669115,JALAN DERMAWAN,THE HILLOFT,19542.2637456246,37926.0455671623
131B JALAN DERMAWAN THE HILLOFT SINGAPORE 669116,131B,THE HILLOFT,1.35929642515093,103.757351182241,103.757351182241,669116,JALAN DERMAWAN,THE HILLOFT,19545.7094226228,37929.7412577067
131C JALAN DERMAWAN THE HILLOFT SINGAPORE 669117,131C,THE HILLOFT,1.35933355705828,103.757405531747,103.757405531747,669117,JALAN DERMAWAN,THE HILLOFT,19551.7580251498,37933.8469280899
131D JALAN DERMAWAN THE HILLOFT SINGAPORE 669118,131D,THE HILLOFT,1.35936022665385,103.757443319225,103.757443319225,669118,JALAN DERMAWAN,THE HILLOFT,19555.9634285392,37936.7957864031
2 JALAN BATU NILAM HILLVIEW GARDEN ESTATE SINGAPORE 669126,2,HILLVIEW GARDEN ESTATE,1.3605118423646,103.76293981331,103.76293981331,669126,JALAN BATU NILAM,HILLVIEW GARDEN ESTATE,20167.6635190416,38064.1171518713
4 JALAN BATU NILAM HILLVIEW GARDEN ESTATE SINGAPORE 669127,4,HILLVIEW GARDEN ESTATE,1.36046522806819,103.7628994662,103.7628994662,669127,JALAN BATU NILAM,HILLVIEW GARDEN ESTATE,20163.1732031219,38058.9629077278
6 JALAN BATU NILAM HILLVIEW GARDEN ESTATE SINGAPORE 669128,6,HILLVIEW GARDEN ESTATE,1.36041222105959,103.762869819158,103.762869819158,669128,JALAN BATU NILAM,HILLVIEW GARDEN ESTATE,20159.8736599488,38053.1017548237
8 JALAN BATU NILAM HILLVIEW GARDEN ESTATE SINGAPORE 669129,8,HILLVIEW GARDEN ESTATE,1.36036028594144,103.762838597062,103.762838597062,669129,JALAN BATU NILAM,HILLVIEW GARDEN ESTATE,20156.3988348814,38047.3591313455
10 JALAN BATU NILAM HILLVIEW GARDEN ESTATE SINGAPORE 669130,10,HILLVIEW GARDEN ESTATE,1.36031001258321,103.762804974171,103.762804974171,669130,JALAN BATU NILAM,HILLVIEW GARDEN ESTATE,20152.656834323,38041.8002647962
12 JALAN BATU NILAM HILLVIEW GARDEN ESTATE SINGAPORE 669131,12,HILLVIEW GARDEN ESTATE,1.36024870908115,103.762787023237,103.762787023237,669131,JALAN BATU NILAM,HILLVIEW GARDEN ESTATE,20150.6589052537,38035.0216893069
14 JALAN BATU NILAM HILLVIEW GARDEN ESTATE SINGAPORE 669132,14,HILLVIEW GARDEN ESTATE,1.36021045536502,103.762736231942,103.762736231942,669132,JALAN BATU NILAM,HILLVIEW GARDEN ESTATE,20145.0062987581,38030.7919504587
16 JALAN BATU NILAM HILLVIEW GARDEN ESTATE SINGAPORE 669133,16,HILLVIEW GARDEN ESTATE,1.36015934441958,103.762703830532,103.762703830532,669133,JALAN BATU NILAM,HILLVIEW GARDEN ESTATE,20141.4002317144,38025.1404638775
18 JALAN BATU NILAM HILLVIEW GARDEN ESTATE SINGAPORE 669134,18,HILLVIEW GARDEN ESTATE,1.36010935326434,103.762669742556,103.762669742556,669134,JALAN BATU NILAM,HILLVIEW GARDEN ESTATE,20137.6064729029,38019.6128036194
20 JALAN BATU NILAM HILLVIEW GARDEN ESTATE SINGAPORE 669135,20,HILLVIEW GARDEN ESTATE,1.36005927397258,103.76263585204,103.76263585204,669135,JALAN BATU NILAM,HILLVIEW GARDEN ESTATE,20133.8346886486,38014.0753970705
22 JALAN BATU NILAM HILLVIEW GARDEN ESTATE SINGAPORE 669136,22,HILLVIEW GARDEN ESTATE,1.36000607721409,103.762604498897,103.762604498897,669136,JALAN BATU NILAM,HILLVIEW GARDEN ESTATE,20130.345274413,38008.1932684556
24 JALAN BATU NILAM HILLVIEW GARDEN ESTATE SINGAPORE 669137,24,HILLVIEW GARDEN ESTATE,1.35995911156051,103.76256823991,103.76256823991,669137,JALAN BATU NILAM,HILLVIEW GARDEN ESTATE,20126.3099165559,38003.000160221
1 HILLVIEW WAY HILLVIEW VILLAS SINGAPORE 669172,1,HILLVIEW VILLAS,1.35410396732579,103.75941371393,103.75941371393,669172,HILLVIEW WAY,HILLVIEW VILLAS,19775.2278807256,37355.57815855
2 HILLVIEW WAY HILLVIEW VILLAS SINGAPORE 669173,2,HILLVIEW VILLAS,1.35374311115721,103.759363426502,103.759363426502,669173,HILLVIEW WAY,HILLVIEW VILLAS,19769.6302408883,37315.6766625829
3 HILLVIEW WAY HILLVIEW VILLAS SINGAPORE 669174,3,HILLVIEW VILLAS,1.35409396049888,103.759494610569,103.759494610569,669174,HILLVIEW WAY,HILLVIEW VILLAS,19784.2307292661,37354.471379457
4 HILLVIEW WAY HILLVIEW VILLAS SINGAPORE 669175,4,HILLVIEW VILLAS,1.35374333856999,103.759423947384,103.759423947384,669175,HILLVIEW WAY,HILLVIEW VILLAS,19776.365533161,37315.7016034015
5 HILLVIEW WAY HILLVIEW VILLAS SINGAPORE 669176,5,HILLVIEW VILLAS,1.35409402842361,103.759558425923,103.759558425923,669176,HILLVIEW WAY,HILLVIEW VILLAS,19791.3326576259,37354.4786740411
6 HILLVIEW WAY HILLVIEW VILLAS SINGAPORE 669177,6,HILLVIEW VILLAS,1.35374336899463,103.759487760826,103.759487760826,669177,HILLVIEW WAY,HILLVIEW VILLAS,19783.4672496449,37315.7047512718
7 HILLVIEW WAY HILLVIEW VILLAS SINGAPORE 669178,7,HILLVIEW VILLAS,1.35409413318958,103.759618614733,103.759618614733,669178,HILLVIEW WAY,HILLVIEW VILLAS,19798.0309926905,37354.490054803
8 HILLVIEW WAY HILLVIEW VILLAS SINGAPORE 669179,8,HILLVIEW VILLAS,1.35374353644647,103.75954794337,103.75954794337,669179,HILLVIEW WAY,HILLVIEW VILLAS,19790.1648885459,37315.7230634019
9 HILLVIEW WAY HILLVIEW VILLAS SINGAPORE 669180,9,HILLVIEW VILLAS,1.35409421452382,103.759682427639,103.759682427639,669180,HILLVIEW WAY,HILLVIEW VILLAS,19805.1326486385,37354.4988325182
10 HILLVIEW WAY HILLVIEW VILLAS SINGAPORE 669181,10,HILLVIEW VILLAS,1.35374356413048,103.759611756268,103.759611756268,669181,HILLVIEW WAY,HILLVIEW VILLAS,19797.2665444938,37315.7259085923
11 HILLVIEW WAY HILLVIEW VILLAS SINGAPORE 669182,11,HILLVIEW VILLAS,1.35409430313635,103.75974261237,103.75974261237,669182,HILLVIEW WAY,HILLVIEW VILLAS,19811.8305296833,37354.5084274691
12 HILLVIEW WAY HILLVIEW VILLAS SINGAPORE 669183,12,HILLVIEW VILLAS,1.35374373048429,103.75967193854,103.75967193854,669183,HILLVIEW WAY,HILLVIEW VILLAS,19803.9641531268,37315.7440996505
13 HILLVIEW WAY SINGAPORE 669184,13,NIL,1.35418959193375,103.759805375024,103.759805375024,669184,HILLVIEW WAY,13 HILLVIEW WAY SINGAPORE 669184,19818.8156236252,37365.0447731372
14 HILLVIEW WAY HILLVIEW VILLAS SINGAPORE 669185,14,HILLVIEW VILLAS,1.35374375542766,103.759735750351,103.759735750351,669185,HILLVIEW WAY,HILLVIEW VILLAS,19811.0656880019,37315.7466421612
15 HILLVIEW WAY SINGAPORE 669186,15,NIL,1.35418750196071,103.759867380166,103.759867380166,669186,HILLVIEW WAY,15 HILLVIEW WAY SINGAPORE 669186,19825.7160882847,37364.813465206
16 HILLVIEW WAY HILLVIEW VILLAS SINGAPORE 669187,16,HILLVIEW VILLAS,1.35374384432893,103.759796486371,103.759796486371,669187,HILLVIEW WAY,HILLVIEW VILLAS,19817.8249222506,37315.75626738
17 HILLVIEW WAY HILLVIEW VILLAS SINGAPORE 669188,17,HILLVIEW VILLAS,1.35409458040887,103.75993041829,103.75993041829,669188,HILLVIEW WAY,HILLVIEW VILLAS,19832.7312080674,37354.5384533089
19 HILLVIEW WAY HILLVIEW VILLAS SINGAPORE 669189,19,HILLVIEW VILLAS,1.354127412803,103.760013924894,103.760013924894,669189,HILLVIEW WAY,HILLVIEW VILLAS,19842.02465952,37358.1686136685
15 HILLVIEW TERRACE HILLVIEW INDUSTRIAL ESTATE SINGAPORE 669226,15,HILLVIEW INDUSTRIAL ESTATE,1.35251718692256,103.758936331977,103.758936331977,669226,HILLVIEW TERRACE,HILLVIEW INDUSTRIAL ESTATE,19722.0952805001,37180.1215580422
17 HILLVIEW TERRACE HILLVIEW INDUSTRIAL ESTATE SINGAPORE 669228,17,HILLVIEW INDUSTRIAL ESTATE,1.35250805251186,103.758831460388,103.758831460388,669228,HILLVIEW TERRACE,HILLVIEW INDUSTRIAL ESTATE,19710.4242183911,37179.111878641
18 HILLVIEW TERRACE NATURA@HILLVIEW SINGAPORE 669229,18,NATURA@HILLVIEW,1.35300842405369,103.759134678556,103.759134678556,669229,HILLVIEW TERRACE,NATURA@HILLVIEW,19744.1706896005,37234.4394222405
19 HILLVIEW TERRACE HILLVIEW INDUSTRIAL ESTATE SINGAPORE 669230,19,HILLVIEW INDUSTRIAL ESTATE,1.35253494409785,103.758728148847,103.758728148847,669230,HILLVIEW TERRACE,HILLVIEW INDUSTRIAL ESTATE,19698.9268945074,37182.0857685767
20 HILLVIEW TERRACE NATURA@HILLVIEW SINGAPORE 669231,20,NATURA@HILLVIEW,1.35299132098126,103.758797993835,103.758797993835,669231,HILLVIEW TERRACE,NATURA@HILLVIEW,19706.7014077334,37232.549398534
21 HILLVIEW TERRACE HILLS TWOONE SINGAPORE 669232,21,HILLS TWOONE,1.35244924586092,103.758421056033,103.758421056033,669232,HILLVIEW TERRACE,HILLS TWOONE,19664.7506179288,37172.61073949
22 HILLVIEW TERRACE NATURA@HILLVIEW SINGAPORE 669233,22,NATURA@HILLVIEW,1.35327028652997,103.758796748641,103.758796748641,669233,HILLVIEW TERRACE,NATURA@HILLVIEW,19706.5637792116,37263.3960152958
26 HILLVIEW TERRACE HILLVIEW INDUSTRIAL ESTATE SINGAPORE 669237,26,HILLVIEW INDUSTRIAL ESTATE,1.35379902173245,103.758129778828,103.758129778828,669237,HILLVIEW TERRACE,HILLVIEW INDUSTRIAL ESTATE,19632.3393582841,37321.8631963115
26A HILLVIEW TERRACE HILLVIEW INDUSTRIAL ESTATE SINGAPORE 669238,26A,HILLVIEW INDUSTRIAL ESTATE,1.35381710211613,103.758026828955,103.758026828955,669238,HILLVIEW TERRACE,HILLVIEW INDUSTRIAL ESTATE,19620.8822605517,37323.8627901189
26B HILLVIEW TERRACE HILLVIEW INDUSTRIAL ESTATE SINGAPORE 669239,26B,HILLVIEW INDUSTRIAL ESTATE,1.35382126643771,103.757922664861,103.757922664861,669239,HILLVIEW TERRACE,HILLVIEW INDUSTRIAL ESTATE,19609.2899860041,37324.3236201722
28 HILLVIEW TERRACE HILLVIEW INDUSTRIAL ESTATE SINGAPORE 669242,28,HILLVIEW INDUSTRIAL ESTATE,1.35382543048109,103.757818502671,103.757818502671,669242,HILLVIEW TERRACE,HILLVIEW INDUSTRIAL ESTATE,19597.6979233315,37324.7844199557
28A HILLVIEW TERRACE HILLVIEW INDUSTRIAL ESTATE SINGAPORE 669243,28A,HILLVIEW INDUSTRIAL ESTATE,1.35382959534075,103.757714328241,103.757714328241,669243,HILLVIEW TERRACE,HILLVIEW INDUSTRIAL ESTATE,19586.1044986006,37325.2453105431
28B HILLVIEW TERRACE HILLVIEW INDUSTRIAL ESTATE SINGAPORE 669244,28B,HILLVIEW INDUSTRIAL ESTATE,1.35383375937438,103.757610143205,103.757610143205,669244,HILLVIEW TERRACE,HILLVIEW INDUSTRIAL ESTATE,19574.5098934183,37325.7061103284
29 HILLVIEW TERRACE HILLVIEW WAREHOUSE SINGAPORE 669245,29,HILLVIEW WAREHOUSE,1.35245394591947,103.757808847745,103.757808847745,669245,HILLVIEW TERRACE,HILLVIEW WAREHOUSE,19596.6187183727,37173.1325595286
30 HILLVIEW TERRACE HILLVIEW INDUSTRIAL ESTATE SINGAPORE 669246,30,HILLVIEW INDUSTRIAL ESTATE,1.35382430189303,103.7575050918,103.7575050918,669246,HILLVIEW TERRACE,HILLVIEW INDUSTRIAL ESTATE,19562.8188241711,37324.6607147064
30A HILLVIEW TERRACE HILLVIEW INDUSTRIAL ESTATE SINGAPORE 669247,30A,HILLVIEW INDUSTRIAL ESTATE,1.3538261537311,103.757401954764,103.757401954764,669247,HILLVIEW TERRACE,HILLVIEW INDUSTRIAL ESTATE,19551.3408415299,37324.8658408318
30B HILLVIEW TERRACE HILLVIEW INDUSTRIAL ESTATE SINGAPORE 669248,30B,HILLVIEW INDUSTRIAL ESTATE,1.35380969667644,103.757281227635,103.757281227635,669248,HILLVIEW TERRACE,HILLVIEW INDUSTRIAL ESTATE,19537.9052165058,37323.0465231352
31 HILLVIEW TERRACE SINGAPORE 669249,31,NIL,1.35254731595649,103.757298309028,103.757298309028,669249,HILLVIEW TERRACE,31 HILLVIEW TERRACE SINGAPORE 669249,19539.8018083656,37183.4587243181
32 HILLVIEW TERRACE HILLVIEW INDUSTRIAL ESTATE SINGAPORE 669250,32,HILLVIEW INDUSTRIAL ESTATE,1.35337433920906,103.756919184541,103.756919184541,669250,HILLVIEW TERRACE,HILLVIEW INDUSTRIAL ESTATE,19497.6123857768,37274.9081402235
32A HILLVIEW TERRACE HILLVIEW INDUSTRIAL ESTATE SINGAPORE 669251,32A,HILLVIEW INDUSTRIAL ESTATE,1.3533704793474,103.757015551568,103.757015551568,669251,HILLVIEW TERRACE,HILLVIEW INDUSTRIAL ESTATE,19508.3369377675,37274.480998436
32B HILLVIEW TERRACE HILLVIEW INDUSTRIAL ESTATE SINGAPORE 669252,32B,HILLVIEW INDUSTRIAL ESTATE,1.35336631314785,103.757119714826,103.757119714826,669252,HILLVIEW TERRACE,HILLVIEW INDUSTRIAL ESTATE,19519.929121512,37274.0199565087
33 HILLVIEW TERRACE SINGAPORE 669253,33,NIL,1.35256464373467,103.757210110442,103.757210110442,669253,HILLVIEW TERRACE,33 HILLVIEW TERRACE SINGAPORE 669253,19529.9863552656,37185.3750509042
34 HILLVIEW TERRACE HILLVIEW INDUSTRIAL ESTATE SINGAPORE 669254,34,HILLVIEW INDUSTRIAL ESTATE,1.35336214502778,103.757223881076,103.757223881076,669254,HILLVIEW TERRACE,HILLVIEW INDUSTRIAL ESTATE,19531.5216382034,37273.5587027054
34A HILLVIEW TERRACE HILLVIEW INDUSTRIAL ESTATE SINGAPORE 669255,34A,HILLVIEW INDUSTRIAL ESTATE,1.35335797717721,103.757328058205,103.757328058205,669255,HILLVIEW TERRACE,HILLVIEW INDUSTRIAL ESTATE,19543.1153656151,37273.0974791683
34B HILLVIEW TERRACE HILLVIEW INDUSTRIAL ESTATE SINGAPORE 669256,34B,HILLVIEW INDUSTRIAL ESTATE,1.35335377403481,103.757433002582,103.757433002582,669256,HILLVIEW TERRACE,HILLVIEW INDUSTRIAL ESTATE,19554.7944790078,37272.6323510632
35 HILLVIEW TERRACE SINGAPORE 669257,35,NIL,1.35260500908929,103.75699107254,103.75699107254,669257,HILLVIEW TERRACE,35 HILLVIEW TERRACE SINGAPORE 669257,19505.6100345785,37189.8392152861
36 HILLVIEW TERRACE HILLVIEW INDUSTRIAL ESTATE SINGAPORE 669258,36,HILLVIEW INDUSTRIAL ESTATE,1.35334514833912,103.757621090479,103.757621090479,669258,HILLVIEW TERRACE,HILLVIEW INDUSTRIAL ESTATE,19575.726515023,37271.6779107321
36A HILLVIEW TERRACE HILLVIEW INDUSTRIAL ESTATE SINGAPORE 669259,36A,HILLVIEW INDUSTRIAL ESTATE,1.3533409152414,103.757722666421,103.757722666421,669259,HILLVIEW TERRACE,HILLVIEW INDUSTRIAL ESTATE,19587.0307594379,37271.2094834168
36B HILLVIEW TERRACE HILLVIEW INDUSTRIAL ESTATE SINGAPORE 669260,36B,HILLVIEW INDUSTRIAL ESTATE,1.35333652181375,103.757826851715,103.757826851715,669260,HILLVIEW TERRACE,HILLVIEW INDUSTRIAL ESTATE,19598.6253948892,37270.723319063
38 HILLVIEW TERRACE HILLVIEW INDUSTRIAL ESTATE SINGAPORE 669261,38,HILLVIEW INDUSTRIAL ESTATE,1.35333212810791,103.757931038914,103.757931038914,669261,HILLVIEW TERRACE,HILLVIEW INDUSTRIAL ESTATE,19610.2202422153,37270.2371244393
38A HILLVIEW TERRACE HILLVIEW INDUSTRIAL ESTATE SINGAPORE 669262,38A,HILLVIEW INDUSTRIAL ESTATE,1.35332773275526,103.758035229104,103.758035229104,669262,HILLVIEW TERRACE,HILLVIEW INDUSTRIAL ESTATE,19621.8154224902,37269.7507482097
38B HILLVIEW TERRACE HILLVIEW INDUSTRIAL ESTATE SINGAPORE 669263,38B,HILLVIEW INDUSTRIAL ESTATE,1.35332334287241,103.758139410046,103.758139410046,669263,HILLVIEW TERRACE,HILLVIEW INDUSTRIAL ESTATE,19633.4095736528,37269.2649773378
38C HILLVIEW TERRACE HILLVIEW INDUSTRIAL ESTATE SINGAPORE 669264,38C,HILLVIEW INDUSTRIAL ESTATE,1.35331895079244,103.758243501508,103.758243501508,669264,HILLVIEW TERRACE,HILLVIEW INDUSTRIAL ESTATE,19644.9937666487,37268.7789643239
38D HILLVIEW TERRACE HILLVIEW INDUSTRIAL ESTATE SINGAPORE 669265,38D,HILLVIEW INDUSTRIAL ESTATE,1.35331474721071,103.758344410833,103.758344410833,669265,HILLVIEW TERRACE,HILLVIEW INDUSTRIAL ESTATE,19656.2238242356,37268.3138059508
42 HILLVIEW TERRACE LAUREL TREE SINGAPORE 669267,42,LAUREL TREE,1.35297897768631,103.758272812318,103.758272812318,669267,HILLVIEW TERRACE,LAUREL TREE,19648.2545668026,37231.1863404233
48 HILLVIEW TERRACE HILLVIEW BUILDING SINGAPORE 669269,48,HILLVIEW BUILDING,1.35301305588697,103.757716331621,103.757716331621,669269,HILLVIEW TERRACE,HILLVIEW BUILDING,19586.3246376459,37234.9564599395
50 HILLVIEW TERRACE SINGAPORE 669270,50,NIL,1.35300709560584,103.757341120487,103.757341120487,669270,HILLVIEW TERRACE,50 HILLVIEW TERRACE SINGAPORE 669270,19544.5678353496,37234.2987063844
52 HILLVIEW TERRACE SINGAPORE 669271,52,NIL,1.35301718495574,103.757240543892,103.757240543892,669271,HILLVIEW TERRACE,52 HILLVIEW TERRACE SINGAPORE 669271,19533.3748257747,37235.4146869443
54 HILLVIEW TERRACE SINGAPORE 669272,54,NIL,1.35301801642995,103.757141228471,103.757141228471,669272,HILLVIEW TERRACE,54 HILLVIEW TERRACE SINGAPORE 669272,19522.3221385721,37235.5069740266
56 HILLVIEW TERRACE SINGAPORE 669273,56,NIL,1.35301820928083,103.757041880976,103.757041880976,669273,HILLVIEW TERRACE,56 HILLVIEW TERRACE SINGAPORE 669273,19511.2658797484,37235.5286459029
58 HILLVIEW TERRACE SINGAPORE 669274,58,NIL,1.35301760994347,103.756942473128,103.756942473128,669274,HILLVIEW TERRACE,58 HILLVIEW TERRACE SINGAPORE 669274,19500.2029014314,37235.4627222344
60 HILLVIEW TERRACE SINGAPORE 669275,60,NIL,1.35301904909592,103.756843286333,103.756843286333,669275,HILLVIEW TERRACE,60 HILLVIEW TERRACE SINGAPORE 669275,19489.164530986,37235.6222042404
62 HILLVIEW TERRACE SINGAPORE 669276,62,NIL,1.35301986741218,103.756743895032,103.756743895032,669276,HILLVIEW TERRACE,62 HILLVIEW TERRACE SINGAPORE 669276,19478.103399016,37235.7130384594
64 HILLVIEW TERRACE SINGAPORE 669277,64,NIL,1.35301534276454,103.756645363617,103.756645363617,669277,HILLVIEW TERRACE,64 HILLVIEW TERRACE SINGAPORE 669277,19467.1379441433,37235.2130719051
2 HILLVIEW ROAD SINGAPORE 669317,2,NIL,1.36230988592362,103.766877265217,103.766877265217,669317,HILLVIEW ROAD,2 HILLVIEW ROAD SINGAPORE 669317,20605.8617154248,38262.923352791
1 HILLVIEW DRIVE HILLVIEW VILLAS SINGAPORE 669363,1,HILLVIEW VILLAS,1.35435408687573,103.76016370543,103.76016370543,669363,HILLVIEW DRIVE,HILLVIEW VILLAS,19858.6942975326,37383.2325926777
2 HILLVIEW DRIVE HILLVIEW VILLAS SINGAPORE 669364,2,HILLVIEW VILLAS,1.35469300036613,103.760331796764,103.760331796764,669364,HILLVIEW DRIVE,HILLVIEW VILLAS,19877.4020907646,37420.7073833179
3 HILLVIEW DRIVE HILLVIEW VILLAS SINGAPORE 669365,3,HILLVIEW VILLAS,1.35435409044716,103.760101082686,103.760101082686,669365,HILLVIEW DRIVE,HILLVIEW VILLAS,19851.7250942811,37383.2331980374
4 HILLVIEW DRIVE HILLVIEW VILLAS SINGAPORE 669366,4,HILLVIEW VILLAS,1.35469286302628,103.760271056913,103.760271056913,669366,HILLVIEW DRIVE,HILLVIEW VILLAS,19870.6424327651,37420.692400666
5 HILLVIEW DRIVE HILLVIEW VILLAS SINGAPORE 669367,5,HILLVIEW VILLAS,1.35435387099925,103.76004090448,103.76004090448,669367,HILLVIEW DRIVE,HILLVIEW VILLAS,19845.0279396679,37383.2091349903
6 HILLVIEW DRIVE HILLVIEW VILLAS SINGAPORE 669368,6,HILLVIEW VILLAS,1.35469270095403,103.760207191501,103.760207191501,669368,HILLVIEW DRIVE,HILLVIEW VILLAS,19863.5349350963,37420.6746938955
7 HILLVIEW DRIVE HILLVIEW VILLAS SINGAPORE 669369,7,HILLVIEW VILLAS,1.35435388356465,103.759977099179,103.759977099179,669369,HILLVIEW DRIVE,HILLVIEW VILLAS,19837.9271312244,37383.2107391935
8 HILLVIEW DRIVE HILLVIEW VILLAS SINGAPORE 669370,8,HILLVIEW VILLAS,1.35469261016504,103.760147091612,103.760147091612,669370,HILLVIEW DRIVE,HILLVIEW VILLAS,19856.8464976624,37420.6648568008
9 HILLVIEW DRIVE HILLVIEW VILLAS SINGAPORE 669371,9,HILLVIEW VILLAS,1.35435368436978,103.759916919068,103.759916919068,669371,HILLVIEW DRIVE,HILLVIEW VILLAS,19831.2297647353,37383.1889159773
10 HILLVIEW DRIVE HILLVIEW VILLAS SINGAPORE 669372,10,HILLVIEW VILLAS,1.35469248915242,103.760083324927,103.760083324927,669372,HILLVIEW DRIVE,HILLVIEW VILLAS,19849.7499872725,37420.6516902279
11 HILLVIEW DRIVE HILLVIEW VILLAS SINGAPORE 669373,11,HILLVIEW VILLAS,1.35435368269757,103.759853106152,103.759853106152,669373,HILLVIEW DRIVE,HILLVIEW VILLAS,19824.1281087874,37383.1889462452
12 HILLVIEW DRIVE HILLVIEW VILLAS SINGAPORE 669374,12,HILLVIEW VILLAS,1.35469238987203,103.760023140181,103.760023140181,669374,HILLVIEW DRIVE,HILLVIEW VILLAS,19843.0521062268,37420.6409148257
13 HILLVIEW DRIVE HILLVIEW VILLAS SINGAPORE 669375,13,HILLVIEW VILLAS,1.35433096448248,103.759788751327,103.759788751327,669375,HILLVIEW DRIVE,HILLVIEW VILLAS,19816.9660682119,37380.6770970803
14 HILLVIEW DRIVE HILLVIEW VILLAS SINGAPORE 669376,14,HILLVIEW VILLAS,1.35469227405554,103.759959324812,103.759959324812,669376,HILLVIEW DRIVE,HILLVIEW VILLAS,19835.9501778679,37420.6283233445
15 HILLVIEW DRIVE HILLVIEW VILLAS SINGAPORE 669377,15,HILLVIEW VILLAS,1.3543533035763,103.759673823165,103.759673823165,669377,HILLVIEW DRIVE,HILLVIEW VILLAS,19804.1759382086,37383.1476304475
16 HILLVIEW DRIVE HILLVIEW VILLAS SINGAPORE 669378,16,HILLVIEW VILLAS,1.35469224346517,103.759898688038,103.759898688038,669378,HILLVIEW DRIVE,HILLVIEW VILLAS,19829.2019914342,37420.6251452062
17 HILLVIEW DRIVE HILLVIEW VILLAS SINGAPORE 669379,17,HILLVIEW VILLAS,1.3543532111125,103.75961308441,103.75961308441,669379,HILLVIEW DRIVE,HILLVIEW VILLAS,19797.416401281,37383.1376117449
18 HILLVIEW DRIVE HILLVIEW VILLAS SINGAPORE 669380,18,HILLVIEW VILLAS,1.35470827259493,103.759787574258,103.759787574258,669380,HILLVIEW DRIVE,HILLVIEW VILLAS,19816.8363396339,37422.3979410119
19 HILLVIEW DRIVE HILLVIEW VILLAS SINGAPORE 669381,19,HILLVIEW VILLAS,1.35435321053145,103.759549411291,103.759549411291,669381,HILLVIEW DRIVE,HILLVIEW VILLAS,19790.3303030767,37383.1377630848
20 HILLVIEW DRIVE HILLVIEW VILLAS SINGAPORE 669382,20,HILLVIEW VILLAS,1.35470967557938,103.759719334861,103.759719334861,669382,HILLVIEW DRIVE,HILLVIEW VILLAS,19809.2420722516,37422.5533065721
21 HILLVIEW DRIVE HILLVIEW VILLAS SINGAPORE 669383,21,HILLVIEW VILLAS,1.3543530217317,103.759489359554,103.759489359554,669383,HILLVIEW DRIVE,HILLVIEW VILLAS,19783.6472230759,37383.117090052
22 HILLVIEW DRIVE HILLVIEW VILLAS SINGAPORE 669384,22,HILLVIEW VILLAS,1.35469171019948,103.7596556106,103.7596556106,669384,HILLVIEW DRIVE,HILLVIEW VILLAS,19802.1502231304,37420.5670004096
23 HILLVIEW DRIVE HILLVIEW VILLAS SINGAPORE 669385,23,HILLVIEW VILLAS,1.35435296228637,103.759425409836,103.759425409836,669385,HILLVIEW DRIVE,HILLVIEW VILLAS,19776.530342333,37383.1107337754
24 HILLVIEW DRIVE HILLVIEW VILLAS SINGAPORE 669386,24,HILLVIEW VILLAS,1.35470670534716,103.759595415335,103.759595415335,669386,HILLVIEW DRIVE,HILLVIEW VILLAS,19795.4512221701,37422.2252924331
25 HILLVIEW DRIVE HILLVIEW VILLAS SINGAPORE 669387,25,HILLVIEW VILLAS,1.3543527636102,103.759364741255,103.759364741255,669387,HILLVIEW DRIVE,HILLVIEW VILLAS,19769.7786145452,37383.0889710952
26 HILLVIEW DRIVE HILLVIEW VILLAS SINGAPORE 669388,26,HILLVIEW VILLAS,1.35469149399397,103.759531880831,103.759531880831,669388,HILLVIEW DRIVE,HILLVIEW VILLAS,19788.3805001015,37420.5435124543
28 HILLVIEW DRIVE HILLVIEW VILLAS SINGAPORE 669389,28,HILLVIEW VILLAS,1.35469140263799,103.75947169391,103.75947169391,669389,HILLVIEW DRIVE,HILLVIEW VILLAS,19781.6823769128,37420.5336148236
30 HILLVIEW DRIVE HILLVIEW VILLAS SINGAPORE 669390,30,HILLVIEW VILLAS,1.35469127640493,103.759407874191,103.759407874191,669390,HILLVIEW DRIVE,HILLVIEW VILLAS,19774.5799642662,37420.519873159
32 HILLVIEW DRIVE HILLVIEW VILLAS SINGAPORE 669391,32,HILLVIEW VILLAS,1.35469125510815,103.759347256184,103.759347256184,669391,HILLVIEW DRIVE,HILLVIEW VILLAS,19767.8338663233,37420.5177241322
1 HILLVIEW CRESCENT HILLVIEW VILLAS SINGAPORE 669426,1,HILLVIEW VILLAS,1.35313056168906,103.759644880367,103.759644880367,669426,HILLVIEW CRESCENT,HILLVIEW VILLAS,19800.9508240074,37247.9430594239
2 HILLVIEW CRESCENT HILLVIEW VILLAS SINGAPORE 669427,2,HILLVIEW VILLAS,1.35350649804843,103.759730621489,103.759730621489,669427,HILLVIEW CRESCENT,HILLVIEW VILLAS,19810.4941073982,37289.5119278114
3 HILLVIEW CRESCENT HILLVIEW VILLAS SINGAPORE 669428,3,HILLVIEW VILLAS,1.35313081904681,103.759583823691,103.759583823691,669428,HILLVIEW CRESCENT,HILLVIEW VILLAS,19794.1559038069,37247.9717232045
4 HILLVIEW CRESCENT HILLVIEW VILLAS SINGAPORE 669429,4,HILLVIEW VILLAS,1.35348487028617,103.759654175642,103.759654175642,669429,HILLVIEW CRESCENT,HILLVIEW VILLAS,19801.9864733387,37287.1206965614
5 HILLVIEW CRESCENT HILLVIEW VILLAS SINGAPORE 669430,5,HILLVIEW VILLAS,1.35313105689658,103.759520433997,103.759520433997,669430,HILLVIEW CRESCENT,HILLVIEW VILLAS,19787.1013448425,37247.99823796
6 HILLVIEW CRESCENT HILLVIEW VILLAS SINGAPORE 669431,6,HILLVIEW VILLAS,1.35348471805523,103.75959036085,103.75959036085,669431,HILLVIEW CRESCENT,HILLVIEW VILLAS,19794.8846055148,37287.1040794384
7 HILLVIEW CRESCENT HILLVIEW VILLAS SINGAPORE 669432,7,HILLVIEW VILLAS,1.35308528251625,103.759458325891,103.759458325891,669432,HILLVIEW CRESCENT,HILLVIEW VILLAS,19780.1892572762,37242.9369467944
8 HILLVIEW CRESCENT HILLVIEW VILLAS SINGAPORE 669433,8,HILLVIEW VILLAS,1.35348280143994,103.75952974429,103.75952974429,669433,HILLVIEW CRESCENT,HILLVIEW VILLAS,19788.1386589119,37286.8923548926
10 HILLVIEW CRESCENT HILLVIEW VILLAS SINGAPORE 669434,10,HILLVIEW VILLAS,1.35348453906902,103.759466358893,103.759466358893,669434,HILLVIEW CRESCENT,HILLVIEW VILLAS,19781.0845842352,37287.0847079288
11 HILLVIEW CRESCENT HILLVIEW VILLAS SINGAPORE 669435,11,HILLVIEW VILLAS,1.3534824188536,103.75889189579,103.75889189579,669435,HILLVIEW CRESCENT,HILLVIEW VILLAS,19717.1533057271,37286.8522195462
12 HILLVIEW CRESCENT HILLVIEW VILLAS SINGAPORE 669436,12,HILLVIEW VILLAS,1.35348451888354,103.759406172271,103.759406172271,669436,HILLVIEW CRESCENT,HILLVIEW VILLAS,19774.3864913136,37287.0826799739
13 HILLVIEW CRESCENT SINGAPORE 669437,13,NIL,1.35356619792055,103.758933227223,103.758933227223,669437,HILLVIEW CRESCENT,13 HILLVIEW CRESCENT SINGAPORE 669437,19721.7533128206,37296.1159478389
14 HILLVIEW CRESCENT HILLVIEW VILLAS SINGAPORE 669438,14,HILLVIEW VILLAS,1.35348436254013,103.759342359656,103.759342359656,669438,HILLVIEW CRESCENT,HILLVIEW VILLAS,19767.2848656345,37287.0656088311
15 HILLVIEW CRESCENT HILLVIEW VILLAS SINGAPORE 669439,15,HILLVIEW VILLAS,1.35365170862199,103.758965766403,103.758965766403,669439,HILLVIEW CRESCENT,HILLVIEW VILLAS,19725.374846804,37305.5711816642
16 HILLVIEW CRESCENT HILLVIEW VILLAS SINGAPORE 669440,16,HILLVIEW VILLAS,1.35348439380294,103.759281836053,103.759281836053,669440,HILLVIEW CRESCENT,HILLVIEW VILLAS,19760.549270682,37287.0692712571
17 HILLVIEW CRESCENT HILLVIEW VILLAS SINGAPORE 669441,17,HILLVIEW VILLAS,1.35371486156126,103.759003907907,103.759003907907,669441,HILLVIEW CRESCENT,HILLVIEW VILLAS,19729.61978018,37312.5541871153
19 HILLVIEW CRESCENT HILLVIEW VILLAS SINGAPORE 669442,19,HILLVIEW VILLAS,1.35377079707428,103.759035856442,103.759035856442,669442,HILLVIEW CRESCENT,HILLVIEW VILLAS,19733.1754812999,37318.7391469087
21 HILLVIEW CRESCENT HILLVIEW VILLAS SINGAPORE 669443,21,HILLVIEW VILLAS,1.3538335994162,103.75906690534,103.75906690534,669443,HILLVIEW CRESCENT,HILLVIEW VILLAS,19736.6310861968,37325.6834093407
23 HILLVIEW CRESCENT HILLVIEW VILLAS SINGAPORE 669444,23,HILLVIEW VILLAS,1.35398333847728,103.759090826612,103.759090826612,669444,HILLVIEW CRESCENT,HILLVIEW VILLAS,19739.2937607244,37342.2407228649
25 HILLVIEW CRESCENT HILLVIEW VILLAS SINGAPORE 669445,25,HILLVIEW VILLAS,1.3540441184468,103.759085201363,103.759085201363,669445,HILLVIEW CRESCENT,HILLVIEW VILLAS,19738.667939893,37348.9614865053
27 HILLVIEW CRESCENT HILLVIEW VILLAS SINGAPORE 669446,27,HILLVIEW VILLAS,1.35410808082643,103.759079397329,103.759079397329,669446,HILLVIEW CRESCENT,HILLVIEW VILLAS,19738.0222329963,37356.0341457259
29 HILLVIEW CRESCENT HILLVIEW VILLAS SINGAPORE 669447,29,HILLVIEW VILLAS,1.35416839435608,103.75907379358,103.75907379358,669447,HILLVIEW CRESCENT,HILLVIEW VILLAS,19737.3988033356,37362.7033327222
31 HILLVIEW CRESCENT HILLVIEW VILLAS SINGAPORE 669448,31,HILLVIEW VILLAS,1.35423235235588,103.759067990089,103.759067990089,669448,HILLVIEW CRESCENT,HILLVIEW VILLAS,19736.7531569749,37369.7755076531
33 HILLVIEW CRESCENT HILLVIEW VILLAS SINGAPORE 669449,33,HILLVIEW VILLAS,1.35429266396927,103.759062386068,103.759062386068,669449,HILLVIEW CRESCENT,HILLVIEW VILLAS,19736.1296970462,37376.4444827735
35 HILLVIEW CRESCENT HILLVIEW VILLAS SINGAPORE 669450,35,HILLVIEW VILLAS,1.35435662881221,103.759056580944,103.759056580944,669450,HILLVIEW CRESCENT,HILLVIEW VILLAS,19735.4838690776,37383.5174144041
37 HILLVIEW CRESCENT HILLVIEW VILLAS SINGAPORE 669451,37,HILLVIEW VILLAS,1.35441731789858,103.75905084065,103.75905084065,669451,HILLVIEW CRESCENT,HILLVIEW VILLAS,19734.8452448891,37390.228129074
39 HILLVIEW CRESCENT HILLVIEW VILLAS SINGAPORE 669452,39,HILLVIEW VILLAS,1.3545504194287,103.759019544806,103.759019544806,669452,HILLVIEW CRESCENT,HILLVIEW VILLAS,19731.3628225587,37404.9459361564
41 HILLVIEW CRESCENT HILLVIEW VILLAS SINGAPORE 669453,41,HILLVIEW VILLAS,1.35460611003649,103.759001036421,103.759001036421,669453,HILLVIEW CRESCENT,HILLVIEW VILLAS,19729.3032376068,37411.1039877124
43 HILLVIEW CRESCENT HILLVIEW VILLAS SINGAPORE 669454,43,HILLVIEW VILLAS,1.35468290767579,103.759028665332,103.759028665332,669454,HILLVIEW CRESCENT,HILLVIEW VILLAS,19732.378283144,37419.5957916155
45 HILLVIEW CRESCENT HILLVIEW VILLAS SINGAPORE 669455,45,HILLVIEW VILLAS,1.35474040162688,103.759009921087,103.759009921087,669455,HILLVIEW CRESCENT,HILLVIEW VILLAS,19730.2924558502,37425.953248648
47 HILLVIEW CRESCENT HILLVIEW VILLAS SINGAPORE 669456,47,HILLVIEW VILLAS,1.35480150279106,103.758990030892,103.758990030892,669456,HILLVIEW CRESCENT,HILLVIEW VILLAS,19728.0791095411,37432.7095771693
49 HILLVIEW CRESCENT HILLVIEW VILLAS SINGAPORE 669457,49,HILLVIEW VILLAS,1.3548589890773,103.758971290453,103.758971290453,669457,HILLVIEW CRESCENT,HILLVIEW VILLAS,19725.9937059991,37439.0661866982
51 HILLVIEW CRESCENT HILLVIEW VILLAS SINGAPORE 669458,51,HILLVIEW VILLAS,1.35492009188323,103.758951394543,103.758951394543,669458,HILLVIEW CRESCENT,HILLVIEW VILLAS,19723.7797240624,37445.8226968274
53 HILLVIEW CRESCENT HILLVIEW VILLAS SINGAPORE 669459,53,HILLVIEW VILLAS,1.35497758884445,103.75893264975,103.75893264975,669459,HILLVIEW CRESCENT,HILLVIEW VILLAS,19721.6938362317,37452.1804868076
55 HILLVIEW CRESCENT HILLVIEW VILLAS SINGAPORE 669460,55,HILLVIEW VILLAS,1.35501873719683,103.758863157494,103.758863157494,669460,HILLVIEW CRESCENT,HILLVIEW VILLAS,19713.9602755886,37456.730703067
57 HILLVIEW CRESCENT HILLVIEW VILLAS SINGAPORE 669461,57,HILLVIEW VILLAS,1.35531653519132,103.758471042031,103.758471042031,669461,HILLVIEW CRESCENT,HILLVIEW VILLAS,19670.3232866786,37489.6610586327
59 HILLVIEW CRESCENT HILLVIEW VILLAS SINGAPORE 669462,59,HILLVIEW VILLAS,1.35533270341399,103.758530449258,103.758530449258,669462,HILLVIEW CRESCENT,HILLVIEW VILLAS,19676.9346920941,37491.4486554824
61 HILLVIEW CRESCENT HILLVIEW VILLAS SINGAPORE 669463,61,HILLVIEW VILLAS,1.35534954891292,103.758591890039,103.758591890039,669463,HILLVIEW CRESCENT,HILLVIEW VILLAS,19683.7724112244,37493.3111353256
63 HILLVIEW CRESCENT HILLVIEW VILLAS SINGAPORE 669464,63,HILLVIEW VILLAS,1.35536555011744,103.758650061409,103.758650061409,669464,HILLVIEW CRESCENT,HILLVIEW VILLAS,19690.2462789211,37495.0802687053
65 HILLVIEW CRESCENT HILLVIEW VILLAS SINGAPORE 669465,65,HILLVIEW VILLAS,1.35538240875255,103.758711501647,103.758711501647,669465,HILLVIEW CRESCENT,HILLVIEW VILLAS,19697.0839375155,37496.9442014098
67 HILLVIEW CRESCENT HILLVIEW VILLAS SINGAPORE 669466,67,HILLVIEW VILLAS,1.3553984603242,103.758769774464,103.758769774464,669466,HILLVIEW CRESCENT,HILLVIEW VILLAS,19703.5690951701,37498.7189041004
69 HILLVIEW CRESCENT HILLVIEW VILLAS SINGAPORE 669467,69,HILLVIEW VILLAS,1.35536523952905,103.758900644419,103.758900644419,669467,HILLVIEW CRESCENT,HILLVIEW VILLAS,19718.1333225034,37495.0450670403
71 HILLVIEW CRESCENT HILLVIEW VILLAS SINGAPORE 669468,71,HILLVIEW VILLAS,1.35535450256056,103.758968912403,103.758968912403,669468,HILLVIEW CRESCENT,HILLVIEW VILLAS,19725.730737756,37493.8575935028
73 HILLVIEW CRESCENT HILLVIEW VILLAS SINGAPORE 669469,73,HILLVIEW VILLAS,1.35532823246622,103.75903182182,103.75903182182,669469,HILLVIEW CRESCENT,HILLVIEW VILLAS,19732.7317526583,37490.9525632299
75 HILLVIEW CRESCENT HILLVIEW VILLAS SINGAPORE 669470,75,HILLVIEW VILLAS,1.35533019427701,103.75909291112,103.75909291112,669470,HILLVIEW CRESCENT,HILLVIEW VILLAS,19739.5303050168,37491.1692819931
77 HILLVIEW CRESCENT HILLVIEW VILLAS SINGAPORE 669471,77,HILLVIEW VILLAS,1.35532441936293,103.759155816103,103.759155816103,669471,HILLVIEW CRESCENT,HILLVIEW VILLAS,19746.5308961673,37490.5305064637
79 HILLVIEW CRESCENT HILLVIEW VILLAS SINGAPORE 669472,79,HILLVIEW VILLAS,1.35532242680072,103.75921599032,103.75921599032,669472,HILLVIEW CRESCENT,HILLVIEW VILLAS,19753.2275967607,37490.3099739347
80 HILLVIEW CRESCENT HILLVIEW VILLAS SINGAPORE 669473,80,HILLVIEW VILLAS,1.35494985384938,103.759265761512,103.759265761512,669473,HILLVIEW CRESCENT,HILLVIEW VILLAS,19758.7653059894,37449.1125542447
81 HILLVIEW CRESCENT HILLVIEW VILLAS SINGAPORE 669474,81,HILLVIEW VILLAS,1.35532060953778,103.75927980114,103.75927980114,669474,HILLVIEW CRESCENT,HILLVIEW VILLAS,19760.3290105639,37490.1088129152
82 HILLVIEW CRESCENT HILLVIEW VILLAS SINGAPORE 669475,82,HILLVIEW VILLAS,1.35495004136214,103.759328262147,103.759328262147,669475,HILLVIEW CRESCENT,HILLVIEW VILLAS,19765.7209189152,37449.1330759376
83 HILLVIEW CRESCENT HILLVIEW VILLAS SINGAPORE 669476,83,HILLVIEW VILLAS,1.35531860136985,103.759339980796,103.759339980796,669476,HILLVIEW CRESCENT,HILLVIEW VILLAS,19767.026316517,37489.886555111
84 HILLVIEW CRESCENT HILLVIEW VILLAS SINGAPORE 669477,84,HILLVIEW VILLAS,1.3549501086336,103.759388449347,103.759388449347,669477,HILLVIEW CRESCENT,HILLVIEW VILLAS,19772.4190723728,37449.1403099857
85 HILLVIEW CRESCENT HILLVIEW VILLAS SINGAPORE 669478,85,HILLVIEW VILLAS,1.35531679532675,103.759403795151,103.759403795151,669478,HILLVIEW CRESCENT,HILLVIEW VILLAS,19774.1281238049,37489.6866350789
86 HILLVIEW CRESCENT HILLVIEW VILLAS SINGAPORE 669479,86,HILLVIEW VILLAS,1.35495023460096,103.759452501613,103.759452501613,669479,HILLVIEW CRESCENT,HILLVIEW VILLAS,19779.5473641455,37449.1540213823
87 HILLVIEW CRESCENT HILLVIEW VILLAS SINGAPORE 669480,87,HILLVIEW VILLAS,1.35531494540744,103.759465090726,103.759465090726,669480,HILLVIEW CRESCENT,HILLVIEW VILLAS,19780.9496192951,37489.4818721693
88 HILLVIEW CRESCENT HILLVIEW VILLAS SINGAPORE 669481,88,HILLVIEW VILLAS,1.35495034841062,103.759512908842,103.759512908842,669481,HILLVIEW CRESCENT,HILLVIEW VILLAS,19786.270004401,37449.1664009877
89 HILLVIEW CRESCENT HILLVIEW VILLAS SINGAPORE 669482,89,HILLVIEW VILLAS,1.35531097466739,103.759581967097,103.759581967097,669482,HILLVIEW CRESCENT,HILLVIEW VILLAS,19793.9566194024,37489.0424113125
90 HILLVIEW CRESCENT HILLVIEW VILLAS SINGAPORE 669483,90,HILLVIEW VILLAS,1.35495050393048,103.759576723128,103.759576723128,669483,HILLVIEW CRESCENT,HILLVIEW VILLAS,19793.3718116889,37449.1833813265
91 HILLVIEW CRESCENT HILLVIEW VILLAS SINGAPORE 669484,91,HILLVIEW VILLAS,1.35531241145017,103.759643224768,103.759643224768,669484,HILLVIEW CRESCENT,HILLVIEW VILLAS,19800.7739076428,37489.2010760829
92 HILLVIEW CRESCENT HILLVIEW VILLAS SINGAPORE 669485,92,HILLVIEW VILLAS,1.35495058980953,103.759636910056,103.759636910056,669485,HILLVIEW CRESCENT,HILLVIEW VILLAS,19800.0699348776,37449.1926735975
93 HILLVIEW CRESCENT HILLVIEW VILLAS SINGAPORE 669486,93,HILLVIEW VILLAS,1.35531336271074,103.759707131512,103.759707131512,669486,HILLVIEW CRESCENT,HILLVIEW VILLAS,19807.8860060452,37489.3060454503
94 HILLVIEW CRESCENT HILLVIEW VILLAS SINGAPORE 669487,94,HILLVIEW VILLAS,1.35495073355565,103.759700725158,103.759700725158,669487,HILLVIEW CRESCENT,HILLVIEW VILLAS,19807.1718329694,37449.208352413
95 HILLVIEW CRESCENT HILLVIEW VILLAS SINGAPORE 669488,95,HILLVIEW VILLAS,1.355313267102,103.759767309207,103.759767309207,669488,HILLVIEW CRESCENT,HILLVIEW VILLAS,19814.5831001224,37489.2952700481
96 HILLVIEW CRESCENT HILLVIEW VILLAS SINGAPORE 669489,96,HILLVIEW VILLAS,1.35495075019019,103.759761336101,103.759761336101,669489,HILLVIEW CRESCENT,HILLVIEW VILLAS,19813.9171439447,37449.2099868841
97 HILLVIEW CRESCENT HILLVIEW VILLAS SINGAPORE 669490,97,HILLVIEW VILLAS,1.35531355920841,103.759831128666,103.759831128666,669490,HILLVIEW CRESCENT,HILLVIEW VILLAS,19821.6854825011,37489.3273541126
98 HILLVIEW CRESCENT HILLVIEW VILLAS SINGAPORE 669491,98,HILLVIEW VILLAS,1.35495118657974,103.759879831131,103.759879831131,669491,HILLVIEW CRESCENT,HILLVIEW VILLAS,19827.1042990908,37449.2578405663
99 HILLVIEW CRESCENT HILLVIEW VILLAS SINGAPORE 669492,99,HILLVIEW VILLAS,1.35531345428983,103.75989131153,103.75989131153,669492,HILLVIEW CRESCENT,HILLVIEW VILLAS,19828.38315167,37489.315549599
100 HILLVIEW CRESCENT HILLVIEW VILLAS SINGAPORE 669493,100,HILLVIEW VILLAS,1.35495133788763,103.75994048749,103.75994048749,669493,HILLVIEW CRESCENT,HILLVIEW VILLAS,19833.8546648193,37449.2743668854
101 HILLVIEW CRESCENT HILLVIEW VILLAS SINGAPORE 669494,101,HILLVIEW VILLAS,1.355308962088,103.759954940477,103.759954940477,669494,HILLVIEW CRESCENT,HILLVIEW VILLAS,19835.464316193,37488.8186098412
102 HILLVIEW CRESCENT HILLVIEW VILLAS SINGAPORE 669495,102,HILLVIEW VILLAS,1.35495148436302,103.760004302593,103.760004302593,669495,HILLVIEW CRESCENT,HILLVIEW VILLAS,19840.9565629102,37449.2903483808
103 HILLVIEW CRESCENT HILLVIEW VILLAS SINGAPORE 669496,103,HILLVIEW VILLAS,1.35531364667223,103.760015315484,103.760015315484,669496,HILLVIEW CRESCENT,HILLVIEW VILLAS,19842.1833848264,37489.3364042398
104 HILLVIEW CRESCENT HILLVIEW VILLAS SINGAPORE 669497,104,HILLVIEW VILLAS,1.3549515833705,103.760064487073,103.760064487073,669497,HILLVIEW CRESCENT,HILLVIEW VILLAS,19847.6544136871,37449.301093515
105 HILLVIEW CRESCENT HILLVIEW VILLAS SINGAPORE 669498,105,HILLVIEW VILLAS,1.35531395957562,103.760079131408,103.760079131408,669498,HILLVIEW CRESCENT,HILLVIEW VILLAS,19849.2853737222,37489.3707886692
106 HILLVIEW CRESCENT HILLVIEW VILLAS SINGAPORE 669499,106,HILLVIEW VILLAS,1.35495171588211,103.760128297825,103.760128297825,669499,HILLVIEW CRESCENT,HILLVIEW VILLAS,19854.7558274912,37449.3155313451
107 HILLVIEW CRESCENT HILLVIEW VILLAS SINGAPORE 669500,107,HILLVIEW VILLAS,1.35531399290975,103.760140100825,103.760140100825,669500,HILLVIEW CRESCENT,HILLVIEW VILLAS,19856.0705778999,37489.3742694873
108 HILLVIEW CRESCENT HILLVIEW VILLAS SINGAPORE 669501,108,HILLVIEW VILLAS,1.35495182255106,103.760188484481,103.760188484481,669501,HILLVIEW CRESCENT,HILLVIEW VILLAS,19861.4539204119,37449.3271239828
109 HILLVIEW CRESCENT HILLVIEW VILLAS SINGAPORE 669502,109,HILLVIEW VILLAS,1.35537955162842,103.760285056768,103.760285056768,669502,HILLVIEW CRESCENT,HILLVIEW VILLAS,19872.2027473254,37496.6229370311
110 HILLVIEW CRESCENT HILLVIEW VILLAS SINGAPORE 669503,110,HILLVIEW VILLAS,1.35495194575261,103.760252299585,103.760252299585,669503,HILLVIEW CRESCENT,HILLVIEW VILLAS,19868.5558185037,37449.3405326996
111 HILLVIEW CRESCENT HILLVIEW VILLAS SINGAPORE 669504,111,HILLVIEW VILLAS,1.35534992543756,103.7603898418,103.7603898418,669504,HILLVIEW CRESCENT,HILLVIEW VILLAS,19883.8640328767,37493.3466699384
112 HILLVIEW CRESCENT HILLVIEW VILLAS SINGAPORE 669505,112,HILLVIEW VILLAS,1.35495197852435,103.760312938269,103.760312938269,669505,HILLVIEW CRESCENT,HILLVIEW VILLAS,19875.3042168133,37449.3439529818
113 HILLVIEW CRESCENT HILLVIEW VILLAS SINGAPORE 669506,113,HILLVIEW VILLAS,1.35501557205957,103.761028301535,103.761028301535,669506,HILLVIEW CRESCENT,HILLVIEW VILLAS,19954.9162480375,37456.3734197877
115 HILLVIEW CRESCENT HILLVIEW VILLAS SINGAPORE 669507,115,HILLVIEW VILLAS,1.35501576197468,103.760962691097,103.760962691097,669507,HILLVIEW CRESCENT,HILLVIEW VILLAS,19947.6145509854,37456.3946376443
117 HILLVIEW CRESCENT HILLVIEW VILLAS SINGAPORE 669508,117,HILLVIEW VILLAS,1.35501555289446,103.760900691985,103.760900691985,669508,HILLVIEW CRESCENT,HILLVIEW VILLAS,19940.7147522215,37456.3717247806
119 HILLVIEW CRESCENT HILLVIEW VILLAS SINGAPORE 669509,119,HILLVIEW VILLAS,1.35501505208273,103.760840986737,103.760840986737,669509,HILLVIEW CRESCENT,HILLVIEW VILLAS,19934.0702336319,37456.3165462464
121 HILLVIEW CRESCENT HILLVIEW VILLAS SINGAPORE 669510,121,HILLVIEW VILLAS,1.35501513472921,103.760776692945,103.760776692945,669510,HILLVIEW CRESCENT,HILLVIEW VILLAS,19926.9150638888,37456.3258990534
123 HILLVIEW CRESCENT HILLVIEW VILLAS SINGAPORE 669511,123,HILLVIEW VILLAS,1.35501464568504,103.760716992049,103.760716992049,669511,HILLVIEW CRESCENT,HILLVIEW VILLAS,19920.2710295869,37456.2720220424
125 HILLVIEW CRESCENT HILLVIEW VILLAS SINGAPORE 669512,125,HILLVIEW VILLAS,1.35501471765242,103.760652691186,103.760652691186,669512,HILLVIEW CRESCENT,HILLVIEW VILLAS,19913.1150728771,37456.280194398
127 HILLVIEW CRESCENT HILLVIEW VILLAS SINGAPORE 669513,127,HILLVIEW VILLAS,1.35498101529229,103.760576126788,103.760576126788,669513,HILLVIEW CRESCENT,HILLVIEW VILLAS,19904.5942117088,37452.5538121182
129 HILLVIEW CRESCENT HILLVIEW VILLAS SINGAPORE 669514,129,HILLVIEW VILLAS,1.3548094009191,103.760643545271,103.760643545271,669514,HILLVIEW CRESCENT,HILLVIEW VILLAS,19912.0965552246,37433.5773299951
131 HILLVIEW CRESCENT HILLVIEW VILLAS SINGAPORE 669515,131,HILLVIEW VILLAS,1.35473851272198,103.760636896997,103.760636896997,669515,HILLVIEW CRESCENT,HILLVIEW VILLAS,19911.3564424869,37425.7388907876
19A HILLVIEW AVENUE HILLVIEW PARK SINGAPORE 669554,19A,HILLVIEW PARK,1.36470196051695,103.765594140044,103.765594140044,669554,HILLVIEW AVENUE,HILLVIEW PARK,20463.0723206298,38527.430934174
19B HILLVIEW AVENUE HILLVIEW PARK SINGAPORE 669555,19B,HILLVIEW PARK,1.3648639966074,103.76605122374,103.76605122374,669555,HILLVIEW AVENUE,HILLVIEW PARK,20513.9408454057,38545.3466445412
21 HILLVIEW AVENUE GLENDALE PARK SINGAPORE 669556,21,GLENDALE PARK,1.36358352849535,103.76526340091,103.76526340091,669556,HILLVIEW AVENUE,GLENDALE PARK,20426.2614582125,38403.7613706738
23 HILLVIEW AVENUE GLENDALE PARK SINGAPORE 669557,23,GLENDALE PARK,1.36354470344795,103.766011715024,103.766011715024,669557,HILLVIEW AVENUE,GLENDALE PARK,20509.5399108408,38399.4659503009
25 HILLVIEW AVENUE GLENDALE PARK SINGAPORE 669558,25,GLENDALE PARK,1.36249366463544,103.765891211125,103.765891211125,669558,HILLVIEW AVENUE,GLENDALE PARK,20496.125987961,38283.247728765
27 HILLVIEW AVENUE HILLVIEW HEIGHTS SINGAPORE 669559,27,HILLVIEW HEIGHTS,1.36118814879081,103.765053074687,103.765053074687,669559,HILLVIEW AVENUE,HILLVIEW HEIGHTS,20402.8471145844,38138.8929646574
27A HILLVIEW AVENUE HILLVIEW HEIGHTS SINGAPORE 669560,27A,HILLVIEW HEIGHTS,1.36154016984198,103.765102182924,103.765102182924,669560,HILLVIEW AVENUE,HILLVIEW HEIGHTS,20408.3133913716,38177.8175311815
29 HILLVIEW AVENUE HILLVIEW HEIGHTS SINGAPORE 669561,29,HILLVIEW HEIGHTS,1.36167971038309,103.765636996584,103.765636996584,669561,HILLVIEW AVENUE,HILLVIEW HEIGHTS,20467.832354554,38193.2455462329
29A HILLVIEW AVENUE HILLVIEW HEIGHTS SINGAPORE 669562,29A,HILLVIEW HEIGHTS,1.36101771299356,103.765574316514,103.765574316514,669562,HILLVIEW AVENUE,HILLVIEW HEIGHTS,20460.8547368031,38120.0453938767
51 HILLVIEW AVENUE HILLINGTON GREEN SINGAPORE 669565,51,HILLINGTON GREEN,1.35859905905298,103.765032922095,103.765032922095,669565,HILLVIEW AVENUE,HILLINGTON GREEN,20400.5962662436,37852.6044816542
53 HILLVIEW AVENUE HILLINGTON GREEN SINGAPORE 669566,53,HILLINGTON GREEN,1.35900047941489,103.764406788738,103.764406788738,669566,HILLVIEW AVENUE,HILLINGTON GREEN,20330.9160987837,37896.9935088865
55 HILLVIEW AVENUE HILLINGTON GREEN SINGAPORE 669567,55,HILLINGTON GREEN,1.35963645521248,103.764639926113,103.764639926113,669567,HILLVIEW AVENUE,HILLINGTON GREEN,20356.8636002373,37967.315781353
57 HILLVIEW AVENUE HILLINGTON GREEN SINGAPORE 669568,57,HILLINGTON GREEN,1.35997906758451,103.76444258781,103.76444258781,669568,HILLVIEW AVENUE,HILLINGTON GREEN,20334.9032094749,38005.200763708
63 HILLVIEW AVENUE LAM SOON INDUSTRIAL BUILDING SINGAPORE 669569,63,LAM SOON INDUSTRIAL BUILDING,1.35687432327893,103.76307054149,103.76307054149,669569,HILLVIEW AVENUE,LAM SOON INDUSTRIAL BUILDING,20182.2003538497,37661.8981142491
71 HILLVIEW AVENUE HILLVIEW APARTMENTS SINGAPORE 669570,71,HILLVIEW APARTMENTS,1.3560153779275,103.762587763182,103.762587763182,669570,HILLVIEW AVENUE,HILLVIEW APARTMENTS,20128.4698701426,37566.9218123462
80 HILLVIEW AVENUE CHANTILLY RISE SINGAPORE 669579,80,CHANTILLY RISE,1.35901020299905,103.763236516497,103.763236516497,669579,HILLVIEW AVENUE,CHANTILLY RISE,20200.6783222817,37898.0724414345
82 HILLVIEW AVENUE CHANTILLY RISE SINGAPORE 669581,82,CHANTILLY RISE,1.35943786879643,103.762932528768,103.762932528768,669581,HILLVIEW AVENUE,CHANTILLY RISE,20166.8493708158,37945.3625641037
83 HILLVIEW AVENUE MERALODGE SINGAPORE 669583,83,MERALODGE,1.35416438712436,103.761454232116,103.761454232116,669583,HILLVIEW AVENUE,MERALODGE,20002.3146998193,37362.2522489596
83A HILLVIEW AVENUE MERALODGE SINGAPORE 669584,83A,MERALODGE,1.35372703261254,103.76161695612,103.76161695612,669584,HILLVIEW AVENUE,MERALODGE,20020.4226118829,37313.891245028
85 HILLVIEW AVENUE THE PETALS SINGAPORE 669587,85,THE PETALS,1.35367420580184,103.760549872644,103.760549872644,669587,HILLVIEW AVENUE,THE PETALS,19901.6680846503,37308.0534590092
88 HILLVIEW AVENUE HILLBROOKS SINGAPORE 669590,88,HILLBROOKS,1.35888577009923,103.762618572073,103.762618572073,669590,HILLVIEW AVENUE,HILLBROOKS,20131.907828805,37884.3152796198
92 HILLVIEW AVENUE HILLBROOKS SINGAPORE 669592,92,HILLBROOKS,1.35793261217974,103.762293084497,103.762293084497,669592,HILLVIEW AVENUE,HILLBROOKS,20095.6817135643,37778.9209193289
120 HILLVIEW AVENUE KEWALRAM HILLVIEW SINGAPORE 669594,120,KEWALRAM HILLVIEW,1.35693511358913,103.76158888098,103.76158888098,669594,HILLVIEW AVENUE,KEWALRAM HILLVIEW,20017.3086719858,37668.6248406824
128 HILLVIEW AVENUE HILLVIEW 128 SINGAPORE 669595,128,HILLVIEW 128,1.35722696051582,103.760850571779,103.760850571779,669595,HILLVIEW AVENUE,HILLVIEW 128,19935.1442627665,37700.8982599285
130 HILLVIEW AVENUE THE AMSTON SINGAPORE 669596,130,THE AMSTON,1.35682179002634,103.760463994003,103.760463994003,669596,HILLVIEW AVENUE,THE AMSTON,19892.1212296383,37656.097830262
132 HILLVIEW AVENUE MONTROSA SINGAPORE 669597,132,MONTROSA,1.35693556334253,103.76007349379,103.76007349379,669597,HILLVIEW AVENUE,MONTROSA,19848.6633969247,37668.6796257328
136 HILLVIEW AVENUE MERAWOODS SINGAPORE 669598,136,MERAWOODS,1.35617024663786,103.759315673074,103.759315673074,669598,HILLVIEW AVENUE,MERAWOODS,19764.3240211988,37584.0573048964
138 HILLVIEW AVENUE HILLVIEW RESIDENCE SINGAPORE 669599,138,HILLVIEW RESIDENCE,1.35590905178528,103.76073531599,103.76073531599,669599,HILLVIEW AVENUE,HILLVIEW RESIDENCE,19922.3132407162,37555.1709032953
140 HILLVIEW AVENUE THE LANAI SINGAPORE 669600,140,THE LANAI,1.35599756098881,103.761252268339,103.761252268339,669600,HILLVIEW AVENUE,THE LANAI,19979.8444448719,37564.9560884107
132A HILLVIEW AVENUE MONTROSA SINGAPORE 669604,132A,MONTROSA,1.35718548519225,103.759826312586,103.759826312586,669604,HILLVIEW AVENUE,MONTROSA,19821.1557927867,37696.3155661225
132B HILLVIEW AVENUE MONTROSA SINGAPORE 669605,132B,MONTROSA,1.35693289291636,103.759575759891,103.759575759891,669605,HILLVIEW AVENUE,MONTROSA,19793.2712917151,37668.3860262912
136A HILLVIEW AVENUE MERAWOODS SINGAPORE 669606,136A,MERAWOODS,1.3557393823366,103.759143646634,103.759143646634,669606,HILLVIEW AVENUE,MERAWOODS,19745.1779778311,37536.4150747731
136B HILLVIEW AVENUE MERAWOODS SINGAPORE 669607,136B,MERAWOODS,1.35572036184699,103.760174884315,103.760174884315,669607,HILLVIEW AVENUE,MERAWOODS,19859.942942665,37534.3083928376
136C HILLVIEW AVENUE MERAWOODS SINGAPORE 669608,136C,MERAWOODS,1.35628714291726,103.75978376028,103.75978376028,669608,HILLVIEW AVENUE,MERAWOODS,19816.417188596,37596.9815220665
130A HILLVIEW AVENUE THE AMSTON SINGAPORE 669609,130A,THE AMSTON,1.35723352374843,103.760468532409,103.760468532409,669609,HILLVIEW AVENUE,THE AMSTON,19892.6276735421,37701.6252666302
90 HILLVIEW AVENUE HILLBROOKS SINGAPORE 669610,90,HILLBROOKS,1.35868499037987,103.762198046039,103.762198046039,669610,HILLVIEW AVENUE,HILLBROOKS,20085.1074723816,37862.1154388376
124 HILLVIEW AVENUE HILLVIEW 128 SINGAPORE 669611,124,HILLVIEW 128,1.35707968895277,103.76116513308,103.76116513308,669611,HILLVIEW AVENUE,HILLVIEW 128,19970.1508506741,37684.6126620937
126 HILLVIEW AVENUE HILLVIEW 128 SINGAPORE 669612,126,HILLVIEW 128,1.35690906039691,103.760963203302,103.760963203302,669612,HILLVIEW AVENUE,HILLVIEW 128,19947.6778110713,37665.7460830193
45 HILLVIEW AVENUE HILLINGTON GREEN SINGAPORE 669613,45,HILLINGTON GREEN,1.36017183682583,103.765098358202,103.765098358202,669613,HILLVIEW AVENUE,HILLINGTON GREEN,20407.8834649315,38026.5141460504
47 HILLVIEW AVENUE HILLINGTON GREEN SINGAPORE 669614,47,HILLINGTON GREEN,1.35982007768421,103.764980214391,103.764980214391,669614,HILLVIEW AVENUE,HILLINGTON GREEN,20394.7343263729,37987.6187578626
49 HILLVIEW AVENUE HILLINGTON GREEN SINGAPORE 669615,49,HILLINGTON GREEN,1.3592996729501,103.76505460624,103.76505460624,669615,HILLVIEW AVENUE,HILLINGTON GREEN,20403.0116513437,37930.0747806188
59 HILLVIEW AVENUE HILLINGTON GREEN SINGAPORE 669616,59,HILLINGTON GREEN,1.36034440640909,103.764515014132,103.764515014132,669616,HILLVIEW AVENUE,HILLINGTON GREEN,20342.9645723822,38045.5978676416
25A HILLVIEW AVENUE GLENDALE PARK SINGAPORE 669617,25A,GLENDALE PARK,1.36255690673885,103.765233809144,103.765233809144,669617,HILLVIEW AVENUE,GLENDALE PARK,20422.9650326418,38290.2427808736
25B HILLVIEW AVENUE GLENDALE PARK SINGAPORE 669618,25B,GLENDALE PARK,1.36303305207315,103.765919193284,103.765919193284,669618,HILLVIEW AVENUE,GLENDALE PARK,20499.2417439371,38342.8903971966
134 HILLVIEW AVENUE HILLTOP GROVE SINGAPORE 669619,134,HILLTOP GROVE,1.35714997234684,103.759135712247,103.759135712247,669619,HILLVIEW AVENUE,HILLTOP GROVE,19744.2997522829,37692.3910798896
134A HILLVIEW AVENUE HILLTOP GROVE SINGAPORE 669620,134A,HILLTOP GROVE,1.35717416689083,103.758715730412,103.758715730412,669620,HILLVIEW AVENUE,HILLTOP GROVE,19697.5606582584,37695.0678290296
134B HILLVIEW AVENUE HILLTOP GROVE SINGAPORE 669621,134B,HILLTOP GROVE,1.35714851351339,103.758294433195,103.758294433195,669621,HILLVIEW AVENUE,HILLTOP GROVE,19650.6750066569,37692.2326572631
134C HILLVIEW AVENUE HILLTOP GROVE SINGAPORE 669622,134C,HILLTOP GROVE,1.35688257243258,103.758929249803,103.758929249803,669622,HILLVIEW AVENUE,HILLTOP GROVE,19721.3219335163,37662.8240421396
87 HILLVIEW AVENUE THE PETALS SINGAPORE 669623,87,THE PETALS,1.35401739930144,103.760788998036,103.760788998036,669623,HILLVIEW AVENUE,THE PETALS,19928.2811790658,37346.0012776982
89 HILLVIEW AVENUE THE PETALS SINGAPORE 669624,89,THE PETALS,1.35369467443855,103.761123225606,103.761123225606,669624,HILLVIEW AVENUE,THE PETALS,19965.4758697851,37310.3148708753
91 HILLVIEW AVENUE THE PETALS SINGAPORE 669625,91,THE PETALS,1.35337579392553,103.761479183125,103.761479183125,669625,HILLVIEW AVENUE,THE PETALS,20005.0888815997,37275.0534870811
93 HILLVIEW AVENUE THE PETALS SINGAPORE 669626,93,THE PETALS,1.35317943350303,103.761114651538,103.761114651538,669626,HILLVIEW AVENUE,THE PETALS,19964.5199765917,37253.3421412893
95 HILLVIEW AVENUE THE PETALS SINGAPORE 669627,95,THE PETALS,1.35315509710219,103.760679855884,103.760679855884,669627,HILLVIEW AVENUE,THE PETALS,19916.1320341537,37250.6525887921
97 HILLVIEW AVENUE THE PETALS SINGAPORE 669628,97,THE PETALS,1.35343354475112,103.760951208373,103.760951208373,669628,HILLVIEW AVENUE,THE PETALS,19946.3314306196,37281.4410304893
142 HILLVIEW AVENUE THE LANAI SINGAPORE 669629,142,THE LANAI,1.35595584509131,103.761669162181,103.761669162181,669629,HILLVIEW AVENUE,THE LANAI,20026.2398459408,37560.3419764377
144 HILLVIEW AVENUE THE LANAI SINGAPORE 669630,144,THE LANAI,1.35636356413763,103.761761451434,103.761761451434,669630,HILLVIEW AVENUE,THE LANAI,20036.5119218435,37605.4251998775
212 GOMBAK DRIVE CHERIE HEARTS @ GOMBAK PTE. LTD. SINGAPORE 669638,212,CHERIE HEARTS @ GOMBAK PTE. LTD.,1.36921350286812,103.760344800769,103.760344800769,669638,GOMBAK DRIVE,CHERIE HEARTS @ GOMBAK PTE. LTD.,19878.8979042517,39026.3118069079
204 GOMBAK DRIVE HILLVIEW CAMP SINGAPORE 669640,204,HILLVIEW CAMP,1.37226869582157,103.760722284999,103.760722284999,669640,GOMBAK DRIVE,HILLVIEW CAMP,19920.9176142551,39364.1384938266
206 GOMBAK DRIVE HILLVIEW CAMP SINGAPORE 669641,206,HILLVIEW CAMP,1.37226869582157,103.760722284999,103.760722284999,669641,GOMBAK DRIVE,HILLVIEW CAMP,19920.9176142551,39364.1384938266
28 GOMBAK DRIVE GOMBAK BASE SINGAPORE 669642,28,GOMBAK BASE,1.3701307321368,103.762511308375,103.762511308375,669642,GOMBAK DRIVE,GOMBAK BASE,20120.0072143069,39127.7271985952
208 GOMBAK DRIVE HILLVIEW CAMP SINGAPORE 669643,208,HILLVIEW CAMP,1.37221083534551,103.760821844723,103.760821844723,669643,GOMBAK DRIVE,HILLVIEW CAMP,19931.9972096952,39357.7402355522
301 GOMBAK DRIVE GOMBAK BASE SINGAPORE 669644,301,GOMBAK BASE,1.37018171709383,103.762531930498,103.762531930498,669644,GOMBAK DRIVE,GOMBAK BASE,20122.3023749758,39133.3647921719
303 GOMBAK DRIVE MINDEF BUILDING SINGAPORE 669645,303,MINDEF BUILDING,1.3704316074703,103.758561806852,103.758561806852,669645,GOMBAK DRIVE,MINDEF BUILDING,19680.4762580656,39161.0098432228
308 GOMBAK DRIVE BUKIT PANJANG CAMP SINGAPORE 669646,308,BUKIT PANJANG CAMP,1.37179041569677,103.759301766031,103.759301766031,669646,GOMBAK DRIVE,BUKIT PANJANG CAMP,19762.829448699,39311.2575113494
320 GOMBAK DRIVE GOMBAK BASE SINGAPORE 669647,320,GOMBAK BASE,1.3701307321368,103.762511308375,103.762511308375,669647,GOMBAK DRIVE,GOMBAK BASE,20120.0072143069,39127.7271985952
321 GOMBAK DRIVE GOMBAK BASE SINGAPORE 669648,321,GOMBAK BASE,1.3701307321368,103.762511308375,103.762511308375,669648,GOMBAK DRIVE,GOMBAK BASE,20120.0072143069,39127.7271985952
3 GALISTAN AVENUE SINGAPORE 669676,3,NIL,1.37818789533449,103.759202902819,103.759202902819,669676,GALISTAN AVENUE,3 GALISTAN AVENUE SINGAPORE 669676,19751.8491322463,40018.6592154503
4 GALISTAN AVENUE SINGAPORE 669677,4,NIL,1.37812930596769,103.758813225788,103.758813225788,669677,GALISTAN AVENUE,4 GALISTAN AVENUE SINGAPORE 669677,19708.4827088434,40012.1820485424
5 GALISTAN AVENUE SINGAPORE 669678,5,NIL,1.37827624891659,103.759415969924,103.759415969924,669678,GALISTAN AVENUE,5 GALISTAN AVENUE SINGAPORE 669678,19775.5611614939,40028.4281769264
6 GALISTAN AVENUE SINGAPORE 669679,6,NIL,1.37800104250025,103.758490808302,103.758490808302,669679,GALISTAN AVENUE,6 GALISTAN AVENUE SINGAPORE 669679,19672.6011945978,39998.0004387908
8 GALISTAN AVENUE SINGAPORE 669680,8,NIL,1.37745943952413,103.758688110346,103.758688110346,669680,GALISTAN AVENUE,8 GALISTAN AVENUE SINGAPORE 669680,19694.5565911429,39938.1119943317
8A GALISTAN AVENUE SINGAPORE 669681,8A,NIL,1.37750625572194,103.758800699265,103.758800699265,669681,GALISTAN AVENUE,8A GALISTAN AVENUE SINGAPORE 669681,19707.0865072906,39943.2883038353
9 GALISTAN AVENUE SINGAPORE 669682,9,NIL,1.37840341525974,103.759750970414,103.759750970414,669682,GALISTAN AVENUE,9 GALISTAN AVENUE SINGAPORE 669682,19812.8429937381,40042.4884423297
10 GALISTAN AVENUE SINGAPORE 669683,10,NIL,1.37756001595601,103.758939205471,103.758939205471,669683,GALISTAN AVENUE,10 GALISTAN AVENUE SINGAPORE 669683,19722.5007201424,39949.2323607448
10A GALISTAN AVENUE SINGAPORE 669684,10A,NIL,1.37761383919405,103.759070681275,103.759070681275,669684,GALISTAN AVENUE,10A GALISTAN AVENUE SINGAPORE 669684,19737.1325358832,39955.1834095605
12 GALISTAN AVENUE BUKIT PANJANG GOSPEL CHAPEL SINGAPORE 669686,12,BUKIT PANJANG GOSPEL CHAPEL,1.37770658433048,103.75925044372,103.75925044372,669686,GALISTAN AVENUE,BUKIT PANJANG GOSPEL CHAPEL,19757.1381899891,39965.4380813725
13 GALISTAN AVENUE SINGAPORE 669687,13,NIL,1.37799632553167,103.759897724729,103.759897724729,669687,GALISTAN AVENUE,13 GALISTAN AVENUE SINGAPORE 669687,19829.1735395296,39997.4739877507
14 GALISTAN AVENUE SINGAPORE 669688,14,NIL,1.37793273252244,103.759449005392,103.759449005392,669688,GALISTAN AVENUE,14 GALISTAN AVENUE SINGAPORE 669688,19779.2364211492,39990.4437339753
15 GALISTAN AVENUE SINGAPORE 669689,15,NIL,1.37781150340248,103.760010155963,103.760010155963,669689,GALISTAN AVENUE,15 GALISTAN AVENUE SINGAPORE 669689,19841.6851132782,39977.0368938036
16 GALISTAN AVENUE SINGAPORE 669690,16,NIL,1.37773543063456,103.759568966529,103.759568966529,669690,GALISTAN AVENUE,16 GALISTAN AVENUE SINGAPORE 669690,19792.5859337598,39968.6266621165
17 GALISTAN AVENUE SINGAPORE 669691,17,NIL,1.37774201942322,103.760037583986,103.760037583986,669691,GALISTAN AVENUE,17 GALISTAN AVENUE SINGAPORE 669691,19844.7372762207,39969.3536082823
14A GALISTAN AVENUE SINGAPORE 669692,14A,NIL,1.37785092300572,103.759479190056,103.759479190056,669692,GALISTAN AVENUE,14A GALISTAN AVENUE SINGAPORE 669692,19782.5953198383,39981.3975416832
7 GALISTAN AVENUE SINGAPORE 669693,7,NIL,1.37834828123197,103.759613295897,103.759613295897,669693,GALISTAN AVENUE,7 GALISTAN AVENUE SINGAPORE 669693,19797.5213403804,40036.3924704101
7A GALISTAN AVENUE SINGAPORE 669694,7A,NIL,1.37837104381554,103.759668498407,103.759668498407,669694,GALISTAN AVENUE,7A GALISTAN AVENUE SINGAPORE 669694,19803.6647724994,40038.9092532564
9A GALISTAN AVENUE SINGAPORE 669695,9A,NIL,1.37842585314319,103.759804557648,103.759804557648,669695,GALISTAN AVENUE,9A GALISTAN AVENUE SINGAPORE 669695,19818.806664302,40044.9693273474
4A GALISTAN AVENUE SINGAPORE 669696,4A,NIL,1.37807516181471,103.758835448223,103.758835448223,669696,GALISTAN AVENUE,4A GALISTAN AVENUE SINGAPORE 669696,19710.9556031125,40006.1949808262
4B GALISTAN AVENUE SINGAPORE 669697,4B,NIL,1.3779852169016,103.758872009457,103.758872009457,669697,GALISTAN AVENUE,4B GALISTAN AVENUE SINGAPORE 669697,19715.0241044117,39996.2491937894
4C GALISTAN AVENUE SINGAPORE 669698,4C,NIL,1.37793107411665,103.758894235697,103.758894235697,669698,GALISTAN AVENUE,4C GALISTAN AVENUE SINGAPORE 669698,19717.4974224335,39990.2622774132
6A GALISTAN AVENUE SINGAPORE 669699,6A,NIL,1.37795893200424,103.758542044902,103.758542044902,669699,GALISTAN AVENUE,6A GALISTAN AVENUE SINGAPORE 669699,19678.3030471019,39993.3438911047
6B GALISTAN AVENUE SINGAPORE 669700,6B,NIL,1.37785018670864,103.758573540835,103.758573540835,669700,GALISTAN AVENUE,6B GALISTAN AVENUE SINGAPORE 669700,19681.8077769373,39981.3192686774
6C GALISTAN AVENUE SINGAPORE 669701,6C,NIL,1.3777675514653,103.758607271082,103.758607271082,669701,GALISTAN AVENUE,6C GALISTAN AVENUE SINGAPORE 669701,19685.5612490615,39972.1817578767
31 ELIZABETH DRIVE HILLVIEW GARDEN ESTATE SINGAPORE 669726,31,HILLVIEW GARDEN ESTATE,1.36054699146013,103.762722554184,103.762722554184,669726,ELIZABETH DRIVE,HILLVIEW GARDEN ESTATE,20143.4852115046,38068.0044690203
33 ELIZABETH DRIVE HILLVIEW GARDEN ESTATE SINGAPORE 669727,33,HILLVIEW GARDEN ESTATE,1.36055747633948,103.762642267641,103.762642267641,669727,ELIZABETH DRIVE,HILLVIEW GARDEN ESTATE,20134.5502843196,38069.1640960108
35 ELIZABETH DRIVE HILLVIEW GARDEN ESTATE SINGAPORE 669728,35,HILLVIEW GARDEN ESTATE,1.3605949246742,103.762588831328,103.762588831328,669728,ELIZABETH DRIVE,HILLVIEW GARDEN ESTATE,20128.6035638265,38073.305119399
37 ELIZABETH DRIVE HILLVIEW GARDEN ESTATE SINGAPORE 669729,37,HILLVIEW GARDEN ESTATE,1.36060700056296,103.762529784305,103.762529784305,669729,ELIZABETH DRIVE,HILLVIEW GARDEN ESTATE,20122.0323542934,38074.6406033766
39 ELIZABETH DRIVE HILLVIEW GARDEN ESTATE SINGAPORE 669730,39,HILLVIEW GARDEN ESTATE,1.36063787269107,103.762474627377,103.762474627377,669730,ELIZABETH DRIVE,HILLVIEW GARDEN ESTATE,20115.8941282677,38078.0544687249
41 ELIZABETH DRIVE HILLVIEW GARDEN ESTATE SINGAPORE 669731,41,HILLVIEW GARDEN ESTATE,1.36061087574132,103.762407540196,103.762407540196,669731,ELIZABETH DRIVE,HILLVIEW GARDEN ESTATE,20108.4280155282,38075.0695007071
43 ELIZABETH DRIVE HILLVIEW GARDEN ESTATE SINGAPORE 669732,43,HILLVIEW GARDEN ESTATE,1.36062295792004,103.762348447207,103.762348447207,669732,ELIZABETH DRIVE,HILLVIEW GARDEN ESTATE,20101.8516907059,38076.4056808483
45 ELIZABETH DRIVE HILLVIEW GARDEN ESTATE SINGAPORE 669733,45,HILLVIEW GARDEN ESTATE,1.36065538101512,103.762293361762,103.762293361762,669733,ELIZABETH DRIVE,HILLVIEW GARDEN ESTATE,20095.7214251589,38079.9910445921
47 ELIZABETH DRIVE HILLVIEW GARDEN ESTATE SINGAPORE 669735,47,HILLVIEW GARDEN ESTATE,1.36067413435818,103.762152223182,103.762152223182,669735,ELIZABETH DRIVE,HILLVIEW GARDEN ESTATE,20080.014399833,38082.0651581753
49 ELIZABETH DRIVE HILLVIEW GARDEN ESTATE SINGAPORE 669736,49,HILLVIEW GARDEN ESTATE,1.36064741968428,103.762096581641,103.762096581641,669736,ELIZABETH DRIVE,HILLVIEW GARDEN ESTATE,20073.8220546525,38079.1113661807
51 ELIZABETH DRIVE HILLVIEW GARDEN ESTATE SINGAPORE 669737,51,HILLVIEW GARDEN ESTATE,1.36064756484408,103.76203486523,103.76203486523,669737,ELIZABETH DRIVE,HILLVIEW GARDEN ESTATE,20066.9537345907,38079.1276200879
53 ELIZABETH DRIVE HILLVIEW GARDEN ESTATE SINGAPORE 669738,53,HILLVIEW GARDEN ESTATE,1.36063924817484,103.761975491614,103.761975491614,669738,ELIZABETH DRIVE,HILLVIEW GARDEN ESTATE,20060.3461126732,38078.208199814
55 ELIZABETH DRIVE HILLVIEW GARDEN ESTATE SINGAPORE 669739,55,HILLVIEW GARDEN ESTATE,1.36061095216171,103.761920461528,103.761920461528,669739,ELIZABETH DRIVE,HILLVIEW GARDEN ESTATE,20054.2218099199,38075.0795496777
57 ELIZABETH DRIVE HILLVIEW GARDEN ESTATE SINGAPORE 669740,57,HILLVIEW GARDEN ESTATE,1.36061596205131,103.761857327971,103.761857327971,669740,ELIZABETH DRIVE,HILLVIEW GARDEN ESTATE,20047.1957936641,38075.6337261908
59 ELIZABETH DRIVE HILLVIEW GARDEN ESTATE SINGAPORE 669741,59,HILLVIEW GARDEN ESTATE,1.36059362048156,103.76180028154,103.76180028154,669741,ELIZABETH DRIVE,HILLVIEW GARDEN ESTATE,20040.8471143469,38073.1634955034
61 ELIZABETH DRIVE HILLVIEW GARDEN ESTATE SINGAPORE 669742,61,HILLVIEW GARDEN ESTATE,1.36059470845993,103.761723277499,103.761723277499,669742,ELIZABETH DRIVE,HILLVIEW GARDEN ESTATE,20032.2774611888,38073.2840528823
1 ELIZABETH DRIVE HILLVISTA SINGAPORE 669743,1,HILLVISTA,1.35992152404272,103.763392299233,103.763392299233,669743,ELIZABETH DRIVE,HILLVISTA,20218.0180631857,37998.8412484545
3 ELIZABETH DRIVE HILLVISTA SINGAPORE 669744,3,HILLVISTA,1.3599210351512,103.763392127901,103.763392127901,669744,ELIZABETH DRIVE,HILLVISTA,20217.998994356,37998.7871898357
72 ELIZABETH DRIVE UMC @ ELIZABETH DRIVE SINGAPORE 669745,72,UMC @ ELIZABETH DRIVE,1.36096898741719,103.761219046867,103.761219046867,669745,ELIZABETH DRIVE,UMC @ ELIZABETH DRIVE,19976.1636764435,38114.6716160476
1 CHU YEN STREET HILLVIEW GARDEN ESTATE SINGAPORE 669812,1,HILLVIEW GARDEN ESTATE,1.35820831850958,103.75944650006,103.75944650006,669812,CHU YEN STREET,HILLVIEW GARDEN ESTATE,19778.8904580949,37809.4166393559
3 CHU YEN STREET HILLVIEW GARDEN ESTATE SINGAPORE 669813,3,HILLVIEW GARDEN ESTATE,1.35813156573861,103.759444653215,103.759444653215,669813,CHU YEN STREET,HILLVIEW GARDEN ESTATE,19778.6846660739,37800.9297085963
5 CHU YEN STREET HILLVIEW GARDEN ESTATE SINGAPORE 669814,5,HILLVIEW GARDEN ESTATE,1.35820285021427,103.75916430579,103.75916430579,669814,CHU YEN STREET,HILLVIEW GARDEN ESTATE,19747.4854575694,37808.8129444197
7 CHU YEN STREET HILLVIEW GARDEN ESTATE SINGAPORE 669815,7,HILLVIEW GARDEN ESTATE,1.35818026614675,103.759083583529,103.759083583529,669815,CHU YEN STREET,HILLVIEW GARDEN ESTATE,19738.5019200025,37806.3159871027
9 CHU YEN STREET HILLVIEW GARDEN ESTATE SINGAPORE 669816,9,HILLVIEW GARDEN ESTATE,1.35819281578003,103.758980219421,103.758980219421,669816,CHU YEN STREET,HILLVIEW GARDEN ESTATE,19726.99872413,37807.7040162999
11 CHU YEN STREET HILLVIEW GARDEN ESTATE SINGAPORE 669817,11,HILLVIEW GARDEN ESTATE,1.35818405812383,103.758914212631,103.758914212631,669817,CHU YEN STREET,HILLVIEW GARDEN ESTATE,19719.6528963577,37806.7358645741
15 CHU YEN STREET HILLVIEW GARDEN ESTATE SINGAPORE 669819,15,HILLVIEW GARDEN ESTATE,1.35818735145476,103.758792363577,103.758792363577,669819,CHU YEN STREET,HILLVIEW GARDEN ESTATE,19706.0925067049,37807.1004424375
17 CHU YEN STREET HILLVIEW GARDEN ESTATE SINGAPORE 669820,17,HILLVIEW GARDEN ESTATE,1.35818756760226,103.758736202101,103.758736202101,669820,CHU YEN STREET,HILLVIEW GARDEN ESTATE,19699.8423799435,37807.1245357525
19 CHU YEN STREET HILLVIEW GARDEN ESTATE SINGAPORE 669821,19,HILLVIEW GARDEN ESTATE,1.35818991588192,103.758619385478,103.758619385478,669821,CHU YEN STREET,HILLVIEW GARDEN ESTATE,19686.8420387926,37807.3845982682
20 CHU YEN STREET HILLVIEW GARDEN ESTATE SINGAPORE 669822,20,HILLVIEW GARDEN ESTATE,1.35860707949129,103.758602198093,103.758602198093,669822,CHU YEN STREET,HILLVIEW GARDEN ESTATE,19684.9307064246,37853.5125211664
21 CHU YEN STREET HILLVIEW GARDEN ESTATE SINGAPORE 669823,21,HILLVIEW GARDEN ESTATE,1.3581807637236,103.758551979921,103.758551979921,669823,CHU YEN STREET,HILLVIEW GARDEN ESTATE,19679.3405427802,37806.372830376
22 CHU YEN STREET HILLVIEW GARDEN ESTATE SINGAPORE 669824,22,HILLVIEW GARDEN ESTATE,1.35862001799515,103.758531354047,103.758531354047,669824,CHU YEN STREET,HILLVIEW GARDEN ESTATE,19677.0466230977,37854.9434400965
23 CHU YEN STREET HILLVIEW GARDEN ESTATE SINGAPORE 669825,23,HILLVIEW GARDEN ESTATE,1.35818235129217,103.758435189431,103.758435189431,669825,CHU YEN STREET,HILLVIEW GARDEN ESTATE,19666.3431073558,37806.5487781651
24 CHU YEN STREET HILLVIEW GARDEN ESTATE SINGAPORE 669826,24,HILLVIEW GARDEN ESTATE,1.35854497977148,103.758446781103,103.758446781103,669826,CHU YEN STREET,HILLVIEW GARDEN ESTATE,19667.6343698092,37846.6463804003
25 CHU YEN STREET HILLVIEW GARDEN ESTATE SINGAPORE 669827,25,HILLVIEW GARDEN ESTATE,1.3581868891493,103.758371130682,103.758371130682,669827,CHU YEN STREET,HILLVIEW GARDEN ESTATE,19659.2141194195,37807.0507726762
26 CHU YEN STREET HILLVIEW GARDEN ESTATE SINGAPORE 669828,26,HILLVIEW GARDEN ESTATE,1.35860683721516,103.758364386837,103.758364386837,669828,CHU YEN STREET,HILLVIEW GARDEN ESTATE,19658.4650473585,37853.4865512364
27 CHU YEN STREET HILLVIEW GARDEN ESTATE SINGAPORE 669829,27,HILLVIEW GARDEN ESTATE,1.35820604772252,103.758258058671,103.758258058671,669829,CHU YEN STREET,HILLVIEW GARDEN ESTATE,19646.6305684047,37809.1696223393
28 CHU YEN STREET HILLVIEW GARDEN ESTATE SINGAPORE 669830,28,HILLVIEW GARDEN ESTATE,1.35858459138053,103.758246293475,103.758246293475,669830,CHU YEN STREET,HILLVIEW GARDEN ESTATE,19645.3225374883,37851.0271262191
29 CHU YEN STREET HILLVIEW GARDEN ESTATE SINGAPORE 669831,29,HILLVIEW GARDEN ESTATE,1.35819781719339,103.758181313921,103.758181313921,669831,CHU YEN STREET,HILLVIEW GARDEN ESTATE,19638.0897303671,37808.259797018
30 CHU YEN STREET HILLVIEW GARDEN ESTATE SINGAPORE 669832,30,HILLVIEW GARDEN ESTATE,1.35860196147123,103.75817992006,103.75817992006,669832,CHU YEN STREET,HILLVIEW GARDEN ESTATE,19637.935999278,37852.9480535369
31 CHU YEN STREET HILLVIEW GARDEN ESTATE SINGAPORE 669833,31,HILLVIEW GARDEN ESTATE,1.35818298290862,103.758071100357,103.758071100357,669833,CHU YEN STREET,HILLVIEW GARDEN ESTATE,19625.8241747897,37806.6198776588
32 CHU YEN STREET HILLVIEW GARDEN ESTATE SINGAPORE 669834,32,HILLVIEW GARDEN ESTATE,1.35860117903025,103.758053975945,103.758053975945,669834,CHU YEN STREET,HILLVIEW GARDEN ESTATE,19623.919864594,37852.8619713914
33 CHU YEN STREET HILLVIEW GARDEN ESTATE SINGAPORE 669835,33,HILLVIEW GARDEN ESTATE,1.35817274177185,103.75801067487,103.75801067487,669835,CHU YEN STREET,HILLVIEW GARDEN ESTATE,19619.0994763114,37805.4876734614
34 CHU YEN STREET HILLVIEW GARDEN ESTATE SINGAPORE 669836,34,HILLVIEW GARDEN ESTATE,1.35860147982833,103.758000523628,103.758000523628,669836,CHU YEN STREET,HILLVIEW GARDEN ESTATE,19617.971237218,37852.8954175133
40 CHU YEN STREET HILLVIEW GARDEN ESTATE SINGAPORE 669837,40,HILLVIEW GARDEN ESTATE,1.35927906573386,103.757989994504,103.757989994504,669837,CHU YEN STREET,HILLVIEW GARDEN ESTATE,19616.8018033989,37927.8195131514
41 CHU YEN STREET HILLVIEW GARDEN ESTATE SINGAPORE 669838,41,HILLVIEW GARDEN ESTATE,1.35886057731908,103.758165891348,103.758165891348,669838,CHU YEN STREET,HILLVIEW GARDEN ESTATE,19636.3756544488,37881.5445483904
42 CHU YEN STREET HILLVIEW GARDEN ESTATE SINGAPORE 669839,42,HILLVIEW GARDEN ESTATE,1.35923213099665,103.757955300579,103.757955300579,669839,CHU YEN STREET,HILLVIEW GARDEN ESTATE,19612.9406075198,37922.629825199
43 CHU YEN STREET HILLVIEW GARDEN ESTATE SINGAPORE 669840,43,HILLVIEW GARDEN ESTATE,1.35880716015104,103.758125736042,103.758125736042,669840,CHU YEN STREET,HILLVIEW GARDEN ESTATE,19631.9066471895,37875.6380843148
44 CHU YEN STREET HILLVIEW GARDEN ESTATE SINGAPORE 669841,44,HILLVIEW GARDEN ESTATE,1.35913443195931,103.757867156998,103.757867156998,669841,CHU YEN STREET,HILLVIEW GARDEN ESTATE,19603.1309053376,37911.8270607386
46 CHU YEN STREET HILLVIEW GARDEN ESTATE SINGAPORE 669842,46,HILLVIEW GARDEN ESTATE,1.35908073044255,103.75783774591,103.75783774591,669842,CHU YEN STREET,HILLVIEW GARDEN ESTATE,19599.8576045064,37905.8891179617
48 CHU YEN STREET HILLVIEW GARDEN ESTATE SINGAPORE 669843,48,HILLVIEW GARDEN ESTATE,1.3589718087168,103.757743422811,103.757743422811,669843,CHU YEN STREET,HILLVIEW GARDEN ESTATE,19589.3601531973,37893.8454267047
50 CHU YEN STREET HILLVIEW GARDEN ESTATE SINGAPORE 669844,50,HILLVIEW GARDEN ESTATE,1.35891136419244,103.757709230298,103.757709230298,669844,CHU YEN STREET,HILLVIEW GARDEN ESTATE,19585.5547109442,37887.1618926842
52 CHU YEN STREET HILLVIEW GARDEN ESTATE SINGAPORE 669845,52,HILLVIEW GARDEN ESTATE,1.35878774632356,103.757641528569,103.757641528569,669845,CHU YEN STREET,HILLVIEW GARDEN ESTATE,19578.0198596139,37873.4930831138
54 CHU YEN STREET HILLVIEW GARDEN ESTATE SINGAPORE 669846,54,HILLVIEW GARDEN ESTATE,1.35871451502281,103.757627762796,103.757627762796,669846,CHU YEN STREET,HILLVIEW GARDEN ESTATE,19576.4876337424,37865.395580234
56 CHU YEN STREET HILLVIEW GARDEN ESTATE SINGAPORE 669847,56,HILLVIEW GARDEN ESTATE,1.35857744623976,103.757647962218,103.757647962218,669847,CHU YEN STREET,HILLVIEW GARDEN ESTATE,19578.735122337,37850.2391295303
58 CHU YEN STREET HILLVIEW GARDEN ESTATE SINGAPORE 669848,58,HILLVIEW GARDEN ESTATE,1.35849062776797,103.757637212556,103.757637212556,669848,CHU YEN STREET,HILLVIEW GARDEN ESTATE,19577.5385078685,37840.6392147429
60 CHU YEN STREET HILLVIEW GARDEN ESTATE SINGAPORE 669849,60,HILLVIEW GARDEN ESTATE,1.35838301394237,103.757725638817,103.757725638817,669849,CHU YEN STREET,HILLVIEW GARDEN ESTATE,19587.3789623231,37828.7395082843
62 CHU YEN STREET HILLVIEW GARDEN ESTATE SINGAPORE 669850,62,HILLVIEW GARDEN ESTATE,1.35830620194813,103.757685884335,103.757685884335,669850,CHU YEN STREET,HILLVIEW GARDEN ESTATE,19582.9544792669,37820.246160714
64 CHU YEN STREET HILLVIEW GARDEN ESTATE SINGAPORE 669851,64,HILLVIEW GARDEN ESTATE,1.35823422692219,103.7576497296,103.7576497296,669851,CHU YEN STREET,HILLVIEW GARDEN ESTATE,19578.9306232436,37812.2876484152
66 CHU YEN STREET HILLVIEW GARDEN ESTATE SINGAPORE 669852,66,HILLVIEW GARDEN ESTATE,1.35813738854597,103.757658840326,103.757658840326,669852,CHU YEN STREET,HILLVIEW GARDEN ESTATE,19579.9442072148,37801.5797135476
1 CHU LIN ROAD HILLVIEW GARDEN ESTATE SINGAPORE 669887,1,HILLVIEW GARDEN ESTATE,1.35776916800998,103.760644324026,103.760644324026,669887,CHU LIN ROAD,HILLVIEW GARDEN ESTATE,19912.1930495566,37760.8535360955
1A CHU LIN ROAD HILLVIEW GARDEN ESTATE SINGAPORE 669888,1A,HILLVIEW GARDEN ESTATE,1.35776916773623,103.760644323483,103.760644323483,669888,CHU LIN ROAD,HILLVIEW GARDEN ESTATE,19912.1929890206,37760.8535058275
2 CHU LIN ROAD HILLVIEW GARDEN ESTATE SINGAPORE 669889,2,HILLVIEW GARDEN ESTATE,1.35808054748045,103.760151992858,103.760151992858,669889,CHU LIN ROAD,HILLVIEW GARDEN ESTATE,19857.403277223,37795.2859706208
3 CHU LIN ROAD HILLVIEW GARDEN ESTATE SINGAPORE 669890,3,HILLVIEW GARDEN ESTATE,1.35771602834955,103.760610031964,103.760610031964,669890,CHU LIN ROAD,HILLVIEW GARDEN ESTATE,19908.3765594894,37754.9777334891
3A CHU LIN ROAD HILLVIEW GARDEN ESTATE SINGAPORE 669891,3A,HILLVIEW GARDEN ESTATE,1.35771602807583,103.760610032236,103.760610032236,669891,CHU LIN ROAD,HILLVIEW GARDEN ESTATE,19908.3765897574,37754.9777032211
4 CHU LIN ROAD HILLVIEW GARDEN ESTATE SINGAPORE 669892,4,HILLVIEW GARDEN ESTATE,1.35801877720008,103.760123497449,103.760123497449,669892,CHU LIN ROAD,HILLVIEW GARDEN ESTATE,19854.2318584248,37788.4558184873
5 CHU LIN ROAD HILLVIEW GARDEN ESTATE SINGAPORE 669893,5,HILLVIEW GARDEN ESTATE,1.35766515414805,103.760577325737,103.760577325737,669893,CHU LIN ROAD,HILLVIEW GARDEN ESTATE,19904.736562036,37749.3524287157
5A CHU LIN ROAD HILLVIEW GARDEN ESTATE SINGAPORE 669894,5A,HILLVIEW GARDEN ESTATE,1.35766515387433,103.760577326009,103.760577326009,669894,CHU LIN ROAD,HILLVIEW GARDEN ESTATE,19904.736592304,37749.3523984477
6 CHU LIN ROAD HILLVIEW GARDEN ESTATE SINGAPORE 669895,6,HILLVIEW GARDEN ESTATE,1.35790845697483,103.760026393353,103.760026393353,669895,CHU LIN ROAD,HILLVIEW GARDEN ESTATE,19843.4249169827,37776.2574881017
7 CHU LIN ROAD HILLVIEW GARDEN ESTATE SINGAPORE 669896,7,HILLVIEW GARDEN ESTATE,1.35761427775626,103.760544619511,103.760544619511,669896,CHU LIN ROAD,HILLVIEW GARDEN ESTATE,19901.0965645825,37743.7268817965
7A CHU LIN ROAD HILLVIEW GARDEN ESTATE SINGAPORE 669897,7A,HILLVIEW GARDEN ESTATE,1.35761427802999,103.760544619783,103.760544619783,669897,CHU LIN ROAD,HILLVIEW GARDEN ESTATE,19901.0965948505,37743.7269120645
8 CHU LIN ROAD HILLVIEW GARDEN ESTATE SINGAPORE 669898,8,HILLVIEW GARDEN ESTATE,1.35790244979157,103.759950720399,103.759950720399,669898,CHU LIN ROAD,HILLVIEW GARDEN ESTATE,19835.0033650687,37775.593499342
9 CHU LIN ROAD HILLVIEW GARDEN ESTATE SINGAPORE 669899,9,HILLVIEW GARDEN ESTATE,1.3575466959902,103.760493247424,103.760493247424,669899,CHU LIN ROAD,HILLVIEW GARDEN ESTATE,19895.3792148698,37736.2542009056
9A CHU LIN ROAD HILLVIEW GARDEN ESTATE SINGAPORE 669900,9A,HILLVIEW GARDEN ESTATE,1.3575466959902,103.760493247424,103.760493247424,669900,CHU LIN ROAD,HILLVIEW GARDEN ESTATE,19895.3792148698,37736.2542009056
10 CHU LIN ROAD HILLVIEW GARDEN ESTATE SINGAPORE 669901,10,HILLVIEW GARDEN ESTATE,1.35793867418021,103.75980684018,103.75980684018,669901,CHU LIN ROAD,HILLVIEW GARDEN ESTATE,19818.9912687344,37779.5994972549
11 CHU LIN ROAD HILLVIEW GARDEN ESTATE SINGAPORE 669902,11,HILLVIEW GARDEN ESTATE,1.35754109231251,103.760408831478,103.760408831478,669902,CHU LIN ROAD,HILLVIEW GARDEN ESTATE,19885.9846683517,37735.6348574217
11A CHU LIN ROAD HILLVIEW GARDEN ESTATE SINGAPORE 669903,11A,HILLVIEW GARDEN ESTATE,1.35754109258624,103.76040883175,103.76040883175,669903,CHU LIN ROAD,HILLVIEW GARDEN ESTATE,19885.9846986197,37735.6348876897
12 CHU LIN ROAD HILLVIEW GARDEN ESTATE SINGAPORE 669904,12,HILLVIEW GARDEN ESTATE,1.35794214451716,103.759733846734,103.759733846734,669904,CHU LIN ROAD,HILLVIEW GARDEN ESTATE,19810.8679472646,37779.9834768977
14 CHU LIN ROAD HILLVIEW GARDEN ESTATE SINGAPORE 669906,14,HILLVIEW GARDEN ESTATE,1.3579380659233,103.759627442705,103.759627442705,669906,CHU LIN ROAD,HILLVIEW GARDEN ESTATE,19799.0263856025,37779.5328471549
15 CHU LIN ROAD HILLVIEW GARDEN ESTATE SINGAPORE 669907,15,HILLVIEW GARDEN ESTATE,1.3575413341061,103.760348607214,103.760348607214,669907,CHU LIN ROAD,HILLVIEW GARDEN ESTATE,19879.2823984493,37735.6617959272
15A CHU LIN ROAD HILLVIEW GARDEN ESTATE SINGAPORE 669908,15A,HILLVIEW GARDEN ESTATE,1.3575413341061,103.760348607214,103.760348607214,669908,CHU LIN ROAD,HILLVIEW GARDEN ESTATE,19879.2823984493,37735.6617959272
16 CHU LIN ROAD HILLVIEW GARDEN ESTATE SINGAPORE 669909,16,HILLVIEW GARDEN ESTATE,1.35795557978645,103.759561819154,103.759561819154,669909,CHU LIN ROAD,HILLVIEW GARDEN ESTATE,19791.7232962232,37781.469665166
17 CHU LIN ROAD HILLVIEW GARDEN ESTATE SINGAPORE 669910,17,HILLVIEW GARDEN ESTATE,1.35754153892629,103.7602877914,103.7602877914,669910,CHU LIN ROAD,HILLVIEW GARDEN ESTATE,19872.5142956823,37735.6846482549
17A CHU LIN ROAD HILLVIEW GARDEN ESTATE SINGAPORE 669911,17A,HILLVIEW GARDEN ESTATE,1.35754153837882,103.760287791401,103.760287791401,669911,CHU LIN ROAD,HILLVIEW GARDEN ESTATE,19872.5142956823,37735.6845877189
18 CHU LIN ROAD HILLVIEW GARDEN ESTATE SINGAPORE 669912,18,HILLVIEW GARDEN ESTATE,1.35796149609629,103.759441247237,103.759441247237,669912,CHU LIN ROAD,HILLVIEW GARDEN ESTATE,19778.3050450217,37782.1242708489
19 CHU LIN ROAD HILLVIEW GARDEN ESTATE SINGAPORE 669913,19,HILLVIEW GARDEN ESTATE,1.35754965651366,103.760136379634,103.760136379634,669913,CHU LIN ROAD,HILLVIEW GARDEN ESTATE,19855.6639275383,37736.5827598684
20 CHU LIN ROAD HILLVIEW GARDEN ESTATE SINGAPORE 669914,20,HILLVIEW GARDEN ESTATE,1.35796056482561,103.759377933607,103.759377933607,669914,CHU LIN ROAD,HILLVIEW GARDEN ESTATE,19771.2589610927,37782.0215110444
21 CHU LIN ROAD HILLVIEW GARDEN ESTATE SINGAPORE 669915,21,HILLVIEW GARDEN ESTATE,1.35752640518369,103.760075727441,103.760075727441,669915,CHU LIN ROAD,HILLVIEW GARDEN ESTATE,19848.9139552936,37734.0119486712
22 CHU LIN ROAD HILLVIEW GARDEN ESTATE SINGAPORE 669916,22,HILLVIEW GARDEN ESTATE,1.35793830814429,103.759163927646,103.759163927646,669916,CHU LIN ROAD,HILLVIEW GARDEN ESTATE,19747.4424770325,37779.5612082556
23 CHU LIN ROAD HILLVIEW GARDEN ESTATE SINGAPORE 669917,23,HILLVIEW GARDEN ESTATE,1.35751386491035,103.759957990924,103.759957990924,669917,CHU LIN ROAD,HILLVIEW GARDEN ESTATE,19835.8111872869,37732.625705285
24 CHU LIN ROAD HILLVIEW GARDEN ESTATE SINGAPORE 669918,24,HILLVIEW GARDEN ESTATE,1.35796070395016,103.75909617164,103.75909617164,669918,CHU LIN ROAD,HILLVIEW GARDEN ESTATE,19739.9020866612,37782.0378557555
25 CHU LIN ROAD HILLVIEW GARDEN ESTATE SINGAPORE 669919,25,HILLVIEW GARDEN ESTATE,1.35752299119624,103.759896567788,103.759896567788,669919,CHU LIN ROAD,HILLVIEW GARDEN ESTATE,19828.9755263794,37733.6350517385
26 CHU LIN ROAD HILLVIEW GARDEN ESTATE SINGAPORE 669920,26,HILLVIEW GARDEN ESTATE,1.35794077192212,103.758983931186,103.758983931186,669920,CHU LIN ROAD,HILLVIEW GARDEN ESTATE,19727.4109438006,37779.8342557363
27 CHU LIN ROAD HILLVIEW GARDEN ESTATE SINGAPORE 669921,27,HILLVIEW GARDEN ESTATE,1.35754960263732,103.759779415657,103.759779415657,669921,CHU LIN ROAD,HILLVIEW GARDEN ESTATE,19815.9379253415,37736.5780077949
28 CHU LIN ROAD HILLVIEW GARDEN ESTATE SINGAPORE 669922,28,HILLVIEW GARDEN ESTATE,1.35796550113674,103.758911115236,103.758911115236,669922,CHU LIN ROAD,HILLVIEW GARDEN ESTATE,19719.30744786,37782.5689377971
29 CHU LIN ROAD HILLVIEW GARDEN ESTATE SINGAPORE 669923,29,HILLVIEW GARDEN ESTATE,1.35755483995435,103.759707601465,103.759707601465,669923,CHU LIN ROAD,HILLVIEW GARDEN ESTATE,19807.9458458489,37737.1573672704
30 CHU LIN ROAD HILLVIEW GARDEN ESTATE SINGAPORE 669924,30,HILLVIEW GARDEN ESTATE,1.35793000758314,103.758804771734,103.758804771734,669924,CHU LIN ROAD,HILLVIEW GARDEN ESTATE,19707.4725148864,37778.644602906
31 CHU LIN ROAD HILLVIEW GARDEN ESTATE SINGAPORE 669925,31,HILLVIEW GARDEN ESTATE,1.3575247515757,103.759592821604,103.759592821604,669925,CHU LIN ROAD,HILLVIEW GARDEN ESTATE,19795.1720605567,37733.8307342529
32 CHU LIN ROAD HILLVIEW GARDEN ESTATE SINGAPORE 669926,32,HILLVIEW GARDEN ESTATE,1.35795703915233,103.758731792797,103.758731792797,669926,CHU LIN ROAD,HILLVIEW GARDEN ESTATE,19699.3508884236,37781.6338689774
33 CHU LIN ROAD HILLVIEW GARDEN ESTATE SINGAPORE 669927,33,HILLVIEW GARDEN ESTATE,1.35752462059194,103.759534776437,103.759534776437,669927,CHU LIN ROAD,HILLVIEW GARDEN ESTATE,19788.7122977395,37733.8164477646
34 CHU LIN ROAD HILLVIEW GARDEN ESTATE SINGAPORE 669928,34,HILLVIEW GARDEN ESTATE,1.35795773543404,103.758614270726,103.758614270726,669928,CHU LIN ROAD,HILLVIEW GARDEN ESTATE,19686.2720321231,37781.7112642117
35 CHU LIN ROAD HILLVIEW GARDEN ESTATE SINGAPORE 669929,35,HILLVIEW GARDEN ESTATE,1.35750999816219,103.759413150165,103.759413150165,669929,CHU LIN ROAD,HILLVIEW GARDEN ESTATE,19775.1766370293,37732.1999860946
36 CHU LIN ROAD HILLVIEW GARDEN ESTATE SINGAPORE 669930,36,HILLVIEW GARDEN ESTATE,1.35797061311981,103.758550582703,103.758550582703,669930,CHU LIN ROAD,HILLVIEW GARDEN ESTATE,19679.1843297165,37783.1354333814
37 CHU LIN ROAD HILLVIEW GARDEN ESTATE SINGAPORE 669931,37,HILLVIEW GARDEN ESTATE,1.35752648706927,103.759353304546,103.759353304546,669931,CHU LIN ROAD,HILLVIEW GARDEN ESTATE,19768.5165606961,37734.023450505
38 CHU LIN ROAD HILLVIEW GARDEN ESTATE SINGAPORE 669932,38,HILLVIEW GARDEN ESTATE,1.35796277296043,103.758430488531,103.758430488531,669932,CHU LIN ROAD,HILLVIEW GARDEN ESTATE,19665.8191988263,37782.2689215429
39 CHU LIN ROAD HILLVIEW GARDEN ESTATE SINGAPORE 669933,39,HILLVIEW GARDEN ESTATE,1.3575068014298,103.75923271412,103.75923271412,669933,CHU LIN ROAD,HILLVIEW GARDEN ESTATE,19755.0961604677,37731.8471219391
40 CHU LIN ROAD HILLVIEW GARDEN ESTATE SINGAPORE 669934,40,HILLVIEW GARDEN ESTATE,1.3579629997718,103.758374213918,103.758374213918,669934,CHU LIN ROAD,HILLVIEW GARDEN ESTATE,19659.5564805828,37782.2941953093
41 CHU LIN ROAD HILLVIEW GARDEN ESTATE SINGAPORE 669935,41,HILLVIEW GARDEN ESTATE,1.357519500412,103.759169886927,103.759169886927,669935,CHU LIN ROAD,HILLVIEW GARDEN ESTATE,19748.1042562285,37733.2515261155
42 CHU LIN ROAD HILLVIEW GARDEN ESTATE SINGAPORE 669936,42,HILLVIEW GARDEN ESTATE,1.35796515590752,103.75824970633,103.75824970633,669936,CHU LIN ROAD,HILLVIEW GARDEN ESTATE,19645.7002213886,37782.5330399685
43 CHU LIN ROAD HILLVIEW GARDEN ESTATE SINGAPORE 669937,43,HILLVIEW GARDEN ESTATE,1.35751894818649,103.759051222064,103.759051222064,669937,CHU LIN ROAD,HILLVIEW GARDEN ESTATE,19734.8982138606,37733.1908690762
44 CHU LIN ROAD HILLVIEW GARDEN ESTATE SINGAPORE 669938,44,HILLVIEW GARDEN ESTATE,1.35796456836865,103.758193705896,103.758193705896,669938,CHU LIN ROAD,HILLVIEW GARDEN ESTATE,19639.4680132736,37782.4682664834
45 CHU LIN ROAD HILLVIEW GARDEN ESTATE SINGAPORE 669939,45,HILLVIEW GARDEN ESTATE,1.35754662995527,103.758980705063,103.758980705063,669939,CHU LIN ROAD,HILLVIEW GARDEN ESTATE,19727.050573186,37736.2520216107
46 CHU LIN ROAD HILLVIEW GARDEN ESTATE SINGAPORE 669940,46,HILLVIEW GARDEN ESTATE,1.35795823283871,103.758071662416,103.758071662416,669940,CHU LIN ROAD,HILLVIEW GARDEN ESTATE,19625.8859517444,37781.768137753
47 CHU LIN ROAD HILLVIEW GARDEN ESTATE SINGAPORE 669941,47,HILLVIEW GARDEN ESTATE,1.35753522711355,103.758875865964,103.758875865964,669941,CHU LIN ROAD,HILLVIEW GARDEN ESTATE,19715.383143235,37734.9915114287
48 CHU LIN ROAD HILLVIEW GARDEN ESTATE SINGAPORE 669942,48,HILLVIEW GARDEN ESTATE,1.3579660439712,103.758007286173,103.758007286173,669942,CHU LIN ROAD,HILLVIEW GARDEN ESTATE,19618.7216410702,37782.632076811
49 CHU LIN ROAD HILLVIEW GARDEN ESTATE SINGAPORE 669943,49,HILLVIEW GARDEN ESTATE,1.3575317778998,103.758808165154,103.758808165154,669943,CHU LIN ROAD,HILLVIEW GARDEN ESTATE,19707.8488064604,37734.6103467084
50 CHU LIN ROAD HILLVIEW GARDEN ESTATE SINGAPORE 669944,50,HILLVIEW GARDEN ESTATE,1.35796276665001,103.757791894188,103.757791894188,669944,CHU LIN ROAD,HILLVIEW GARDEN ESTATE,19594.7509719012,37782.2704349421
51 CHU LIN ROAD HILLVIEW GARDEN ESTATE SINGAPORE 669945,51,HILLVIEW GARDEN ESTATE,1.35755775472932,103.758698357514,103.758698357514,669945,CHU LIN ROAD,HILLVIEW GARDEN ESTATE,19695.6285620537,37737.4831113126
52 CHU LIN ROAD HILLVIEW GARDEN ESTATE SINGAPORE 669946,52,HILLVIEW GARDEN ESTATE,1.35794475327092,103.757726852946,103.757726852946,669946,CHU LIN ROAD,HILLVIEW GARDEN ESTATE,19587.512565203,37780.2788318824
53 CHU LIN ROAD HILLVIEW GARDEN ESTATE SINGAPORE 669947,53,HILLVIEW GARDEN ESTATE,1.35754122546116,103.758621549393,103.758621549393,669947,CHU LIN ROAD,HILLVIEW GARDEN ESTATE,19687.0806413088,37735.6556515265
54 CHU LIN ROAD HILLVIEW GARDEN ESTATE SINGAPORE 669948,54,HILLVIEW GARDEN ESTATE,1.35796433689778,103.75760436262,103.75760436262,669948,CHU LIN ROAD,HILLVIEW GARDEN ESTATE,19573.8808641806,37782.4447179921
55 CHU LIN ROAD HILLVIEW GARDEN ESTATE SINGAPORE 669949,55,HILLVIEW GARDEN ESTATE,1.35752680523822,103.758507568954,103.758507568954,669949,CHU LIN ROAD,HILLVIEW GARDEN ESTATE,19674.3958741557,37734.0615276285
56 CHU LIN ROAD HILLVIEW GARDEN ESTATE SINGAPORE 669950,56,HILLVIEW GARDEN ESTATE,1.35796963039697,103.7575367608,103.7575367608,669950,CHU LIN ROAD,HILLVIEW GARDEN ESTATE,19566.3575752191,37783.0302824061
57 CHU LIN ROAD HILLVIEW GARDEN ESTATE SINGAPORE 669951,57,HILLVIEW GARDEN ESTATE,1.35754828734201,103.758449736626,103.758449736626,669951,CHU LIN ROAD,HILLVIEW GARDEN ESTATE,19667.9598717066,37736.4371103309
58 CHU LIN ROAD HILLVIEW GARDEN ESTATE SINGAPORE 669952,58,HILLVIEW GARDEN ESTATE,1.35793783576452,103.757431430051,103.757431430051,669952,CHU LIN ROAD,HILLVIEW GARDEN ESTATE,19554.6353602177,37779.5149587765
59 CHU LIN ROAD HILLVIEW GARDEN ESTATE SINGAPORE 669953,59,HILLVIEW GARDEN ESTATE,1.35752595797717,103.758330085972,103.758330085972,669953,CHU LIN ROAD,HILLVIEW GARDEN ESTATE,19654.6440473618,37733.9684535787
60 CHU LIN ROAD HILLVIEW GARDEN ESTATE SINGAPORE 669954,60,HILLVIEW GARDEN ESTATE,1.35792923015791,103.757362138869,103.757362138869,669954,CHU LIN ROAD,HILLVIEW GARDEN ESTATE,19546.9240162736,37778.5636360478
61 CHU LIN ROAD HILLVIEW GARDEN ESTATE SINGAPORE 669955,61,HILLVIEW GARDEN ESTATE,1.35752696590118,103.758270018347,103.758270018347,669955,CHU LIN ROAD,HILLVIEW GARDEN ESTATE,19647.9592118179,37734.0801121704
63 CHU LIN ROAD HILLVIEW GARDEN ESTATE SINGAPORE 669956,63,HILLVIEW GARDEN ESTATE,1.35752610434607,103.758152399793,103.758152399793,669956,CHU LIN ROAD,HILLVIEW GARDEN ESTATE,19634.8696103832,37733.9852523096
65 CHU LIN ROAD HILLVIEW GARDEN ESTATE SINGAPORE 669957,65,HILLVIEW GARDEN ESTATE,1.35755555194321,103.758090820726,103.758090820726,669957,CHU LIN ROAD,HILLVIEW GARDEN ESTATE,19628.016666458,37737.241633337
67 CHU LIN ROAD HILLVIEW GARDEN ESTATE SINGAPORE 669958,67,HILLVIEW GARDEN ESTATE,1.35754052983088,103.757970461621,103.757970461621,669958,CHU LIN ROAD,HILLVIEW GARDEN ESTATE,19614.6220242837,37735.5809804108
69 CHU LIN ROAD HILLVIEW GARDEN ESTATE SINGAPORE 669959,69,HILLVIEW GARDEN ESTATE,1.35752527121202,103.757911265643,103.757911265643,669959,CHU LIN ROAD,HILLVIEW GARDEN ESTATE,19608.0341370916,37733.8939640708
71 CHU LIN ROAD HILLVIEW GARDEN ESTATE SINGAPORE 669960,71,HILLVIEW GARDEN ESTATE,1.35754991633939,103.75779429551,103.75779429551,669960,CHU LIN ROAD,HILLVIEW GARDEN ESTATE,19595.0167853339,37736.6195052005
73 CHU LIN ROAD HILLVIEW GARDEN ESTATE SINGAPORE 669961,73,HILLVIEW GARDEN ESTATE,1.35752630594233,103.757729011032,103.757729011032,669961,CHU LIN ROAD,HILLVIEW GARDEN ESTATE,19587.7512887912,37734.0090126768
75 CHU LIN ROAD HILLVIEW GARDEN ESTATE SINGAPORE 669962,75,HILLVIEW GARDEN ESTATE,1.35752725035133,103.75760830548,103.75760830548,669962,CHU LIN ROAD,HILLVIEW GARDEN ESTATE,19574.3181457408,37734.1138609722
77 CHU LIN ROAD HILLVIEW GARDEN ESTATE SINGAPORE 669963,77,HILLVIEW GARDEN ESTATE,1.35758019895722,103.757546171928,103.757546171928,669963,CHU LIN ROAD,HILLVIEW GARDEN ESTATE,19567.4035762008,37739.9688694738
79 CHU LIN ROAD HILLVIEW GARDEN ESTATE SINGAPORE 669964,79,HILLVIEW GARDEN ESTATE,1.35752479120002,103.757436761453,103.757436761453,669964,CHU LIN ROAD,HILLVIEW GARDEN ESTATE,19555.2272506393,37733.8425387666
81 CHU LIN ROAD HILLVIEW GARDEN ESTATE SINGAPORE 669965,81,HILLVIEW GARDEN ESTATE,1.35753587862578,103.757372510772,103.757372510772,669965,CHU LIN ROAD,HILLVIEW GARDEN ESTATE,19548.0769237736,37735.0687553231
