ADDRESS,BLK_NO,BUILDING,LATITUDE,LONGITUDE,LONGTITUDE,POSTAL,ROAD_NAME,SEARCHVAL,X,Y
20 TEBAN GARDENS ROAD TEBAN VISTA SINGAPORE 600020,20,TEBAN VISTA,1.32378355041705,103.7385183842,103.7385183842,600020,TEBAN GARDENS ROAD,TEBAN VISTA,17449.6834526556,34002.9779342078
21 TEBAN GARDENS ROAD TEBAN VISTA SINGAPORE 600021,21,TEBAN VISTA,1.32368064923943,103.739156156511,103.739156156511,600021,TEBAN GARDENS ROAD,TEBAN VISTA,17520.6607848257,33991.5969301853
22 TEBAN GARDENS ROAD TEBAN VISTA SINGAPORE 600022,22,TEBAN VISTA,1.32277239024452,103.739714299254,103.739714299254,600022,TEBAN GARDENS ROAD,TEBAN VISTA,17582.7727759043,33891.1638253741
23 TEBAN GARDENS ROAD TEBAN VISTA SINGAPORE 600023,23,TEBAN VISTA,1.32285773181424,103.73923873397,103.73923873397,600023,TEBAN GARDENS ROAD,TEBAN VISTA,17529.8473902959,33900.6024723444
24 TEBAN GARDENS ROAD SINGAPORE 600024,24,NIL,1.32349635256112,103.737884227151,103.737884227151,600024,TEBAN GARDENS ROAD,24 TEBAN GARDENS ROAD SINGAPORE 600024,17379.1068080552,33971.2237319537
25 TEBAN GARDENS ROAD SINGAPORE 600025,25,NIL,1.32307929386097,103.737791107104,103.737791107104,600025,TEBAN GARDENS ROAD,25 TEBAN GARDENS ROAD SINGAPORE 600025,17368.7416883707,33925.107855713
30 TEBAN GARDENS ROAD SINGAPORE 600030,30,NIL,1.3208228255704,103.73907552675,103.73907552675,600030,TEBAN GARDENS ROAD,30 TEBAN GARDENS ROAD SINGAPORE 600030,17511.6754917149,33675.593368724
31 TEBAN GARDENS ROAD SINGAPORE 600031,31,NIL,1.32030814426975,103.738967733755,103.738967733755,600031,TEBAN GARDENS ROAD,31 TEBAN GARDENS ROAD SINGAPORE 600031,17499.6770208254,33618.6829306483
32 TEBAN GARDENS ROAD SINGAPORE 600032,32,NIL,1.32184396296011,103.739872521955,103.739872521955,600032,TEBAN GARDENS ROAD,32 TEBAN GARDENS ROAD SINGAPORE 600032,17600.3775432734,33788.502300797
33 TEBAN GARDENS ROAD SINGAPORE 600033,33,NIL,1.32030252805209,103.74184852426,103.74184852426,600033,TEBAN GARDENS ROAD,33 TEBAN GARDENS ROAD SINGAPORE 600033,17820.2809828641,33618.0499363039
34 TEBAN GARDENS ROAD SINGAPORE 600034,34,NIL,1.31987963533782,103.741754021124,103.741754021124,600034,TEBAN GARDENS ROAD,34 TEBAN GARDENS ROAD SINGAPORE 600034,17809.7619807515,33571.2889585271
35 TEBAN GARDENS ROAD SINGAPORE 600035,35,NIL,1.31955255991308,103.742644766325,103.742644766325,600035,TEBAN GARDENS ROAD,35 TEBAN GARDENS ROAD SINGAPORE 600035,17908.8919580597,33535.1189601291
36 TEBAN GARDENS ROAD SINGAPORE 600036,36,NIL,1.31997450302269,103.742739188864,103.742739188864,600036,TEBAN GARDENS ROAD,36 TEBAN GARDENS ROAD SINGAPORE 600036,17919.4019705821,33581.7749382705
37 TEBAN GARDENS ROAD SINGAPORE 600037,37,NIL,1.32053143645806,103.742652199249,103.742652199249,600037,TEBAN GARDENS ROAD,37 TEBAN GARDENS ROAD SINGAPORE 600037,17909.7231168924,33643.3582082093
38 TEBAN GARDENS ROAD SINGAPORE 600038,38,NIL,1.32113896630024,103.742787643913,103.742787643913,600038,TEBAN GARDENS ROAD,38 TEBAN GARDENS ROAD SINGAPORE 600038,17924.7992363665,33710.5352739505
39 TEBAN GARDENS ROAD SINGAPORE 600039,39,NIL,1.32136881127061,103.742845114726,103.742845114726,600039,TEBAN GARDENS ROAD,39 TEBAN GARDENS ROAD SINGAPORE 600039,17931.1961023137,33735.9501496945
40 TEBAN GARDENS ROAD SINGAPORE 600040,40,NIL,1.32135037743685,103.742031144918,103.742031144918,600040,TEBAN GARDENS ROAD,40 TEBAN GARDENS ROAD SINGAPORE 600040,17840.609142337,33733.9151423462
41 TEBAN GARDENS ROAD SINGAPORE 600041,41,NIL,1.32158737897173,103.740986913838,103.740986913838,600041,TEBAN GARDENS ROAD,41 TEBAN GARDENS ROAD SINGAPORE 600041,17724.3973981487,33760.1258844547
43 TEBAN GARDENS ROAD SINGAPORE 600043,43,NIL,1.32110255874093,103.741674029792,103.741674029792,600043,TEBAN GARDENS ROAD,43 TEBAN GARDENS ROAD SINGAPORE 600043,17800.8647069372,33706.5140512418
44 TEBAN GARDENS ROAD SINGAPORE 600044,44,NIL,1.32075391757793,103.741600208874,103.741600208874,600044,TEBAN GARDENS ROAD,44 TEBAN GARDENS ROAD SINGAPORE 600044,17792.6477363259,33667.9633548521
45 TEBAN GARDENS ROAD SINGAPORE 600045,45,NIL,1.32005146692874,103.741129936544,103.741129936544,600045,TEBAN GARDENS ROAD,45 TEBAN GARDENS ROAD SINGAPORE 600045,17740.3081270056,33590.2918040641
46 TEBAN GARDENS ROAD SINGAPORE 600046,46,NIL,1.32003028137399,103.74047874277,103.74047874277,600046,TEBAN GARDENS ROAD,46 TEBAN GARDENS ROAD SINGAPORE 600046,17667.8364947485,33587.9519073144
47 TEBAN GARDENS ROAD SINGAPORE 600047,47,NIL,1.32012627849168,103.739888486506,103.739888486506,600047,TEBAN GARDENS ROAD,47 TEBAN GARDENS ROAD SINGAPORE 600047,17602.1471004058,33598.5692501068
48 TEBAN GARDENS ROAD SINGAPORE 600048,48,NIL,1.32049772893293,103.739967666096,103.739967666096,600048,TEBAN GARDENS ROAD,48 TEBAN GARDENS ROAD SINGAPORE 600048,17610.9605621723,33639.642056508
49 TEBAN GARDENS ROAD SINGAPORE 600049,49,NIL,1.32098928416148,103.738180684101,103.738180684101,600049,TEBAN GARDENS ROAD,49 TEBAN GARDENS ROAD SINGAPORE 600049,17412.088921872,33694.0033249967
50 TEBAN GARDENS ROAD SINGAPORE 600050,50,NIL,1.32060355479615,103.737792183279,103.737792183279,600050,TEBAN GARDENS ROAD,50 TEBAN GARDENS ROAD SINGAPORE 600050,17368.8509255238,33651.3529512845
51 TEBAN GARDENS ROAD SINGAPORE 600051,51,NIL,1.32077270115681,103.737035273723,103.737035273723,600051,TEBAN GARDENS ROAD,51 TEBAN GARDENS ROAD SINGAPORE 600051,17284.614975499,33670.0595640652
52 TEBAN GARDENS ROAD SINGAPORE 600052,52,NIL,1.32100982297014,103.73748275185,103.73748275185,600052,TEBAN GARDENS ROAD,52 TEBAN GARDENS ROAD SINGAPORE 600052,17334.4159484888,33696.2773888819
53 TEBAN GARDENS ROAD SINGAPORE 600053,53,NIL,1.32137709718444,103.737577593659,103.737577593659,600053,TEBAN GARDENS ROAD,53 TEBAN GARDENS ROAD SINGAPORE 600053,17344.9724829011,33736.8883361183
54 TEBAN GARDENS ROAD SINGAPORE 600054,54,NIL,1.32159846468451,103.736923103215,103.736923103215,600054,TEBAN GARDENS ROAD,54 TEBAN GARDENS ROAD SINGAPORE 600054,17272.1350317923,33761.3688694742
55 TEBAN GARDENS ROAD MY WORLD PRESCHOOL LTD. SINGAPORE 600055,55,MY WORLD PRESCHOOL LTD.,1.32189197261167,103.737551593405,103.737551593405,600055,TEBAN GARDENS ROAD,MY WORLD PRESCHOOL LTD.,17342.0811034888,33793.820809288
56 TEBAN GARDENS ROAD TEBAN VIEW SINGAPORE 600056,56,TEBAN VIEW,1.32220164224483,103.737751694996,103.737751694996,600056,TEBAN GARDENS ROAD,TEBAN VIEW,17364.3517713519,33828.0616777446
57 TEBAN GARDENS ROAD TEBAN VIEW SINGAPORE 600057,57,TEBAN VIEW,1.32254226544254,103.737560699176,103.737560699176,600057,TEBAN GARDENS ROAD,TEBAN VIEW,17343.0972602386,33865.7269145381
60 TEBAN GARDENS ROAD TEBAN GARDENS SINGAPORE 600060,60,TEBAN GARDENS,1.32275524437283,103.738658086826,103.738658086826,600060,TEBAN GARDENS ROAD,TEBAN GARDENS,17465.2266373867,33889.2723790705
61 TEBAN GARDENS ROAD DBS TEBAN GARDENS SINGAPORE 600061,61,DBS TEBAN GARDENS,1.3223749703177,103.738412755847,103.738412755847,600061,TEBAN GARDENS ROAD,DBS TEBAN GARDENS,17437.9221011512,33847.2246106472
62 TEBAN GARDENS ROAD TEBAN PLACE SINGAPORE 600062,62,TEBAN PLACE,1.32149903397958,103.738982186646,103.738982186646,600062,TEBAN GARDENS ROAD,TEBAN PLACE,17501.290485966,33750.365519084
63 TEBAN GARDENS ROAD TEBAN PLACE SINGAPORE 600063,63,TEBAN PLACE,1.32102712835424,103.73951436112,103.73951436112,600063,TEBAN GARDENS ROAD,TEBAN PLACE,17560.5143363066,33698.1823044363
64 TEBAN GARDENS ROAD TEBAN PLACE SINGAPORE 600064,64,TEBAN PLACE,1.32137890995417,103.739779356356,103.739779356356,600064,TEBAN GARDENS ROAD,TEBAN PLACE,17590.0071872287,33737.0794481672
65 TEBAN GARDENS ROAD TEBAN PLACE SINGAPORE 600065,65,TEBAN PLACE,1.32196883899939,103.739225882156,103.739225882156,600065,TEBAN GARDENS ROAD,TEBAN PLACE,17528.4133840315,33802.3131882828
101 JURONG EAST STREET 13 JURONG EAST VILLE SINGAPORE 600101,101,JURONG EAST VILLE,1.33701100762294,103.738787314099,103.738787314099,600101,JURONG EAST STREET 13,JURONG EAST VILLE,17479.6687334049,35465.6032130141
102 JURONG EAST STREET 13 JURONG EAST VILLE SINGAPORE 600102,102,JURONG EAST VILLE,1.33609657873553,103.738219191663,103.738219191663,600102,JURONG EAST STREET 13,JURONG EAST VILLE,17416.4387338124,35364.4926501904
103 JURONG EAST STREET 13 JURONG EAST VILLE SINGAPORE 600103,103,JURONG EAST VILLE,1.33668715015786,103.738059200285,103.738059200285,600103,JURONG EAST STREET 13,JURONG EAST VILLE,17398.6358927572,35429.7957947925
104 JURONG EAST STREET 13 JURONG EAST VILLE SINGAPORE 600104,104,JURONG EAST VILLE,1.33658465311802,103.737623303842,103.737623303842,600104,JURONG EAST STREET 13,JURONG EAST VILLE,17350.1247293577,35418.4640670475
105 JURONG EAST STREET 13 JURONG EAST VILLE SINGAPORE 600105,105,JURONG EAST VILLE,1.33738746819329,103.738527627347,103.738527627347,600105,JURONG EAST STREET 13,JURONG EAST VILLE,17450.7699219314,35507.2314671837
106 JURONG EAST STREET 13 JURONG EAST VILLE SINGAPORE 600106,106,JURONG EAST VILLE,1.33724965052823,103.737674650927,103.737674650927,600106,JURONG EAST STREET 13,JURONG EAST VILLE,17355.8419882664,35491.9959565084
107 JURONG EAST STREET 13 CHAMPIONS LEARNING COVE SINGAPORE 600107,107,CHAMPIONS LEARNING COVE,1.33778634539959,103.738131877539,103.738131877539,600107,JURONG EAST STREET 13,CHAMPIONS LEARNING COVE,17406.7288251715,35551.3390324358
108 JURONG EAST STREET 13 DOVER CLEMENTI SPORTS CLUB SINGAPORE 600108,108,DOVER CLEMENTI SPORTS CLUB,1.33828303068105,103.737102099236,103.737102099236,600108,JURONG EAST STREET 13,DOVER CLEMENTI SPORTS CLUB,17292.1274587894,35606.2644961402
109 JURONG EAST STREET 13 JURONG EAST VILLE SINGAPORE 600109,109,JURONG EAST VILLE,1.3383617052828,103.735911158508,103.735911158508,600109,JURONG EAST STREET 13,JURONG EAST VILLE,17159.5886193607,35614.9691747744
110 JURONG EAST STREET 13 HAPPY TALENT CHILDCARE CENTRE PTE. LTD. SINGAPORE 600110,110,HAPPY TALENT CHILDCARE CENTRE PTE. LTD.,1.33887088246403,103.736218506114,103.736218506114,600110,JURONG EAST STREET 13,HAPPY TALENT CHILDCARE CENTRE PTE. LTD.,17193.7954060677,35671.2701064628
111 JURONG EAST STREET 13 JURONG EAST VILLE SINGAPORE 600111,111,JURONG EAST VILLE,1.33877574926997,103.735604254517,103.735604254517,600111,JURONG EAST STREET 13,JURONG EAST VILLE,17125.4352556458,35660.753465252
112 JURONG EAST STREET 13 JURONG EAST VILLE SINGAPORE 600112,112,JURONG EAST VILLE,1.33920981490513,103.735824423107,103.735824423107,600112,JURONG EAST STREET 13,JURONG EAST VILLE,17149.9396099038,35708.7493162286
113 JURONG EAST STREET 13 JURONG EAST VILLE SINGAPORE 600113,113,JURONG EAST VILLE,1.33879791361243,103.734807724832,103.734807724832,600113,JURONG EAST STREET 13,JURONG EAST VILLE,17036.7899868246,35663.207835516
114 JURONG EAST STREET 13 ISLAND VETERINARY CLINIC SINGAPORE 600114,114,ISLAND VETERINARY CLINIC,1.33923166301632,103.734632045186,103.734632045186,600114,JURONG EAST STREET 13,ISLAND VETERINARY CLINIC,17017.2406225735,35711.1704825144
115 JURONG EAST STREET 13 JURONG EAST VILLE SINGAPORE 600115,115,JURONG EAST VILLE,1.33979148822906,103.735502765561,103.735502765561,600115,JURONG EAST STREET 13,JURONG EAST VILLE,17114.1450858433,35773.0692961831
116 JURONG EAST STREET 13 JURONG EAST VILLE SINGAPORE 600116,116,JURONG EAST VILLE,1.33970763311095,103.734697751981,103.734697751981,600116,JURONG EAST STREET 13,JURONG EAST VILLE,17024.5552137867,35763.8006039411
117 JURONG EAST STREET 13 IVORY HEIGHTS SINGAPORE 600117,117,IVORY HEIGHTS,1.33788665985022,103.735067620142,103.735067620142,600117,JURONG EAST STREET 13,IVORY HEIGHTS,17065.7095621349,35562.4447491448
118 JURONG EAST STREET 13 IVORY HEIGHTS SINGAPORE 600118,118,IVORY HEIGHTS,1.33696847285791,103.735427684204,103.735427684204,600118,JURONG EAST STREET 13,IVORY HEIGHTS,17105.7768661175,35460.9145812634
119 JURONG EAST STREET 13 IVORY HEIGHTS SINGAPORE 600119,119,IVORY HEIGHTS,1.3360836768334,103.735570271389,103.735570271389,600119,JURONG EAST STREET 13,IVORY HEIGHTS,17121.6414362984,35363.0775916837
120 JURONG EAST STREET 13 IVORY HEIGHTS SINGAPORE 600120,120,IVORY HEIGHTS,1.33575515587255,103.736014076492,103.736014076492,600120,JURONG EAST STREET 13,IVORY HEIGHTS,17171.0308857812,35326.749412803
121 JURONG EAST STREET 13 IVORY HEIGHTS SINGAPORE 600121,121,IVORY HEIGHTS,1.33508148075832,103.736504321373,103.736504321373,600121,JURONG EAST STREET 13,IVORY HEIGHTS,17225.5871103527,35252.2556068208
122 JURONG EAST STREET 13 IVORY HEIGHTS SINGAPORE 600122,122,IVORY HEIGHTS,1.33568762398856,103.737032127309,103.737032127309,600122,JURONG EAST STREET 13,IVORY HEIGHTS,17284.3290641243,35319.2776096817
123 JURONG EAST STREET 13 IVORY HEIGHTS SINGAPORE 600123,123,IVORY HEIGHTS,1.33456603399473,103.736990741299,103.736990741299,600123,JURONG EAST STREET 13,IVORY HEIGHTS,17279.7183724325,35195.2579364143
124 JURONG EAST STREET 13 IVORY HEIGHTS SINGAPORE 600124,124,IVORY HEIGHTS,1.33430031098263,103.73779544917,103.73779544917,600124,JURONG EAST STREET 13,IVORY HEIGHTS,17369.2728914851,35165.8721130826
130 JURONG GATEWAY ROAD J CONNECT SINGAPORE 600130,130,J CONNECT,1.33472490467434,103.739321261736,103.739321261736,600130,JURONG GATEWAY ROAD,J CONNECT,17539.0818494484,35212.8150317091
131 JURONG GATEWAY ROAD HSBC JURONG BRANCH SINGAPORE 600131,131,HSBC JURONG BRANCH,1.33472214566591,103.740041227701,103.740041227701,600131,JURONG GATEWAY ROAD,HSBC JURONG BRANCH,17619.206590049,35212.5069036353
132 JURONG GATEWAY ROAD J CONNECT SINGAPORE 600132,132,J CONNECT,1.33431017803422,103.739636644243,103.739636644243,600132,JURONG GATEWAY ROAD,J CONNECT,17574.1789083593,35166.9552831482
133 JURONG GATEWAY ROAD J CONNECT SINGAPORE 600133,133,J CONNECT,1.33415949631122,103.739318522386,103.739318522386,600133,JURONG GATEWAY ROAD,J CONNECT,17538.7745991452,35150.2949979417
134 JURONG GATEWAY ROAD J CONNECT SINGAPORE 600134,134,J CONNECT,1.33399413849743,103.738819152518,103.738819152518,600134,JURONG GATEWAY ROAD,J CONNECT,17483.1991910264,35132.012681758
135 JURONG GATEWAY ROAD DBS NTUC JURONG EAST STREET 13 SINGAPORE 600135,135,DBS NTUC JURONG EAST STREET 13,1.33382294191646,103.739755036969,103.739755036969,600135,JURONG GATEWAY ROAD,DBS NTUC JURONG EAST STREET 13,17587.3527455926,35113.0786353461
201 JURONG EAST STREET 21 JURONG EAST VIEW SINGAPORE 600201,201,JURONG EAST VIEW,1.3364056697524,103.743075430286,103.743075430286,600201,JURONG EAST STREET 21,JURONG EAST VIEW,17956.8887170758,35398.6500092801
202 JURONG EAST STREET 21 JURONG EAST VIEW SINGAPORE 600202,202,JURONG EAST VIEW,1.33676127826379,103.742966309322,103.742966309322,600202,JURONG EAST STREET 21,JURONG EAST VIEW,17944.7461403161,35437.9718733579
203 JURONG EAST STREET 21 JURONG EAST VIEW SINGAPORE 600203,203,JURONG EAST VIEW,1.33683389097317,103.742544497471,103.742544497471,600203,JURONG EAST STREET 21,JURONG EAST VIEW,17897.8031914216,35446.0027564056
204 JURONG EAST STREET 21 JURONG EAST VIEW SINGAPORE 600204,204,JURONG EAST VIEW,1.3371914743342,103.741941852951,103.741941852951,600204,JURONG EAST STREET 21,JURONG EAST VIEW,17830.7366340877,35485.5450319424
205 JURONG EAST STREET 21 JURONG EAST VIEW SINGAPORE 600205,205,JURONG EAST VIEW,1.33756440098279,103.742881138117,103.742881138117,600205,JURONG EAST STREET 21,JURONG EAST VIEW,17935.2707480136,35526.7775322255
206 JURONG EAST STREET 21 JURONG EAST VIEW SINGAPORE 600206,206,JURONG EAST VIEW,1.33780382054265,103.741997788111,103.741997788111,600206,JURONG EAST STREET 21,JURONG EAST VIEW,17836.9641506653,35553.2549958043
207 JURONG EAST STREET 21 JURONG EAST VIEW SINGAPORE 600207,207,JURONG EAST VIEW,1.33789037717129,103.742428065764,103.742428065764,600207,JURONG EAST STREET 21,JURONG EAST VIEW,17884.8498867173,35562.824218858
208 JURONG EAST STREET 21 JURONG EAST VIEW SINGAPORE 600208,208,JURONG EAST VIEW,1.33843639958331,103.742666850845,103.742666850845,600208,JURONG EAST STREET 21,JURONG EAST VIEW,17911.4263871405,35623.1996751744
209 JURONG EAST STREET 21 SINGAPORE 600209,209,NIL,1.33782546503407,103.740093358961,103.740093358961,600209,JURONG EAST STREET 21,209 JURONG EAST STREET 21 SINGAPORE 600209,17625.0212815963,35555.6563062929
210 JURONG EAST STREET 21 SINGAPORE 600210,210,NIL,1.33889493784685,103.73855509854,103.73855509854,600210,JURONG EAST STREET 21,210 JURONG EAST STREET 21 SINGAPORE 600210,17453.8336169757,35673.9198565613
211 JURONG EAST STREET 21 SINGAPORE 600211,211,NIL,1.33866911059386,103.740292528065,103.740292528065,600211,JURONG EAST STREET 21,211 JURONG EAST STREET 21 SINGAPORE 600211,17647.1902490351,35648.9415964819
212 JURONG EAST STREET 21 SINGAPORE 600212,212,NIL,1.33909401436064,103.740391980229,103.740391980229,600212,JURONG EAST STREET 21,212 JURONG EAST STREET 21 SINGAPORE 600212,17658.2600073796,35695.9249228667
213 JURONG EAST STREET 21 SINGAPORE 600213,213,NIL,1.33903256648275,103.739773775263,103.739773775263,600213,JURONG EAST STREET 21,213 JURONG EAST STREET 21 SINGAPORE 600213,17589.4600631548,35689.1329386607
214 JURONG EAST STREET 21 SINGAPORE 600214,214,NIL,1.33928625957387,103.738985189412,103.738985189412,600214,JURONG EAST STREET 21,214 JURONG EAST STREET 21 SINGAPORE 600214,17501.6998604452,35717.1884235721
215 JURONG EAST STREET 21 SINGAPORE 600215,215,NIL,1.33993327217519,103.738514477739,103.738514477739,600215,JURONG EAST STREET 21,215 JURONG EAST STREET 21 SINGAPORE 600215,17449.317391661,35788.7338857967
216 JURONG EAST STREET 21 SINGAPORE 600216,216,NIL,1.33953084548923,103.73780943839,103.73780943839,600216,JURONG EAST STREET 21,216 JURONG EAST STREET 21 SINGAPORE 600216,17370.8522446072,35744.2385876738
217 JURONG EAST STREET 21 SINGAPORE 600217,217,NIL,1.33996762299816,103.738041056685,103.738041056685,600217,JURONG EAST STREET 21,217 JURONG EAST STREET 21 SINGAPORE 600217,17396.6307901759,35792.5342732966
218 JURONG EAST STREET 21 SINGAPORE 600218,218,NIL,1.34033241177285,103.737928007136,103.737928007136,600218,JURONG EAST STREET 21,218 JURONG EAST STREET 21 SINGAPORE 600218,17384.051143731,35832.8712952808
219 JURONG EAST STREET 21 SINGAPORE 600219,219,NIL,1.34077678943087,103.738019085958,103.738019085958,600219,JURONG EAST STREET 21,219 JURONG EAST STREET 21 SINGAPORE 600219,17394.189162733,35882.0079768319
220 JURONG EAST STREET 21 SINGAPORE 600220,220,NIL,1.34107109436442,103.737469981521,103.737469981521,600220,JURONG EAST STREET 21,220 JURONG EAST STREET 21 SINGAPORE 600220,17333.0809487989,35914.5531420354
221 JURONG EAST STREET 21 SINGAPORE 600221,221,NIL,1.34084174986254,103.736918269895,103.736918269895,600221,JURONG EAST STREET 21,221 JURONG EAST STREET 21 SINGAPORE 600221,17271.6803158727,35889.1957754605
222 JURONG EAST STREET 21 SINGAPORE 600222,222,NIL,1.34081722087136,103.735755582653,103.735755582653,600222,JURONG EAST STREET 21,222 JURONG EAST STREET 21 SINGAPORE 600222,17142.2854724489,35886.4886069968
223 JURONG EAST STREET 21 SINGAPORE 600223,223,NIL,1.34107201241895,103.736089674372,103.736089674372,600223,JURONG EAST STREET 21,223 JURONG EAST STREET 21 SINGAPORE 600223,17179.467450615,35914.6607144512
224 JURONG EAST STREET 21 SINGAPORE 600224,224,NIL,1.34171403139747,103.736733166148,103.736733166148,600224,JURONG EAST STREET 21,224 JURONG EAST STREET 21 SINGAPORE 600224,17251.0840426013,35985.6491549704
225 JURONG EAST STREET 21 SINGAPORE 600225,225,NIL,1.34178121001946,103.737251510685,103.737251510685,600225,JURONG EAST STREET 21,225 JURONG EAST STREET 21 SINGAPORE 600225,17308.7705517802,35993.0751626305
226 JURONG EAST STREET 21 SINGAPORE 600226,226,NIL,1.34140471346947,103.735843456176,103.735843456176,600226,JURONG EAST STREET 21,226 JURONG EAST STREET 21 SINGAPORE 600226,17152.067449159,35951.4502379391
227 JURONG EAST STREET 21 SINGAPORE 600227,227,NIL,1.34182066937117,103.736087793751,103.736087793751,600227,JURONG EAST STREET 21,227 JURONG EAST STREET 21 SINGAPORE 600227,17179.2614467181,35997.4434985779
228 JURONG EAST STREET 21 SINGAPORE 600228,228,NIL,1.34257472073046,103.736290436718,103.736290436718,600228,JURONG EAST STREET 21,228 JURONG EAST STREET 21 SINGAPORE 600228,17201.8167547006,36080.8218658194
229 JURONG EAST STREET 21 SINGAPORE 600229,229,NIL,1.34183055675235,103.738020275061,103.738020275061,600229,JURONG EAST STREET 21,229 JURONG EAST STREET 21 SINGAPORE 600229,17394.3260345552,35998.5283333808
230 JURONG EAST STREET 21 SINGAPORE 600230,230,NIL,1.3415358326617,103.737487956254,103.737487956254,600230,JURONG EAST STREET 21,230 JURONG EAST STREET 21 SINGAPORE 600230,17335.0833575297,35965.9415194318
231 JURONG EAST STREET 21 SINGAPORE 600231,231,NIL,1.3411274954664,103.738101187795,103.738101187795,600231,JURONG EAST STREET 21,231 JURONG EAST STREET 21 SINGAPORE 600231,17403.3277329132,35920.7869543545
232 JURONG EAST STREET 21 SINGAPORE 600232,232,NIL,1.33982600141552,103.740822151959,103.740822151959,600232,JURONG EAST STREET 21,232 JURONG EAST STREET 21 SINGAPORE 600232,17706.1366327684,35776.8626009747
233 JURONG EAST STREET 21 SINGAPORE 600233,233,NIL,1.34037462134713,103.740936554727,103.740936554727,600233,JURONG EAST STREET 21,233 JURONG EAST STREET 21 SINGAPORE 600233,17718.870736734,35837.5257847458
234 JURONG EAST STREET 21 SINGAPORE 600234,234,NIL,1.3399327053569,103.741646605612,103.741646605612,600234,JURONG EAST STREET 21,234 JURONG EAST STREET 21 SINGAPORE 600234,17797.8900300339,35788.6579434257
235 JURONG EAST STREET 21 SINGAPORE 600235,235,NIL,1.33997597903355,103.742159955768,103.742159955768,600235,JURONG EAST STREET 21,235 JURONG EAST STREET 21 SINGAPORE 600235,17855.0206374237,35793.4407994095
236 JURONG EAST STREET 21 SINGAPORE 600236,236,NIL,1.34040691118426,103.742128554131,103.742128554131,600236,JURONG EAST STREET 21,236 JURONG EAST STREET 21 SINGAPORE 600236,17851.527742371,35841.0912624225
237 JURONG EAST STREET 21 SINGAPORE 600237,237,NIL,1.34071089584165,103.741213160816,103.741213160816,600237,JURONG EAST STREET 21,237 JURONG EAST STREET 21 SINGAPORE 600237,17749.6554554692,35874.7081866637
238 JURONG EAST STREET 21 SINGAPORE 600238,238,NIL,1.34071930674982,103.74056288551,103.74056288551,600238,JURONG EAST STREET 21,238 JURONG EAST STREET 21 SINGAPORE 600238,17677.2867646245,35875.6409551166
239 JURONG EAST STREET 21 SINGAPORE 600239,239,NIL,1.34096483548865,103.74091413759,103.74091413759,600239,JURONG EAST STREET 21,239 JURONG EAST STREET 21 SINGAPORE 600239,17716.3784104185,35902.7888242695
240 JURONG EAST STREET 21 SINGAPORE 600240,240,NIL,1.34106751096494,103.741573199896,103.741573199896,600240,JURONG EAST STREET 21,240 JURONG EAST STREET 21 SINGAPORE 600240,17789.7254533013,35914.1394089665
241 JURONG EAST STREET 24 SINGAPORE 600241,241,NIL,1.3414812934447,103.742973359591,103.742973359591,600241,JURONG EAST STREET 24,241 JURONG EAST STREET 24 SINGAPORE 600241,17945.5499974275,35959.8876200076
242 JURONG EAST STREET 24 SINGAPORE 600242,242,NIL,1.34190350538593,103.74279685963,103.74279685963,600242,JURONG EAST STREET 24,242 JURONG EAST STREET 24 SINGAPORE 600242,17925.9091633298,36006.5744412243
243 JURONG EAST STREET 24 SINGAPORE 600243,243,NIL,1.34206406490644,103.743306656115,103.743306656115,600243,JURONG EAST STREET 24,243 JURONG EAST STREET 24 SINGAPORE 600243,17982.6447129967,36024.326220192
244 JURONG EAST STREET 24 SINGAPORE 600244,244,NIL,1.34263187196449,103.742133807093,103.742133807093,600244,JURONG EAST STREET 24,244 JURONG EAST STREET 24 SINGAPORE 600244,17852.1215094076,36087.1163351778
245 JURONG EAST STREET 24 SINGAPORE 600245,245,NIL,1.3416807983165,103.741783307334,103.741783307334,600245,JURONG EAST STREET 24,245 JURONG EAST STREET 24 SINGAPORE 600245,17813.1107093981,35981.9527985305
246 JURONG EAST STREET 24 SINGAPORE 600246,246,NIL,1.34177658836855,103.740057253589,103.740057253589,600246,JURONG EAST STREET 24,246 JURONG EAST STREET 24 SINGAPORE 600246,17621.0197633449,35992.5520410687
247 JURONG EAST STREET 24 SINGAPORE 600247,247,NIL,1.34202424550408,103.739009746539,103.739009746539,600247,JURONG EAST STREET 24,247 JURONG EAST STREET 24 SINGAPORE 600247,17504.4444704056,36019.9412065856
248 JURONG EAST STREET 24 SINGAPORE 600248,248,NIL,1.34227314416197,103.740101369089,103.740101369089,600248,JURONG EAST STREET 24,248 JURONG EAST STREET 24 SINGAPORE 600248,17625.9314398672,36047.4585267473
249 JURONG EAST STREET 24 SINGAPORE 600249,249,NIL,1.34256242291848,103.739259690369,103.739259690369,600249,JURONG EAST STREET 24,249 JURONG EAST STREET 24 SINGAPORE 600249,17532.262835932,36079.4491219539
250 JURONG EAST STREET 24 SINGAPORE 600250,250,NIL,1.34265327777661,103.739976995418,103.739976995418,600250,JURONG EAST STREET 24,250 JURONG EAST STREET 24 SINGAPORE 600250,17612.0915859202,36089.492341632
251 JURONG EAST STREET 24 SINGAPORE 600251,251,NIL,1.34316585637535,103.73967649195,103.73967649195,600251,JURONG EAST STREET 24,251 JURONG EAST STREET 24 SINGAPORE 600251,17578.6509424178,36146.1720166001
252 JURONG EAST STREET 24 DBS JURONG EAST STREET 24 SINGAPORE 600252,252,DBS JURONG EAST STREET 24,1.34306217556914,103.738233469424,103.738233469424,600252,JURONG EAST STREET 24,DBS JURONG EAST STREET 24,17418.0575866532,36134.7137081493
253 JURONG EAST STREET 24 YUHUA VILLAGE SINGAPORE 600253,253,YUHUA VILLAGE,1.34318835786153,103.73678575382,103.73678575382,600253,JURONG EAST STREET 24,YUHUA VILLAGE,17256.9429254048,36148.6726363432
254 JURONG EAST STREET 24 YUHUA VILLAGE MARKET AND FOOD CENTRE SINGAPORE 600254,254,YUHUA VILLAGE MARKET AND FOOD CENTRE,1.34351625707381,103.737851045986,103.737851045986,600254,JURONG EAST STREET 24,YUHUA VILLAGE MARKET AND FOOD CENTRE,17375.499923775,36184.9254479446
255 JURONG EAST STREET 24 SINGAPORE 600255,255,NIL,1.34434131896457,103.737908581997,103.737908581997,600255,JURONG EAST STREET 24,255 JURONG EAST STREET 24 SINGAPORE 600255,17381.9066268168,36276.1564500798
256 JURONG EAST STREET 24 SINGAPORE 600256,256,NIL,1.34416527251747,103.738263367232,103.738263367232,600256,JURONG EAST STREET 24,256 JURONG EAST STREET 24 SINGAPORE 600256,17421.3896376407,36256.6885672398
257 JURONG EAST STREET 24 SINGAPORE 600257,257,NIL,1.34451804267549,103.738630332612,103.738630332612,600257,JURONG EAST STREET 24,257 JURONG EAST STREET 24 SINGAPORE 600257,17462.2304399461,36295.69455464
258 JURONG EAST STREET 24 SINGAPORE 600258,258,NIL,1.34378634902456,103.738635757888,103.738635757888,600258,JURONG EAST STREET 24,258 JURONG EAST STREET 24 SINGAPORE 600258,17462.831077815,36214.7874774653
259 JURONG EAST STREET 24 SINGAPORE 600259,259,NIL,1.34417454623856,103.739875551045,103.739875551045,600259,JURONG EAST STREET 24,259 JURONG EAST STREET 24 SINGAPORE 600259,17600.808347486,36257.7070848923
260 JURONG EAST STREET 24 SINGAPORE 600260,260,NIL,1.34372175616439,103.740222868909,103.740222868909,600260,JURONG EAST STREET 24,260 JURONG EAST STREET 24 SINGAPORE 600260,17639.4591703657,36207.6383310501
261 JURONG EAST STREET 24 SINGAPORE 600261,261,NIL,1.34449568862198,103.740401081749,103.740401081749,600261,JURONG EAST STREET 24,261 JURONG EAST STREET 24 SINGAPORE 600261,17659.2955961749,36293.2151830215
262 JURONG EAST STREET 24 SINGAPORE 600262,262,NIL,1.34412714311524,103.741112405413,103.741112405413,600262,JURONG EAST STREET 24,262 JURONG EAST STREET 24 SINGAPORE 600262,17738.4566949783,36252.4602509867
263 JURONG EAST STREET 24 SINGAPORE 600263,263,NIL,1.34434377958261,103.741796120846,103.741796120846,600263,JURONG EAST STREET 24,263 JURONG EAST STREET 24 SINGAPORE 600263,17814.5477424609,36276.4119723979
264 JURONG EAST STREET 24 SINGAPORE 600264,264,NIL,1.34382869717494,103.741654163177,103.741654163177,600264,JURONG EAST STREET 24,264 JURONG EAST STREET 24 SINGAPORE 600264,17798.7472496005,36219.4573127963
265 TOH GUAN ROAD TOH GUAN VIEW SINGAPORE 600265,265,TOH GUAN VIEW,1.34070811731138,103.744702329438,103.744702329438,600265,TOH GUAN ROAD,TOH GUAN VIEW,18137.9627829511,35874.3866196033
266 TOH GUAN ROAD TOH GUAN VIEW SINGAPORE 600266,266,TOH GUAN VIEW,1.34134130895868,103.744343444346,103.744343444346,600266,TOH GUAN ROAD,TOH GUAN VIEW,18098.0252378155,35944.4032459706
267 TOH GUAN ROAD TOH GUAN VIEW SINGAPORE 600267,267,TOH GUAN VIEW,1.34111736866105,103.744794661314,103.744794661314,600267,TOH GUAN ROAD,TOH GUAN VIEW,18148.2399741421,35919.6392226797
268 TOH GUAN ROAD TOH GUAN VIEW SINGAPORE 600268,268,TOH GUAN VIEW,1.34186652871068,103.74503522598,103.74503522598,600268,TOH GUAN ROAD,TOH GUAN VIEW,18175.0152444141,36002.4766405169
269 TOH GUAN ROAD TOH GUAN VIEW SINGAPORE 600269,269,TOH GUAN VIEW,1.34146035006385,103.74567772942,103.74567772942,600269,TOH GUAN ROAD,TOH GUAN VIEW,18246.5173931541,35957.5608595647
270 TOH GUAN ROAD TOH GUAN VIEW SINGAPORE 600270,270,TOH GUAN VIEW,1.34122974295897,103.7461193594,103.7461193594,600270,TOH GUAN ROAD,TOH GUAN VIEW,18295.6651830543,35932.0597200673
271 TOH GUAN ROAD PCF SPARKLETOTS PRESCHOOL @ BUKIT BATOK EAST 271 (CC) SINGAPORE 600271,271,PCF SPARKLETOTS PRESCHOOL @ BUKIT BATOK EAST 271 (CC),1.34168199586003,103.746245539012,103.746245539012,600271,TOH GUAN ROAD,PCF SPARKLETOTS PRESCHOOL @ BUKIT BATOK EAST 271 (CC),18309.7094064271,35982.0670904368
272 TOH GUAN ROAD TOH GUAN VIEW SINGAPORE 600272,272,TOH GUAN VIEW,1.34210413117254,103.745408699132,103.745408699132,600272,TOH GUAN ROAD,TOH GUAN VIEW,18216.579754211,36028.7480396647
273 TOH GUAN ROAD TOH GUAN VIEW SINGAPORE 600273,273,TOH GUAN VIEW,1.34266194835614,103.745310932473,103.745310932473,600273,TOH GUAN ROAD,TOH GUAN VIEW,18205.7015922023,36090.4290751908
274 TOH GUAN ROAD TOH GUAN VIEW SINGAPORE 600274,274,TOH GUAN VIEW,1.34209832796869,103.746710251651,103.746710251651,600274,TOH GUAN ROAD,TOH GUAN VIEW,18361.4285826171,36028.1011825856
275 TOH GUAN ROAD TOH GUAN VIEW SINGAPORE 600275,275,TOH GUAN VIEW,1.34106185650379,103.747964433747,103.747964433747,600275,TOH GUAN ROAD,TOH GUAN VIEW,18501.0016106572,35913.4884354416
276 TOH GUAN ROAD TOH GUAN VIEW SINGAPORE 600276,276,TOH GUAN VIEW,1.34096054679072,103.747453693181,103.747453693181,600276,TOH GUAN ROAD,TOH GUAN VIEW,18444.1612429628,35902.2881010138
277 TOH GUAN ROAD TOH GUAN VIEW SINGAPORE 600277,277,TOH GUAN VIEW,1.34131892672099,103.74672572293,103.74672572293,600277,TOH GUAN ROAD,TOH GUAN VIEW,18363.1473198049,35941.9188195989
278 TOH GUAN ROAD TOH GUAN VIEW SINGAPORE 600278,278,TOH GUAN VIEW,1.34090157770535,103.746437082019,103.746437082019,600278,TOH GUAN ROAD,TOH GUAN VIEW,18331.0230309134,35895.7715857271
279 TOH GUAN ROAD TOH GUAN VIEW SINGAPORE 600279,279,TOH GUAN VIEW,1.34072885868923,103.746781223695,103.746781223695,600279,TOH GUAN ROAD,TOH GUAN VIEW,18369.3216555351,35876.6718221065
280 TOH GUAN ROAD TOH GUAN VIEW SINGAPORE 600280,280,TOH GUAN VIEW,1.34046486754645,103.747294159262,103.747294159262,600280,TOH GUAN ROAD,TOH GUAN VIEW,18426.4048935305,35847.4789874386
281 TOH GUAN ROAD TOH GUAN VIEW SINGAPORE 600281,281,TOH GUAN VIEW,1.33989545035108,103.746414934077,103.746414934077,600281,TOH GUAN ROAD,TOH GUAN VIEW,18328.5542530902,35784.5191296004
282 TOH GUAN ROAD TOH GUAN VIEW SINGAPORE 600282,282,TOH GUAN VIEW,1.3396058298969,103.747111253923,103.747111253923,600282,TOH GUAN ROAD,TOH GUAN VIEW,18406.0461331271,35752.4916074537
283 TOH GUAN ROAD TOH GUAN VIEW SINGAPORE 600283,283,TOH GUAN VIEW,1.33908506817905,103.74705803294,103.74705803294,600283,TOH GUAN ROAD,TOH GUAN VIEW,18400.1211753143,35694.9085845109
284 TOH GUAN ROAD TOH GUAN VIEW SINGAPORE 600284,284,TOH GUAN VIEW,1.33948765295892,103.746226449075,103.746226449075,600284,TOH GUAN ROAD,TOH GUAN VIEW,18307.5762702748,35739.4276732691
289 TOH GUAN ROAD TOH GUAN GROVE SINGAPORE 600289,289,TOH GUAN GROVE,1.34074914637525,103.745771289839,103.745771289839,600289,TOH GUAN ROAD,TOH GUAN GROVE,18256.9268554337,35878.9191290941
290 TOH GUAN ROAD TOH GUAN GROVE SINGAPORE 600290,290,TOH GUAN GROVE,1.3399604500664,103.745856957492,103.745856957492,600290,TOH GUAN ROAD,TOH GUAN GROVE,18266.4576381473,35791.708683772
301 JURONG EAST STREET 32 HONG KAH EAST GARDEN SINGAPORE 600301,301,HONG KAH EAST GARDEN,1.34404144956674,103.735500080389,103.735500080389,600301,JURONG EAST STREET 32,HONG KAH EAST GARDEN,17113.8650464583,36243.0089822672
302 JURONG EAST STREET 32 HONG KAH EAST GARDEN SINGAPORE 600302,302,HONG KAH EAST GARDEN,1.34465302453655,103.734485227961,103.734485227961,600302,JURONG EAST STREET 32,HONG KAH EAST GARDEN,17000.9256345257,36310.6384635605
303 JURONG EAST STREET 32 HONG KAH EAST GARDEN SINGAPORE 600303,303,HONG KAH EAST GARDEN,1.34485611194653,103.735622181477,103.735622181477,600303,JURONG EAST STREET 32,HONG KAH EAST GARDEN,17127.457187226,36333.0897707511
304 JURONG EAST STREET 32 HONG KAH EAST GARDEN SINGAPORE 600304,304,HONG KAH EAST GARDEN,1.3451446878869,103.734750459542,103.734750459542,600304,JURONG EAST STREET 32,HONG KAH EAST GARDEN,17030.4452423463,36365.0029707234
305 JURONG EAST STREET 32 HONG KAH EAST GARDEN SINGAPORE 600305,305,HONG KAH EAST GARDEN,1.34543656763546,103.735240571701,103.735240571701,600305,JURONG EAST STREET 32,HONG KAH EAST GARDEN,17084.9907217827,36397.2753911261
306 JURONG EAST STREET 32 HONG KAH EAST GARDEN SINGAPORE 600306,306,HONG KAH EAST GARDEN,1.34607046577403,103.735252691468,103.735252691468,600306,JURONG EAST STREET 32,HONG KAH EAST GARDEN,17086.3423385955,36467.3686560281
307 JURONG EAST STREET 32 HONG KAH EAST PLACE SINGAPORE 600307,307,HONG KAH EAST PLACE,1.34652151786552,103.734843138868,103.734843138868,600307,JURONG EAST STREET 32,HONG KAH EAST PLACE,17040.765595682,36517.2456016559
308 JURONG EAST STREET 32 HONG KAH EAST PLACE SINGAPORE 600308,308,HONG KAH EAST PLACE,1.34730790760381,103.734583963199,103.734583963199,600308,JURONG EAST STREET 32,HONG KAH EAST PLACE,17011.9256857047,36604.2018564511
309 JURONG EAST STREET 32 HONG KAH EAST PLACE SINGAPORE 600309,309,HONG KAH EAST PLACE,1.34753691047157,103.734033285066,103.734033285066,600309,JURONG EAST STREET 32,HONG KAH EAST PLACE,16950.6422504121,36629.5263519958
310 JURONG EAST STREET 32 HONG KAH EAST PLACE SINGAPORE 600310,310,HONG KAH EAST PLACE,1.34820836305368,103.733799342203,103.733799342203,600310,JURONG EAST STREET 32,HONG KAH EAST PLACE,16924.6099986043,36703.7733225692
311 JURONG EAST STREET 32 SINGAPORE 600311,311,NIL,1.3476665757372,103.73257867693,103.73257867693,600311,JURONG EAST STREET 32,311 JURONG EAST STREET 32 SINGAPORE 600311,16788.7608406004,36643.8707429618
312 JURONG EAST STREET 32 SINGAPORE 600312,312,NIL,1.34691464537256,103.732174273854,103.732174273854,600312,JURONG EAST STREET 32,312 JURONG EAST STREET 32 SINGAPORE 600312,16743.7517434536,36560.7278606333
313 JURONG EAST STREET 32 SINGAPORE 600313,313,NIL,1.34715455988215,103.733348701413,103.733348701413,600313,JURONG EAST STREET 32,313 JURONG EAST STREET 32 SINGAPORE 600313,16874.4538308261,36587.2510288693
314 JURONG EAST STREET 32 SINGAPORE 600314,314,NIL,1.34665351063977,103.733275157188,103.733275157188,600314,JURONG EAST STREET 32,314 JURONG EAST STREET 32 SINGAPORE 600314,16866.2668860536,36531.8478153087
315 JURONG EAST STREET 32 SINGAPORE 600315,315,NIL,1.34603432938681,103.732850513855,103.732850513855,600315,JURONG EAST STREET 32,315 JURONG EAST STREET 32 SINGAPORE 600315,16819.0058811856,36463.3837548997
316 JURONG EAST STREET 32 SINGAPORE 600316,316,NIL,1.34600652715087,103.732079814028,103.732079814028,600316,JURONG EAST STREET 32,316 JURONG EAST STREET 32 SINGAPORE 600316,16733.2352233147,36460.3130679522
317 JURONG EAST STREET 31 SINGAPORE 600317,317,NIL,1.3466798351223,103.731141908994,103.731141908994,600317,JURONG EAST STREET 31,317 JURONG EAST STREET 31 SINGAPORE 600317,16628.8596833553,36534.768494131
318 JURONG EAST STREET 31 SINGAPORE 600318,318,NIL,1.34750822865247,103.730560691538,103.730560691538,600318,JURONG EAST STREET 31,318 JURONG EAST STREET 31 SINGAPORE 600318,16564.1803618977,36626.3708844241
319 JURONG EAST STREET 31 SINGAPORE 600319,319,NIL,1.34798942321199,103.7304582035,103.7304582035,600319,JURONG EAST STREET 31,319 JURONG EAST STREET 31 SINGAPORE 600319,16552.7768082283,36679.5794875566
320 JURONG EAST STREET 31 SINGAPORE 600320,320,NIL,1.34875786021291,103.730708675043,103.730708675043,600320,JURONG EAST STREET 31,320 JURONG EAST STREET 31 SINGAPORE 600320,16580.6551346313,36764.548286004
321 JURONG EAST STREET 31 SINGAPORE 600321,321,NIL,1.34835818598708,103.730092202588,103.730092202588,600321,JURONG EAST STREET 31,321 JURONG EAST STREET 31 SINGAPORE 600321,16512.0466354033,36720.3571811169
322 JURONG EAST STREET 31 SINGAPORE 600322,322,NIL,1.34803793215272,103.729165542694,103.729165542694,600322,JURONG EAST STREET 31,322 JURONG EAST STREET 31 SINGAPORE 600322,16408.9180153012,36684.9494818877
323 JURONG EAST STREET 31 SINGAPORE 600323,323,NIL,1.34839013731603,103.728986352199,103.728986352199,600323,JURONG EAST STREET 31,323 JURONG EAST STREET 31 SINGAPORE 600323,16388.97774004,36723.8954478763
324 JURONG EAST STREET 31 SINGAPORE 600324,324,NIL,1.3486489933486,103.729868988347,103.729868988347,600324,JURONG EAST STREET 31,324 JURONG EAST STREET 31 SINGAPORE 600324,16487.2067000102,36752.5142805018
325 JURONG EAST STREET 31 SINGAPORE 600325,325,NIL,1.34880342091286,103.728984380177,103.728984380177,600325,JURONG EAST STREET 31,325 JURONG EAST STREET 31 SINGAPORE 600325,16388.7602343094,36769.5943221059
326 JURONG EAST STREET 31 SINGAPORE 600326,326,NIL,1.3490218244111,103.729609271898,103.729609271898,600326,JURONG EAST STREET 31,326 JURONG EAST STREET 31 SINGAPORE 600326,16458.3048617374,36793.7413325477
327 JURONG EAST STREET 31 SINGAPORE 600327,327,NIL,1.34912317741666,103.72898614528,103.72898614528,600327,JURONG EAST STREET 31,327 JURONG EAST STREET 31 SINGAPORE 600327,16388.9581869226,36804.9514132645
328 JURONG EAST STREET 31 SINGAPORE 600328,328,NIL,1.3494701229153,103.729955700808,103.729955700808,600328,JURONG EAST STREET 31,328 JURONG EAST STREET 31 SINGAPORE 600328,16496.8607036844,36843.3103317097
329 JURONG EAST AVENUE 1 SINGAPORE 600329,329,NIL,1.35013988623409,103.729936587391,103.729936587391,600329,JURONG EAST AVENUE 1,329 JURONG EAST AVENUE 1 SINGAPORE 600329,16494.7367387312,36917.3695499823
330 JURONG EAST AVENUE 1 SINGAPORE 600330,330,NIL,1.35055495259482,103.73002911041,103.73002911041,600330,JURONG EAST AVENUE 1,330 JURONG EAST AVENUE 1 SINGAPORE 600330,16505.0354807265,36963.2651055679
331 JURONG EAST AVENUE 1 SINGAPORE 600331,331,NIL,1.35082650419629,103.73042009299,103.73042009299,600331,JURONG EAST AVENUE 1,331 JURONG EAST AVENUE 1 SINGAPORE 600331,16548.5487946551,36993.2900979109
332 JURONG EAST AVENUE 1 SINGAPORE 600332,332,NIL,1.35159123927227,103.73019605105,103.73019605105,600332,JURONG EAST AVENUE 1,332 JURONG EAST AVENUE 1 SINGAPORE 600332,16523.6189936176,37077.8517919779
333 JURONG EAST AVENUE 1 SINGAPORE 600333,333,NIL,1.35124158359642,103.730961431641,103.730961431641,600333,JURONG EAST AVENUE 1,333 JURONG EAST AVENUE 1 SINGAPORE 600333,16608.7957331128,37039.1849876028
334 JURONG EAST AVENUE 1 SINGAPORE 600334,334,NIL,1.35078279521922,103.731532573887,103.731532573887,600334,JURONG EAST AVENUE 1,334 JURONG EAST AVENUE 1 SINGAPORE 600334,16672.3554115845,36988.4517607149
335 JURONG EAST AVENUE 1 SINGAPORE 600335,335,NIL,1.35021953451848,103.732162745946,103.732162745946,600335,JURONG EAST AVENUE 1,335 JURONG EAST AVENUE 1 SINGAPORE 600335,16742.4839992234,36926.1662432849
336 JURONG EAST AVENUE 1 SINGAPORE 600336,336,NIL,1.35041039841488,103.731481482818,103.731481482818,600336,JURONG EAST AVENUE 1,336 JURONG EAST AVENUE 1 SINGAPORE 600336,16666.6678153006,36947.2741968222
337 JURONG EAST AVENUE 1 SINGAPORE 600337,337,NIL,1.34968370533554,103.731905666581,103.731905666581,600337,JURONG EAST AVENUE 1,337 JURONG EAST AVENUE 1 SINGAPORE 600337,16713.8714320716,36866.9180877544
338 JURONG EAST AVENUE 1 SINGAPORE 600338,338,NIL,1.3502205690563,103.731260625944,103.731260625944,600338,JURONG EAST AVENUE 1,338 JURONG EAST AVENUE 1 SINGAPORE 600338,16642.0880029593,36926.284833245
339 JURONG EAST AVENUE 1 SINGAPORE 600339,339,NIL,1.34953251705686,103.731532178493,103.731532178493,600339,JURONG EAST AVENUE 1,339 JURONG EAST AVENUE 1 SINGAPORE 600339,16672.3056207513,36850.2021699939
340 JURONG EAST AVENUE 1 SINGAPORE 600340,340,NIL,1.35012661651533,103.730687889533,103.730687889533,600340,JURONG EAST AVENUE 1,340 JURONG EAST AVENUE 1 SINGAPORE 600340,16578.3483207878,36915.8987075798
341 JURONG EAST AVENUE 1 SINGAPORE 600341,341,NIL,1.34920755762646,103.731256052741,103.731256052741,600341,JURONG EAST AVENUE 1,341 JURONG EAST AVENUE 1 SINGAPORE 600341,16641.5743552754,36814.271046523
342 JURONG EAST STREET 31 YUHUA PLACE SINGAPORE 600342,342,YUHUA PLACE,1.34605164016617,103.731420015421,103.731420015421,600342,JURONG EAST STREET 31,YUHUA PLACE,16659.8070016997,36465.3045006096
343 JURONG EAST STREET 31 YUHUA PLACE SINGAPORE 600343,343,YUHUA PLACE,1.34588339112666,103.731083620161,103.731083620161,600343,JURONG EAST STREET 31,YUHUA PLACE,16622.3690774627,36446.7019188907
344 JURONG EAST STREET 31 YUHUA PLACE SINGAPORE 600344,344,YUHUA PLACE,1.34571038992524,103.730692583267,103.730692583267,600344,JURONG EAST STREET 31,YUHUA PLACE,16578.8501034221,36427.5741271153
345 JURONG EAST STREET 31 DBS NTUC JURONG EAST STREET 31/345 SINGAPORE 600345,345,DBS NTUC JURONG EAST STREET 31/345,1.34551210586752,103.73121914575,103.73121914575,600345,JURONG EAST STREET 31,DBS NTUC JURONG EAST STREET 31/345,16637.4498884743,36405.6463955082
346 JURONG EAST STREET 31 UOB JURONG EAST STREET 31 SINGAPORE 600346,346,UOB JURONG EAST STREET 31,1.34537744760176,103.730584987447,103.730584987447,600346,JURONG EAST STREET 31,UOB JURONG EAST STREET 31,16566.8743032524,36390.7595114689
347 JURONG EAST AVENUE 1 YUHUA MARKET & HAWKER CENTRE SINGAPORE 600347,347,YUHUA MARKET & HAWKER CENTRE,1.3454164813804,103.73170393955,103.73170393955,600347,JURONG EAST AVENUE 1,YUHUA MARKET & HAWKER CENTRE,16691.4017522149,36395.0704593174
348 JURONG EAST AVENUE 1 YUHUA PLACE SINGAPORE 600348,348,YUHUA PLACE,1.34456643414115,103.731069572217,103.731069572217,600348,JURONG EAST AVENUE 1,YUHUA PLACE,16620.7995917033,36301.0793802831
349 JURONG EAST AVENUE 1 YUHUA PLACE SINGAPORE 600349,349,YUHUA PLACE,1.34446375047917,103.731445785743,103.731445785743,600349,JURONG EAST AVENUE 1,YUHUA PLACE,16662.6676288405,36289.7233776171
350 JURONG EAST AVENUE 1 YUHUA PLACE SINGAPORE 600350,350,YUHUA PLACE,1.34404941857381,103.73125555964,103.73125555964,600350,JURONG EAST AVENUE 1,YUHUA PLACE,16641.4955979818,36243.9094850495
351 JURONG EAST STREET 31 DBS JURONG EAST STREET 31 351A SINGAPORE 600351,351,DBS JURONG EAST STREET 31 351A,1.34483235620533,103.730778253474,103.730778253474,600351,JURONG EAST STREET 31,DBS JURONG EAST STREET 31 351A,16588.3801899711,36330.4850896802
352 JURONG EAST STREET 31 YUHUA PLACE SINGAPORE 600352,352,YUHUA PLACE,1.34492289474517,103.730400848037,103.730400848037,600352,JURONG EAST STREET 31,YUHUA PLACE,16546.3794579934,36340.4981624465
353 JURONG EAST STREET 31 SINGAPORE VETERINARY ANIMAL CLINIC (JURONG EAST) SINGAPORE 600353,353,SINGAPORE VETERINARY ANIMAL CLINIC (JURONG EAST),1.34442392281159,103.7305080228,103.7305080228,600353,JURONG EAST STREET 31,SINGAPORE VETERINARY ANIMAL CLINIC (JURONG EAST),16558.3045290224,36285.3238051124
354 JURONG EAST AVENUE 1 MULTI STOREY CAR PARK SINGAPORE 600354,354,MULTI STOREY CAR PARK,1.34453358612912,103.731888322953,103.731888322953,600354,JURONG EAST AVENUE 1,MULTI STOREY CAR PARK,16711.9175731866,36297.4434084725
371 JURONG EAST STREET 32 JURONG EAST COURT SINGAPORE 600371,371,JURONG EAST COURT,1.3483083591294,103.731919903016,103.731919903016,600371,JURONG EAST STREET 32,JURONG EAST COURT,16715.4494534023,36714.8390250057
372 JURONG EAST STREET 32 JURONG EAST COURT SINGAPORE 600372,372,JURONG EAST COURT,1.34865823382569,103.731789499274,103.731789499274,600372,JURONG EAST STREET 32,JURONG EAST COURT,16700.9385582563,36753.5270472374
373 JURONG EAST STREET 32 JURONG EAST COURT SINGAPORE 600373,373,JURONG EAST COURT,1.34934885933773,103.732355870224,103.732355870224,600373,JURONG EAST STREET 32,JURONG EAST COURT,16763.9726029234,36829.8903855011
374 JURONG EAST STREET 32 JURONG EAST COURT SINGAPORE 600374,374,JURONG EAST COURT,1.34961239369679,103.732548011802,103.732548011802,600374,JURONG EAST STREET 32,JURONG EAST COURT,16785.3570544915,36859.0298274457
401 PANDAN GARDENS SINGAPORE 600401,401,NIL,1.32035484260702,103.750300419587,103.750300419587,600401,PANDAN GARDENS,401 PANDAN GARDENS SINGAPORE 600401,18760.8948379233,33623.8016099092
402 PANDAN GARDENS SINGAPORE 600402,402,NIL,1.32075547790486,103.74951968623,103.74951968623,600402,PANDAN GARDENS,402 PANDAN GARDENS SINGAPORE 600402,18674.0083205644,33668.1047668736
403 PANDAN GARDENS SINGAPORE 600403,403,NIL,1.32032964075934,103.74939013157,103.74939013157,600403,PANDAN GARDENS,403 PANDAN GARDENS SINGAPORE 600403,18659.5885623172,33621.0183174666
404 PANDAN GARDENS SINGAPORE 600404,404,NIL,1.31981661286798,103.749283319022,103.749283319022,600404,PANDAN GARDENS,404 PANDAN GARDENS SINGAPORE 600404,18647.6994496528,33564.2906677444
405 PANDAN GARDENS SINGAPORE 600405,405,NIL,1.31923420667707,103.749654325298,103.749654325298,600405,PANDAN GARDENS,405 PANDAN GARDENS SINGAPORE 600405,18688.9866744503,33499.8897209316
406 PANDAN GARDENS SINGAPORE 600406,406,NIL,1.318821472571,103.74922637213,103.74922637213,600406,PANDAN GARDENS,406 PANDAN GARDENS SINGAPORE 600406,18641.3580951886,33454.2532592863
407 PANDAN GARDENS SINGAPORE 600407,407,NIL,1.31889048230784,103.748627513117,103.748627513117,600407,PANDAN GARDENS,407 PANDAN GARDENS SINGAPORE 600407,18574.7111429134,33461.8862696886
408 PANDAN GARDENS SINGAPORE 600408,408,NIL,1.31820397685545,103.74881622665,103.74881622665,600408,PANDAN GARDENS,408 PANDAN GARDENS SINGAPORE 600408,18595.7105554603,33385.975225905
409 PANDAN GARDENS SINGAPORE 600409,409,NIL,1.31851207644417,103.747372481331,103.747372481331,600409,PANDAN GARDENS,409 PANDAN GARDENS SINGAPORE 600409,18435.036807931,33420.0488334838
410 PANDAN GARDENS SINGAPORE 600410,410,NIL,1.31900921124333,103.747433142313,103.747433142313,600410,PANDAN GARDENS,410 PANDAN GARDENS SINGAPORE 600410,18441.7896859031,33475.019275412
411 PANDAN GARDENS SINGAPORE 600411,411,NIL,1.31902239271028,103.746691863405,103.746691863405,600411,PANDAN GARDENS,411 PANDAN GARDENS SINGAPORE 600411,18359.2925710063,33476.4796753582
412 PANDAN GARDENS SINGAPORE 600412,412,NIL,1.31962057942712,103.747111361741,103.747111361741,600412,PANDAN GARDENS,412 PANDAN GARDENS SINGAPORE 600412,18405.9809661582,33542.6225446314
413 PANDAN GARDENS SINGAPORE 600413,413,NIL,1.31951010175214,103.747947223669,103.747947223669,600413,PANDAN GARDENS,413 PANDAN GARDENS SINGAPORE 600413,18499.0038631959,33530.403268801
414 PANDAN GARDENS SINGAPORE 600414,414,NIL,1.32008314222894,103.747247313974,103.747247313974,600414,PANDAN GARDENS,414 PANDAN GARDENS SINGAPORE 600414,18421.1128997942,33593.7698980737
415 PANDAN GARDENS SINGAPORE 600415,415,NIL,1.32076543342048,103.748258626828,103.748258626828,600415,PANDAN GARDENS,415 PANDAN GARDENS SINGAPORE 600415,18533.664760462,33669.2103655133
416 PANDAN GARDENS SINGAPORE 600416,416,NIL,1.3210261097978,103.748313133948,103.748313133948,600416,PANDAN GARDENS,416 PANDAN GARDENS SINGAPORE 600416,18539.7318567261,33698.0344453361
20A TEBAN GARDENS ROAD TEBAN VISTA SINGAPORE 601020,20A,TEBAN VISTA,1.32393810694523,103.737972411591,103.737972411591,601020,TEBAN GARDENS ROAD,TEBAN VISTA,17388.922745442,34020.0703554172
21A TEBAN GARDENS ROAD TEBAN VISTA SINGAPORE 601021,21A,TEBAN VISTA,1.32363804522286,103.73973079192,103.73973079192,601021,TEBAN GARDENS ROAD,TEBAN VISTA,17584.6118585952,33986.8835694939
22A TEBAN GARDENS ROAD LITTLE FOOTPRINTS SCHOOLHOUSE (TEBAN GARDEN) PTE. LTD. SINGAPORE 601022,22A,LITTLE FOOTPRINTS SCHOOLHOUSE (TEBAN GARDEN) PTE. LTD.,1.32329735064856,103.739388090206,103.739388090206,601022,TEBAN GARDENS ROAD,LITTLE FOOTPRINTS SCHOOLHOUSE (TEBAN GARDEN) PTE. LTD.,17546.4711117772,33949.2127028536
35A TEBAN GARDENS ROAD SINGAPORE 601035,35A,NIL,1.31962085141766,103.74223931976,103.74223931976,601035,TEBAN GARDENS ROAD,35A TEBAN GARDENS ROAD SINGAPORE 601035,17863.7699613338,33542.6719419826
37A TEBAN GARDENS ROAD TEBAN GARDENS MARKET AND FOOD CENTRE SINGAPORE 601037,37A,TEBAN GARDENS MARKET AND FOOD CENTRE,1.32084835915788,103.742891656231,103.742891656231,601037,TEBAN GARDENS ROAD,TEBAN GARDENS MARKET AND FOOD CENTRE,17936.3736225357,33678.4009663574
41A TEBAN GARDENS ROAD SINGAPORE 601041,41A,NIL,1.32158649626585,103.741568922878,103.741568922878,601041,TEBAN GARDENS ROAD,41A TEBAN GARDENS ROAD SINGAPORE 601041,17789.1693093693,33760.0258790366
57A TEBAN GARDENS ROAD TEBAN VIEW SINGAPORE 601057,57A,TEBAN VIEW,1.3225349169875,103.73722725885,103.73722725885,601057,TEBAN GARDENS ROAD,TEBAN VIEW,17305.988591129,33864.9157931097
62A TEBAN GARDENS ROAD SINGAPORE 601062,62A,NIL,1.32155520647059,103.739314899939,103.739314899939,601062,TEBAN GARDENS ROAD,62A TEBAN GARDENS ROAD SINGAPORE 601062,17538.3184606303,33756.5753894281
63A TEBAN GARDENS ROAD TEBAN PLACE SINGAPORE 601063,63A,TEBAN PLACE,1.32117309678601,103.73893235112,103.73893235112,601063,TEBAN GARDENS ROAD,TEBAN PLACE,17495.7429093746,33714.325218996
105A JURONG EAST STREET 13 SINGAPORE 601105,105A,NIL,1.33762415333866,103.738354894451,103.738354894451,601105,JURONG EAST STREET 13,105A JURONG EAST STREET 13 SINGAPORE 601105,17431.547572976,35533.403678149
112A JURONG EAST STREET 13 SINGAPORE 601112,112A,NIL,1.33923937978477,103.735234488699,103.735234488699,601112,JURONG EAST STREET 13,112A JURONG EAST STREET 13 SINGAPORE 601112,17084.2862647297,35712.0210733935
204A JURONG EAST STREET 21 JURONG EAST VIEW SINGAPORE 601204,204A,JURONG EAST VIEW,1.33717214084894,103.742461347138,103.742461347138,601204,JURONG EAST STREET 21,JURONG EAST VIEW,17888.5508136228,35483.4050854929
215A JURONG EAST STREET 21 SINGAPORE 601215,215A,NIL,1.33954108139946,103.738326111791,103.738326111791,601215,JURONG EAST STREET 21,215A JURONG EAST STREET 21 SINGAPORE 601215,17428.3525754185,35745.3681888264
216A JURONG EAST STREET 21 SINGAPORE 601216,216A,NIL,1.33971940314808,103.738061533512,103.738061533512,601216,JURONG EAST STREET 21,216A JURONG EAST STREET 21 SINGAPORE 601216,17398.9085770221,35765.087265661
217A JURONG EAST STREET 21 SINGAPORE 601217,217A,NIL,1.34045491398403,103.738426702342,103.738426702342,601217,JURONG EAST STREET 21,217A JURONG EAST STREET 21 SINGAPORE 601217,17439.5511543024,35846.4148256667
219A JURONG EAST STREET 21 SINGAPORE 601219,219A,NIL,1.34060750883164,103.737453992981,103.737453992981,601219,JURONG EAST STREET 21,219A JURONG EAST STREET 21 SINGAPORE 601219,17331.2995871529,35863.2922231201
221A JURONG EAST STREET 21 SINGAPORE 601221,221A,NIL,1.34070318741736,103.736329305044,103.736329305044,601221,JURONG EAST STREET 21,221A JURONG EAST STREET 21 SINGAPORE 601221,17206.1341798976,35873.8768159542
223A JURONG EAST STREET 21 SINGAPORE 601223,223A,NIL,1.3413721526482,103.736754200548,103.736754200548,601223,JURONG EAST STREET 21,223A JURONG EAST STREET 21 SINGAPORE 601223,17253.4234550623,35947.8458053656
225A JURONG EAST STREET 21 SINGAPORE 601225,225A,NIL,1.34208650043068,103.736825653173,103.736825653173,601225,JURONG EAST STREET 21,225A JURONG EAST STREET 21 SINGAPORE 601225,17261.378486543,36026.8345280029
240A JURONG EAST AVENUE 1 JURONG EAST VISTA SINGAPORE 601240,240A,JURONG EAST VISTA,1.3410034994554,103.742339009867,103.742339009867,601240,JURONG EAST AVENUE 1,JURONG EAST VISTA,17874.9516809499,35907.0581536405
244A JURONG EAST STREET 24 SINGAPORE 601244,244A,NIL,1.34206589815297,103.741624187514,103.741624187514,601244,JURONG EAST STREET 24,244A JURONG EAST STREET 24 SINGAPORE 601244,17795.403969191,36024.5358865149
254A JURONG EAST STREET 24 YUHUA VILLAGE SINGAPORE 601254,254A,YUHUA VILLAGE,1.34375703154813,103.73784860055,103.73784860055,601254,JURONG EAST STREET 24,YUHUA VILLAGE,17375.2288134452,36211.5491058864
267A TOH GUAN ROAD MULTI STOREY CAR PARK SINGAPORE 601267,267A,MULTI STOREY CAR PARK,1.34155988964929,103.744937235987,103.744937235987,601267,TOH GUAN ROAD,MULTI STOREY CAR PARK,18164.1087818416,35968.5704148896
271A TOH GUAN ROAD SINGAPORE 601271,271A,NIL,1.34189898594675,103.745896994212,103.745896994212,601271,TOH GUAN ROAD,271A TOH GUAN ROAD SINGAPORE 601271,18270.9209550256,36006.0621556006
273A TOH GUAN ROAD MULTI STOREY CAR PARK SINGAPORE 601273,273A,MULTI STOREY CAR PARK,1.34241141751277,103.745975186992,103.745975186992,601273,TOH GUAN ROAD,MULTI STOREY CAR PARK,18279.6249980312,36062.7239724603
274A TOH GUAN ROAD MULTI STOREY CAR PARK SINGAPORE 601274,274A,MULTI STOREY CAR PARK,1.34156435963791,103.747471616815,103.747471616815,601274,TOH GUAN ROAD,MULTI STOREY CAR PARK,18446.1582942605,35969.0546420924
282A TOH GUAN ROAD MULTI STOREY CAR PARK SINGAPORE 601282,282A,MULTI STOREY CAR PARK,1.3401011472358,103.747107216536,103.747107216536,601282,TOH GUAN ROAD,MULTI STOREY CAR PARK,18405.5987420594,35807.2613423821
285A TOH GUAN ROAD SINGAPORE 601285,285A,NIL,1.33853822943852,103.746223402195,103.746223402195,601285,TOH GUAN ROAD,285A TOH GUAN ROAD SINGAPORE 601285,18307.2334550917,35634.4451694321
286A TOH GUAN ROAD SINGAPORE 601286,286A,NIL,1.33866294623076,103.745669515937,103.745669515937,601286,TOH GUAN ROAD,286A TOH GUAN ROAD SINGAPORE 601286,18245.5922522312,35648.2379263975
287A JURONG EAST STREET 21 SINGAPORE 601287,287A,NIL,1.33846862533469,103.743808187469,103.743808187469,601287,JURONG EAST STREET 21,287A JURONG EAST STREET 21 SINGAPORE 601287,18038.445254379,35626.7583728246
288A JURONG EAST STREET 21 SINGAPORE 601288,288A,NIL,1.33878459340356,103.74330117319,103.74330117319,601288,JURONG EAST STREET 21,288A JURONG EAST STREET 21 SINGAPORE 601288,17982.021192532,35661.6986133121
289A TOH GUAN ROAD TOH GUAN GROVE SINGAPORE 601289,289A,TOH GUAN GROVE,1.34017411800651,103.745233260585,103.745233260585,601289,TOH GUAN ROAD,TOH GUAN GROVE,18197.0476427097,35815.3375063334
309A JURONG EAST STREET 32 SINGAPORE 601309,309A,NIL,1.34729058586853,103.733916439106,103.733916439106,601309,JURONG EAST STREET 32,309A JURONG EAST STREET 32 SINGAPORE 601309,16937.6374598676,36602.2895252388
312A JURONG EAST STREET 32 SINGAPORE 601312,312A,NIL,1.34671152721121,103.732064877931,103.732064877931,601312,JURONG EAST STREET 32,312A JURONG EAST STREET 32 SINGAPORE 601312,16731.5762351267,36538.268562695
317A JURONG EAST STREET 31 SINGAPORE 601317,317A,NIL,1.34680861403864,103.730678605093,103.730678605093,601317,JURONG EAST STREET 31,317A JURONG EAST STREET 31 SINGAPORE 601317,16577.2995956885,36549.0103977043
318A JURONG EAST AVENUE 1 GOLDEN WILLOWS SINGAPORE 601318,318A,GOLDEN WILLOWS,1.3476235248659,103.731009078651,103.731009078651,601318,JURONG EAST AVENUE 1,GOLDEN WILLOWS,16614.0814916454,36639.1176706757
322A JURONG EAST STREET 31 SINGAPORE 601322,322A,NIL,1.34767058736295,103.728931059064,103.728931059064,601322,JURONG EAST STREET 31,322A JURONG EAST STREET 31 SINGAPORE 601322,16382.8208084004,36644.3314216752
324A JURONG EAST STREET 31 SINGAPORE 601324,324A,NIL,1.34844972994727,103.729609819674,103.729609819674,601324,JURONG EAST STREET 31,324A JURONG EAST STREET 31 SINGAPORE 601324,16458.363127606,36730.4819427412
335A JURONG EAST AVENUE 1 JURONG EAST COURT SINGAPORE 601335,335A,JURONG EAST COURT,1.34999059702327,103.732444473821,103.732444473821,601335,JURONG EAST AVENUE 1,JURONG EAST COURT,16773.8361518495,36900.8501622397
354A JURONG EAST AVENUE 1 YUHUA PLACE SINGAPORE 601354,354A,YUHUA PLACE,1.34428469159221,103.732051873664,103.732051873664,601354,JURONG EAST AVENUE 1,YUHUA PLACE,16730.1178631354,36269.9211243615
372A JURONG EAST STREET 32 JURONG EAST COURT SINGAPORE 601372,372A,JURONG EAST COURT,1.34900342089638,103.732123650639,103.732123650639,601372,JURONG EAST STREET 32,JURONG EAST COURT,16738.1275283266,36791.6945812199
57B TEBAN GARDENS ROAD TEBAN VIEW SINGAPORE 602057,57B,TEBAN VIEW,1.32261773414969,103.73797284713,103.73797284713,602057,TEBAN GARDENS ROAD,TEBAN VIEW,17388.9656049069,33874.0701026414
240B JURONG EAST AVENUE 1 JURONG EAST VISTA SINGAPORE 602240,240B,JURONG EAST VISTA,1.34089629265598,103.742683824984,103.742683824984,602240,JURONG EAST AVENUE 1,JURONG EAST VISTA,17913.325491243,35895.2023357581
285B TOH GUAN ROAD SINGAPORE 602285,285B,NIL,1.33842394940897,103.746854853224,103.746854853224,602285,TOH GUAN ROAD,285B TOH GUAN ROAD SINGAPORE 602285,18377.5068447636,35621.8061674722
286B TOH GUAN ROAD SINGAPORE 602286,286B,NIL,1.33857782933995,103.745137980175,103.745137980175,602286,TOH GUAN ROAD,286B TOH GUAN ROAD SINGAPORE 602286,18186.4375945022,35638.8282458875
287B JURONG EAST STREET 21 SINGAPORE 602287,287B,NIL,1.3384592408032,103.744222152985,103.744222152985,602287,JURONG EAST STREET 21,287B JURONG EAST STREET 21 SINGAPORE 602287,18084.5152140874,35625.7190005314
288B JURONG EAST STREET 21 SINGAPORE 602288,288B,NIL,1.33893635159463,103.742880903459,103.742880903459,602288,JURONG EAST STREET 21,288B JURONG EAST STREET 21 SINGAPORE 602288,17935.2502263207,35678.4809995629
289B TOH GUAN ROAD TOH GUAN GROVE SINGAPORE 602289,289B,TOH GUAN GROVE,1.34069910047023,103.745393879835,103.745393879835,602289,TOH GUAN ROAD,TOH GUAN GROVE,18214.9249430047,35873.3868075665
318B JURONG EAST AVENUE 1 SINGAPORE 602318,318B,NIL,1.34775003970843,103.730842889099,103.730842889099,602318,JURONG EAST AVENUE 1,318B JURONG EAST AVENUE 1 SINGAPORE 602318,16595.5869968943,36653.1078354288
320B JURONG EAST STREET 31 SINGAPORE 602320,320B,NIL,1.34840930794834,103.730560681502,103.730560681502,602320,JURONG EAST STREET 31,320B JURONG EAST STREET 31 SINGAPORE 602320,16564.183449232,36726.0077899247
240C JURONG EAST AVENUE 1 JURONG EAST VISTA SINGAPORE 603240,240C,JURONG EAST VISTA,1.34063904358362,103.742474504127,103.742474504127,603240,JURONG EAST AVENUE 1,JURONG EAST VISTA,17890.0292532872,35866.7578769885
285C TOH GUAN ROAD SINGAPORE 603285,285C,NIL,1.33788841388717,103.746604056124,103.746604056124,603285,TOH GUAN ROAD,285C TOH GUAN ROAD SINGAPORE 603285,18349.5936799115,35562.5903078783
286C TOH GUAN ROAD SINGAPORE 603286,286C,NIL,1.33894552718533,103.744452232566,103.744452232566,603286,TOH GUAN ROAD,286C TOH GUAN ROAD SINGAPORE 603286,18110.1225942075,35679.489195833
287C JURONG EAST STREET 21 SINGAPORE 603287,287C,NIL,1.33786879437045,103.744874243365,103.744874243365,603287,JURONG EAST STREET 21,287C JURONG EAST STREET 21 SINGAPORE 603287,18157.0836433573,35560.4277512468
288C JURONG EAST STREET 21 SINGAPORE 603288,288C,NIL,1.33952464983395,103.743476639411,103.743476639411,603288,JURONG EAST STREET 21,288C JURONG EAST STREET 21 SINGAPORE 603288,18001.5517300973,35743.5296509583
289C TOH GUAN ROAD TOH GUAN GROVE SINGAPORE 603289,289C,TOH GUAN GROVE,1.34033662363807,103.74591389718,103.74591389718,603289,TOH GUAN ROAD,TOH GUAN GROVE,18272.7959052771,35833.3038550355
240D JURONG EAST AVENUE 1 SINGAPORE 604240,240D,NIL,1.34113650583251,103.742127151478,103.742127151478,604240,JURONG EAST AVENUE 1,240D JURONG EAST AVENUE 1 SINGAPORE 604240,17851.3746469095,35921.7662144322
285D TOH GUAN ROAD SINGAPORE 604285,285D,NIL,1.33789020611793,103.746039348397,103.746039348397,604285,TOH GUAN ROAD,285D TOH GUAN ROAD SINGAPORE 604285,18286.7476599598,35562.7907122001
286D TOH GUAN ROAD SINGAPORE 604286,286D,NIL,1.33962601054461,103.744468840165,103.744468840165,604286,TOH GUAN ROAD,286D TOH GUAN ROAD SINGAPORE 604286,18111.973572216,35754.7335872762
287D JURONG EAST STREET 21 SINGAPORE 604287,287D,NIL,1.33786938805889,103.744114430465,103.744114430465,604287,JURONG EAST STREET 21,287D JURONG EAST STREET 21 SINGAPORE 604287,18072.5244615339,35560.4964595698
288D JURONG EAST STREET 21 SINGAPORE 604288,288D,NIL,1.33972149048819,103.744090047822,103.744090047822,604288,JURONG EAST STREET 21,288D JURONG EAST STREET 21 SINGAPORE 604288,18069.8183827177,35765.2928155381
