ADDRESS,BLK_NO,BUILDING,LATITUDE,LONGITUDE,LONGTITUDE,POSTAL,ROAD_NAME,SEARCHVAL,X,Y
1 GHIM MOH ROAD GHIM MOH GREEN SINGAPORE 270001,1,GHIM MOH GREEN,1.31287975684307,103.786855017635,103.786855017635,270001,GHIM MOH ROAD,GHIM MOH GREEN,22829.0481462572,32797.1388136018
2 GHIM MOH ROAD GHIM MOH GREEN SINGAPORE 270002,2,GHIM MOH GREEN,1.31237872986354,103.786971451599,103.786971451599,270002,GHIM MOH ROAD,GHIM MOH GREEN,22842.0051133875,32741.737567462
3 GHIM MOH ROAD GHIM MOH GREEN SINGAPORE 270003,3,GHIM MOH GREEN,1.31199891286265,103.787189701148,103.787189701148,270003,GHIM MOH ROAD,GHIM MOH GREEN,22866.2934450451,32699.7388937064
4 GHIM MOH ROAD GHIM MOH GREEN SINGAPORE 270004,4,GHIM MOH GREEN,1.31319369617182,103.788192237043,103.788192237043,270004,GHIM MOH ROAD,GHIM MOH GREEN,22977.8685881477,32831.8498951849
5 GHIM MOH ROAD GHIM MOH GREEN SINGAPORE 270005,5,GHIM MOH GREEN,1.31269310627626,103.788308828224,103.788308828224,270005,GHIM MOH ROAD,GHIM MOH GREEN,22990.8430804396,32776.496987015
6 GHIM MOH ROAD GHIM MOH GREEN SINGAPORE 270006,6,GHIM MOH GREEN,1.31228409003273,103.78840388918,103.78840388918,270006,GHIM MOH ROAD,GHIM MOH GREEN,23001.421649945,32731.2698695809
7 GHIM MOH ROAD SINGAPORE 270007,7,NIL,1.31128823600903,103.787230603612,103.787230603612,270007,GHIM MOH ROAD,7 GHIM MOH ROAD SINGAPORE 270007,22870.8440547893,32621.1557923201
8 GHIM MOH ROAD SINGAPORE 270008,8,NIL,1.31057227583682,103.787643069812,103.787643069812,270008,GHIM MOH ROAD,8 GHIM MOH ROAD SINGAPORE 270008,22916.7462087963,32541.9877318814
13 GHIM MOH ROAD SINGAPORE 270013,13,NIL,1.30970737767411,103.789099862759,103.789099862759,270013,GHIM MOH ROAD,13 GHIM MOH ROAD SINGAPORE 270013,23078.8718812363,32446.3488032781
14 GHIM MOH ROAD SINGAPORE 270014,14,NIL,1.30884675491384,103.78914684284,103.78914684284,270014,GHIM MOH ROAD,14 GHIM MOH ROAD SINGAPORE 270014,23084.0986474687,32351.185445236
15 GHIM MOH ROAD SINGAPORE 270015,15,NIL,1.30914384256219,103.788419918626,103.788419918626,270015,GHIM MOH ROAD,15 GHIM MOH ROAD SINGAPORE 270015,23003.199349165,32384.03731592
16 GHIM MOH ROAD SINGAPORE 270016,16,NIL,1.30940810453696,103.788085613356,103.788085613356,270016,GHIM MOH ROAD,16 GHIM MOH ROAD SINGAPORE 270016,22965.994821351,32413.2587235626
17 GHIM MOH ROAD SINGAPORE 270017,17,NIL,1.30989225871342,103.787432226528,103.787432226528,270017,GHIM MOH ROAD,17 GHIM MOH ROAD SINGAPORE 270017,22893.2799555762,32466.795340836
18 GHIM MOH ROAD SINGAPORE 270018,18,NIL,1.31015054686008,103.787082418192,103.787082418192,270018,GHIM MOH ROAD,18 GHIM MOH ROAD SINGAPORE 270018,22854.350092154,32495.3562405389
19 GHIM MOH ROAD SINGAPORE 270019,19,NIL,1.31143852315951,103.788298892377,103.788298892377,270019,GHIM MOH ROAD,19 GHIM MOH ROAD SINGAPORE 270019,22989.7348182155,32637.7716138586
20 GHIM MOH ROAD MARKET & HAWKER CENTRE (BLK 20 GHIM MOH ROAD) SINGAPORE 270020,20,MARKET & HAWKER CENTRE (BLK 20 GHIM MOH ROAD),1.31091018371375,103.788241408454,103.788241408454,270020,GHIM MOH ROAD,MARKET & HAWKER CENTRE (BLK 20 GHIM MOH ROAD),22983.3363480661,32579.350652054
21 GHIM MOH ROAD SINGAPORE 270021,21,NIL,1.31010302594118,103.788545950724,103.788545950724,270021,GHIM MOH ROAD,21 GHIM MOH ROAD SINGAPORE 270021,23017.2274397025,32490.0986614991
24 GHIM MOH LINK GHIM MOH VALLEY SINGAPORE 270024,24,GHIM MOH VALLEY,1.30896727458596,103.785514305091,103.785514305091,270024,GHIM MOH LINK,GHIM MOH VALLEY,22679.8313148534,32364.5193092991
25 GHIM MOH LINK DBS GHIM MOH ROAD SINGAPORE 270025,25,DBS GHIM MOH ROAD,1.30811886342473,103.786049384646,103.786049384646,270025,GHIM MOH LINK,DBS GHIM MOH ROAD,22739.3789115474,32270.7052071672
26 GHIM MOH LINK GHIM MOH VALLEY SINGAPORE 270026,26,GHIM MOH VALLEY,1.30838826045914,103.785551268112,103.785551268112,270026,GHIM MOH LINK,GHIM MOH VALLEY,22683.943734997,32300.4948054012
27 GHIM MOH LINK GHIM MOH VALLEY SINGAPORE 270027,27,GHIM MOH VALLEY,1.30837126346035,103.785133508433,103.785133508433,270027,GHIM MOH LINK,GHIM MOH VALLEY,22637.4509315556,32298.6162532587
28 GHIM MOH LINK GHIM MOH VALLEY SINGAPORE 270028,28,GHIM MOH VALLEY,1.30887985026284,103.784802916649,103.784802916649,270028,GHIM MOH LINK,GHIM MOH VALLEY,22600.6602276154,32354.8538945951
29 GHIM MOH LINK GHIM MOH EDGE SINGAPORE 270029,29,GHIM MOH EDGE,1.30869473784381,103.784048768238,103.784048768238,270029,GHIM MOH LINK,GHIM MOH EDGE,22516.7301355656,32334.3867445402
30 HOLLAND CLOSE SINGAPORE 270030,30,NIL,1.30774789148086,103.796627163472,103.796627163472,270030,HOLLAND CLOSE,30 HOLLAND CLOSE SINGAPORE 270030,23916.5867593866,32229.6653323323
31 HOLLAND CLOSE SINGAPORE 270031,31,NIL,1.30697526832762,103.797080329252,103.797080329252,270031,HOLLAND CLOSE,31 HOLLAND CLOSE SINGAPORE 270031,23967.0186684961,32144.2318900675
32 HOLLAND CLOSE SINGAPORE 270032,32,NIL,1.30618489254906,103.796881195019,103.796881195019,270032,HOLLAND CLOSE,32 HOLLAND CLOSE SINGAPORE 270032,23944.8556033149,32056.8365073651
33 GHIM MOH LINK GHIM MOH EDGE SINGAPORE 270033,33,GHIM MOH EDGE,1.30977118024449,103.784714017294,103.784714017294,270033,GHIM MOH LINK,GHIM MOH EDGE,22590.7684689285,32453.4128058553
36 HOLLAND DRIVE BUONA VISTA COMMUNITY CLUB SINGAPORE 270036,36,BUONA VISTA COMMUNITY CLUB,1.30922984207133,103.792660857646,103.792660857646,270036,HOLLAND DRIVE,BUONA VISTA COMMUNITY CLUB,23475.1764035001,32393.5386478845
40 HOLLAND DRIVE SINGAPORE 270040,40,NIL,1.30717590843196,103.793500328714,103.793500328714,270040,HOLLAND DRIVE,40 HOLLAND DRIVE SINGAPORE 270040,23568.5980812237,32166.4236795641
41 HOLLAND DRIVE SINGAPORE 270041,41,NIL,1.30762004852147,103.793463531218,103.793463531218,270041,HOLLAND DRIVE,41 HOLLAND DRIVE SINGAPORE 270041,23564.5036402624,32215.5344819892
42 HOLLAND DRIVE SINGAPORE 270042,42,NIL,1.30790383303654,103.792961440964,103.792961440964,270042,HOLLAND DRIVE,42 HOLLAND DRIVE SINGAPORE 270042,23508.6261576656,32246.914814109
43 HOLLAND DRIVE SINGAPORE 270043,43,NIL,1.30743411126247,103.792897574712,103.792897574712,270043,HOLLAND DRIVE,43 HOLLAND DRIVE SINGAPORE 270043,23501.5176006174,32194.9754988737
44 HOLLAND DRIVE HOLLAND DRIVE MARKET AND FOOD CENTRE SINGAPORE 270044,44,HOLLAND DRIVE MARKET AND FOOD CENTRE,1.30811780015992,103.792773769613,103.792773769613,270044,HOLLAND DRIVE,HOLLAND DRIVE MARKET AND FOOD CENTRE,23487.7404619334,32270.5745402798
45 HOLLAND DRIVE SINGAPORE 270045,45,NIL,1.30861790322771,103.792935900053,103.792935900053,270045,HOLLAND DRIVE,45 HOLLAND DRIVE SINGAPORE 270045,23505.7849625703,32325.8730871528
46 HOLLAND DRIVE SINGAPORE 270046,46,NIL,1.30878949399241,103.792695569227,103.792695569227,270046,HOLLAND DRIVE,46 HOLLAND DRIVE SINGAPORE 270046,23479.0386890257,32344.8471478373
47 HOLLAND DRIVE SINGAPORE 270047,47,NIL,1.30853249504926,103.792385082436,103.792385082436,270047,HOLLAND DRIVE,47 HOLLAND DRIVE SINGAPORE 270047,23444.4839415792,32316.4300815929
1 HOLLAND CLOSE SINGAPORE 271001,1,NIL,1.30921937771543,103.796732386696,103.796732386696,271001,HOLLAND CLOSE,1 HOLLAND CLOSE SINGAPORE 271001,23928.2995005092,32392.3745714985
2 HOLLAND AVENUE SINGAPORE 271002,2,NIL,1.30934498335733,103.795559353753,103.795559353753,271002,HOLLAND AVENUE,2 HOLLAND AVENUE SINGAPORE 271002,23797.7521128021,32406.2653361931
3 HOLLAND CLOSE SINGAPORE 271003,3,NIL,1.30820871253395,103.796638881502,103.796638881502,271003,HOLLAND CLOSE,3 HOLLAND CLOSE SINGAPORE 271003,23917.8916121647,32280.6205446124
4 HOLLAND CLOSE SINGAPORE 271004,4,NIL,1.30796826360553,103.795646462312,103.795646462312,271004,HOLLAND CLOSE,4 HOLLAND CLOSE SINGAPORE 271004,23807.4441935997,32254.0345703103
5A HOLLAND CLOSE MULTI STOREY CAR PARK SINGAPORE 271005,5A,MULTI STOREY CAR PARK,1.30881793355141,103.796173244838,103.796173244838,271005,HOLLAND CLOSE,MULTI STOREY CAR PARK,23866.0715830531,32347.985846946
6 HOLLAND CLOSE SINGAPORE 271006,6,NIL,1.30711568626095,103.795264617136,103.795264617136,271006,HOLLAND CLOSE,6 HOLLAND CLOSE SINGAPORE 271006,23764.946945617,32159.761575276
7A GHIM MOH ROAD SINGAPORE 271007,7A,NIL,1.31113493246538,103.787557116554,103.787557116554,271007,GHIM MOH ROAD,7A GHIM MOH ROAD SINGAPORE 271007,22907.1815562099,32604.2036026809
8 HOLLAND AVENUE SINGAPORE 271008,8,NIL,1.30651406379174,103.794222994827,103.794222994827,271008,HOLLAND AVENUE,8 HOLLAND AVENUE SINGAPORE 271008,23649.0229894184,32093.2390244138
10 HOLLAND AVENUE HOLLAND VISTA SINGAPORE 271010,10,HOLLAND VISTA,1.30814997104791,103.794275184926,103.794275184926,271010,HOLLAND AVENUE,HOLLAND VISTA,23654.8340790765,32274.1291820202
11 HOLLAND DRIVE HOLLAND VISTA SINGAPORE 271011,11,HOLLAND VISTA,1.30905394546184,103.794063120888,103.794063120888,271011,HOLLAND DRIVE,HOLLAND VISTA,23631.2348888721,32374.0864135921
13 HOLLAND DRIVE BUONA VISTA NEIGHBOURHOOD POLICE POST SINGAPORE 271013,13,BUONA VISTA NEIGHBOURHOOD POLICE POST,1.30923402190645,103.793230915771,103.793230915771,271013,HOLLAND DRIVE,BUONA VISTA NEIGHBOURHOOD POLICE POST,23538.6185513912,32393.9998108838
18 HOLLAND DRIVE BUONA VISTA COURT SINGAPORE 271018,18,BUONA VISTA COURT,1.31158065054403,103.791925841158,103.791925841158,271018,HOLLAND DRIVE,BUONA VISTA COURT,23393.3802345702,32653.4803644605
19 HOLLAND DRIVE BUONA VISTA COURT SINGAPORE 271019,19,BUONA VISTA COURT,1.31063750805858,103.791506112474,103.791506112474,271019,HOLLAND DRIVE,BUONA VISTA COURT,23346.666656456,32549.1932675485
20 HOLLAND DRIVE SINGAPORE 271020,20,NIL,1.31049160423204,103.79225696682,103.79225696682,271020,HOLLAND DRIVE,20 HOLLAND DRIVE SINGAPORE 271020,23430.2294162549,32533.0585858803
21 HOLLAND DRIVE SINGAPORE 271021,21,NIL,1.3109761247096,103.792379920443,103.792379920443,271021,HOLLAND DRIVE,21 HOLLAND DRIVE SINGAPORE 271021,23443.9138743738,32586.6341580469
22 GHIM MOH LINK GHIM MOH VALLEY SINGAPORE 271022,22,GHIM MOH VALLEY,1.30935676342126,103.785489714945,103.785489714945,271022,GHIM MOH LINK,GHIM MOH VALLEY,22677.0954826092,32407.5870482381
23 GHIM MOH LINK GHIM MOH VALLEY SINGAPORE 271023,23,GHIM MOH VALLEY,1.30863562772071,103.786331973494,103.786331973494,271023,GHIM MOH LINK,GHIM MOH VALLEY,22770.8294956563,32327.8457727227
29A GHIM MOH LINK GHIM MOH EDGE SINGAPORE 271029,29A,GHIM MOH EDGE,1.30849288050575,103.784598100953,103.784598100953,271029,GHIM MOH LINK,GHIM MOH EDGE,22577.8653182741,32312.0651961975
30A HOLLAND CLOSE SINGAPORE 271030,30A,NIL,1.30746905285409,103.797186718241,103.797186718241,271030,HOLLAND CLOSE,30A HOLLAND CLOSE SINGAPORE 271030,23978.8595642624,32198.8318821434
31 GHIM MOH LINK GHIM MOH EDGE SINGAPORE 271031,31,GHIM MOH EDGE,1.30960366323024,103.784023479632,103.784023479632,271031,GHIM MOH LINK,GHIM MOH EDGE,22513.9177253228,32434.8911304548
32 GHIM MOH LINK GHIM MOH EDGE SINGAPORE 271032,32,GHIM MOH EDGE,1.3100634072092,103.784498087029,103.784498087029,271032,GHIM MOH LINK,GHIM MOH EDGE,22566.7380810278,32485.7262393758
33A GHIM MOH LINK GHIM MOH EDGE SINGAPORE 271033,33A,GHIM MOH EDGE,1.31024636364783,103.785071483842,103.785071483842,271033,GHIM MOH LINK,GHIM MOH EDGE,22630.5521619031,32505.9553922731
2A GHIM MOH ROAD GHIM MOH GREEN SINGAPORE 272002,2A,GHIM MOH GREEN,1.31264274414899,103.786943381328,103.786943381328,272002,GHIM MOH ROAD,GHIM MOH GREEN,22838.8816996114,32770.9309772216
3A HOLLAND CLOSE SINGAPORE 272003,3A,NIL,1.30872223576115,103.796750780323,103.796750780323,272003,HOLLAND CLOSE,3A HOLLAND CLOSE SINGAPORE 272003,23930.3457372803,32337.4031307269
4A GHIM MOH ROAD GHIM MOH GREEN SINGAPORE 272004,4A,GHIM MOH GREEN,1.3130761657218,103.787581244962,103.787581244962,272004,GHIM MOH ROAD,GHIM MOH GREEN,22909.8707454912,32818.8552141488
5 HOLLAND CLOSE SINGAPORE 272005,5,NIL,1.30767442232996,103.796271571462,103.796271571462,272005,HOLLAND CLOSE,5 HOLLAND CLOSE SINGAPORE 272005,23877.012551127,32221.5420713983
8A GHIM MOH ROAD MULTI STOREY CAR PARK SINGAPORE 272008,8A,MULTI STOREY CAR PARK,1.3107926465428,103.787264330471,103.787264330471,272008,GHIM MOH ROAD,MULTI STOREY CAR PARK,22874.596528071,32566.355971016
9 HOLLAND AVENUE SINGAPORE 272009,9,NIL,1.3075559256341,103.794443576453,103.794443576453,272009,HOLLAND AVENUE,9 HOLLAND AVENUE SINGAPORE 272009,23673.5734720835,32208.442390725
10A HOLLAND DRIVE MULTI STOREY CAR PARK SINGAPORE 272010,10A,MULTI STOREY CAR PARK,1.30840447057738,103.793697481916,103.793697481916,272010,HOLLAND DRIVE,MULTI STOREY CAR PARK,23590.5415521832,32302.2714452408
12 HOLLAND AVENUE HOLLAND VISTA SINGAPORE 272012,12,HOLLAND VISTA,1.30935284651406,103.794873297267,103.794873297267,272012,HOLLAND AVENUE,HOLLAND VISTA,23721.4004579792,32407.1359644774
13A GHIM MOH ROAD MULTI STOREY CAR PARK SINGAPORE 272013,13A,MULTI STOREY CAR PARK,1.30949418096488,103.788724560909,103.788724560909,272013,GHIM MOH ROAD,MULTI STOREY CAR PARK,23037.1038797861,32422.7753408607
14A GHIM MOH ROAD SINGAPORE 272014,14A,NIL,1.309265976065,103.789273426674,103.789273426674,272014,GHIM MOH ROAD,14A GHIM MOH ROAD SINGAPORE 272014,23098.1870620977,32397.5405293517
16A GHIM MOH ROAD MULTI STOREY CAR PARK SINGAPORE 272016,16A,MULTI STOREY CAR PARK,1.30963789364735,103.787647149462,103.787647149462,272016,GHIM MOH ROAD,MULTI STOREY CAR PARK,22917.1983519373,32438.6685142871
18A HOLLAND DRIVE BUONA VISTA COURT SINGAPORE 272018,18A,BUONA VISTA COURT,1.31105861060205,103.791886571185,103.791886571185,272018,HOLLAND DRIVE,BUONA VISTA COURT,23389.0089020934,32595.7559294961
23A GHIM MOH LINK GHIM MOH VALLEY SINGAPORE 272023,23A,GHIM MOH VALLEY,1.30847078143038,103.786493533261,103.786493533261,272023,GHIM MOH LINK,GHIM MOH VALLEY,22788.8092530761,32309.6175756939
30 GHIM MOH LINK GHIM MOH EDGE SINGAPORE 272030,30,GHIM MOH EDGE,1.30881985260159,103.7838389718,103.7838389718,272030,GHIM MOH LINK,GHIM MOH EDGE,22493.3820182858,32348.2217556108
31A GHIM MOH LINK GHIM MOH EDGE SINGAPORE 272031,31A,GHIM MOH EDGE,1.30932882169755,103.784354189521,103.784354189521,272031,GHIM MOH LINK,GHIM MOH EDGE,22550.7220498556,32404.4998349715
33B GHIM MOH LINK SINGAPORE 272033,33B,NIL,1.3103785014946,103.784867688258,103.784867688258,272033,GHIM MOH LINK,33B GHIM MOH LINK SINGAPORE 272033,22607.871907684,32520.5669587329
5A GHIM MOH ROAD GHIM MOH GREEN SINGAPORE 273005,5A,GHIM MOH GREEN,1.3129424419213,103.788219986308,103.788219986308,273005,GHIM MOH ROAD,GHIM MOH GREEN,22980.95631597,32804.067427488
8A HOLLAND AVENUE SINGAPORE 273008,8A,NIL,1.30718132638853,103.794154915584,103.794154915584,273008,HOLLAND AVENUE,8A HOLLAND AVENUE SINGAPORE 273008,23641.4475487219,32167.0216235835
18B HOLLAND DRIVE BUONA VISTA COURT SINGAPORE 273018,18B,BUONA VISTA COURT,1.31101768983656,103.791451916991,103.791451916991,273018,HOLLAND DRIVE,BUONA VISTA COURT,23340.6359120402,32591.2319253106
19B GHIM MOH ROAD SINGAPORE 273019,19B,NIL,1.31172832069901,103.788078060648,103.788078060648,273019,GHIM MOH ROAD,19B GHIM MOH ROAD SINGAPORE 273019,22965.1589104449,32669.816388756
31B GHIM MOH LINK GHIM MOH EDGE SINGAPORE 273031,31B,GHIM MOH EDGE,1.3088365917891,103.784387065566,103.784387065566,273031,GHIM MOH LINK,GHIM MOH EDGE,22554.3797843475,32350.071492631
5B HOLLAND CLOSE SINGAPORE 274005,5B,NIL,1.30797064284974,103.796356814373,103.796356814373,274005,HOLLAND CLOSE,5B HOLLAND CLOSE SINGAPORE 274005,23886.499778212,32254.296479173
18C HOLLAND DRIVE BUONA VISTA COURT SINGAPORE 274018,18C,BUONA VISTA COURT,1.31031629242811,103.791738859624,103.791738859624,274018,HOLLAND DRIVE,BUONA VISTA COURT,23372.5686348621,32513.6744545531
