ADDRESS,BLK_NO,BUILDING,LATITUDE,LONGITUDE,LONGTITUDE,POSTAL,ROAD_NAME,SEARCHVAL,X,Y
2C GEYLANG SERAI SRI GEYLANG SERAI SINGAPORE 405002,2C,SRI GEYLANG SERAI,1.31750146062242,103.898206520651,103.898206520651,405002,GEYLANG SERAI,SRI GEYLANG SERAI,35221.3973368844,33308.2289737333
2D GEYLANG SERAI SRI GEYLANG SERAI SINGAPORE 406002,2D,SRI GEYLANG SERAI,1.31757124294126,103.898647745081,103.898647745081,406002,GEYLANG SERAI,SRI GEYLANG SERAI,35270.5011474052,33315.9464318082
10A EUNOS ROAD 1 MWOC@EUNOS SINGAPORE 408523,10A,MWOC@EUNOS,1.32304461513795,103.901038831021,103.901038831021,408523,EUNOS ROAD 1,MWOC@EUNOS,35536.5894137025,33921.1713530906
1 ENGKU AMAN TURN GEYLANG SERAI COMMUNITY CLUB SINGAPORE 408528,1,GEYLANG SERAI COMMUNITY CLUB,1.31649443408571,103.896941669743,103.896941669743,408528,ENGKU AMAN TURN,GEYLANG SERAI COMMUNITY CLUB,35080.6345046721,33196.8734551203
1 PAYA LEBAR LINK INTELLECTUAL PROPERTY OFFICE OF SINGAPORE (IPOS) SINGAPORE 408533,1,INTELLECTUAL PROPERTY OFFICE OF SINGAPORE (IPOS),1.31762560629098,103.893887524825,103.893887524825,408533,PAYA LEBAR LINK,INTELLECTUAL PROPERTY OFFICE OF SINGAPORE (IPOS),34740.7345516738,33321.9442749266
8 UBI ROAD 2 ZERVEX SINGAPORE 408538,8,ZERVEX,1.33413846128916,103.895447517475,103.895447517475,408538,UBI ROAD 2,ZERVEX,34914.3008257952,35147.8564275652
10 UBI VIEW SINGAPORE 408543,10,NIL,1.33223534716933,103.896134187626,103.896134187626,408543,UBI VIEW,10 UBI VIEW SINGAPORE 408543,34990.7254264588,34937.4216305185
6 UBI VIEW KAI LIM @ UBI SINGAPORE 408544,6,KAI LIM @ UBI,1.33248545394493,103.896796358251,103.896796358251,408544,UBI VIEW,KAI LIM @ UBI,35064.4174638204,34965.0790611748
5 UBI LINK SINGAPORE 408548,5,NIL,1.33250420880171,103.892950268669,103.892950268669,408548,UBI LINK,5 UBI LINK SINGAPORE 408548,34636.387433351,34967.1421874817
9 UBI LINK SINGAPORE 408549,9,NIL,1.333069776016,103.892747686811,103.892747686811,408549,UBI LINK,9 UBI LINK SINGAPORE 408549,34613.8406609409,35029.679201588
1 UBI LINK CHALLENGER TECHUB SINGAPORE 408553,1,CHALLENGER TECHUB,1.33202822724006,103.893139635715,103.893139635715,408553,UBI LINK,CHALLENGER TECHUB,34657.4633028256,34914.5110672098
8 UBI VIEW SINGAPORE 408554,8,NIL,1.33212787213959,103.896576451243,103.896576451243,408554,UBI VIEW,8 UBI VIEW SINGAPORE 408554,35039.9451028211,34925.5388438627
1 UBI VIEW FOCUS ONE SINGAPORE 408555,1,FOCUS ONE,1.33173589506974,103.896945634433,103.896945634433,408555,UBI VIEW,FOCUS ONE,35081.0324983895,34882.1970585976
2 UBI VIEW E-PARK @ UBI SINGAPORE 408556,2,E-PARK @ UBI,1.33278132667014,103.897366855354,103.897366855354,408556,UBI VIEW,E-PARK @ UBI,35127.9070416419,34997.7968144231
4 UBI VIEW PIONEERS & LEADERS CENTRE SINGAPORE 408557,4,PIONEERS & LEADERS CENTRE,1.33260915139672,103.897119546923,103.897119546923,408557,UBI VIEW,PIONEERS & LEADERS CENTRE,35100.3846667269,34978.7578289136
3 UBI CRESCENT YONG LEE BUILDING SINGAPORE 408558,3,YONG LEE BUILDING,1.3258811646763,103.893854527361,103.893854527361,408558,UBI CRESCENT,YONG LEE BUILDING,34737.0400113128,34234.8019651659
65 UBI CRESCENT HOLA CENTRE SINGAPORE 408559,65,HOLA CENTRE,1.32831420921853,103.898019439173,103.898019439173,408559,UBI CRESCENT,HOLA CENTRE,35200.5458137058,34503.847443739
67 UBI CRESCENT TECHNIQUES CENTRE SINGAPORE 408560,67,TECHNIQUES CENTRE,1.32792064005907,103.8980936083,103.8980936083,408560,UBI CRESCENT,TECHNIQUES CENTRE,35208.8012246564,34460.3287723791
69 UBI CRESCENT CES BUILDING SINGAPORE 408561,69,CES BUILDING,1.32749443475418,103.898181247169,103.898181247169,408561,UBI CRESCENT,CES BUILDING,35218.5557785733,34413.2014006581
22 UBI CRESCENT UBI TECHPARK SINGAPORE 408562,22,UBI TECHPARK,1.32758562437305,103.897621350535,103.897621350535,408562,UBI CRESCENT,UBI TECHPARK,35156.2446846971,34423.2830606755
1 UBI CRESCENT FRUITFUL VINE CHURCH SINGAPORE 408563,1,FRUITFUL VINE CHURCH,1.32550789701754,103.893950151721,103.893950151721,408563,UBI CRESCENT,FRUITFUL VINE CHURCH,34747.6830516234,34193.5281793531
10 UBI CRESCENT ART RETREAT MUSEUM SINGAPORE 408564,10,ART RETREAT MUSEUM,1.32627524038921,103.896130679533,103.896130679533,408564,UBI CRESCENT,ART RETREAT MUSEUM,34990.3517681994,34278.38317018
20 UBI CRESCENT UBI TECHPARK SINGAPORE 408565,20,UBI TECHPARK,1.32739218582108,103.897394495081,103.897394495081,408565,UBI CRESCENT,UBI TECHPARK,35130.9985226942,34401.8929489944
30 UBI CRESCENT UBI TECHPARK SINGAPORE 408566,30,UBI TECHPARK,1.32759127724718,103.897316503424,103.897316503424,408566,UBI CRESCENT,UBI TECHPARK,35122.3182703238,34423.9072470348
40 UBI CRESCENT UBI TECHPARK SINGAPORE 408567,40,UBI TECHPARK,1.32702030230375,103.896443835558,103.896443835558,408567,UBI CRESCENT,UBI TECHPARK,35025.2007809849,34360.7692318447
50 UBI CRESCENT UBI TECHPARK SINGAPORE 408568,50,UBI TECHPARK,1.32722195124679,103.896363575633,103.896363575633,408568,UBI CRESCENT,UBI TECHPARK,35016.2680936297,34383.0663236585
60 UBI CRESCENT UBI TECHPARK SINGAPORE 408569,60,UBI TECHPARK,1.32650810589222,103.89511715465,103.89511715465,408569,UBI CRESCENT,UBI TECHPARK,34877.5560081182,34304.1294198111
70 UBI CRESCENT UBI TECHPARK SINGAPORE 408570,70,UBI TECHPARK,1.32671017775959,103.895045994897,103.895045994897,408570,UBI CRESCENT,UBI TECHPARK,34869.6360874986,34326.4733059257
71 UBI CRESCENT EXCALIBUR CENTRE SINGAPORE 408571,71,EXCALIBUR CENTRE,1.3268691268578,103.898333225017,103.898333225017,408571,UBI CRESCENT,EXCALIBUR CENTRE,35235.4711926132,34344.0584596433
9 UBI CRESCENT SINGAPORE 408572,9,NIL,1.32682361755792,103.893978579469,103.893978579469,408572,UBI CRESCENT,9 UBI CRESCENT SINGAPORE 408572,34750.8432107316,34339.0139672086
11 UBI CRESCENT SINGAPORE 408573,11,NIL,1.32687316026442,103.894108163603,103.894108163603,408573,UBI CRESCENT,11 UBI CRESCENT SINGAPORE 408573,34765.264482378,34344.4925025292
13 UBI CRESCENT SINGAPORE 408574,13,NIL,1.32692012599485,103.894228660477,103.894228660477,408574,UBI CRESCENT,13 UBI CRESCENT SINGAPORE 408574,34778.674440152,34349.6860647835
15 UBI CRESCENT SINGAPORE 408575,15,NIL,1.32696696710119,103.894351959503,103.894351959503,408575,UBI CRESCENT,15 UBI CRESCENT SINGAPORE 408575,34792.3962489618,34354.8658551052
17 UBI CRESCENT SINGAPORE 408576,17,NIL,1.32701374367907,103.894472086497,103.894472086497,408576,UBI CRESCENT,17 UBI CRESCENT SINGAPORE 408576,34805.7650422789,34360.0385021828
19 UBI CRESCENT SINGAPORE 408577,19,NIL,1.3270600405944,103.894595288423,103.894595288423,408577,UBI CRESCENT,19 UBI CRESCENT SINGAPORE 408577,34819.4760454185,34365.1581197511
21 UBI CRESCENT SINGAPORE 408578,21,NIL,1.3271063244384,103.894715517403,103.894715517403,408578,UBI CRESCENT,21 UBI CRESCENT SINGAPORE 408578,34832.8561892286,34370.2762844581
23 UBI CRESCENT SINGAPORE 408579,23,NIL,1.32715555057001,103.894838137385,103.894838137385,408579,UBI CRESCENT,23 UBI CRESCENT SINGAPORE 408579,34846.5024188841,34375.7197997216
25 UBI CRESCENT SINGAPORE 408580,25,NIL,1.32720239637716,103.894958282348,103.894958282348,408580,UBI CRESCENT,25 UBI CRESCENT SINGAPORE 408580,34859.8732098872,34380.9001045991
27 UBI CRESCENT SINGAPORE 408581,27,NIL,1.32724980900414,103.89508139756,103.89508139756,408581,UBI CRESCENT,27 UBI CRESCENT SINGAPORE 408581,34873.57455754,34386.1430944707
29 UBI CRESCENT SINGAPORE 408582,29,NIL,1.32729584372453,103.895201708687,103.895201708687,408582,UBI CRESCENT,29 UBI CRESCENT SINGAPORE 408582,34886.9638422811,34391.2337153126
31 UBI CRESCENT SINGAPORE 408583,31,NIL,1.32734346437911,103.895324690101,103.895324690101,408583,UBI CRESCENT,31 UBI CRESCENT SINGAPORE 408583,34900.6502980869,34396.4997088518
33 UBI CRESCENT SINGAPORE 408584,33,NIL,1.32739026609952,103.895444481513,103.895444481513,408584,UBI CRESCENT,33 UBI CRESCENT SINGAPORE 408584,34913.9817407113,34401.6751405839
35 UBI CRESCENT ATT BUILDING SINGAPORE 408585,35,ATT BUILDING,1.32741922062852,103.895578339264,103.895578339264,408585,UBI CRESCENT,ATT BUILDING,34928.8786737211,34404.8771603126
37 UBI CRESCENT SINGAPORE 408586,37,NIL,1.32752218168269,103.895782062536,103.895782062536,408586,UBI CRESCENT,37 UBI CRESCENT SINGAPORE 408586,34951.5507253166,34416.2626439966
39 UBI CRESCENT POWERPLUS BUILDING SINGAPORE 408587,39,POWERPLUS BUILDING,1.3275667389875,103.895925603518,103.895925603518,408587,UBI CRESCENT,POWERPLUS BUILDING,34967.5252590831,34421.1899690647
41 UBI CRESCENT SINGAPORE 408588,41,NIL,1.32761894012619,103.89603192964,103.89603192964,408588,UBI CRESCENT,41 UBI CRESCENT SINGAPORE 408588,34979.3581338339,34426.9624065086
43 UBI CRESCENT SINGAPORE 408589,43,NIL,1.3276668366752,103.896154324987,103.896154324987,408589,UBI CRESCENT,43 UBI CRESCENT SINGAPORE 408589,34992.9793621339,34432.2589101754
45 UBI CRESCENT SINGAPORE 408590,45,NIL,1.32771240981327,103.896275193688,103.896275193688,408590,UBI CRESCENT,45 UBI CRESCENT SINGAPORE 408590,35006.4306962425,34437.2984991949
47 UBI CRESCENT SINGAPORE 408591,47,NIL,1.32776009064496,103.896397718498,103.896397718498,408591,UBI CRESCENT,47 UBI CRESCENT SINGAPORE 408591,35020.0663321028,34442.5711516906
49 UBI CRESCENT SINGAPORE 408592,49,NIL,1.32780851581846,103.896517567376,103.896517567376,408592,UBI CRESCENT,49 UBI CRESCENT SINGAPORE 408592,35033.4041612716,34447.9261028338
51 UBI CRESCENT SINGAPORE 408593,51,NIL,1.32785922500515,103.896648306984,103.896648306984,408593,UBI CRESCENT,51 UBI CRESCENT SINGAPORE 408593,35047.9540113127,34453.5336403027
53 UBI CRESCENT SINGAPORE 408594,53,NIL,1.32796695667382,103.896933072817,103.896933072817,408594,UBI CRESCENT,53 UBI CRESCENT SINGAPORE 408594,35079.6452561598,34465.4468765501
55 UBI CRESCENT SINGAPORE 408595,55,NIL,1.32801674180429,103.897060397779,103.897060397779,408595,UBI CRESCENT,55 UBI CRESCENT SINGAPORE 408595,35093.8150916658,34470.9522293042
57 UBI CRESCENT SINGAPORE 408596,57,NIL,1.3280634415973,103.897180603467,103.897180603467,408596,UBI CRESCENT,57 UBI CRESCENT SINGAPORE 408596,35107.1926324293,34476.1164013464
59 UBI CRESCENT SINGAPORE 408597,59,NIL,1.32811106023956,103.897303324946,103.897303324946,408597,UBI CRESCENT,59 UBI CRESCENT SINGAPORE 408597,35120.8501520418,34481.3821830098
61 UBI CRESCENT SINGAPORE 408598,61,NIL,1.32815774660307,103.897423692195,103.897423692195,408598,UBI CRESCENT,61 UBI CRESCENT SINGAPORE 408598,35134.2456719875,34486.5448719189
63 UBI CRESCENT SINGAPORE 408599,63,NIL,1.32820840924663,103.897552840514,103.897552840514,408599,UBI CRESCENT,63 UBI CRESCENT SINGAPORE 408599,35148.6184240561,34492.1472638305
10 EUNOS ROAD 8 DBS NTUC SINGAPORE POST CENTRE SINGAPORE 408600,10,DBS NTUC SINGAPORE POST CENTRE,1.31898220434607,103.894722842965,103.894722842965,408600,EUNOS ROAD 8,DBS NTUC SINGAPORE POST CENTRE,34833.6936740698,33471.9522811566
11 EUNOS ROAD 8 CENTRE FOR EMPLOYABILITY SKILLS SINGAPORE 408601,11,CENTRE FOR EMPLOYABILITY SKILLS,1.31945233598262,103.892134990552,103.892134990552,408601,EUNOS ROAD 8,CENTRE FOR EMPLOYABILITY SKILLS,34545.6896925541,33523.930097267
7 UBI CLOSE ALPINE CENTRE SINGAPORE 408604,7,ALPINE CENTRE,1.33454794219666,103.898733168662,103.898733168662,408604,UBI CLOSE,ALPINE CENTRE,35279.9583789175,35193.1442323066
5 UBI CLOSE SINGAPORE 408605,5,NIL,1.33460710728731,103.898355441507,103.898355441507,408605,UBI CLOSE,5 UBI CLOSE SINGAPORE 408605,35237.9211134836,35199.685294928
20 EUNOS ROAD 4 SINGAPORE 408606,20,NIL,1.32280848846675,103.897617915815,103.897617915815,408606,EUNOS ROAD 4,20 EUNOS ROAD 4 SINGAPORE 408606,35155.8761417279,33895.0515360069
1 UBI ROAD 4 REGENT CENTRE SINGAPORE 408607,1,REGENT CENTRE,1.33403918023662,103.899317904672,103.899317904672,408607,UBI ROAD 4,REGENT CENTRE,35345.0349071249,35136.8896409012
3 UBI ROAD 4 SINGAPORE 408608,3,NIL,1.33322873392907,103.899562976513,103.899562976513,408608,UBI ROAD 4,3 UBI ROAD 4 SINGAPORE 408608,35372.3112638677,35047.2753123138
10 UBI ROAD 4 SINGAPORE 408609,10,NIL,1.33209958082167,103.899109653917,103.899109653917,408609,UBI ROAD 4,10 UBI ROAD 4 SINGAPORE 408609,35321.8644931782,34922.4179120604
15 UBI ROAD 4 KAH MOTORS SINGAPORE 408610,15,KAH MOTORS,1.33321682718626,103.900013418261,103.900013418261,408610,UBI ROAD 4,KAH MOTORS,35422.4407958211,35045.9600776173
17 UBI ROAD 4 SINGAPORE 408611,17,NIL,1.33287308745936,103.900288607295,103.900288607295,408611,UBI ROAD 4,17 UBI ROAD 4 SINGAPORE 408611,35453.0675156815,35007.951904567
24 UBI ROAD 4 WUI HONG BUILDING SINGAPORE 408612,24,WUI HONG BUILDING,1.33131231582055,103.89929517743,103.89929517743,408612,UBI ROAD 4,WUI HONG BUILDING,35342.513674886,34835.3666763343
26 UBI ROAD 4 SDG CENTRE SINGAPORE 408613,26,SDG CENTRE,1.33124994992539,103.898948398831,103.898948398831,408613,UBI ROAD 4,SDG CENTRE,35303.9209665349,34828.4695411529
28 UBI ROAD 4 BOON TECK HOUSE SINGAPORE 408614,28,BOON TECK HOUSE,1.33127502341869,103.898585077784,103.898585077784,408614,UBI ROAD 4,BOON TECK HOUSE,35263.4869961981,34831.2409685459
30 UBI ROAD 4 SINGAPORE 408615,30,NIL,1.3310476841486,103.898311433767,103.898311433767,408615,UBI ROAD 4,30 UBI ROAD 4 SINGAPORE 408615,35233.0338934921,34806.1021368131
18 UBI ROAD 4 UBI CAR MALL SINGAPORE 408616,18,UBI CAR MALL,1.33222048896465,103.899582467578,103.899582467578,408616,UBI ROAD 4,UBI CAR MALL,35374.4834154518,34935.7887333315
22 UBI ROAD 4 FULCO BUILDING SINGAPORE 408617,22,FULCO BUILDING,1.33149615759313,103.899786785537,103.899786785537,408617,UBI ROAD 4,FULCO BUILDING,35397.2240542984,34855.6964400094
29 UBI ROAD 4 DICKSON AUTO CENTRE SINGAPORE 408619,29,DICKSON AUTO CENTRE,1.33018338746076,103.898570981486,103.898570981486,408619,UBI ROAD 4,DICKSON AUTO CENTRE,35261.9214150086,34710.5333391279
23 UBI ROAD 4 AUDIO HOUSE BUILDING SINGAPORE 408620,23,AUDIO HOUSE BUILDING,1.33079833507667,103.89996932682,103.89996932682,408620,UBI ROAD 4,AUDIO HOUSE BUILDING,35417.5411054203,34778.5352982301
25 UBI ROAD 4 UBIX SINGAPORE 408621,25,UBIX,1.33058218489003,103.899347243612,103.899347243612,408621,UBI ROAD 4,UBIX,35348.310266179,34754.6326412205
20 UBI ROAD 4 THINK ONE BUILDING SINGAPORE 408622,20,THINK ONE BUILDING,1.33190217572637,103.89966760131,103.89966760131,408622,UBI ROAD 4,THINK ONE BUILDING,35383.9588682903,34900.5915176626
19 UBI ROAD 4 SINGAPORE 408623,19,NIL,1.33253901451273,103.900556124922,103.900556124922,408623,UBI ROAD 4,19 UBI ROAD 4 SINGAPORE 408623,35482.8404665245,34971.0126150958
16 UBI ROAD 4 SINGAPORE 408624,16,NIL,1.33265222960029,103.899428442096,103.899428442096,408624,UBI ROAD 4,16 UBI ROAD 4 SINGAPORE 408624,35357.3406888535,34983.5279723424
320 UBI ROAD 3 SINGAPORE 408649,320,NIL,1.33171718292445,103.898416682937,103.898416682937,408649,UBI ROAD 3,320 UBI ROAD 3 SINGAPORE 408649,35244.7450909484,34880.1322372854
330 UBI ROAD 3 SINGAPORE 408650,330,NIL,1.33393734647978,103.898077976824,103.898077976824,408650,UBI ROAD 3,330 UBI ROAD 3 SINGAPORE 408650,35207.0441379333,35125.6257134415
370 UBI ROAD 3 SINGAPORE 408651,370,NIL,1.33548569323195,103.897623491929,103.897623491929,408651,UBI ROAD 3,370 UBI ROAD 3 SINGAPORE 408651,35156.4602230098,35296.8327495717
3024 UBI ROAD 3 KAMPONG UBI INDUSTRIAL ESTATE SINGAPORE 408652,3024,KAMPONG UBI INDUSTRIAL ESTATE,1.32883552950362,103.897400194752,103.897400194752,408652,UBI ROAD 3,KAMPONG UBI INDUSTRIAL ESTATE,35131.6287021153,34561.4906091671
3025 UBI ROAD 3 KAMPONG UBI INDUSTRIAL ESTATE SINGAPORE 408653,3025,KAMPONG UBI INDUSTRIAL ESTATE,1.32825855495135,103.89597159492,103.89597159492,408653,UBI ROAD 3,KAMPONG UBI INDUSTRIAL ESTATE,34972.641698515,34497.6876063738
3025A UBI ROAD 3 KAMPONG UBI INDUSTRIAL ESTATE SINGAPORE 408654,3025A,KAMPONG UBI INDUSTRIAL ESTATE,1.33071162988237,103.896455769661,103.896455769661,408654,UBI ROAD 3,KAMPONG UBI INDUSTRIAL ESTATE,35026.5184976561,34768.9375930056
3026A UBI ROAD 3 KAMPONG UBI INDUSTRIAL ESTATE SINGAPORE 408655,3026A,KAMPONG UBI INDUSTRIAL ESTATE,1.33099278004655,103.897140109895,103.897140109895,408655,UBI ROAD 3,KAMPONG UBI INDUSTRIAL ESTATE,35102.6777389059,34800.0277156979
3027A UBI ROAD 3 KAMPONG UBI INDUSTRIAL ESTATE SINGAPORE 408656,3027A,KAMPONG UBI INDUSTRIAL ESTATE,1.33009879558434,103.896382541257,103.896382541257,408656,UBI ROAD 3,KAMPONG UBI INDUSTRIAL ESTATE,35018.3706591185,34701.1732678432
3028A UBI ROAD 3 KAMPONG UBI INDUSTRIAL ESTATE SINGAPORE 408657,3028A,KAMPONG UBI INDUSTRIAL ESTATE,1.33045517729683,103.896923034795,103.896923034795,408657,UBI ROAD 3,KAMPONG UBI INDUSTRIAL ESTATE,35078.5210427092,34740.5816983562
3030A UBI ROAD 3 KAMPONG UBI INDUSTRIAL ESTATE SINGAPORE 408658,3030A,KAMPONG UBI INDUSTRIAL ESTATE,1.3297450129598,103.896754414723,103.896754414723,408658,UBI ROAD 3,KAMPONG UBI INDUSTRIAL ESTATE,35059.7573747793,34662.0548348837
3031A UBI ROAD 3 KAMPONG UBI INDUSTRIAL ESTATE SINGAPORE 408659,3031A,KAMPONG UBI INDUSTRIAL ESTATE,1.33000776231179,103.897402704287,103.897402704287,408659,UBI ROAD 3,KAMPONG UBI INDUSTRIAL ESTATE,35131.9046250554,34691.1101923697
3032A UBI ROAD 3 KAMPONG UBI INDUSTRIAL ESTATE SINGAPORE 408660,3032A,KAMPONG UBI INDUSTRIAL ESTATE,1.33080001779822,103.897754411571,103.897754411571,408660,UBI ROAD 3,KAMPONG UBI INDUSTRIAL ESTATE,35171.0437613158,34778.7148176432
3029A UBI ROAD 3 KAMPONG UBI INDUSTRIAL ESTATE SINGAPORE 408661,3029A,KAMPONG UBI INDUSTRIAL ESTATE,1.33026120905745,103.89700128643,103.89700128643,408661,UBI ROAD 3,KAMPONG UBI INDUSTRIAL ESTATE,35087.2302010041,34719.1338958982
3022 UBI ROAD 3 UBIPLEX 1 SINGAPORE 408662,3022,UBIPLEX 1,1.32896900693647,103.896027245727,103.896027245727,408662,UBI ROAD 3,UBIPLEX 1,34978.8330751201,34576.2459485494
3023 UBI ROAD 3 UBIPLEX 1 SINGAPORE 408663,3023,UBIPLEX 1,1.32958634240242,103.897407424418,103.897407424418,408663,UBI ROAD 3,UBIPLEX 1,35132.4311366323,34644.5117233973
361 UBI ROAD 3 OCTOPUS BUILDING SINGAPORE 408664,361,OCTOPUS BUILDING,1.33430674527919,103.896814038665,103.896814038665,408664,UBI ROAD 3,OCTOPUS BUILDING,35066.3799188118,35166.468301557
322 UBI ROAD 3 SINGAPORE 408665,322,NIL,1.33280674736116,103.898365312092,103.898365312092,408665,UBI ROAD 3,322 UBI ROAD 3 SINGAPORE 408665,35239.0248657772,35000.6106169932
322A UBI ROAD 3 TEMPORARY SITE OFFICE SINGAPORE 408666,322A,TEMPORARY SITE OFFICE,1.3325043746836,103.897965984225,103.897965984225,408666,UBI ROAD 3,TEMPORARY SITE OFFICE,35194.5846856525,34967.1746044923
31 UBI ROAD 1 SINGAPORE 408694,31,NIL,1.32685392324135,103.892556425421,103.892556425421,408694,UBI ROAD 1,31 UBI ROAD 1 SINGAPORE 408694,34592.5717422664,34342.361182455
39 UBI ROAD 1 SINGAPORE 408695,39,NIL,1.32923224947744,103.891605254015,103.891605254015,408695,UBI ROAD 1,39 UBI ROAD 1 SINGAPORE 408695,34486.7097718949,34605.3419256695
45 UBI ROAD 1 SINGAPORE 408696,45,NIL,1.3295658006777,103.89149560443,103.89149560443,408696,UBI ROAD 1,45 UBI ROAD 1 SINGAPORE 408696,34474.5060235402,34642.2240389194
53 UBI ROAD 1 SINGAPORE 408698,53,NIL,1.33107331275018,103.891104567605,103.891104567605,408698,UBI ROAD 1,53 UBI ROAD 1 SINGAPORE 408698,34430.9837200204,34808.9160604551
55 UBI ROAD 1 SINGAPORE 408699,55,NIL,1.33149701891567,103.890960052271,103.890960052271,408699,UBI ROAD 1,55 UBI ROAD 1 SINGAPORE 408699,34414.899555617,34855.7669644114
3006 UBI ROAD 1 KAMPONG UBI INDUSTRIAL ESTATE SINGAPORE 408700,3006,KAMPONG UBI INDUSTRIAL ESTATE,1.33044996749784,103.893007474871,103.893007474871,408700,UBI ROAD 1,KAMPONG UBI INDUSTRIAL ESTATE,34642.7593887476,34739.9947416168
3007 UBI ROAD 1 KAMPONG UBI INDUSTRIAL ESTATE SINGAPORE 408701,3007,KAMPONG UBI INDUSTRIAL ESTATE,1.33087063350499,103.894042111905,103.894042111905,408701,UBI ROAD 1,KAMPONG UBI INDUSTRIAL ESTATE,34757.9027336463,34786.5126674827
3014 UBI ROAD 1 KAMPONG UBI INDUSTRIAL ESTATE SINGAPORE 408702,3014,KAMPONG UBI INDUSTRIAL ESTATE,1.3302851056327,103.894276496981,103.894276496981,408702,UBI ROAD 1,KAMPONG UBI INDUSTRIAL ESTATE,34783.9889835371,34721.7686028089
3014A UBI ROAD 1 SINGAPORE 408703,3014A,NIL,1.32943121784785,103.893757683611,103.893757683611,408703,UBI ROAD 1,3014A UBI ROAD 1 SINGAPORE 408703,34726.252683524,34627.348596178
3015 UBI ROAD 1 KAMPONG UBI INDUSTRIAL ESTATE SINGAPORE 408704,3015,KAMPONG UBI INDUSTRIAL ESTATE,1.32986317086284,103.892908748159,103.892908748159,408704,UBI ROAD 1,KAMPONG UBI INDUSTRIAL ESTATE,34631.7736845938,34675.1094767973
3015A UBI ROAD 1 SINGAPORE 408705,3015A,NIL,1.32834257073922,103.893101562767,103.893101562767,408705,UBI ROAD 1,3015A UBI ROAD 1 SINGAPORE 408705,34653.236045952,34506.9697376005
3016 UBI ROAD 1 KAMPONG UBI INDUSTRIAL ESTATE SINGAPORE 408706,3016,KAMPONG UBI INDUSTRIAL ESTATE,1.32890620088141,103.891743511381,103.891743511381,408706,UBI ROAD 1,KAMPONG UBI INDUSTRIAL ESTATE,34502.0972581171,34569.2894881181
3016A UBI ROAD 1 KAMPONG UBI INDUSTRIAL ESTATE SINGAPORE 408707,3016A,KAMPONG UBI INDUSTRIAL ESTATE,1.32999517991223,103.894694313762,103.894694313762,408707,UBI ROAD 1,KAMPONG UBI INDUSTRIAL ESTATE,34830.4885064708,34689.7112364303
3017 UBI ROAD 1 KAMPONG UBI INDUSTRIAL ESTATE SINGAPORE 408708,3017,KAMPONG UBI INDUSTRIAL ESTATE,1.32843040089207,103.891932617599,103.891932617599,408708,UBI ROAD 1,KAMPONG UBI INDUSTRIAL ESTATE,34523.1441005953,34516.6784355212
3017A UBI ROAD 1 KAMPONG UBI INDUSTRIAL ESTATE SINGAPORE 408709,3017A,KAMPONG UBI INDUSTRIAL ESTATE,1.33033149597136,103.895518378129,103.895518378129,408709,UBI ROAD 1,KAMPONG UBI INDUSTRIAL ESTATE,34922.1975006033,34726.9016593639
3018 UBI ROAD 1 KAMPONG UBI INDUSTRIAL ESTATE SINGAPORE 408710,3018,KAMPONG UBI INDUSTRIAL ESTATE,1.32806992346646,103.89205098676,103.89205098676,408710,UBI ROAD 1,KAMPONG UBI INDUSTRIAL ESTATE,34536.3183313115,34476.8189817835
3018A UBI ROAD 1 KAMPONG UBI INDUSTRIAL ESTATE SINGAPORE 408711,3018A,KAMPONG UBI INDUSTRIAL ESTATE,1.32977998175668,103.895536321714,103.895536321714,408711,UBI ROAD 1,KAMPONG UBI INDUSTRIAL ESTATE,34924.1959744962,34665.9180587176
3019 UBI ROAD 1 KAMPONG UBI INDUSTRIAL ESTATE SINGAPORE 408712,3019,KAMPONG UBI INDUSTRIAL ESTATE,1.32758543131676,103.892206999911,103.892206999911,408712,UBI ROAD 1,KAMPONG UBI INDUSTRIAL ESTATE,34553.6822866024,34423.2467088271
3019A UBI ROAD 1 KAMPONG UBI INDUSTRIAL ESTATE SINGAPORE 408713,3019A,KAMPONG UBI INDUSTRIAL ESTATE,1.32969651140092,103.895328065206,103.895328065206,408713,UBI ROAD 1,KAMPONG UBI INDUSTRIAL ESTATE,34901.0193858799,34656.6877462789
3020A UBI ROAD 1 KAMPONG UBI INDUSTRIAL ESTATE SINGAPORE 408714,3020A,KAMPONG UBI INDUSTRIAL ESTATE,1.32951084659402,103.894874745728,103.894874745728,408714,UBI ROAD 1,KAMPONG UBI INDUSTRIAL ESTATE,34850.5700726798,34636.1566097084
3021A UBI ROAD 1 KAMPONG UBI INDUSTRIAL ESTATE SINGAPORE 408715,3021A,KAMPONG UBI INDUSTRIAL ESTATE,1.32942774704416,103.89466823154,103.89466823154,408715,UBI ROAD 1,KAMPONG UBI INDUSTRIAL ESTATE,34827.5873807669,34626.9673103876
3022A UBI ROAD 1 KAMPONG UBI INDUSTRIAL ESTATE SINGAPORE 408716,3022A,KAMPONG UBI INDUSTRIAL ESTATE,1.32918352024126,103.89503801749,103.89503801749,408716,UBI ROAD 1,KAMPONG UBI INDUSTRIAL ESTATE,34868.7414567042,34599.9629720133
3023A UBI ROAD 1 KAMPONG UBI INDUSTRIAL ESTATE SINGAPORE 408717,3023A,KAMPONG UBI INDUSTRIAL ESTATE,1.32950121552595,103.895819124417,103.895819124417,408717,UBI ROAD 1,KAMPONG UBI INDUSTRIAL ESTATE,34955.6698044166,34635.0942942835
3024A UBI ROAD 1 FC SINGAPORE 408718,3024A,FC,1.32987826301902,103.896106694743,103.896106694743,408718,UBI ROAD 1,FC,34987.6723857448,34676.7871100623
3026 UBI ROAD 1 KAMPONG UBI INDUSTRIAL ESTATE SINGAPORE 408719,3026,KAMPONG UBI INDUSTRIAL ESTATE,1.32782387467605,103.894835417837,103.894835417837,408719,UBI ROAD 1,KAMPONG UBI INDUSTRIAL ESTATE,34846.1979229674,34449.6196873281
3027 UBI ROAD 1 KAMPONG UBI INDUSTRIAL ESTATE SINGAPORE 408720,3027,KAMPONG UBI INDUSTRIAL ESTATE,1.32741211452737,103.893690874398,103.893690874398,408720,UBI ROAD 1,KAMPONG UBI INDUSTRIAL ESTATE,34718.822952901,34404.0861973632
3014B UBI ROAD 1 SINGAPORE 408722,3014B,NIL,1.32875694000884,103.894216321887,103.894216321887,408722,UBI ROAD 1,3014B UBI ROAD 1 SINGAPORE 408722,34777.2962783175,34552.7916209139
11 UBI ROAD 1 SINGAPORE 408723,11,NIL,1.32588611110031,103.89328135647,103.89328135647,408723,UBI ROAD 1,11 UBI ROAD 1 SINGAPORE 408723,34673.2518398324,34235.3473639637
21 UBI ROAD 1 SINGAPORE 408724,21,NIL,1.32623396455171,103.892768591312,103.892768591312,408724,UBI ROAD 1,21 UBI ROAD 1 SINGAPORE 408724,34616.1853097631,34273.809859449
23 UBI ROAD 1 SINGAPORE 408725,23,NIL,1.32608945157693,103.892387574952,103.892387574952,408725,UBI ROAD 1,23 UBI ROAD 1 SINGAPORE 408725,34573.7824070863,34257.8293326218
6 UBI ROAD 1 WINTECH CENTRE SINGAPORE 408726,6,WINTECH CENTRE,1.32643266325904,103.893626872816,103.893626872816,408726,UBI ROAD 1,WINTECH CENTRE,34711.702863751,34295.7832654435
61 UBI ROAD 1 OXLEY BIZHUB SINGAPORE 408727,61,OXLEY BIZHUB,1.3318320999257,103.890817808546,103.890817808546,408727,UBI ROAD 1,OXLEY BIZHUB,34399.0684315581,34892.81815462
63 UBI ROAD 1 OXLEY BIZHUB SINGAPORE 408728,63,OXLEY BIZHUB,1.33222101767613,103.890308663847,103.890308663847,408728,UBI ROAD 1,OXLEY BIZHUB,34342.4048894243,34935.8213924859
65 UBI ROAD 1 DIVINITY KINDERGARTEN SINGAPORE 408729,65,DIVINITY KINDERGARTEN,1.33251547267137,103.890281173683,103.890281173683,408729,UBI ROAD 1,DIVINITY KINDERGARTEN,34339.3447660021,34968.3806625716
67 UBI ROAD 1 OXLEY BIZHUB SINGAPORE 408730,67,OXLEY BIZHUB,1.3321676565783,103.890843131464,103.890843131464,408730,UBI ROAD 1,OXLEY BIZHUB,34401.8857452143,34929.922374336
69 UBI ROAD 1 OXLEY BIZHUB SINGAPORE 408731,69,OXLEY BIZHUB,1.33174657595057,103.890231605492,103.890231605492,408731,UBI ROAD 1,OXLEY BIZHUB,34333.8303025849,34883.3598334603
71 UBI ROAD 1 OXLEY BIZHUB SINGAPORE 408732,71,OXLEY BIZHUB,1.33234501042221,103.889740927128,103.889740927128,408732,UBI ROAD 1,OXLEY BIZHUB,34279.2213511858,34949.5304282084
73 UBI ROAD 1 OXLEY BIZHUB SINGAPORE 408733,73,OXLEY BIZHUB,1.33280197493171,103.890323211805,103.890323211805,408733,UBI ROAD 1,OXLEY BIZHUB,34344.0224407418,35000.0607385337
62 UBI ROAD 1 OXLEY BIZHUB 2 SINGAPORE 408734,62,OXLEY BIZHUB 2,1.33217978326597,103.892177418372,103.892177418372,408734,UBI ROAD 1,OXLEY BIZHUB 2,34550.3780518919,34931.2667873688
97 UBI AVENUE 4 SINGAPORE 408754,97,NIL,1.33475139189908,103.894075371302,103.894075371302,408754,UBI AVENUE 4,97 UBI AVENUE 4 SINGAPORE 408754,34761.5935813123,35215.627381416
99 UBI AVENUE 4 CIVIC TERRACE WAREHOUSE SINGAPORE 408755,99,CIVIC TERRACE WAREHOUSE,1.3346201942704,103.894862528355,103.894862528355,408755,UBI AVENUE 4,CIVIC TERRACE WAREHOUSE,34849.1962997029,35201.1223885268
101 UBI AVENUE 4 CIVIC TERRACE WAREHOUSE SINGAPORE 408756,101,CIVIC TERRACE WAREHOUSE,1.33469388017756,103.894827505237,103.894827505237,408756,UBI AVENUE 4,CIVIC TERRACE WAREHOUSE,34845.2983887596,35209.2701059915
103 UBI AVENUE 4 CIVIC TERRACE WAREHOUSE SINGAPORE 408757,103,CIVIC TERRACE WAREHOUSE,1.33476954134867,103.894792130775,103.894792130775,408757,UBI AVENUE 4,CIVIC TERRACE WAREHOUSE,34841.3613715814,35217.6362372283
105 UBI AVENUE 4 CIVIC TERRACE WAREHOUSE SINGAPORE 408758,105,CIVIC TERRACE WAREHOUSE,1.33484629691578,103.894756243121,103.894756243121,408758,UBI AVENUE 4,CIVIC TERRACE WAREHOUSE,34837.3672387181,35226.1233798619
107 UBI AVENUE 4 CIVIC TERRACE WAREHOUSE SINGAPORE 408759,107,CIVIC TERRACE WAREHOUSE,1.33492140513931,103.894721126474,103.894721126474,408759,UBI AVENUE 4,CIVIC TERRACE WAREHOUSE,34833.4589155884,35234.4283697698
109 UBI AVENUE 4 CIVIC TERRACE WAREHOUSE SINGAPORE 408760,109,CIVIC TERRACE WAREHOUSE,1.33499523145683,103.894686609769,103.894686609769,408760,UBI AVENUE 4,CIVIC TERRACE WAREHOUSE,34829.6173636308,35242.5916147102
111 UBI AVENUE 4 CIVIC TERRACE WAREHOUSE SINGAPORE 408761,111,CIVIC TERRACE WAREHOUSE,1.33506924227196,103.894652007123,103.894652007123,408761,UBI AVENUE 4,CIVIC TERRACE WAREHOUSE,34825.7662469912,35250.7752602734
113 UBI AVENUE 4 CIVIC TERRACE WAREHOUSE SINGAPORE 408762,113,CIVIC TERRACE WAREHOUSE,1.33514508657019,103.894616545624,103.894616545624,408762,UBI AVENUE 4,CIVIC TERRACE WAREHOUSE,34821.8195440583,35259.1616407894
115 UBI AVENUE 4 CIVIC TERRACE WAREHOUSE SINGAPORE 408763,115,CIVIC TERRACE WAREHOUSE,1.33523585233631,103.89458020302,103.89458020302,408763,UBI AVENUE 4,CIVIC TERRACE WAREHOUSE,34817.7747425903,35269.1979593653
117 UBI AVENUE 4 TONG XING COMPLEX SINGAPORE 408764,117,TONG XING COMPLEX,1.33477531513921,103.895249756172,103.895249756172,408764,UBI AVENUE 4,TONG XING COMPLEX,34892.2902809838,35218.2759510633
119 UBI AVENUE 4 TONG XING COMPLEX SINGAPORE 408765,119,TONG XING COMPLEX,1.33485457051947,103.895199914098,103.895199914098,408765,UBI AVENUE 4,TONG XING COMPLEX,34886.7431584122,35227.0394706577
121 UBI AVENUE 4 TONG XING COMPLEX SINGAPORE 408766,121,TONG XING COMPLEX,1.33494186465453,103.895169893494,103.895169893494,408766,UBI AVENUE 4,TONG XING COMPLEX,34883.4019362256,35236.6919306647
123 UBI AVENUE 4 TONG XING COMPLEX SINGAPORE 408767,123,TONG XING COMPLEX,1.33502244437796,103.895129864852,103.895129864852,408767,UBI AVENUE 4,TONG XING COMPLEX,34878.9469430419,35245.6019170322
125 UBI AVENUE 4 TONG XING COMPLEX SINGAPORE 408768,125,TONG XING COMPLEX,1.33514667102049,103.895069822105,103.895069822105,408768,UBI AVENUE 4,TONG XING COMPLEX,34872.2644684007,35259.3381031342
127 UBI AVENUE 4 TONG XING COMPLEX SINGAPORE 408769,127,TONG XING COMPLEX,1.33535483473618,103.894979758381,103.894979758381,408769,UBI AVENUE 4,TONG XING COMPLEX,34862.2407413051,35282.3555426914
135 UBI AVENUE 4 HENSON WAREHOUSE SINGAPORE 408771,135,HENSON WAREHOUSE,1.33566494309588,103.895171424016,103.895171424016,408771,UBI AVENUE 4,HENSON WAREHOUSE,34883.5702564828,35316.6462927852
137 UBI AVENUE 4 HENSON WAREHOUSE SINGAPORE 408772,137,HENSON WAREHOUSE,1.33556244603395,103.895215551055,103.895215551055,408772,UBI AVENUE 4,HENSON WAREHOUSE,34888.4814184494,35305.312809499
139 UBI AVENUE 4 HENSON WAREHOUSE SINGAPORE 408773,139,HENSON WAREHOUSE,1.33548044897361,103.895242705723,103.895242705723,408773,UBI AVENUE 4,HENSON WAREHOUSE,34891.5036766231,35296.2460652441
141 UBI AVENUE 4 HENSON WAREHOUSE SINGAPORE 408774,141,HENSON WAREHOUSE,1.33537453579637,103.895273254312,103.895273254312,408774,UBI AVENUE 4,HENSON WAREHOUSE,34894.903709502,35284.5348072518
143 UBI AVENUE 4 HENSON WAREHOUSE SINGAPORE 408775,143,HENSON WAREHOUSE,1.33529595474798,103.895307198376,103.895307198376,408775,UBI AVENUE 4,HENSON WAREHOUSE,34898.681547354,35275.8458074331
145 UBI AVENUE 4 HENSON WAREHOUSE SINGAPORE 408776,145,HENSON WAREHOUSE,1.3352173741452,103.895334353124,103.895334353124,408776,UBI AVENUE 4,HENSON WAREHOUSE,34901.7038055277,35267.1568378843
147 UBI AVENUE 4 HENSON WAREHOUSE SINGAPORE 408777,147,HENSON WAREHOUSE,1.33514220895108,103.895392059192,103.895392059192,408777,UBI AVENUE 4,HENSON WAREHOUSE,34908.1260965811,35258.8456127718
149 UBI AVENUE 4 HENSON WAREHOUSE SINGAPORE 408778,149,HENSON WAREHOUSE,1.33506704463341,103.895426003063,103.895426003063,408778,UBI AVENUE 4,HENSON WAREHOUSE,34911.9039041651,35250.5344179254
151 UBI AVENUE 4 HENSON WAREHOUSE SINGAPORE 408779,151,HENSON WAREHOUSE,1.33498504695203,103.895466736075,103.895466736075,408779,UBI AVENUE 4,HENSON WAREHOUSE,34916.4372914266,35241.4676434044
153 UBI AVENUE 4 HENSON WAREHOUSE SINGAPORE 408780,153,HENSON WAREHOUSE,1.33489963298429,103.895500679957,103.895500679957,408780,UBI AVENUE 4,HENSON WAREHOUSE,34920.2151292777,35232.0230941772
157 UBI AVENUE 4 PAN MALAYAN WAREHOUSE SINGAPORE 408782,157,PAN MALAYAN WAREHOUSE,1.33586309229454,103.89553464993,103.89553464993,408782,UBI AVENUE 4,PAN MALAYAN WAREHOUSE,34923.9929368617,35338.5576494131
159 UBI AVENUE 4 PAN MALAYAN WAREHOUSE SINGAPORE 408783,159,PAN MALAYAN WAREHOUSE,1.33578451141592,103.895561804676,103.895561804676,408783,UBI AVENUE 4,PAN MALAYAN WAREHOUSE,34927.0151950354,35329.8686495963
161 UBI AVENUE 4 PAN MALAYAN WAREHOUSE SINGAPORE 408784,161,PAN MALAYAN WAREHOUSE,1.33570251400613,103.895602537694,103.895602537694,408784,UBI AVENUE 4,PAN MALAYAN WAREHOUSE,34931.5485822968,35320.8019053414
163 UBI AVENUE 4 PAN MALAYAN WAREHOUSE SINGAPORE 408785,163,PAN MALAYAN WAREHOUSE,1.33562393269384,103.895646665318,103.895646665318,408785,UBI AVENUE 4,PAN MALAYAN WAREHOUSE,34936.4597442634,35312.1129055247
165 UBI AVENUE 4 PAN MALAYAN WAREHOUSE SINGAPORE 408786,165,PAN MALAYAN WAREHOUSE,1.33554638309135,103.895679609347,103.895679609347,408786,UBI AVENUE 4,PAN MALAYAN WAREHOUSE,34940.1262867386,35303.5379554685
167 UBI AVENUE 4 PAN MALAYAN WAREHOUSE SINGAPORE 408787,167,PAN MALAYAN WAREHOUSE,1.33546335412892,103.895714553069,103.895714553069,408787,UBI AVENUE 4,PAN MALAYAN WAREHOUSE,34944.0153896986,35294.3571311831
169 UBI AVENUE 4 PAN MALAYAN WAREHOUSE SINGAPORE 408788,169,PAN MALAYAN WAREHOUSE,1.33538818963377,103.895755286249,103.895755286249,408788,UBI AVENUE 4,PAN MALAYAN WAREHOUSE,34948.54877696,35286.0459363386
171 UBI AVENUE 4 PAN MALAYAN WAREHOUSE SINGAPORE 408789,171,PAN MALAYAN WAREHOUSE,1.33530960823221,103.895802808656,103.895802808656,408789,UBI AVENUE 4,PAN MALAYAN WAREHOUSE,34953.8377438989,35277.3569365218
173 UBI AVENUE 4 PAN MALAYAN WAREHOUSE SINGAPORE 408790,173,PAN MALAYAN WAREHOUSE,1.33523102788517,103.895819779552,103.895819779552,408790,UBI AVENUE 4,PAN MALAYAN WAREHOUSE,34955.7266476899,35268.6679669712
175 UBI AVENUE 4 PAN MALAYAN WAREHOUSE SINGAPORE 408791,175,PAN MALAYAN WAREHOUSE,1.33514561329186,103.895867301782,103.895867301782,408791,UBI AVENUE 4,PAN MALAYAN WAREHOUSE,34961.0156146288,35259.2233874761
177 UBI AVENUE 4 PAN MALAYAN WAREHOUSE SINGAPORE 408792,177,PAN MALAYAN WAREHOUSE,1.3350567829477,103.895897850772,103.895897850772,408792,UBI AVENUE 4,PAN MALAYAN WAREHOUSE,34964.4156475086,35249.4010635447
179 UBI AVENUE 4 EVAN LIM WAREHOUSE SINGAPORE 408793,179,EVAN LIM WAREHOUSE,1.33519168694105,103.896164176019,103.896164176019,408793,UBI AVENUE 4,EVAN LIM WAREHOUSE,34994.0544809159,35264.3188209273
181 UBI AVENUE 4 EVAN LIM WAREHOUSE SINGAPORE 408794,181,EVAN LIM WAREHOUSE,1.33528163278873,103.896121432244,103.896121432244,408794,UBI AVENUE 4,EVAN LIM WAREHOUSE,34989.2972921832,35274.2644566242
183 UBI AVENUE 4 EVAN LIM WAREHOUSE SINGAPORE 408795,183,EVAN LIM WAREHOUSE,1.33536215144047,103.896083095041,103.896083095041,408795,UBI AVENUE 4,EVAN LIM WAREHOUSE,34985.0305355899,35283.1676932313
185 UBI AVENUE 4 EVAN LIM WAREHOUSE SINGAPORE 408796,185,EVAN LIM WAREHOUSE,1.33544286006453,103.896044667817,103.896044667817,408796,UBI AVENUE 4,EVAN LIM WAREHOUSE,34980.753760295,35292.091935819
187 UBI AVENUE 4 EVAN LIM WAREHOUSE SINGAPORE 408797,187,EVAN LIM WAREHOUSE,1.33552483663362,103.896005636022,103.896005636022,408797,UBI AVENUE 4,EVAN LIM WAREHOUSE,34976.4096992724,35301.1563797053
189 UBI AVENUE 4 EVAN LIM WAREHOUSE SINGAPORE 408798,189,EVAN LIM WAREHOUSE,1.33560825825498,103.895965916435,103.895965916435,408798,UBI AVENUE 4,EVAN LIM WAREHOUSE,34971.9890905181,35310.3806082793
191 UBI AVENUE 4 EVAN LIM WAREHOUSE SINGAPORE 408799,191,EVAN LIM WAREHOUSE,1.33568968981439,103.895927144357,103.895927144357,408799,UBI AVENUE 4,EVAN LIM WAREHOUSE,34967.6739354189,35319.3847886119
193 UBI AVENUE 4 EVAN LIM WAREHOUSE SINGAPORE 408800,193,EVAN LIM WAREHOUSE,1.33577113396512,103.895888366021,103.895888366021,408800,UBI AVENUE 4,EVAN LIM WAREHOUSE,34963.3580841571,35328.3903612718
195 UBI AVENUE 4 EVAN LIM WAREHOUSE SINGAPORE 408801,195,EVAN LIM WAREHOUSE,1.33585640604072,103.895847765546,103.895847765546,408801,UBI AVENUE 4,EVAN LIM WAREHOUSE,34958.8394374037,35337.8192014154
197 UBI AVENUE 4 EVAN LIM WAREHOUSE SINGAPORE 408802,197,EVAN LIM WAREHOUSE,1.33593929496935,103.895808299689,103.895808299689,408802,UBI AVENUE 4,EVAN LIM WAREHOUSE,34954.4470686791,35346.9845284931
199 UBI AVENUE 4 EVAN LIM WAREHOUSE SINGAPORE 408803,199,EVAN LIM WAREHOUSE,1.3360212715351,103.895769268422,103.895769268422,408803,UBI AVENUE 4,EVAN LIM WAREHOUSE,34950.1030681916,35356.0489723813
201 UBI AVENUE 4 EVAN LIM WAREHOUSE SINGAPORE 408804,201,EVAN LIM WAREHOUSE,1.33614527510734,103.895719641787,103.895719641787,408804,UBI AVENUE 4,EVAN LIM WAREHOUSE,34944.5797967911,35369.7605203446
205 UBI AVENUE 4 COMFORTDELGRO DRIVING CENTRE SINGAPORE 408805,205,COMFORTDELGRO DRIVING CENTRE,1.33581073690082,103.896680765344,103.896680765344,408805,UBI AVENUE 4,COMFORTDELGRO DRIVING CENTRE,35051.5437033772,35332.7717124503
209 UBI AVENUE 4 INTREPID WAREHOUSE COMPLEX SINGAPORE 408806,209,INTREPID WAREHOUSE COMPLEX,1.33651442550784,103.895595259681,103.895595259681,408806,UBI AVENUE 4,INTREPID WAREHOUSE COMPLEX,34930.736340954,35410.5789546091
211 UBI AVENUE 4 INTREPID WAREHOUSE COMPLEX SINGAPORE 408807,211,INTREPID WAREHOUSE COMPLEX,1.33645958037267,103.895521737133,103.895521737133,408807,UBI AVENUE 4,INTREPID WAREHOUSE COMPLEX,34922.5542087918,35404.5142495167
213 UBI AVENUE 4 INTREPID WAREHOUSE COMPLEX SINGAPORE 408808,213,INTREPID WAREHOUSE COMPLEX,1.33639070048511,103.895456001704,103.895456001704,408808,UBI AVENUE 4,INTREPID WAREHOUSE COMPLEX,34915.2387398072,35396.8976746295
215 UBI AVENUE 4 INTREPID WAREHOUSE COMPLEX SINGAPORE 408809,215,INTREPID WAREHOUSE COMPLEX,1.33633760618681,103.895380638479,103.895380638479,408809,UBI AVENUE 4,INTREPID WAREHOUSE COMPLEX,34906.8517539306,35391.0265635606
217 UBI AVENUE 4 INTREPID WAREHOUSE COMPLEX SINGAPORE 408810,217,INTREPID WAREHOUSE COMPLEX,1.33626996708431,103.895316530315,103.895316530315,408810,UBI AVENUE 4,INTREPID WAREHOUSE COMPLEX,34899.7173782922,35383.5471934434
219 UBI AVENUE 4 INTREPID WAREHOUSE COMPLEX SINGAPORE 408811,219,INTREPID WAREHOUSE COMPLEX,1.33621664771223,103.895243564552,103.895243564552,408811,UBI AVENUE 4,INTREPID WAREHOUSE COMPLEX,34891.5972046927,35377.6512020919
221 UBI AVENUE 4 INTREPID WAREHOUSE COMPLEX SINGAPORE 408812,221,INTREPID WAREHOUSE COMPLEX,1.33615263995135,103.895179182607,103.895179182607,408812,UBI AVENUE 4,INTREPID WAREHOUSE COMPLEX,34884.4323491957,35370.5733670462
223 UBI AVENUE 4 INTREPID WAREHOUSE COMPLEX SINGAPORE 408813,223,INTREPID WAREHOUSE COMPLEX,1.33609745597435,103.895103566134,103.895103566134,408813,UBI AVENUE 4,INTREPID WAREHOUSE COMPLEX,34876.0171838263,35364.4711901899
225 UBI AVENUE 4 INTREPID WAREHOUSE COMPLEX SINGAPORE 408814,225,INTREPID WAREHOUSE COMPLEX,1.33603007613807,103.895037504665,103.895037504665,408814,UBI AVENUE 4,INTREPID WAREHOUSE COMPLEX,34868.6654235292,35357.0204838533
227 UBI AVENUE 4 INTREPID WAREHOUSE COMPLEX SINGAPORE 408815,227,INTREPID WAREHOUSE COMPLEX,1.33597320241031,103.894961639843,103.894961639843,408815,UBI AVENUE 4,INTREPID WAREHOUSE COMPLEX,34860.2226234907,35350.7314627338
229 UBI AVENUE 4 INTREPID WAREHOUSE COMPLEX SINGAPORE 408816,229,INTREPID WAREHOUSE COMPLEX,1.33587611631029,103.894839675588,103.894839675588,408816,UBI AVENUE 4,INTREPID WAREHOUSE COMPLEX,34846.6495515527,35339.9958326612
231 UBI AVENUE 4 INTREPID WAREHOUSE COMPLEX SINGAPORE 408817,231,INTREPID WAREHOUSE COMPLEX,1.33582070941517,103.894756686694,103.894756686694,408817,UBI AVENUE 4,INTREPID WAREHOUSE COMPLEX,34837.4139119489,35333.8689873964
233 UBI AVENUE 4 INTREPID WAREHOUSE COMPLEX SINGAPORE 408818,233,INTREPID WAREHOUSE COMPLEX,1.33575691684016,103.894690471936,103.894690471936,408818,UBI AVENUE 4,INTREPID WAREHOUSE COMPLEX,34830.045080509,35326.8149429876
235 UBI AVENUE 4 INTREPID WAREHOUSE COMPLEX SINGAPORE 408819,235,INTREPID WAREHOUSE COMPLEX,1.33570809391203,103.89461232573,103.89461232573,408819,UBI AVENUE 4,INTREPID WAREHOUSE COMPLEX,34821.3483623555,35321.416133536
237 UBI AVENUE 4 INTREPID WAREHOUSE COMPLEX SINGAPORE 408820,237,INTREPID WAREHOUSE COMPLEX,1.33564583695665,103.894546782796,103.894546782796,408820,UBI AVENUE 4,INTREPID WAREHOUSE COMPLEX,34814.0542928353,35314.5318925139
239 UBI AVENUE 4 INTREPID WAREHOUSE COMPLEX SINGAPORE 408821,239,INTREPID WAREHOUSE COMPLEX,1.33559647012755,103.894468198975,103.894468198975,408821,UBI AVENUE 4,INTREPID WAREHOUSE COMPLEX,34805.308873496,35309.0729405787
241 UBI AVENUE 4 INTREPID WAREHOUSE COMPLEX SINGAPORE 408822,241,INTREPID WAREHOUSE COMPLEX,1.33553561831215,103.894399697808,103.894399697808,408822,UBI AVENUE 4,INTREPID WAREHOUSE COMPLEX,34797.6855791165,35302.3440651186
243 UBI AVENUE 4 INTREPID WAREHOUSE COMPLEX SINGAPORE 408823,243,INTREPID WAREHOUSE COMPLEX,1.33548351821422,103.894322803707,103.894322803707,408823,UBI AVENUE 4,INTREPID WAREHOUSE COMPLEX,34789.1282147607,35296.5828873664
150 UBI AVENUE 4 UBI BIZ-HUB SINGAPORE 408825,150,UBI BIZ-HUB,1.33439631681076,103.8962043056,103.8962043056,408825,UBI AVENUE 4,UBI BIZ-HUB,34998.5227314765,35176.3709264509
152 UBI AVENUE 4 SINGAPORE 408826,152,NIL,1.3348628856513,103.897118293484,103.897118293484,408826,UBI AVENUE 4,152 UBI AVENUE 4 SINGAPORE 408826,35100.2387145096,35227.9643694349
91 UBI AVENUE 4 CIVIL DEFENCE CENTRAL SUPPLY BASE SINGAPORE 408827,91,CIVIL DEFENCE CENTRAL SUPPLY BASE,1.33461972550039,103.893515877841,103.893515877841,408827,UBI AVENUE 4,CIVIL DEFENCE CENTRAL SUPPLY BASE,34699.3281618245,35201.0668467768
81 UBI AVENUE 4 UB. ONE SINGAPORE 408830,81,UB. ONE,1.33354944429913,103.891768164754,103.891768164754,408830,UBI AVENUE 4,UB. ONE,34504.8287620395,35082.7158825733
80 UBI AVENUE 4 SINGAPORE 408831,80,NIL,1.33263557914548,103.89173676683,103.89173676683,408831,UBI AVENUE 4,80 UBI AVENUE 4 SINGAPORE 408831,34501.3368960982,34981.6652200893
82 UBI AVENUE 4 EDWARD BOUSTEAD CENTRE SINGAPORE 408832,82,EDWARD BOUSTEAD CENTRE,1.33285474110675,103.892307349715,103.892307349715,408832,UBI AVENUE 4,EDWARD BOUSTEAD CENTRE,34564.8362807464,35005.9005525075
3 UBI AVENUE 3 CROCODILE HOUSE SINGAPORE 408857,3,CROCODILE HOUSE,1.33104950668648,103.890453642155,103.890453642155,408857,UBI AVENUE 3,CROCODILE HOUSE,34358.5424768189,34806.2820194401
51 UBI AVENUE 3 SINGAPORE 408858,51,NIL,1.33322826236952,103.895877606638,103.895877606638,408858,UBI AVENUE 3,51 UBI AVENUE 3 SINGAPORE 408858,34962.1678259652,35047.2124457117
100 UBI AVENUE 3 SINGAPORE 408859,100,NIL,1.33364065425773,103.898547198711,103.898547198711,408859,UBI AVENUE 3,100 UBI AVENUE 3 SINGAPORE 408859,35259.2645216659,35092.8203646485
3004 UBI AVENUE 3 KAMPONG UBI INDUSTRIAL ESTATE SINGAPORE 408860,3004,KAMPONG UBI INDUSTRIAL ESTATE,1.33135094259798,103.893607317425,103.893607317425,408860,UBI AVENUE 3,KAMPONG UBI INDUSTRIAL ESTATE,34709.5132778091,34839.621628413
3005 UBI AVENUE 3 KAMPONG UBI INDUSTRIAL ESTATE SINGAPORE 408861,3005,KAMPONG UBI INDUSTRIAL ESTATE,1.33091474193555,103.892521993597,103.892521993597,408861,UBI AVENUE 3,KAMPONG UBI INDUSTRIAL ESTATE,34588.7290703934,34791.3858431298
53 UBI AVENUE 3 TRAVELITE BUILDING SINGAPORE 408863,53,TRAVELITE BUILDING,1.33347055213777,103.896616876489,103.896616876489,408863,UBI AVENUE 3,TRAVELITE BUILDING,35044.4402010832,35074.0057254341
55 UBI AVENUE 3 ASPIAL ONE SINGAPORE 408864,55,ASPIAL ONE,1.33362945091157,103.897104622173,103.897104622173,408864,UBI AVENUE 3,ASPIAL ONE,35098.7207751265,35091.577349361
10 UBI AVENUE 3 TRAFFIC POLICE DEPARTMENT SINGAPORE 408865,10,TRAFFIC POLICE DEPARTMENT,1.33018332847863,103.891354663977,103.891354663977,408865,UBI AVENUE 3,TRAFFIC POLICE DEPARTMENT,34458.8191869585,34710.5067638382
50 UBI AVENUE 3 FRONTIER SINGAPORE 408866,50,FRONTIER,1.33199451104203,103.895394355238,103.895394355238,408866,UBI AVENUE 3,FRONTIER,34908.3903966146,34910.7891040575
52 UBI AVENUE 3 FRONTIER SINGAPORE 408867,52,FRONTIER,1.33100626196991,103.895789082425,103.895789082425,408867,UBI AVENUE 3,FRONTIER,34952.3222259535,34801.5146303978
33 UBI AVENUE 3 CHILD'S ATELIER PTE. LTD. SINGAPORE 408868,33,CHILD'S ATELIER PTE. LTD.,1.33292970284989,103.894107723466,103.894107723466,408868,UBI AVENUE 3,CHILD'S ATELIER PTE. LTD.,34765.1990127293,35014.1943129934
3020 UBI AVENUE 2 KAMPONG UBI INDUSTRIAL ESTATE SINGAPORE 408896,3020,KAMPONG UBI INDUSTRIAL ESTATE,1.32802291966224,103.893568010662,103.893568010662,408896,UBI AVENUE 2,KAMPONG UBI INDUSTRIAL ESTATE,34705.1478173221,34471.6256011371
3021 UBI AVENUE 2 KAMPONG UBI INDUSTRIAL ESTATE SINGAPORE 408897,3021,KAMPONG UBI INDUSTRIAL ESTATE,1.32849922613687,103.894807215014,103.894807215014,408897,UBI AVENUE 2,KAMPONG UBI INDUSTRIAL ESTATE,34843.0573775126,34524.2965540756
61 UBI AVENUE 2 AUTOMOBILE MEGAMART SINGAPORE 408898,61,AUTOMOBILE MEGAMART,1.33223326453117,103.901056512933,103.901056512933,408898,UBI AVENUE 2,AUTOMOBILE MEGAMART,35538.5294098509,34937.205850061
51 UBI AVENUE 2 SINGAPORE 408899,51,NIL,1.32997190615785,103.899856392251,103.899856392251,408899,UBI AVENUE 2,51 UBI AVENUE 2 SINGAPORE 408899,35404.9751098361,34687.1526232306
3A UBI AVENUE 2 TEMPORARY SITE OFFICE SINGAPORE 408901,3A,TEMPORARY SITE OFFICE,1.32739746371225,103.891573253242,103.891573253242,408901,UBI AVENUE 2,TEMPORARY SITE OFFICE,34483.1531930044,34402.4605342243
40B UBI AVENUE 2 TEMPORARY SITE OFFICE SINGAPORE 408902,40B,TEMPORARY SITE OFFICE,1.329293078824,103.898529521989,103.898529521989,408902,UBI AVENUE 2,TEMPORARY SITE OFFICE,35257.3099968852,34612.0873879846
10 UBI AVENUE 1 AFTER SCHOOL @ MAHA BODHI SCHOOL SINGAPORE 408931,10,AFTER SCHOOL @ MAHA BODHI SCHOOL,1.32858023873554,103.901306904157,103.901306904157,408931,UBI AVENUE 1,AFTER SCHOOL @ MAHA BODHI SCHOOL,35566.4064952666,34533.273462953
12 UBI AVENUE 1 MAHA BODHI SCHOOL SINGAPORE 408932,12,MAHA BODHI SCHOOL,1.32847086631012,103.901298737042,103.901298737042,408932,UBI AVENUE 1,MAHA BODHI SCHOOL,35565.4979109308,34521.1795873791
51 UBI AVENUE 1 PAYA UBI INDUSTRIAL PARK SINGAPORE 408933,51,PAYA UBI INDUSTRIAL PARK,1.32527771839076,103.898203147833,103.898203147833,408933,UBI AVENUE 1,PAYA UBI INDUSTRIAL PARK,35220.999524774,34168.0881811827
53 UBI AVENUE 1 PAYA UBI INDUSTRIAL PARK SINGAPORE 408934,53,PAYA UBI INDUSTRIAL PARK,1.32540813900275,103.896601335955,103.896601335955,408934,UBI AVENUE 1,PAYA UBI INDUSTRIAL PARK,35042.7335408209,34182.5048218258
55 UBI AVENUE 1 UBI 55 SINGAPORE 408935,55,UBI 55,1.32489577968811,103.895559712097,103.895559712097,408935,UBI AVENUE 1,UBI 55,34926.8126719566,34125.8477873094
57 UBI AVENUE 1 UBI CENTRE SINGAPORE 408936,57,UBI CENTRE,1.32485259896453,103.895154714562,103.895154714562,408936,UBI AVENUE 1,UBI CENTRE,34881.7406174038,34121.0719534978
63 UBI AVENUE 1 63@UBI SINGAPORE 408937,63,63@UBI,1.32448357822179,103.894018830706,103.894018830706,408937,UBI AVENUE 1,63@UBI,34755.3291075267,34080.2643854395
59 UBI AVENUE 1 BIZLINK CENTRE SINGAPORE 408938,59,BIZLINK CENTRE,1.32474306993726,103.894763268683,103.894763268683,408938,UBI AVENUE 1,BIZLINK CENTRE,34838.1769072823,34108.9597052578
65 UBI AVENUE 1 OSIM HEADQUARTERS SINGAPORE 408939,65,OSIM HEADQUARTERS,1.32446885078314,103.893564387173,103.893564387173,408939,UBI AVENUE 1,OSIM HEADQUARTERS,34704.7541216575,34078.6346663907
20 UBI AVENUE 1 MANJUSRI SECONDARY SCHOOL SINGAPORE 408940,20,MANJUSRI SECONDARY SCHOOL,1.32752022209274,103.901811007466,103.901811007466,408940,UBI AVENUE 1,MANJUSRI SECONDARY SCHOOL,35622.5113206888,34416.0637228079
61 UBI AVENUE 1 UB POINT SINGAPORE 408941,61,UB POINT,1.32470827440189,103.89445498941,103.89445498941,408941,UBI AVENUE 1,UB POINT,34803.868601759,34105.1113430038
67 UBI AVENUE 1 DBS STARHUB GREEN BUILDING SINGAPORE 408942,67,DBS STARHUB GREEN BUILDING,1.32434980747762,103.89272727136,103.89272727136,408942,UBI AVENUE 1,DBS STARHUB GREEN BUILDING,34611.591810286,34065.4692133907
900 SIMS AVENUE PARC ESTA SINGAPORE 408966,900,PARC ESTA,1.31844621299537,103.90343113612,103.90343113612,408966,SIMS AVENUE,PARC ESTA,35802.8436090862,33412.7106635105
902 SIMS AVENUE PARC ESTA SINGAPORE 408967,902,PARC ESTA,1.31853952189727,103.903836464001,103.903836464001,408967,SIMS AVENUE,PARC ESTA,35847.9523787042,33423.0295639839
904 SIMS AVENUE PARC ESTA SINGAPORE 408968,904,PARC ESTA,1.31786521916555,103.903967184717,103.903967184717,408968,SIMS AVENUE,PARC ESTA,35862.5024406211,33348.4689868297
906 SIMS AVENUE PARC ESTA SINGAPORE 408969,906,PARC ESTA,1.31777354149314,103.9035893581,103.9035893581,408969,SIMS AVENUE,PARC ESTA,35820.4542787131,33338.330544075
908 SIMS AVENUE PARC ESTA SINGAPORE 408970,908,PARC ESTA,1.31774384845355,103.903140032032,103.903140032032,408970,SIMS AVENUE,PARC ESTA,35770.4487244217,33335.0458322149
910 SIMS AVENUE PARC ESTA SINGAPORE 408971,910,PARC ESTA,1.31760622722999,103.902707804387,103.902707804387,408971,SIMS AVENUE,PARC ESTA,35722.3463906776,33319.8270294648
912 SIMS AVENUE PARC ESTA SINGAPORE 408972,912,PARC ESTA,1.31755502395191,103.902313240915,103.902313240915,408972,SIMS AVENUE,PARC ESTA,35678.4354462484,33314.1640107837
914 SIMS AVENUE PARC ESTA SINGAPORE 408973,914,PARC ESTA,1.31818978220312,103.902208057504,103.902208057504,408973,SIMS AVENUE,PARC ESTA,35666.7276085382,33384.3520447426
916 SIMS AVENUE PARC ESTA SINGAPORE 408974,916,PARC ESTA,1.31827649910385,103.902619611137,103.902619611137,408974,SIMS AVENUE,PARC ESTA,35712.5292728394,33393.9420316312
25 PAYA LEBAR ROAD MASJID WAK TANJONG SINGAPORE 409004,25,MASJID WAK TANJONG,1.31747407529415,103.891903879244,103.891903879244,409004,PAYA LEBAR ROAD,MASJID WAK TANJONG,34519.9744070722,33305.1834697463
29 PAYA LEBAR ROAD PAYA LEBAR OFFICE CENTRE SINGAPORE 409005,29,PAYA LEBAR OFFICE CENTRE,1.31704530642297,103.891954136943,103.891954136943,409005,PAYA LEBAR ROAD,PAYA LEBAR OFFICE CENTRE,34525.5687174303,33257.7725172881
30 PAYA LEBAR ROAD CITIBANK PAYA LEBAR SMRT STATION SINGAPORE 409006,30,CITIBANK PAYA LEBAR SMRT STATION,1.31810656950105,103.893126032803,103.893126032803,409006,PAYA LEBAR ROAD,CITIBANK PAYA LEBAR SMRT STATION,34655.9865884362,33375.1246985663
98 PAYA LEBAR ROAD CITIBANK SHELL PAYA LEBAR SINGAPORE 409008,98,CITIBANK SHELL PAYA LEBAR,1.32175498975117,103.891649076141,103.891649076141,409008,PAYA LEBAR ROAD,CITIBANK SHELL PAYA LEBAR,34491.6061933525,33778.5445881728
110 PAYA LEBAR ROAD ONETEN PAYA LEBAR SINGAPORE 409009,110,ONETEN PAYA LEBAR,1.32391435345423,103.891715232257,103.891715232257,409009,PAYA LEBAR ROAD,ONETEN PAYA LEBAR,34498.9630992068,34017.3162413109
128 PAYA LEBAR ROAD CALTEX PAYA LEBAR SINGAPORE 409013,128,CALTEX PAYA LEBAR,1.32542623767478,103.890821250268,103.890821250268,409013,PAYA LEBAR ROAD,CALTEX PAYA LEBAR,34399.4679386746,34184.4904015586
132 PAYA LEBAR ROAD PUBLIC TRANSPORT SECURITY COMMAND SINGAPORE 409014,132,PUBLIC TRANSPORT SECURITY COMMAND,1.32620218712958,103.891023446951,103.891023446951,409014,PAYA LEBAR ROAD,PUBLIC TRANSPORT SECURITY COMMAND,34421.9684010707,34270.2914787531
140 PAYA LEBAR ROAD AZ @ PAYA LEBAR SINGAPORE 409015,140,AZ @ PAYA LEBAR,1.32721240986209,103.890937938253,103.890937938253,409015,PAYA LEBAR ROAD,AZ @ PAYA LEBAR,34412.4495439436,34381.9965623096
146B PAYA LEBAR ROAD ACE BUILDING SINGAPORE 409017,146B,ACE BUILDING,1.32786878917841,103.890804731168,103.890804731168,409017,PAYA LEBAR ROAD,ACE BUILDING,34397.6232564067,34454.5753129609
148 PAYA LEBAR ROAD DA SHENG KONG CHINESE TEMPLE SINGAPORE 409018,148,DA SHENG KONG CHINESE TEMPLE,1.32852973710887,103.891021193732,103.891021193732,409018,PAYA LEBAR ROAD,DA SHENG KONG CHINESE TEMPLE,34421.7116377642,34527.6601443011
152 PAYA LEBAR ROAD CITIPOINT@PAYALEBAR SINGAPORE 409020,152,CITIPOINT@PAYALEBAR,1.32876067049767,103.89058469454,103.89058469454,409020,PAYA LEBAR ROAD,CITIPOINT@PAYALEBAR,34373.1331281019,34553.1944575086
160 PAYA LEBAR ROAD ORION @ PAYA LEBAR SINGAPORE 409022,160,ORION @ PAYA LEBAR,1.32933122061018,103.890345297504,103.890345297504,409022,PAYA LEBAR ROAD,ORION @ PAYA LEBAR,34346.489220879,34616.2823791876
178 PAYA LEBAR ROAD PAYA LEBAR 178 SINGAPORE 409030,178,PAYA LEBAR 178,1.32982631342462,103.890239980461,103.890239980461,409030,PAYA LEBAR ROAD,PAYA LEBAR 178,34334.7672480205,34671.0269614216
180 PAYA LEBAR ROAD YI GUANG FACTORY BUILDING SINGAPORE 409032,180,YI GUANG FACTORY BUILDING,1.33086017446605,103.889994199157,103.889994199157,409032,PAYA LEBAR ROAD,YI GUANG FACTORY BUILDING,34307.4116799645,34785.3454432283
251 PAYA LEBAR ROAD TRINITY @ PAYA LEBAR SINGAPORE 409036,251,TRINITY @ PAYA LEBAR,1.33163789643064,103.887931588919,103.887931588919,409036,PAYA LEBAR ROAD,TRINITY @ PAYA LEBAR,34077.8624695912,34871.3368152361
255 PAYA LEBAR ROAD CITIBANK SHELL MACPHERSON SINGAPORE 409037,255,CITIBANK SHELL MACPHERSON,1.33176546372766,103.888898739456,103.888898739456,409037,PAYA LEBAR ROAD,CITIBANK SHELL MACPHERSON,34185.4960250491,34885.4449645914
146C PAYA LEBAR ROAD SINGAPORE 409040,146C,NIL,1.32810598143857,103.890954084295,103.890954084295,409040,PAYA LEBAR ROAD,146C PAYA LEBAR ROAD SINGAPORE 409040,34414.2441326976,34480.8032170162
146D PAYA LEBAR ROAD SZE HOCK KENG TUA PEH KONG ASSOCIATION SINGAPORE 409041,146D,SZE HOCK KENG TUA PEH KONG ASSOCIATION,1.32801465811819,103.89107233282,103.89107233282,409041,PAYA LEBAR ROAD,SZE HOCK KENG TUA PEH KONG ASSOCIATION,34427.4042282663,34470.7054544333
27 PAYA LEBAR ROAD PAYA LEBAR RESIDENCES SINGAPORE 409042,27,PAYA LEBAR RESIDENCES,1.31752143815241,103.891475654733,103.891475654733,409042,PAYA LEBAR ROAD,PAYA LEBAR RESIDENCES,34472.3170429571,33310.4194979817
233 PAYA LEBAR ROAD LE CRESCENDO SINGAPORE 409044,233,LE CRESCENDO,1.33049714674003,103.888409268781,103.888409268781,409044,PAYA LEBAR ROAD,LE CRESCENDO,34131.026124767,34745.1996846311
247 PAYA LEBAR ROAD TRINITY @ PAYA LEBAR SINGAPORE 409045,247,TRINITY @ PAYA LEBAR,1.33127661404131,103.888881070008,103.888881070008,409045,PAYA LEBAR ROAD,TRINITY @ PAYA LEBAR,34183.5308156703,34831.3904015813
249 PAYA LEBAR ROAD RAFFLES HOUSE @ PAYA LEBAR PRIVATE LIMITED SINGAPORE 409046,249,RAFFLES HOUSE @ PAYA LEBAR PRIVATE LIMITED,1.33115703300646,103.888300290099,103.888300290099,409046,PAYA LEBAR ROAD,RAFFLES HOUSE @ PAYA LEBAR PRIVATE LIMITED,34118.8962908285,34818.1662892271
253 PAYA LEBAR ROAD TRINITY @ PAYA LEBAR SINGAPORE 409047,253,TRINITY @ PAYA LEBAR,1.33173719403248,103.8883626208,103.8883626208,409047,PAYA LEBAR ROAD,TRINITY @ PAYA LEBAR,34125.8316242062,34882.3177067805
171 PAYA LEBAR ROAD DBS MACPHERSON MRT STATION SINGAPORE 409048,171,DBS MACPHERSON MRT STATION,1.32583875798262,103.890312834364,103.890312834364,409048,PAYA LEBAR ROAD,DBS MACPHERSON MRT STATION,34342.8853028612,34230.1034963205
15 PAYA LEBAR ROAD DBS PAYA LEBAR MRT STATION CIRCLE LINE SINGAPORE 409049,15,DBS PAYA LEBAR MRT STATION CIRCLE LINE,1.31719911972353,103.8923648823,103.8923648823,409049,PAYA LEBAR ROAD,DBS PAYA LEBAR MRT STATION CIRCLE LINE,34571.2803042121,33274.7814896666
11 PAYA LEBAR ROAD LOTUS AT PAYA LEBAR (EAST WING) SINGAPORE 409050,11,LOTUS AT PAYA LEBAR (EAST WING),1.31573579353366,103.891560467041,103.891560467041,409050,PAYA LEBAR ROAD,LOTUS AT PAYA LEBAR (EAST WING),34481.7604420017,33112.9722084589
60 PAYA LEBAR ROAD DBS PAYA LEBAR SQUARE SINGAPORE 409051,60,DBS PAYA LEBAR SQUARE,1.31881486980278,103.892580778242,103.892580778242,409051,PAYA LEBAR ROAD,DBS PAYA LEBAR SQUARE,34595.3031856529,33453.443499919
150C PAYA LEBAR ROAD SINGAPORE 409052,150C,NIL,1.32831951885297,103.890539702542,103.890539702542,409052,PAYA LEBAR ROAD,150C PAYA LEBAR ROAD SINGAPORE 409052,34368.1271062745,34504.4140301272
2 PAYA LEBAR ROAD PARK PLACE RESIDENCES AT PLQ SINGAPORE 409053,2,PARK PLACE RESIDENCES AT PLQ,1.31583675363618,103.892746648427,103.892746648427,409053,PAYA LEBAR ROAD,PARK PLACE RESIDENCES AT PLQ,34613.7707721666,33124.1389756929
4 PAYA LEBAR ROAD PARK PLACE RESIDENCES AT PLQ SINGAPORE 409054,4,PARK PLACE RESIDENCES AT PLQ,1.31622507527551,103.892990185556,103.892990185556,409054,PAYA LEBAR ROAD,PARK PLACE RESIDENCES AT PLQ,34640.8730880022,33167.0782573093
6 PAYA LEBAR ROAD PARK PLACE RESIDENCES AT PLQ SINGAPORE 409055,6,PARK PLACE RESIDENCES AT PLQ,1.31640941958051,103.892692097652,103.892692097652,409055,PAYA LEBAR ROAD,PARK PLACE RESIDENCES AT PLQ,34607.6982882004,33187.4613229036
8 PAYA LEBAR ROAD PARK PLACE RESIDENCES AT PLQ SINGAPORE 409056,8,PARK PLACE RESIDENCES AT PLQ,1.31675634115484,103.893079032761,103.893079032761,409056,PAYA LEBAR ROAD,PARK PLACE RESIDENCES AT PLQ,34650.7595195239,33225.8231773432
10 PAYA LEBAR ROAD PLQ MALL SINGAPORE 409057,10,PLQ MALL,1.31748231058356,103.892832205276,103.892832205276,409057,PAYA LEBAR ROAD,PLQ MALL,34623.2880856264,33306.0965337437
11 JALAN UBI KEMBANGAN-CHAI CHEE COMMUNITY HUB SINGAPORE 409074,11,KEMBANGAN-CHAI CHEE COMMUNITY HUB,1.31762857776775,103.899529221977,103.899529221977,409074,JALAN UBI,KEMBANGAN-CHAI CHEE COMMUNITY HUB,35368.6008328162,33322.2888153847
10 JALAN UBI KAMPONG UBI COMMUNITY CENTRE SINGAPORE 409075,10,KAMPONG UBI COMMUNITY CENTRE,1.31785677323015,103.900754292916,103.900754292916,409075,JALAN UBI,KAMPONG UBI COMMUNITY CENTRE,35504.9386976846,33347.5251705609
20 JALAN AFIFI CERTIS CISCO CENTRE SINGAPORE 409179,20,CERTIS CISCO CENTRE,1.32120961338986,103.892106068827,103.892106068827,409179,JALAN AFIFI,CERTIS CISCO CENTRE,34542.4663944328,33718.2408367097
33 JALAN AFIFI AQUEEN HOTEL - PAYA LEBAR SINGAPORE 409180,33,AQUEEN HOTEL - PAYA LEBAR,1.32208820077767,103.891617681016,103.891617681016,409180,JALAN AFIFI,AQUEEN HOTEL - PAYA LEBAR,34488.1113611488,33815.3892901968
810 GEYLANG ROAD CITY PLAZA SINGAPORE 409286,810,CITY PLAZA,1.31480522272254,103.893418325845,103.893418325845,409286,GEYLANG ROAD,CITY PLAZA,34688.5247617364,33010.0793154147
103 EUNOS ROAD 5 GEYLANG UNITED TEMPLE SINGAPORE 409352,103,GEYLANG UNITED TEMPLE,1.31959127237925,103.896086245367,103.896086245367,409352,EUNOS ROAD 5,GEYLANG UNITED TEMPLE,34985.4253814379,33539.3037207536
26 EUNOS ROAD 2 EUNOS INDUSTRIAL ESTATE SINGAPORE 409386,26,EUNOS INDUSTRIAL ESTATE,1.32288059248784,103.899068733638,103.899068733638,409386,EUNOS ROAD 2,EUNOS INDUSTRIAL ESTATE,35317.3375832653,33903.0286631156
27 EUNOS ROAD 2 EUNOS INDUSTRIAL ESTATE SINGAPORE 409387,27,EUNOS INDUSTRIAL ESTATE,1.32074892318125,103.899480966587,103.899480966587,409387,EUNOS ROAD 2,EUNOS INDUSTRIAL ESTATE,35363.2213040702,33667.3206747547
409 EUNOS ROAD 2 EUNOS BUS INTERCHANGE SINGAPORE 409388,409,EUNOS BUS INTERCHANGE,1.31935367531871,103.901988972266,103.901988972266,409388,EUNOS ROAD 2,EUNOS BUS INTERCHANGE,35642.3419955801,33513.048787389
30 EUNOS CRESCENT SINGAPORE 409423,30,NIL,1.31965992885645,103.903645566693,103.903645566693,409423,EUNOS CRESCENT,30 EUNOS CRESCENT SINGAPORE 409423,35826.7038606508,33546.9179044701
1 EUNOS AVENUE 8A SINGAPORE 409457,1,NIL,1.32387681059009,103.898893049795,103.898893049795,409457,EUNOS AVENUE 8A,1 EUNOS AVENUE 8A SINGAPORE 409457,35297.7828010451,34013.1849036757
3 EUNOS AVENUE 8A SINGAPORE 409458,3,NIL,1.32381561769782,103.898457010461,103.898457010461,409458,EUNOS AVENUE 8A,3 EUNOS AVENUE 8A SINGAPORE 409458,35249.2561404379,34006.4172246605
5 EUNOS AVENUE 8A HENRY BUILDING SINGAPORE 409459,5,HENRY BUILDING,1.32372443725789,103.898022690602,103.898022690602,409459,EUNOS AVENUE 8A,HENRY BUILDING,35200.9209248275,33996.33368803
7 EUNOS AVENUE 8A SINGAPORE 409460,7,NIL,1.32370066195025,103.897582265061,103.897582265061,409460,EUNOS AVENUE 8A,7 EUNOS AVENUE 8A SINGAPORE 409460,35151.9060113756,33993.7034607809
9 EUNOS AVENUE 8A COPYTRON SINGAPORE 409461,9,COPYTRON,1.3235525087545,103.8971921632,103.8971921632,409461,EUNOS AVENUE 8A,COPYTRON,35108.4919764344,33977.3203092348
1001 EUNOS AVENUE 8 EUNOS INDUSTRIAL ESTATE SINGAPORE 409496,1001,EUNOS INDUSTRIAL ESTATE,1.32447526046993,103.90128665492,103.90128665492,409496,EUNOS AVENUE 8,EUNOS INDUSTRIAL ESTATE,35564.1654234836,34079.3656381983
1002 EUNOS AVENUE 8 EUNOS INDUSTRIAL ESTATE SINGAPORE 409497,1002,EUNOS INDUSTRIAL ESTATE,1.32413280254447,103.899809004996,103.899809004996,409497,EUNOS AVENUE 8,EUNOS INDUSTRIAL ESTATE,35399.7187415157,34041.4939132202
1003 EUNOS AVENUE 8 EUNOS INDUSTRIAL ESTATE SINGAPORE 409498,1003,EUNOS INDUSTRIAL ESTATE,1.32377802677968,103.899891984556,103.899891984556,409498,EUNOS AVENUE 8,EUNOS INDUSTRIAL ESTATE,35408.9545929953,34002.2648507785
1004 EUNOS AVENUE 8 EUNOS INDUSTRIAL ESTATE SINGAPORE 409499,1004,EUNOS INDUSTRIAL ESTATE,1.32398265665554,103.900932645772,103.900932645772,409499,EUNOS AVENUE 8,EUNOS INDUSTRIAL ESTATE,35524.7692212369,34024.8949206807
1083 EUNOS AVENUE 7A EUNOS INDUSTRIAL ESTATE SINGAPORE 409533,1083,EUNOS INDUSTRIAL ESTATE,1.32275899221015,103.89422731025,103.89422731025,409533,EUNOS AVENUE 7A,EUNOS INDUSTRIAL ESTATE,34778.535479839,33889.5689750444
1084 EUNOS AVENUE 7A EUNOS INDUSTRIAL ESTATE SINGAPORE 409534,1084,EUNOS INDUSTRIAL ESTATE,1.32293691978098,103.895111997147,103.895111997147,409534,EUNOS AVENUE 7A,EUNOS INDUSTRIAL ESTATE,34876.9918734375,33909.2457372379
1085 EUNOS AVENUE 7A EUNOS INDUSTRIAL ESTATE SINGAPORE 409535,1085,EUNOS INDUSTRIAL ESTATE,1.32323264582688,103.89473126316,103.89473126316,409535,EUNOS AVENUE 7A,EUNOS INDUSTRIAL ESTATE,34834.6191479405,33941.9445729963
70 EUNOS AVENUE 7 SINGAPORE 409569,70,NIL,1.32345505484039,103.898978520088,103.898978520088,409569,EUNOS AVENUE 7,70 EUNOS AVENUE 7 SINGAPORE 409569,35307.2960283272,33966.5495380312
72 EUNOS AVENUE 7 SINGAPORE HANDICRAFTS BUILDING SINGAPORE 409570,72,SINGAPORE HANDICRAFTS BUILDING,1.32340147894841,103.898528309286,103.898528309286,409570,EUNOS AVENUE 7,SINGAPORE HANDICRAFTS BUILDING,35257.1921938928,33960.6240656637
90 EUNOS AVENUE 7 SINGAPORE 409571,90,NIL,1.32332438026693,103.898100029585,103.898100029585,409571,EUNOS AVENUE 7,90 EUNOS AVENUE 7 SINGAPORE 409571,35209.5291393967,33952.0976351872
100 EUNOS AVENUE 7 SAN TEH INDUSTRIAL BUILDING SINGAPORE 409572,100,SAN TEH INDUSTRIAL BUILDING,1.32322902019911,103.897705131229,103.897705131229,409572,EUNOS AVENUE 7,SAN TEH INDUSTRIAL BUILDING,35165.5811469546,33941.5520577841
110 EUNOS AVENUE 7 COMFORT DESIGN BUILDING SINGAPORE 409573,110,COMFORT DESIGN BUILDING,1.32318789788274,103.897220710307,103.897220710307,409573,EUNOS AVENUE 7,COMFORT DESIGN BUILDING,35111.67002392,33937.0035667978
120 EUNOS AVENUE 7 RICHFIELD INDUSTRIAL CENTRE SINGAPORE 409574,120,RICHFIELD INDUSTRIAL CENTRE,1.32284137807129,103.89621407136,103.89621407136,409574,EUNOS AVENUE 7,RICHFIELD INDUSTRIAL CENTRE,34999.6420717817,33898.6842994131
122 EUNOS AVENUE 7 RICHFIELD INDUSTRIAL CENTRE SINGAPORE 409575,122,RICHFIELD INDUSTRIAL CENTRE,1.32332229295421,103.896254364966,103.896254364966,409575,EUNOS AVENUE 7,RICHFIELD INDUSTRIAL CENTRE,35004.1250023143,33951.8615449127
1005 EUNOS AVENUE 7 EUNOS INDUSTRIAL ESTATE SINGAPORE 409576,1005,EUNOS INDUSTRIAL ESTATE,1.32376143435684,103.900981722083,103.900981722083,409576,EUNOS AVENUE 7,EUNOS INDUSTRIAL ESTATE,35530.2315934543,34000.4334258884
1006 EUNOS AVENUE 7 EUNOS INDUSTRIAL ESTATE SINGAPORE 409577,1006,EUNOS INDUSTRIAL ESTATE,1.3235541618429,103.899932334606,103.899932334606,409577,EUNOS AVENUE 7,EUNOS INDUSTRIAL ESTATE,35413.4458169555,33977.5111186039
1007 EUNOS AVENUE 7 EUNOS INDUSTRIAL ESTATE SINGAPORE 409578,1007,EUNOS INDUSTRIAL ESTATE,1.32314851593519,103.900012272109,103.900012272109,409578,EUNOS AVENUE 7,EUNOS INDUSTRIAL ESTATE,35422.3432723768,33932.6570843365
1029 EUNOS AVENUE 7 EUNOS INDUSTRIAL ESTATE SINGAPORE 409580,1029,EUNOS INDUSTRIAL ESTATE,1.32290407819893,103.898522725191,103.898522725191,409580,EUNOS AVENUE 7,EUNOS INDUSTRIAL ESTATE,35256.5721845143,33905.6239913795
1050 EUNOS AVENUE 7 EUNOS INDUSTRIAL ESTATE SINGAPORE 409581,1050,EUNOS INDUSTRIAL ESTATE,1.32244942318825,103.89647930794,103.89647930794,409581,EUNOS AVENUE 7,EUNOS INDUSTRIAL ESTATE,35029.1613769224,33855.3446631748
1079 EUNOS AVENUE 7 EUNOS INDUSTRIAL ESTATE SINGAPORE 409582,1079,EUNOS INDUSTRIAL ESTATE,1.3221064817995,103.894355435296,103.894355435296,409582,EUNOS AVENUE 7,EUNOS INDUSTRIAL ESTATE,34792.796300903,33817.4180320743
1080 EUNOS AVENUE 7 EUNOS INDUSTRIAL ESTATE SINGAPORE 409583,1080,EUNOS INDUSTRIAL ESTATE,1.32228148674339,103.895238028512,103.895238028512,409583,EUNOS AVENUE 7,EUNOS INDUSTRIAL ESTATE,34891.0197218312,33836.7716230061
1081 EUNOS AVENUE 7 EUNOS INDUSTRIAL ESTATE SINGAPORE 409584,1081,EUNOS INDUSTRIAL ESTATE,1.32274531691761,103.895146554289,103.895146554289,409584,EUNOS AVENUE 7,EUNOS INDUSTRIAL ESTATE,34880.8382682726,33888.0593593568
1082 EUNOS AVENUE 7 EUNOS INDUSTRIAL ESTATE SINGAPORE 409585,1082,EUNOS INDUSTRIAL ESTATE,1.32256916034526,103.894264363677,103.894264363677,409585,EUNOS AVENUE 7,EUNOS INDUSTRIAL ESTATE,34782.6596742282,33868.5784310158
29 EUNOS AVENUE 6 EUNOS INDUSTRIAL ESTATE SINGAPORE 409619,29,EUNOS INDUSTRIAL ESTATE,1.32120207718872,103.895723150168,103.895723150168,409619,EUNOS AVENUE 6,EUNOS INDUSTRIAL ESTATE,34945.011963062,33717.4173356779
1010 EUNOS AVENUE 6 EUNOS INDUSTRIAL ESTATE SINGAPORE 409622,1010,EUNOS INDUSTRIAL ESTATE,1.3228778049312,103.900062333344,103.900062333344,409622,EUNOS AVENUE 6,EUNOS INDUSTRIAL ESTATE,35427.9153963039,33902.7233802322
1011 EUNOS AVENUE 6 EUNOS INDUSTRIAL ESTATE SINGAPORE 409623,1011,EUNOS INDUSTRIAL ESTATE,1.32241499993928,103.900257857284,103.900257857284,409623,EUNOS AVENUE 6,EUNOS INDUSTRIAL ESTATE,35449.6766540008,33851.5493304282
1030 EUNOS AVENUE 6 EUNOS INDUSTRIAL ESTATE SINGAPORE 409625,1030,EUNOS INDUSTRIAL ESTATE,1.32271641617517,103.898559393503,103.898559393503,409625,EUNOS AVENUE 6,EUNOS INDUSTRIAL ESTATE,35260.6535497066,33884.8733816575
1031 EUNOS AVENUE 6 EUNOS INDUSTRIAL ESTATE SINGAPORE 409626,1031,EUNOS INDUSTRIAL ESTATE,1.32241843078531,103.898834672607,103.898834672607,409626,EUNOS AVENUE 6,EUNOS INDUSTRIAL ESTATE,35291.2902580015,33851.9244718179
1048 EUNOS AVENUE 6 EUNOS INDUSTRIAL ESTATE SINGAPORE 409627,1048,EUNOS INDUSTRIAL ESTATE,1.32174126121979,103.896616245909,103.896616245909,409627,EUNOS AVENUE 6,EUNOS INDUSTRIAL ESTATE,35044.4032136071,33777.0400877744
1049 EUNOS AVENUE 6 EUNOS INDUSTRIAL ESTATE SINGAPORE 409628,1049,EUNOS INDUSTRIAL ESTATE,1.32217887058211,103.896535041839,103.896535041839,409628,EUNOS AVENUE 6,EUNOS INDUSTRIAL ESTATE,35035.364769917,33825.4284842331
1074 EUNOS AVENUE 6 EUNOS INDUSTRIAL ESTATE SINGAPORE 409630,1074,EUNOS INDUSTRIAL ESTATE,1.32095043009101,103.893423132559,103.893423132559,409630,EUNOS AVENUE 6,EUNOS INDUSTRIAL ESTATE,34689.0433128327,33689.58516795
1075 EUNOS AVENUE 6 EUNOS INDUSTRIAL ESTATE SINGAPORE 409631,1075,EUNOS INDUSTRIAL ESTATE,1.32113702740049,103.89438439042,103.89438439042,409631,EUNOS AVENUE 6,EUNOS INDUSTRIAL ESTATE,34796.0213545682,33710.2207593322
1076 EUNOS AVENUE 6 EUNOS INDUSTRIAL ESTATE SINGAPORE 409632,1076,EUNOS INDUSTRIAL ESTATE,1.32130421351902,103.895231415752,103.895231415752,409632,EUNOS AVENUE 6,EUNOS INDUSTRIAL ESTATE,34890.2864799257,33728.7096847743
1077 EUNOS AVENUE 6 EUNOS INDUSTRIAL ESTATE SINGAPORE 409633,1077,EUNOS INDUSTRIAL ESTATE,1.32185098949716,103.895320868641,103.895320868641,409633,EUNOS AVENUE 6,EUNOS INDUSTRIAL ESTATE,34900.2401971752,33789.1696493011
1078 EUNOS AVENUE 6 EUNOS INDUSTRIAL ESTATE SINGAPORE 409634,1078,EUNOS INDUSTRIAL ESTATE,1.32167524955988,103.894440011835,103.894440011835,409634,EUNOS AVENUE 6,EUNOS INDUSTRIAL ESTATE,34802.2100070547,33769.7347888332
1047 EUNOS AVENUE 5B EUNOS INDUSTRIAL ESTATE SINGAPORE 409668,1047,EUNOS INDUSTRIAL ESTATE,1.32147392368041,103.896668920703,103.896668920703,409668,EUNOS AVENUE 5B,EUNOS INDUSTRIAL ESTATE,35050.2661523204,33747.4794063009
1032 EUNOS AVENUE 5A EUNOS INDUSTRIAL ESTATE SINGAPORE 409702,1032,EUNOS INDUSTRIAL ESTATE,1.32223055882752,103.898870480633,103.898870480633,409702,EUNOS AVENUE 5A,EUNOS INDUSTRIAL ESTATE,35295.2758855615,33831.1506465543
1033 EUNOS AVENUE 5A EUNOS INDUSTRIAL ESTATE SINGAPORE 409703,1033,EUNOS INDUSTRIAL ESTATE,1.32189955921896,103.898933636744,103.898933636744,409703,EUNOS AVENUE 5A,EUNOS INDUSTRIAL ESTATE,35302.3055037074,33794.5505703744
1014 EUNOS AVENUE 5 EUNOS INDUSTRIAL ESTATE SINGAPORE 409740,1014,EUNOS INDUSTRIAL ESTATE,1.32203356850833,103.900213514548,103.900213514548,409740,EUNOS AVENUE 5,EUNOS INDUSTRIAL ESTATE,35444.7428818513,33809.3724387866
1034 EUNOS AVENUE 5 EUNOS INDUSTRIAL ESTATE SINGAPORE 409743,1034,EUNOS INDUSTRIAL ESTATE,1.32166606111371,103.898962735602,103.898962735602,409743,EUNOS AVENUE 5,EUNOS INDUSTRIAL ESTATE,35305.544601717,33768.7316170484
1035 EUNOS AVENUE 5 EUNOS INDUSTRIAL ESTATE SINGAPORE 409744,1035,EUNOS INDUSTRIAL ESTATE,1.32135290354658,103.899041110168,103.899041110168,409744,EUNOS AVENUE 5,EUNOS INDUSTRIAL ESTATE,35314.2678346243,33734.1044685841
1042 EUNOS AVENUE 5 EUNOS INDUSTRIAL ESTATE SINGAPORE 409745,1042,EUNOS INDUSTRIAL ESTATE,1.32113457085899,103.897905493785,103.897905493785,409745,EUNOS AVENUE 5,EUNOS INDUSTRIAL ESTATE,35187.8855333524,33709.9590320773
1046 EUNOS AVENUE 5 EUNOS INDUSTRIAL ESTATE SINGAPORE 409746,1046,EUNOS INDUSTRIAL ESTATE,1.32092153778883,103.896764586192,103.896764586192,409746,EUNOS AVENUE 5,EUNOS INDUSTRIAL ESTATE,35060.9143381882,33686.3996442705
1071 EUNOS AVENUE 5 EUNOS INDUSTRIAL ESTATE SINGAPORE 409750,1071,EUNOS INDUSTRIAL ESTATE,1.32102741382445,103.895286321724,103.895286321724,409750,EUNOS AVENUE 5,EUNOS INDUSTRIAL ESTATE,34896.397737178,33698.1027299073
1072 EUNOS AVENUE 5 EUNOS INDUSTRIAL ESTATE SINGAPORE 409751,1072,EUNOS INDUSTRIAL ESTATE,1.32085939510194,103.89443618563,103.89443618563,409751,EUNOS AVENUE 5,EUNOS INDUSTRIAL ESTATE,34801.7864066232,33679.5217292588
1073 EUNOS AVENUE 5 EUNOS INDUSTRIAL ESTATE SINGAPORE 409752,1073,EUNOS INDUSTRIAL ESTATE,1.32067306132949,103.893478321023,103.893478321023,409752,EUNOS AVENUE 5,EUNOS INDUSTRIAL ESTATE,34695.185988253,33658.9152859449
1036 EUNOS AVENUE 4 EUNOS INDUSTRIAL ESTATE SINGAPORE 409790,1036,EUNOS INDUSTRIAL ESTATE,1.32116270431187,103.899076839233,103.899076839233,409790,EUNOS AVENUE 4,EUNOS INDUSTRIAL ESTATE,35318.244684469,33713.0733049214
1037 EUNOS AVENUE 4 EUNOS INDUSTRIAL ESTATE SINGAPORE 409791,1037,EUNOS INDUSTRIAL ESTATE,1.32077128976641,103.898920910879,103.898920910879,409791,EUNOS AVENUE 4,EUNOS INDUSTRIAL ESTATE,35300.8925336916,33669.7922069654
1040 EUNOS AVENUE 4 EUNOS INDUSTRIAL ESTATE SINGAPORE 409792,1040,EUNOS INDUSTRIAL ESTATE,1.32059945061117,103.898012201016,103.898012201016,409792,EUNOS AVENUE 4,EUNOS INDUSTRIAL ESTATE,35199.7625388233,33650.788453389
1041 EUNOS AVENUE 4 EUNOS INDUSTRIAL ESTATE SINGAPORE 409793,1041,EUNOS INDUSTRIAL ESTATE,1.32094620435278,103.897948793366,103.897948793366,409793,EUNOS AVENUE 4,EUNOS INDUSTRIAL ESTATE,35192.7048925236,33689.1305428334
1044 EUNOS AVENUE 4 EUNOS INDUSTRIAL ESTATE SINGAPORE 409794,1044,EUNOS INDUSTRIAL ESTATE,1.32037938241293,103.896869692105,103.896869692105,409794,EUNOS AVENUE 4,EUNOS INDUSTRIAL ESTATE,35072.6131257713,33626.4511481319
1045 EUNOS AVENUE 4 EUNOS INDUSTRIAL ESTATE SINGAPORE 409795,1045,EUNOS INDUSTRIAL ESTATE,1.32072988918311,103.89679953673,103.89679953673,409795,EUNOS AVENUE 4,EUNOS INDUSTRIAL ESTATE,35064.8045307957,33665.2082116343
101 EUNOS AVENUE 3 TSL 101 SINGAPORE 409835,101,TSL 101,1.31969531303505,103.898652785445,103.898652785445,409835,EUNOS AVENUE 3,TSL 101,35271.055929278,33550.8153613936
105 EUNOS AVENUE 3 HAFARY CENTRE SINGAPORE 409836,105,HAFARY CENTRE,1.31976657331264,103.898238166556,103.898238166556,409836,EUNOS AVENUE 3,HAFARY CENTRE,35224.9126907811,33558.6937543396
107 EUNOS AVENUE 3 STOREFRIENDLY CENTRE SINGAPORE 409837,107,STOREFRIENDLY CENTRE,1.3194167785754,103.897939446409,103.897939446409,409837,EUNOS AVENUE 3,STOREFRIENDLY CENTRE,35191.6690615844,33520.0143584833
113 EUNOS AVENUE 3 GORDON INDUSTRIAL BUILDING SINGAPORE 409838,113,GORDON INDUSTRIAL BUILDING,1.31934507586983,103.896874467273,103.896874467273,409838,EUNOS AVENUE 3,GORDON INDUSTRIAL BUILDING,35073.147476756,33512.08278469
115 EUNOS AVENUE 3 MAPLEBEAR SCHOOLHOUSE PTE. LTD. SINGAPORE 409839,115,MAPLEBEAR SCHOOLHOUSE PTE. LTD.,1.31942045979774,103.89748497382,103.89748497382,409839,EUNOS AVENUE 3,MAPLEBEAR SCHOOLHOUSE PTE. LTD.,35141.0906857019,33520.4201008044
1038 EUNOS AVENUE 3 EUNOS INDUSTRIAL ESTATE SINGAPORE 409845,1038,EUNOS INDUSTRIAL ESTATE,1.32058149427974,103.898956963335,103.898956963335,409845,EUNOS AVENUE 3,EUNOS INDUSTRIAL ESTATE,35304.9053721689,33648.8056885786
1039 EUNOS AVENUE 3 EUNOS INDUSTRIAL ESTATE SINGAPORE 409846,1039,EUNOS INDUSTRIAL ESTATE,1.3204094610186,103.898049745037,103.898049745037,409846,EUNOS AVENUE 3,EUNOS INDUSTRIAL ESTATE,35203.941366923,33629.7804750018
1043 EUNOS AVENUE 3 EUNOS INDUSTRIAL ESTATE SINGAPORE 409847,1043,EUNOS INDUSTRIAL ESTATE,1.32018820088715,103.896901011795,103.896901011795,409847,EUNOS AVENUE 3,EUNOS INDUSTRIAL ESTATE,35076.0992407957,33605.3113526758
1057 EUNOS AVENUE 3 SINGAPORE 409848,1057,NIL,1.32029934859505,103.899266010265,103.899266010265,409848,EUNOS AVENUE 3,1057 EUNOS AVENUE 3 SINGAPORE 409848,35339.3000927866,33617.60835669
10 ARUMUGAM ROAD LTC BUILDING A SINGAPORE 409957,10,LTC BUILDING A,1.32558191883244,103.891078059404,103.891078059404,409957,ARUMUGAM ROAD,LTC BUILDING A,34428.0478164041,34201.7054989059
12 ARUMUGAM ROAD LTC BUILDING B SINGAPORE 409958,12,LTC BUILDING B,1.32500635825686,103.891212441492,103.891212441492,409958,ARUMUGAM ROAD,LTC BUILDING B,34443.0046800217,34138.0632796418
14 ARUMUGAM ROAD LTC BUILDING C SINGAPORE 409959,14,LTC BUILDING C,1.3246049229025,103.89173051241,103.89173051241,409959,ARUMUGAM ROAD,LTC BUILDING C,34500.6618292574,34093.6759474166
15 ARUMUGAM ROAD LORONG KOO CHYE SHENG HONG TEMPLE SINGAPORE 409960,15,LORONG KOO CHYE SHENG HONG TEMPLE,1.32631550593151,103.891811828694,103.891811828694,409960,ARUMUGAM ROAD,LORONG KOO CHYE SHENG HONG TEMPLE,34509.707052975,34282.8237558044
16 ARUMUGAM ROAD LTC BUILDING D SINGAPORE 409961,16,LTC BUILDING D,1.3252430899326,103.891542148339,103.891542148339,409961,ARUMUGAM ROAD,LTC BUILDING D,34479.6971340869,34164.2407269683
18 ARUMUGAM ROAD ANTIOCH@MACPHERSON SINGAPORE 409962,18,ANTIOCH@MACPHERSON,1.32571049121819,103.891492562328,103.891492562328,409962,ARUMUGAM ROAD,ANTIOCH@MACPHERSON,34474.1774948444,34215.923460504
24 ARUMUGAM ROAD CHENG HONG SIANG TNG KEW HUANG KENG COMBINED TEMPLE SINGAPORE 409963,24,CHENG HONG SIANG TNG KEW HUANG KENG COMBINED TEMPLE,1.32569316419126,103.891908622996,103.891908622996,409963,ARUMUGAM ROAD,CHENG HONG SIANG TNG KEW HUANG KENG COMBINED TEMPLE,34520.4809115119,34214.0086170509
26 ARUMUGAM ROAD CHENG HONG SIANG TNG KEW HUANG KENG COMBINED TEMPLE SINGAPORE 409964,26,CHENG HONG SIANG TNG KEW HUANG KENG COMBINED TEMPLE,1.32569316391752,103.891908622996,103.891908622996,409964,ARUMUGAM ROAD,CHENG HONG SIANG TNG KEW HUANG KENG COMBINED TEMPLE,34520.4809115119,34214.008586783
28 ARUMUGAM ROAD CHARN MAO HERN KEW HUANG KENG SINGAPORE 409965,28,CHARN MAO HERN KEW HUANG KENG,1.32575392333004,103.892159374751,103.892159374751,409965,ARUMUGAM ROAD,CHARN MAO HERN KEW HUANG KENG,34548.3869028511,34220.7277159523
30 ARUMUGAM ROAD CHENG HONG SIANG T'NG KEW HUANG KENG COMBINED TEMPLE SINGAPORE 409966,30,CHENG HONG SIANG T'NG KEW HUANG KENG COMBINED TEMPLE,1.32575392333004,103.892159374751,103.892159374751,409966,ARUMUGAM ROAD,CHENG HONG SIANG T'NG KEW HUANG KENG COMBINED TEMPLE,34548.3869028511,34220.7277159523
