ADDRESS,BLK_NO,BUILDING,LATITUDE,LONGITUDE,LONGTITUDE,POSTAL,ROAD_NAME,SEARCHVAL,X,Y
1 ZUBIR SAID DRIVE SCHOOL OF THE ARTS (SOTA) SINGAPORE 227968,1,SCHOOL OF THE ARTS (SOTA),1.29935139016521,103.848721814414,103.848721814414,227968,ZUBIR SAID DRIVE,SCHOOL OF THE ARTS (SOTA),29714.2423662115,31301.1988061052
2 MOUNT ELIZABETH LINK FRASER RESIDENCE SINGAPORE SINGAPORE 227973,2,FRASER RESIDENCE SINGAPORE,1.30564456869892,103.836913742312,103.836913742312,227973,MOUNT ELIZABETH LINK,FRASER RESIDENCE SINGAPORE,28400.1085163122,31997.0611440931
9 WINSTEDT ROAD LASALLE COLLEGE OF THE ARTS (WINSTEDT CAMPUS) SINGAPORE 227976,9,LASALLE COLLEGE OF THE ARTS (WINSTEDT CAMPUS),1.31053018681753,103.841115935145,103.841115935145,227976,WINSTEDT ROAD,LASALLE COLLEGE OF THE ARTS (WINSTEDT CAMPUS),28867.7721710922,32537.2887182124
10 WINSTEDT ROAD SINGAPORE 227977,10,NIL,1.30994416755097,103.841277178231,103.841277178231,227977,WINSTEDT ROAD,10 WINSTEDT ROAD SINGAPORE 227977,28885.7172111338,32472.4897776842
2 WINSTEDT ROAD MONKS HILL FLAT SINGAPORE 227979,2,MONKS HILL FLAT,1.30937860316803,103.84008612717,103.84008612717,227979,WINSTEDT ROAD,MONKS HILL FLAT,28753.1645997735,32409.9521884862
2A WINSTEDT ROAD MONKS HILL FLAT SINGAPORE 227980,2A,MONKS HILL FLAT,1.30937860316803,103.84008612717,103.84008612717,227980,WINSTEDT ROAD,MONKS HILL FLAT,28753.1645997735,32409.9521884862
2B WINSTEDT ROAD MONKS HILL FLAT SINGAPORE 227981,2B,MONKS HILL FLAT,1.30937860316803,103.84008612717,103.84008612717,227981,WINSTEDT ROAD,MONKS HILL FLAT,28753.1645997735,32409.9521884862
2C WINSTEDT ROAD MONKS HILL FLAT SINGAPORE 227982,2C,MONKS HILL FLAT,1.30937860316803,103.84008612717,103.84008612717,227982,WINSTEDT ROAD,MONKS HILL FLAT,28753.1645997735,32409.9521884862
4 WINSTEDT ROAD MONKS HILL FLAT SINGAPORE 227983,4,MONKS HILL FLAT,1.30937860316803,103.84008612717,103.84008612717,227983,WINSTEDT ROAD,MONKS HILL FLAT,28753.1645997735,32409.9521884862
4A WINSTEDT ROAD MONKS HILL FLAT SINGAPORE 227984,4A,MONKS HILL FLAT,1.30937860316803,103.84008612717,103.84008612717,227984,WINSTEDT ROAD,MONKS HILL FLAT,28753.1645997735,32409.9521884862
4B WINSTEDT ROAD MONKS HILL FLAT SINGAPORE 227985,4B,MONKS HILL FLAT,1.30937860316803,103.84008612717,103.84008612717,227985,WINSTEDT ROAD,MONKS HILL FLAT,28753.1645997735,32409.9521884862
4C WINSTEDT ROAD MONKS HILL FLAT SINGAPORE 227986,4C,MONKS HILL FLAT,1.30937860316803,103.84008612717,103.84008612717,227986,WINSTEDT ROAD,MONKS HILL FLAT,28753.1645997735,32409.9521884862
18 WINSTEDT ROAD SINGAPORE 227987,18,NIL,1.31081854285801,103.842184750619,103.842184750619,227987,WINSTEDT ROAD,18 WINSTEDT ROAD SINGAPORE 227987,28986.721139851,32569.1740413718
16 WINSTEDT ROAD ANGLO-CHINESE SCHOOL (JUNIOR) SINGAPORE 227988,16,ANGLO-CHINESE SCHOOL (JUNIOR),1.30937872352186,103.840789144711,103.840789144711,227988,WINSTEDT ROAD,ANGLO-CHINESE SCHOOL (JUNIOR),28831.4038568642,32409.9657182749
11A WINSTEDT ROAD TEMPORARY SITE OFFICE SINGAPORE 227989,11A,TEMPORARY SITE OFFICE,1.31117732936635,103.841611004075,103.841611004075,227989,WINSTEDT ROAD,TEMPORARY SITE OFFICE,28922.8684370285,32608.8465903103
2A WINSTEDT DRIVE TEMPORARY SITE OFFICE SINGAPORE 228001,2A,TEMPORARY SITE OFFICE,1.3105249019046,103.843048769504,103.843048769504,228001,WINSTEDT DRIVE,TEMPORARY SITE OFFICE,29082.8784076748,32536.7050909512
1 WILKIE TERRACE HOCK MANSION SINGAPORE 228022,1,HOCK MANSION,1.30244482459515,103.848554295862,103.848554295862,228022,WILKIE TERRACE,HOCK MANSION,29695.5969855618,31643.2547475845
9 WILKIE TERRACE LIV ON WILKIE SINGAPORE 228025,9,LIV ON WILKIE,1.30280719548036,103.848840359826,103.848840359826,228025,WILKIE TERRACE,LIV ON WILKIE,29727.4330627117,31683.324049253
17 WILKIE TERRACE THE CHRISTIAN ASSEMBLY HALL SINGAPORE 228029,17,THE CHRISTIAN ASSEMBLY HALL,1.30314054450264,103.849057070614,103.849057070614,228029,WILKIE TERRACE,THE CHRISTIAN ASSEMBLY HALL,29751.5507737454,31720.1842182167
10 WILKIE TERRACE WILKIE REGENCY SINGAPORE 228030,10,WILKIE REGENCY,1.30267872582258,103.849308090319,103.849308090319,228030,WILKIE TERRACE,WILKIE REGENCY,29779.487305481,31669.1188607421
8 WILKIE TERRACE NIVEN SUITES SINGAPORE 228031,8,NIVEN SUITES,1.30239669182333,103.849016257193,103.849016257193,228031,WILKIE TERRACE,NIVEN SUITES,29747.0091233244,31637.9327885434
28 WILKIE ROAD SOPHIA FLATS SINGAPORE 228051,28,SOPHIA FLATS,1.30215650857017,103.848854208182,103.848854208182,228051,WILKIE ROAD,SOPHIA FLATS,29728.9747019261,31611.3744489104
41 WILKIE ROAD SINGAPORE 228055,41,NIL,1.30197468881647,103.848453745391,103.848453745391,228055,WILKIE ROAD,41 WILKIE ROAD SINGAPORE 228055,29684.4069422502,31591.26948555
43 WILKIE ROAD SINGAPORE 228056,43,NIL,1.3019853362089,103.848408186394,103.848408186394,228056,WILKIE ROAD,43 WILKIE ROAD SINGAPORE 228056,29679.3366312254,31592.4467890449
48 WILKIE ROAD WILKIE 48 SINGAPORE 228059,48,WILKIE 48,1.30252103215856,103.848368211637,103.848368211637,228059,WILKIE ROAD,WILKIE 48,29674.8874494946,31651.6812634468
59 WILKIE ROAD WILKIE APARTMENTS SINGAPORE 228064,59,WILKIE APARTMENTS,1.30225501929552,103.847854037789,103.847854037789,228064,WILKIE ROAD,WILKIE APARTMENTS,29617.6647366295,31622.2665947266
60 WILKIE ROAD SINGAPORE 228065,60,NIL,1.30260764161812,103.848172551338,103.848172551338,228065,WILKIE ROAD,60 WILKIE ROAD SINGAPORE 228065,29653.1121777212,31661.2579626907
62 WILKIE ROAD SINGAPORE 228066,62,NIL,1.30263057360263,103.848125535447,103.848125535447,228066,WILKIE ROAD,62 WILKIE ROAD SINGAPORE 228066,29647.8797211079,31663.7936327588
64 WILKIE ROAD WILKIE VALE SINGAPORE 228067,64,WILKIE VALE,1.30261155237815,103.848044045535,103.848044045535,228067,WILKIE ROAD,WILKIE VALE,29638.8106462182,31661.6903105713
65 WILKIE ROAD JIA SINGAPORE 228068,65,JIA,1.30244590773606,103.847532468776,103.847532468776,228068,WILKIE ROAD,JIA,29581.8769017942,31643.3738521002
68 WILKIE ROAD LE WILKIE SINGAPORE 228070,68,LE WILKIE,1.30284530720385,103.847903060812,103.847903060812,228070,WILKIE ROAD,LE WILKIE,29623.1201774795,31687.537624998
71 WILKIE ROAD ESTILO SINGAPORE 228071,71,ESTILO,1.30258539390747,103.847229316271,103.847229316271,228071,WILKIE ROAD,ESTILO,29548.1386937434,31658.7973269559
73 WILKIE ROAD ESTILO SINGAPORE 228073,73,ESTILO,1.30263019519208,103.847335558738,103.847335558738,228073,WILKIE ROAD,ESTILO,29559.962488099,31663.7512878496
80 WILKIE ROAD WILKIE 80 SINGAPORE 228079,80,WILKIE 80,1.3031358658722,103.847735636923,103.847735636923,228079,WILKIE ROAD,WILKIE 80,29604.487236971,31719.6660000663
81 WILKIE ROAD ABDULLAH SHOOKER JEWISH WELFARE HOME SINGAPORE 228080,81,ABDULLAH SHOOKER JEWISH WELFARE HOME,1.3028453332098,103.847179264013,103.847179264013,228080,WILKIE ROAD,ABDULLAH SHOOKER JEWISH WELFARE HOME,29542.5681740204,31687.5400464367
83A WILKIE ROAD WILKIE MANSION SINGAPORE 228081,83A,WILKIE MANSION,1.3029807322513,103.847073443257,103.847073443257,228081,WILKIE ROAD,WILKIE MANSION,29530.7912042355,31702.5117110983
85 WILKIE ROAD WILKIE MANSION SINGAPORE 228083,85,WILKIE MANSION,1.30288370612927,103.846991611324,103.846991611324,228083,WILKIE ROAD,WILKIE MANSION,29521.6841127584,31691.7830123939
87 WILKIE ROAD WILKIE 87 SINGAPORE 228084,87,WILKIE 87,1.30309676804772,103.846902022519,103.846902022519,228084,WILKIE ROAD,WILKIE 87,29511.71356651,31715.3422488607
90 WILKIE ROAD GURDWARA SRI GURU SINGH SABHA SINGAPORE 228085,90,GURDWARA SRI GURU SINGH SABHA,1.30380782656484,103.84702376256,103.84702376256,228085,WILKIE ROAD,GURDWARA SRI GURU SINGH SABHA,29525.2616976304,31793.9675135482
92 WILKIE ROAD GURDWARA SRI GURU SINGH SABHA SINGAPORE 228086,92,GURDWARA SRI GURU SINGH SABHA,1.30380782629112,103.847023762832,103.847023762832,228086,WILKIE ROAD,GURDWARA SRI GURU SINGH SABHA,29525.2617278984,31793.9674832802
94 WILKIE ROAD SINGAPORE 228087,94,NIL,1.30382321372032,103.84680780366,103.84680780366,228087,WILKIE ROAD,94 WILKIE ROAD SINGAPORE 228087,29501.2274354277,31795.6688163765
96 WILKIE ROAD SINGAPORE 228088,96,NIL,1.30387066424498,103.84675533374,103.84675533374,228088,WILKIE ROAD,96 WILKIE ROAD SINGAPORE 228088,29495.3879846688,31800.9156200141
97 WILKIE ROAD WILKIE COURT SINGAPORE 228089,97,WILKIE COURT,1.30324012981857,103.846773407007,103.846773407007,228089,WILKIE ROAD,WILKIE COURT,29497.3997462066,31731.1943789013
98 WILKIE ROAD SINGAPORE 228090,98,NIL,1.30391748846393,103.846703529058,103.846703529058,228090,WILKIE ROAD,98 WILKIE ROAD SINGAPORE 228090,29489.622569398,31806.093170505
100 WILKIE ROAD SINGAPORE 228092,100,NIL,1.30396425930329,103.84665183697,103.84665183697,228092,WILKIE ROAD,100 WILKIE ROAD SINGAPORE 228092,29483.8696850734,31811.2648187391
8 WILKIE ROAD CITADINES MOUNT SOPHIA SINGAPORE SINGAPORE 228095,8,CITADINES MOUNT SOPHIA SINGAPORE,1.30208598515708,103.849366883599,103.849366883599,228095,WILKIE ROAD,CITADINES MOUNT SOPHIA SINGAPORE,29786.030880345,31603.5766898729
86 WILKIE ROAD WILKIE STUDIO SINGAPORE 228096,86,WILKIE STUDIO,1.30343844307623,103.847611505264,103.847611505264,228096,WILKIE ROAD,WILKIE STUDIO,29590.6723238425,31753.1233514957
4 UPPER WILKIE ROAD SINGAPORE 228114,4,NIL,1.30410107341011,103.846772455047,103.846772455047,228114,UPPER WILKIE ROAD,4 UPPER WILKIE ROAD SINGAPORE 228114,29497.293293708,31826.3930899482
4A UPPER WILKIE ROAD SINGAPORE 228115,4A,NIL,1.30405329495603,103.846824372051,103.846824372051,228115,UPPER WILKIE ROAD,4A UPPER WILKIE ROAD SINGAPORE 228115,29503.0712096561,31821.1100252662
6 UPPER WILKIE ROAD SINGAPORE 228116,6,NIL,1.3040058211693,103.846875614564,103.846875614564,228116,UPPER WILKIE ROAD,6 UPPER WILKIE ROAD SINGAPORE 228116,29508.7740610037,31815.86064885
6A UPPER WILKIE ROAD SINGAPORE 228117,6A,NIL,1.30395790995183,103.846927670812,103.846927670812,228117,UPPER WILKIE ROAD,6A UPPER WILKIE ROAD SINGAPORE 228117,29514.5674741594,31810.5629041959
8 UPPER WILKIE ROAD SINGAPORE 228118,8,NIL,1.30368101427034,103.847275081266,103.847275081266,228118,UPPER WILKIE ROAD,8 UPPER WILKIE ROAD SINGAPORE 228118,29553.2312517362,31779.9454160705
11 UPPER WILKIE ROAD SINGAPORE 228120,11,NIL,1.30332196881118,103.848641024504,103.848641024504,228120,UPPER WILKIE ROAD,11 UPPER WILKIE ROAD SINGAPORE 228120,29705.2485072622,31740.2448995169
11A UPPER WILKIE ROAD SINGAPORE 228121,11A,NIL,1.30332196881118,103.848641024504,103.848641024504,228121,UPPER WILKIE ROAD,11A UPPER WILKIE ROAD SINGAPORE 228121,29705.2485072622,31740.2448995169
11B UPPER WILKIE ROAD SINGAPORE 228122,11B,NIL,1.30332196881118,103.848641024504,103.848641024504,228122,UPPER WILKIE ROAD,11B UPPER WILKIE ROAD SINGAPORE 228122,29705.2485072622,31740.2448995169
11C UPPER WILKIE ROAD SINGAPORE 228123,11C,NIL,1.30332196881118,103.848641024504,103.848641024504,228123,UPPER WILKIE ROAD,11C UPPER WILKIE ROAD SINGAPORE 228123,29705.2485072622,31740.2448995169
11D UPPER WILKIE ROAD SINGAPORE 228124,11D,NIL,1.30332196881118,103.848641024504,103.848641024504,228124,UPPER WILKIE ROAD,11D UPPER WILKIE ROAD SINGAPORE 228124,29705.2485072622,31740.2448995169
11E UPPER WILKIE ROAD SINGAPORE 228125,11E,NIL,1.30332196881118,103.848641024504,103.848641024504,228125,UPPER WILKIE ROAD,11E UPPER WILKIE ROAD SINGAPORE 228125,29705.2485072622,31740.2448995169
19 UPPER WILKIE ROAD SINGAPORE 228126,19,NIL,1.30393726725379,103.84798498284,103.84798498284,228126,UPPER WILKIE ROAD,19 UPPER WILKIE ROAD SINGAPORE 228126,29632.2366520306,31808.2810009047
1 SOPHIA ROAD PEACE CENTRE SINGAPORE 228149,1,PEACE CENTRE,1.30114712901177,103.849569848964,103.849569848964,228149,SOPHIA ROAD,PEACE CENTRE,29808.6197555214,31499.7629539594
54 SOPHIA ROAD CHURCH OF CHRIST OF MALAYA SINGAPORE 228150,54,CHURCH OF CHRIST OF MALAYA,1.3019237105347,103.848571868904,103.848571868904,228150,SOPHIA ROAD,CHURCH OF CHRIST OF MALAYA,29697.5530540096,31585.6326486748
67 SOPHIA ROAD SOPHIA CREST SINGAPORE 228151,67,SOPHIA CREST,1.30157424362103,103.848200498266,103.848200498266,228151,SOPHIA ROAD,SOPHIA CREST,29656.2230908191,31546.9901494905
69 SOPHIA ROAD SOPHIA LODGE SINGAPORE 228152,69,SOPHIA LODGE,1.30167268608664,103.848036171953,103.848036171953,228152,SOPHIA ROAD,SOPHIA LODGE,29637.9349934496,31557.8753034025
70 SOPHIA ROAD CITYVALE SINGAPORE 228153,70,CITYVALE,1.30204584534425,103.848101036366,103.848101036366,228153,SOPHIA ROAD,CITYVALE,29645.1535746185,31599.1373755056
71 SOPHIA ROAD SINGAPORE 228154,71,NIL,1.30173498101602,103.847917363952,103.847917363952,228154,SOPHIA ROAD,71 SOPHIA ROAD SINGAPORE 228154,29624.7126971744,31564.7634792607
73 SOPHIA ROAD SINGAPORE 228155,73,NIL,1.30174494435913,103.847868505121,103.847868505121,228155,SOPHIA ROAD,73 SOPHIA ROAD SINGAPORE 228155,29619.2751447037,31565.8651430644
75 SOPHIA ROAD SINGAPORE 228156,75,NIL,1.30176232748626,103.847823304622,103.847823304622,228156,SOPHIA ROAD,75 SOPHIA ROAD SINGAPORE 228156,29614.2447268814,31567.7872508336
77 SOPHIA ROAD STARFIRE @ SOPHIA SINGAPORE 228157,77,STARFIRE @ SOPHIA,1.30185681491483,103.847679670135,103.847679670135,228157,SOPHIA ROAD,STARFIRE @ SOPHIA,29598.2594479807,31578.2350929175
90 SOPHIA ROAD SINGAPORE 228160,90,NIL,1.30213924666381,103.84756895614,103.84756895614,228160,SOPHIA ROAD,90 SOPHIA ROAD SINGAPORE 228160,29585.9378058296,31609.4648720864
92 SOPHIA ROAD SINGAPORE 228161,92,NIL,1.30215504903462,103.847513691311,103.847513691311,228161,SOPHIA ROAD,92 SOPHIA ROAD SINGAPORE 228161,29579.7873212704,31611.2121822499
94 SOPHIA ROAD SINGAPORE 228162,94,NIL,1.30216922679949,103.847458336178,103.847458336178,228162,SOPHIA ROAD,94 SOPHIA ROAD SINGAPORE 228162,29573.6267877398,31612.7798519302
95 SOPHIA ROAD MOUNT SOPHIA SUITES SINGAPORE 228163,95,MOUNT SOPHIA SUITES,1.30203939289866,103.846841997611,103.846841997611,228163,SOPHIA ROAD,MOUNT SOPHIA SUITES,29505.0339673273,31598.423111625
96 SOPHIA ROAD SINGAPORE 228164,96,NIL,1.30223540583498,103.847315169289,103.847315169289,228164,SOPHIA ROAD,96 SOPHIA ROAD SINGAPORE 228164,29557.693569771,31620.0975002106
98 SOPHIA ROAD SOPHIA 98 SINGAPORE 228165,98,SOPHIA 98,1.30234468524969,103.847116002567,103.847116002567,228165,SOPHIA ROAD,SOPHIA 98,29535.5280528832,31632.1809333302
103 SOPHIA ROAD SUITES @ SOPHIA SINGAPORE 228168,103,SUITES @ SOPHIA,1.30238493202184,103.846489182251,103.846489182251,228168,SOPHIA ROAD,SUITES @ SOPHIA,29465.768613575,31636.6308414917
105 SOPHIA ROAD SOPHIA REGENCY SINGAPORE 228170,105,SOPHIA REGENCY,1.30254668108558,103.846337135937,103.846337135937,228170,SOPHIA ROAD,SOPHIA REGENCY,29448.8471459374,31654.5161325336
107 SOPHIA ROAD SINGAPORE 228172,107,NIL,1.30284352182266,103.845845426123,103.845845426123,228172,SOPHIA ROAD,107 SOPHIA ROAD SINGAPORE 228172,29394.1241447758,31687.3389762212
108 SOPHIA ROAD SOPHIA VIEW SINGAPORE 228173,108,SOPHIA VIEW,1.30244010067902,103.846956513706,103.846956513706,228173,SOPHIA ROAD,SOPHIA VIEW,29517.7783321403,31642.7313838787
110 SOPHIA ROAD 1919 SINGAPORE 228175,110,1919,1.30277612366385,103.846570976791,103.846570976791,228175,SOPHIA ROAD,1919,29474.8713767296,31679.8868472893
128 SOPHIA ROAD SINGAPORE 228184,128,NIL,1.30301468289676,103.84644381301,103.84644381301,228184,SOPHIA ROAD,128 SOPHIA ROAD SINGAPORE 228184,29460.719066387,31706.2654253673
130A SOPHIA ROAD FAIRHAVEN SINGAPORE 228185,130A,FAIRHAVEN,1.30304617980738,103.846213766389,103.846213766389,228185,SOPHIA ROAD,FAIRHAVEN,29435.1169528961,31709.7480595745
132 SOPHIA ROAD THE PRESBYTERIAN CHURCH IN SINGAPORE SINGAPORE 228186,132,THE PRESBYTERIAN CHURCH IN SINGAPORE,1.30333614370869,103.846067540859,103.846067540859,228186,SOPHIA ROAD,THE PRESBYTERIAN CHURCH IN SINGAPORE,29418.8432201101,31741.8106925823
68 SOPHIA ROAD WHARTON VALE SINGAPORE 228187,68,WHARTON VALE,1.30198874054112,103.84833109795,103.84833109795,228187,SOPHIA ROAD,WHARTON VALE,29670.7573831165,31592.8231714219
88 SOPHIA ROAD SINGAPORE 228188,88,NIL,1.30210762095289,103.847707740661,103.847707740661,228188,SOPHIA ROAD,88 SOPHIA ROAD SINGAPORE 228188,29601.3832855085,31605.9679513909
99 SOPHIA ROAD SAPPHIRE 99 SINGAPORE 228189,99,SAPPHIRE 99,1.30222789640806,103.84663162117,103.84663162117,228189,SOPHIA ROAD,SAPPHIRE 99,29481.6208646866,31619.2667348608
80 SOPHIA ROAD SINGAPORE 228190,80,NIL,1.30204700646624,103.84787618026,103.84787618026,228190,SOPHIA ROAD,80 SOPHIA ROAD SINGAPORE 228190,29620.129125596,31599.2656209525
5 SOPHIA ROAD SOPHIA RESIDENCE SINGAPORE 228191,5,SOPHIA RESIDENCE,1.30158083491052,103.848507995671,103.848507995671,228191,SOPHIA ROAD,SOPHIA RESIDENCE,29690.4447693741,31547.7191841453
7 SOPHIA ROAD SOPHIA RESIDENCE SINGAPORE 228192,7,SOPHIA RESIDENCE,1.30010162996548,103.848342491114,103.848342491114,228192,SOPHIA ROAD,SOPHIA RESIDENCE,29672.0265802098,31384.1562062316
9 SOPHIA ROAD SOPHIA RESIDENCE SINGAPORE 228193,9,SOPHIA RESIDENCE,1.30010162996548,103.848342491386,103.848342491386,228193,SOPHIA ROAD,SOPHIA RESIDENCE,29672.0266104778,31384.1562062316
11 SOPHIA ROAD SOPHIA RESIDENCE SINGAPORE 228194,11,SOPHIA RESIDENCE,1.30010046060705,103.84856481608,103.84856481608,228194,SOPHIA ROAD,SOPHIA RESIDENCE,29696.7693553753,31384.0270527452
13 SOPHIA ROAD SOPHIA RESIDENCE SINGAPORE 228195,13,SOPHIA RESIDENCE,1.3004343181858,103.848882044817,103.848882044817,228195,SOPHIA ROAD,SOPHIA RESIDENCE,29732.0738407793,31420.9435201567
15 SOPHIA ROAD SOPHIA RESIDENCE SINGAPORE 228196,15,SOPHIA RESIDENCE,1.30083818355869,103.84888070239,103.84888070239,228196,SOPHIA ROAD,SOPHIA RESIDENCE,29731.9241656,31465.6008730661
136 SOPHIA ROAD CHAPEL OF CHRIST THE KING SINGAPORE 228197,136,CHAPEL OF CHRIST THE KING,1.30414407358332,103.845820266438,103.845820266438,228197,SOPHIA ROAD,CHAPEL OF CHRIST THE KING,29391.3233877067,31831.1472821515
1 SCOTTS ROAD HIGH COMMISSION FOR THE ISLAMIC REPUBLIC OF PAKISTAN SINGAPORE 228208,1,HIGH COMMISSION FOR THE ISLAMIC REPUBLIC OF PAKISTAN,1.30618594739077,103.831980208498,103.831980208498,228208,SCOTTS ROAD,HIGH COMMISSION FOR THE ISLAMIC REPUBLIC OF PAKISTAN,27851.0517108059,32056.923769962
6 SCOTTS ROAD DBS NTUC SCOTTS SQUARE SINGAPORE 228209,6,DBS NTUC SCOTTS SQUARE,1.30585582603508,103.832984356543,103.832984356543,228209,SCOTTS ROAD,DBS NTUC SCOTTS SQUARE,27962.8041032208,32020.4206118677
9 SCOTTS ROAD PACIFIC PLAZA SINGAPORE 228210,9,PACIFIC PLAZA,1.30653721777242,103.832126400417,103.832126400417,228210,SCOTTS ROAD,PACIFIC PLAZA,27867.321539022,32095.7654324789
10 SCOTTS ROAD GRAND HYATT SINGAPORE SINGAPORE 228211,10,GRAND HYATT SINGAPORE,1.30631272444851,103.833311286296,103.833311286296,228211,SCOTTS ROAD,GRAND HYATT SINGAPORE,27999.1883686762,32070.9420839418
12 SCOTTS ROAD GRAND HYATT SINGAPORE SINGAPORE 228212,12,GRAND HYATT SINGAPORE,1.30634249071998,103.833318388577,103.833318388577,228212,SCOTTS ROAD,GRAND HYATT SINGAPORE,27999.9787868029,32074.2334850263
14 SCOTTS ROAD DBS FAR EAST PLAZA SINGAPORE 228213,14,DBS FAR EAST PLAZA,1.30730468891062,103.833818438639,103.833818438639,228213,SCOTTS ROAD,DBS FAR EAST PLAZA,28055.6297135409,32180.6284140553
14A SCOTTS ROAD FAR EAST PLAZA SINGAPORE 228214,14A,FAR EAST PLAZA,1.30731112598868,103.833939963454,103.833939963454,228214,SCOTTS ROAD,FAR EAST PLAZA,28069.15429617,32181.3401959613
14B SCOTTS ROAD FAR EAST PLAZA SINGAPORE 228215,14B,FAR EAST PLAZA,1.30731112598868,103.833939963454,103.833939963454,228215,SCOTTS ROAD,FAR EAST PLAZA,28069.15429617,32181.3401959613
14C SCOTTS ROAD FAR EAST PLAZA SINGAPORE 228216,14C,FAR EAST PLAZA,1.30731112598868,103.833939963454,103.833939963454,228216,SCOTTS ROAD,FAR EAST PLAZA,28069.15429617,32181.3401959613
14D SCOTTS ROAD FAR EAST PLAZA SINGAPORE 228217,14D,FAR EAST PLAZA,1.30731112598868,103.833939963454,103.833939963454,228217,SCOTTS ROAD,FAR EAST PLAZA,28069.15429617,32181.3401959613
15 SCOTTS ROAD 15 SCOTTS SINGAPORE 228218,15,15 SCOTTS,1.30788731938083,103.832680701904,103.832680701904,228218,SCOTTS ROAD,15 SCOTTS,27929.01020208,32245.0526974816
21 SCOTTS ROAD THE AMERICAN CLUB SINGAPORE 228219,21,THE AMERICAN CLUB,1.30806097260611,103.832067228303,103.832067228303,228219,SCOTTS ROAD,THE AMERICAN CLUB,27860.7363154124,32264.2544036731
25 SCOTTS ROAD ROYAL PLAZA SINGAPORE 228220,25,ROYAL PLAZA,1.30710677922683,103.832233917564,103.832233917564,228220,SCOTTS ROAD,ROYAL PLAZA,27879.2872296851,32158.7446012925
16 SCOTTS ROAD GOODWOOD PARK HOTEL SINGAPORE 228221,16,GOODWOOD PARK HOTEL,1.30771173944605,103.834556167895,103.834556167895,228221,SCOTTS ROAD,GOODWOOD PARK HOTEL,28137.7321036616,32225.6379954908
27 SCOTTS ROAD SINGAPORE 228222,27,NIL,1.31046060492616,103.834302217276,103.834302217276,228222,SCOTTS ROAD,27 SCOTTS ROAD SINGAPORE 228222,28109.4696462778,32529.5933860336
28 SCOTTS ROAD SCOTTS 28 SINGAPORE 228223,28,SCOTTS 28,1.30980898738366,103.834917913837,103.834917913837,228223,SCOTTS ROAD,SCOTTS 28,28177.9909131769,32457.5409048144
29 SCOTTS ROAD SINGAPORE 228224,29,NIL,1.31071378882628,103.834737955025,103.834737955025,228224,SCOTTS ROAD,29 SCOTTS ROAD SINGAPORE 228224,28157.9631331749,32557.5891824812
31 SCOTTS ROAD DEANS PROPERTY CENTRE SINGAPORE 228225,31,DEANS PROPERTY CENTRE,1.31072578939241,103.834998811306,103.834998811306,228225,SCOTTS ROAD,DEANS PROPERTY CENTRE,28186.9939735932,32558.9161611553
33 SCOTTS ROAD DEANS PROPERTY CENTRE SINGAPORE 228226,33,DEANS PROPERTY CENTRE,1.3109412613896,103.835265690851,103.835265690851,228226,SCOTTS ROAD,DEANS PROPERTY CENTRE,28216.6951287799,32582.7419677544
35 SCOTTS ROAD DEANS PROPERTY CENTRE SINGAPORE 228227,35,DEANS PROPERTY CENTRE,1.31102977084554,103.835488298352,103.835488298352,228227,SCOTTS ROAD,DEANS PROPERTY CENTRE,28241.4692313084,32592.5289084129
35A SCOTTS ROAD DEANS PROPERTY CENTRE SINGAPORE 228228,35A,DEANS PROPERTY CENTRE,1.31115110447885,103.835651400458,103.835651400458,228228,SCOTTS ROAD,DEANS PROPERTY CENTRE,28259.6209411435,32605.9453738034
37 SCOTTS ROAD REIGNWOOD HAMILTON SCOTTS SINGAPORE 228229,37,REIGNWOOD HAMILTON SCOTTS,1.31141379857615,103.835966364922,103.835966364922,228229,SCOTTS ROAD,REIGNWOOD HAMILTON SCOTTS,28294.6734758513,32634.9927708097
39 SCOTTS ROAD SHERATON TOWERS SINGAPORE HOTEL SINGAPORE 228230,39,SHERATON TOWERS SINGAPORE HOTEL,1.31193535752975,103.836494749213,103.836494749213,228230,SCOTTS ROAD,SHERATON TOWERS SINGAPORE HOTEL,28353.4775697934,32692.6641459968
40 SCOTTS ROAD 3P NETWORK DEPARTMENT SINGAPORE 228231,40,3P NETWORK DEPARTMENT,1.31052232091228,103.836225163587,103.836225163587,228231,SCOTTS ROAD,3P NETWORK DEPARTMENT,28323.4754297771,32536.4177872501
45 SCOTTS ROAD SCOTTS HIGHPARK SINGAPORE 228232,45,SCOTTS HIGHPARK,1.31236169056653,103.836727303615,103.836727303615,228232,SCOTTS ROAD,SCOTTS HIGHPARK,28379.3586027548,32739.8058950081
47 SCOTTS ROAD EMBASSY OF THE REPUBLIC OF KOREA SINGAPORE 228233,47,EMBASSY OF THE REPUBLIC OF KOREA,1.31241396382761,103.837027509702,103.837027509702,228233,SCOTTS ROAD,EMBASSY OF THE REPUBLIC OF KOREA,28412.7686755937,32745.5860507879
49 SCOTTS ROAD CITIBANK NEWTON SMRT STATION SINGAPORE 228234,49,CITIBANK NEWTON SMRT STATION,1.31259815992611,103.838098898999,103.838098898999,228234,SCOTTS ROAD,CITIBANK NEWTON SMRT STATION,28532.0040702829,32765.9537099786
8 SCOTTS ROAD SCOTTS SQUARE SINGAPORE 228238,8,SCOTTS SQUARE,1.30579942966172,103.833074706219,103.833074706219,228238,SCOTTS ROAD,SCOTTS SQUARE,27972.8591879476,32014.1845899858
43 SCOTTS ROAD SCOTTS HIGHPARK SINGAPORE 228239,43,SCOTTS HIGHPARK,1.31236517710986,103.836722495413,103.836722495413,228239,SCOTTS ROAD,SCOTTS HIGHPARK,28378.8234950705,32740.1914183181
38 SCOTTS ROAD THE SCOTTS TOWER SINGAPORE 228240,38,THE SCOTTS TOWER,1.30999017846252,103.835499682233,103.835499682233,228240,SCOTTS ROAD,THE SCOTTS TOWER,28242.7362491069,32477.5761307403
51 SCOTTS ROAD SINGAPORE 228241,51,NIL,1.31253585034144,103.837503218603,103.837503218603,228241,SCOTTS ROAD,51 SCOTTS ROAD SINGAPORE 228241,28465.7105269851,32759.0637180414
50 SCOTTS ROAD SINGAPORE 228242,50,NIL,1.31089208865519,103.837087409985,103.837087409985,228242,SCOTTS ROAD,50 SCOTTS ROAD SINGAPORE 228242,28419.4352595434,32577.3049298376
31A SCOTTS ROAD SINGAPORE 228243,31A,NIL,1.31109688970441,103.835027281105,103.835027281105,228243,SCOTTS ROAD,31A SCOTTS ROAD SINGAPORE 228243,28190.162365593,32599.9505272154
2 SAUNDERS ROAD EMERALD HILL CONSERVATION AREA SINGAPORE 228256,2,EMERALD HILL CONSERVATION AREA,1.30337367216933,103.838893008575,103.838893008575,228256,SAUNDERS ROAD,EMERALD HILL CONSERVATION AREA,28620.3831624547,31745.9574971553
4 SAUNDERS ROAD EMERALD HILL CONSERVATION AREA SINGAPORE 228257,4,EMERALD HILL CONSERVATION AREA,1.30342446660383,103.838895349276,103.838895349276,228257,SAUNDERS ROAD,EMERALD HILL CONSERVATION AREA,28620.6436487231,31751.5740847494
6 SAUNDERS ROAD EMERALD HILL CONSERVATION AREA SINGAPORE 228258,6,EMERALD HILL CONSERVATION AREA,1.30347493009436,103.838898039732,103.838898039732,228258,SAUNDERS ROAD,EMERALD HILL CONSERVATION AREA,28620.9430596177,31757.1540783513
8 SAUNDERS ROAD EMERALD HILL CONSERVATION AREA SINGAPORE 228259,8,EMERALD HILL CONSERVATION AREA,1.30352557616724,103.838899621632,103.838899621632,228259,SAUNDERS ROAD,EMERALD HILL CONSERVATION AREA,28621.1190982116,31762.7542607002
10 SAUNDERS ROAD EMERALD HILL CONSERVATION AREA SINGAPORE 228260,10,EMERALD HILL CONSERVATION AREA,1.30357614969731,103.838902794294,103.838902794294,228260,SAUNDERS ROAD,EMERALD HILL CONSERVATION AREA,28621.4721742412,31768.3464220315
12 SAUNDERS ROAD EMERALD HILL CONSERVATION AREA SINGAPORE 228261,12,EMERALD HILL CONSERVATION AREA,1.30362668244373,103.838904809989,103.838904809989,228261,SAUNDERS ROAD,EMERALD HILL CONSERVATION AREA,28621.6964902682,31773.9340734333
14 SAUNDERS ROAD EMERALD HILL CONSERVATION AREA SINGAPORE 228262,14,EMERALD HILL CONSERVATION AREA,1.30367575887836,103.838930246536,103.838930246536,228262,SAUNDERS ROAD,EMERALD HILL CONSERVATION AREA,28624.5273337141,31779.3606991619
16 SAUNDERS ROAD EMERALD HILL CONSERVATION AREA SINGAPORE 228263,16,EMERALD HILL CONSERVATION AREA,1.30372640139172,103.838932218172,103.838932218172,228263,SAUNDERS ROAD,EMERALD HILL CONSERVATION AREA,28624.7467463277,31784.9604880251
18 SAUNDERS ROAD EMERALD HILL CONSERVATION AREA SINGAPORE 228264,18,EMERALD HILL CONSERVATION AREA,1.30377837402236,103.838912375491,103.838912375491,228264,SAUNDERS ROAD,EMERALD HILL CONSERVATION AREA,28622.538424504,31790.7073490229
20 SAUNDERS ROAD EMERALD HILL CONSERVATION AREA SINGAPORE 228265,20,EMERALD HILL CONSERVATION AREA,1.30382899792106,103.838914699059,103.838914699059,228265,SAUNDERS ROAD,EMERALD HILL CONSERVATION AREA,28622.7970038885,31796.3050796632
22 SAUNDERS ROAD EMERALD HILL CONSERVATION AREA SINGAPORE 228266,22,EMERALD HILL CONSERVATION AREA,1.30387980905309,103.838917040304,103.838917040304,228266,SAUNDERS ROAD,EMERALD HILL CONSERVATION AREA,28623.057550692,31801.9235136043
24 SAUNDERS ROAD EMERALD HILL CONSERVATION AREA SINGAPORE 228267,24,EMERALD HILL CONSERVATION AREA,1.30393077374894,103.838919521072,103.838919521072,228267,SAUNDERS ROAD,EMERALD HILL CONSERVATION AREA,28623.333624972,31807.5589278843
26 SAUNDERS ROAD EMERALD HILL CONSERVATION AREA SINGAPORE 228268,26,EMERALD HILL CONSERVATION AREA,1.30398179100153,103.838922005104,103.838922005104,228268,SAUNDERS ROAD,EMERALD HILL CONSERVATION AREA,28623.6100624669,31813.2001536172
28 SAUNDERS ROAD EMERALD HILL CONSERVATION AREA SINGAPORE 228269,28,EMERALD HILL CONSERVATION AREA,1.30403208064981,103.838934337508,103.838934337508,228269,SAUNDERS ROAD,EMERALD HILL CONSERVATION AREA,28624.9825339206,31818.7609270513
30 SAUNDERS ROAD EMERALD HILL CONSERVATION AREA SINGAPORE 228270,30,EMERALD HILL CONSERVATION AREA,1.30408454953013,103.838927077606,103.838927077606,228270,SAUNDERS ROAD,EMERALD HILL CONSERVATION AREA,28624.1745603634,31824.5626639016
32 SAUNDERS ROAD SINGAPORE 228271,32,NIL,1.30415877855757,103.839033351879,103.839033351879,228271,SAUNDERS ROAD,32 SAUNDERS ROAD SINGAPORE 228271,28636.0018960731,31832.7705541179
34 SAUNDERS ROAD EMERALD HILL CONSERVATION AREA SINGAPORE 228272,34,EMERALD HILL CONSERVATION AREA,1.30422472159134,103.838939900575,103.838939900575,228272,SAUNDERS ROAD,EMERALD HILL CONSERVATION AREA,28625.6016049916,31840.0621719323
36 SAUNDERS ROAD EMERALD HILL CONSERVATION AREA SINGAPORE 228273,36,EMERALD HILL CONSERVATION AREA,1.30428073801943,103.83894672937,103.83894672937,228273,SAUNDERS ROAD,EMERALD HILL CONSERVATION AREA,28626.3615735266,31846.256181851
38 SAUNDERS ROAD EMERALD HILL CONSERVATION AREA SINGAPORE 228274,38,EMERALD HILL CONSERVATION AREA,1.30432686507431,103.838930405718,103.838930405718,228274,SAUNDERS ROAD,EMERALD HILL CONSERVATION AREA,28624.5448891446,31851.3566700555
40 SAUNDERS ROAD EMERALD HILL CONSERVATION AREA SINGAPORE 228275,40,EMERALD HILL CONSERVATION AREA,1.30438165844762,103.838944298709,103.838944298709,228275,SAUNDERS ROAD,EMERALD HILL CONSERVATION AREA,28626.0910382885,31857.4154426251
42 SAUNDERS ROAD EMERALD HILL CONSERVATION AREA SINGAPORE 228276,42,EMERALD HILL CONSERVATION AREA,1.30442652902213,103.838948462698,103.838948462698,228276,SAUNDERS ROAD,EMERALD HILL CONSERVATION AREA,28626.5544411195,31862.3770007826
44 SAUNDERS ROAD EMERALD HILL CONSERVATION AREA SINGAPORE 228277,44,EMERALD HILL CONSERVATION AREA,1.30448296097847,103.8389545433,103.8389545433,228277,SAUNDERS ROAD,EMERALD HILL CONSERVATION AREA,28627.2311424315,31868.6169575024
46 SAUNDERS ROAD EMERALD HILL CONSERVATION AREA SINGAPORE 228278,46,EMERALD HILL CONSERVATION AREA,1.30452710589001,103.838957290043,103.838957290043,228278,SAUNDERS ROAD,EMERALD HILL CONSERVATION AREA,28627.5368187986,31873.4982752372
48 SAUNDERS ROAD EMERALD HILL CONSERVATION AREA SINGAPORE 228279,48,EMERALD HILL CONSERVATION AREA,1.30458146818413,103.83894873175,103.83894873175,228279,SAUNDERS ROAD,EMERALD HILL CONSERVATION AREA,28626.5843458874,31879.5093757305
50 SAUNDERS ROAD EMERALD HILL CONSERVATION AREA SINGAPORE 228280,50,EMERALD HILL CONSERVATION AREA,1.3046278721826,103.838965392039,103.838965392039,228280,SAUNDERS ROAD,EMERALD HILL CONSERVATION AREA,28628.4384717662,31884.6404951345
52 SAUNDERS ROAD EMERALD HILL CONSERVATION AREA SINGAPORE 228281,52,EMERALD HILL CONSERVATION AREA,1.30468451191536,103.838965614094,103.838965614094,228281,SAUNDERS ROAD,EMERALD HILL CONSERVATION AREA,28628.4631704409,31890.9034252539
54 SAUNDERS ROAD EMERALD HILL CONSERVATION AREA SINGAPORE 228282,54,EMERALD HILL CONSERVATION AREA,1.30472859083754,103.83897704599,103.83897704599,228282,SAUNDERS ROAD,EMERALD HILL CONSERVATION AREA,28629.7354245996,31895.7774484027
56 SAUNDERS ROAD EMERALD HILL CONSERVATION AREA SINGAPORE 228283,56,EMERALD HILL CONSERVATION AREA,1.30480380460562,103.838906940214,103.838906940214,228283,SAUNDERS ROAD,EMERALD HILL CONSERVATION AREA,28621.9332767054,31904.0941822901
1 PECK HAY ROAD CASA CAIRNHILL SINGAPORE 228305,1,CASA CAIRNHILL,1.30810793174444,103.839546062882,103.839546062882,228305,PECK HAY ROAD,CASA CAIRNHILL,28693.0608591456,32269.4477237836
5 PECK HAY ROAD VIDA SINGAPORE 228307,5,VIDA,1.30868551490343,103.839081390501,103.839081390501,228307,PECK HAY ROAD,VIDA,28641.3470101217,32333.3137747869
17 PECK HAY ROAD CASA NOVACREST SINGAPORE 228313,17,CASA NOVACREST,1.30914888602049,103.838010317853,103.838010317853,228313,PECK HAY ROAD,CASA NOVACREST,28522.1465446856,32384.5507214591
21 PECK HAY ROAD CITYVISTA RESIDENCES SINGAPORE 228314,21,CITYVISTA RESIDENCES,1.30914345592949,103.83757966118,103.83757966118,228314,PECK HAY ROAD,CITYVISTA RESIDENCES,28474.2184939925,32383.9502046611
6 NUTMEG ROAD NUTMEG COURT SINGAPORE 228337,6,NUTMEG COURT,1.30459707446005,103.834648656706,103.834648656706,228337,NUTMEG ROAD,NUTMEG COURT,28148.0254276888,31881.23437839
8 NUTMEG ROAD NUTMEG COURT SINGAPORE 228338,8,NUTMEG COURT,1.30465796665989,103.8346012678,103.8346012678,228338,NUTMEG ROAD,NUTMEG COURT,28142.7514736699,31887.9675216358
17 NIVEN ROAD SINGAPORE 228364,17,NIL,1.30277507992363,103.849336239186,103.849336239186,228364,NIVEN ROAD,17 NIVEN ROAD SINGAPORE 228364,29782.6199509921,31679.7732212786
18 NIVEN ROAD GURDWARA KHALSA DHARMAK SABHA SINGAPORE 228365,18,GURDWARA KHALSA DHARMAK SABHA,1.30257588207832,103.849575200716,103.849575200716,228365,NIVEN ROAD,GURDWARA KHALSA DHARMAK SABHA,29809.2143397937,31657.7471187245
19 NIVEN ROAD SINGAPORE 228366,19,NIL,1.30279958541313,103.849407275097,103.849407275097,228366,NIVEN ROAD,19 NIVEN ROAD SINGAPORE 228366,29790.5255851233,31682.4829625208
20 NIVEN ROAD SINGAPORE 228367,20,NIL,1.30279124739823,103.849635752797,103.849635752797,228367,NIVEN ROAD,20 NIVEN ROAD SINGAPORE 228367,29815.9530826164,31681.561151078
21 NIVEN ROAD SINGAPORE 228368,21,NIL,1.30285346863118,103.849410861386,103.849410861386,228368,NIVEN ROAD,21 NIVEN ROAD SINGAPORE 228368,29790.9246684881,31688.4410940446
22 NIVEN ROAD SINGAPORE 228369,22,NIL,1.30283886512014,103.849642668257,103.849642668257,228369,NIVEN ROAD,22 NIVEN ROAD SINGAPORE 228369,29816.7226763703,31686.8264787216
23 NIVEN ROAD SINGAPORE 228370,23,NIL,1.30290262856748,103.849417436615,103.849417436615,228370,NIVEN ROAD,23 NIVEN ROAD SINGAPORE 228370,29791.6563969944,31693.8769515082
24 NIVEN ROAD SINGAPORE 228371,24,NIL,1.30288662518987,103.849648552129,103.849648552129,228371,NIVEN ROAD,24 NIVEN ROAD SINGAPORE 228371,29817.3774636621,31692.1075457167
25 NIVEN ROAD SINGAPORE 228372,25,NIL,1.30295175948792,103.849424036321,103.849424036321,228372,NIVEN ROAD,25 NIVEN ROAD SINGAPORE 228372,29792.3908496192,31699.3096005656
26 NIVEN ROAD SINGAPORE 228373,26,NIL,1.30293302536974,103.849652047537,103.849652047537,228373,NIVEN ROAD,26 NIVEN ROAD SINGAPORE 228373,29817.7664375212,31697.238241367
27 NIVEN ROAD SINGAPORE 228374,27,NIL,1.30300481383915,103.849428128473,103.849428128473,228374,NIVEN ROAD,27 NIVEN ROAD SINGAPORE 228374,29792.8462314345,31705.176080633
28 NIVEN ROAD SINGAPORE 228375,28,NIL,1.3029776451812,103.849656940868,103.849656940868,228375,NIVEN ROAD,28 NIVEN ROAD SINGAPORE 228375,29818.3109888155,31702.1720740534
29 NIVEN ROAD SINGAPORE 228376,29,NIL,1.30306428509575,103.849423350851,103.849423350851,228376,NIVEN ROAD,29 NIVEN ROAD SINGAPORE 228376,29792.3144834964,31711.7521027755
30 NIVEN ROAD SINGAPORE 228377,30,NIL,1.30302223543108,103.849661591056,103.849661591056,228377,NIVEN ROAD,30 NIVEN ROAD SINGAPORE 228377,29818.8284805333,31707.1026377976
31 NIVEN ROAD SINGAPORE 228378,31,NIL,1.30311932391369,103.849399979577,103.849399979577,228378,NIVEN ROAD,31 NIVEN ROAD SINGAPORE 228378,29789.7134345835,31717.8379954584
32 NIVEN ROAD SINGAPORE 228379,32,NIL,1.30306693681733,103.849666114778,103.849666114778,228379,NIVEN ROAD,32 NIVEN ROAD SINGAPORE 228379,29819.3318976387,31712.0454903431
33 NIVEN ROAD SINGAPORE 228380,33,NIL,1.30316989614094,103.84939056641,103.84939056641,228380,NIVEN ROAD,33 NIVEN ROAD SINGAPORE 228380,29788.6657991316,31723.4300054498
34 NIVEN ROAD SINGAPORE 228381,34,NIL,1.30311195878521,103.849664453593,103.849664453593,228381,NIVEN ROAD,34 NIVEN ROAD SINGAPORE 228381,29819.1469905265,31717.0237866957
35 NIVEN ROAD SINGAPORE 228382,35,NIL,1.30321905334027,103.849397080445,103.849397080445,228382,NIVEN ROAD,35 NIVEN ROAD SINGAPORE 228382,29789.3907173416,31728.8655602336
36 NIVEN ROAD SINGAPORE 228383,36,NIL,1.30315592793347,103.849669321899,103.849669321899,228383,NIVEN ROAD,36 NIVEN ROAD SINGAPORE 228383,29819.6887571663,31721.8856723849
37 NIVEN ROAD SINGAPORE 228384,37,NIL,1.3032680186493,103.849404128633,103.849404128633,228384,NIVEN ROAD,37 NIVEN ROAD SINGAPORE 228384,29790.1750818715,31734.2798971608
38 NIVEN ROAD SINGAPORE 228385,38,NIL,1.30319961650745,103.849673880156,103.849673880156,228385,NIVEN ROAD,38 NIVEN ROAD SINGAPORE 228385,29820.1960183056,31726.7165333908
39 NIVEN ROAD SINGAPORE 228386,39,NIL,1.30331660019567,103.849409462036,103.849409462036,228386,NIVEN ROAD,39 NIVEN ROAD SINGAPORE 228386,29790.7686067643,31739.651798375
40 NIVEN ROAD SINGAPORE 228387,40,NIL,1.30324320872736,103.849678437596,103.849678437596,228387,NIVEN ROAD,40 NIVEN ROAD SINGAPORE 228387,29820.703188641,31731.5367400646
41 NIVEN ROAD SINGAPORE 228388,41,NIL,1.30336515435853,103.849416378587,103.849416378587,228388,NIVEN ROAD,41 NIVEN ROAD SINGAPORE 228388,29791.5383215901,31745.0206727907
42 NIVEN ROAD SINGAPORE 228389,42,NIL,1.30328710533911,103.849682876187,103.849682876187,228389,NIVEN ROAD,42 NIVEN ROAD SINGAPORE 228389,29821.1971318675,31736.3906047381
43 NIVEN ROAD SINGAPORE 228390,43,NIL,1.30341461813365,103.849423665025,103.849423665025,228390,NIVEN ROAD,43 NIVEN ROAD SINGAPORE 228390,29792.3492008736,31750.4901277162
44 NIVEN ROAD SINGAPORE 228391,44,NIL,1.30333069536645,103.849687841857,103.849687841857,228391,NIVEN ROAD,44 NIVEN ROAD SINGAPORE 228391,29821.7497344464,31741.2105692681
44A NIVEN ROAD SINGAPORE 228392,44A,NIL,1.30333069564019,103.849687841585,103.849687841585,228392,NIVEN ROAD,44A NIVEN ROAD SINGAPORE 228392,29821.7497041784,31741.2105995361
45 NIVEN ROAD SINGAPORE 228393,45,NIL,1.30346380790062,103.849431170944,103.849431170944,228393,NIVEN ROAD,45 NIVEN ROAD SINGAPORE 228393,29793.184506421,31755.9292843901
46 NIVEN ROAD SINGAPORE 228394,46,NIL,1.30337551392717,103.84968977505,103.84968977505,228394,NIVEN ROAD,46 NIVEN ROAD SINGAPORE 228394,29821.9648490064,31746.1663765106
47 NIVEN ROAD SINGAPORE 228395,47,NIL,1.30351422618409,103.849438214246,103.849438214246,228395,NIVEN ROAD,47 NIVEN ROAD SINGAPORE 228395,29793.9683261272,31761.5042837765
48 NIVEN ROAD SINGAPORE 228396,48,NIL,1.30347241092531,103.849704216835,103.849704216835,228396,NIVEN ROAD,48 NIVEN ROAD SINGAPORE 228396,29823.5720184054,31756.8807584587
49 NIVEN ROAD SINGAPORE 228397,49,NIL,1.30357001484452,103.849443732365,103.849443732365,228397,NIVEN ROAD,49 NIVEN ROAD SINGAPORE 228397,29794.5824029809,31767.6731107328
50 NIVEN ROAD SINGAPORE 228398,50,NIL,1.30347241119905,103.849704216563,103.849704216563,228398,NIVEN ROAD,50 NIVEN ROAD SINGAPORE 228398,29823.5719881374,31756.8807887267
51 NIVEN ROAD SINGAPORE 228399,51,NIL,1.30362917204886,103.849451427641,103.849451427641,228399,NIVEN ROAD,51 NIVEN ROAD SINGAPORE 228399,29795.4387750439,31774.2144154981
52 NIVEN ROAD SINGAPORE 228400,52,NIL,1.30347241119905,103.849704216563,103.849704216563,228400,NIVEN ROAD,52 NIVEN ROAD SINGAPORE 228400,29823.5719881374,31756.8807887267
53 NIVEN ROAD SINGAPORE 228401,53,NIL,1.30367906172136,103.849463507859,103.849463507859,228401,NIVEN ROAD,53 NIVEN ROAD SINGAPORE 228401,29796.7831578087,31779.7309674062
54 NIVEN ROAD SINGAPORE 228402,54,NIL,1.30359595471595,103.849721288761,103.849721288761,228402,NIVEN ROAD,54 NIVEN ROAD SINGAPORE 228402,29825.4718792075,31770.5416075494
55 NIVEN ROAD SINGAPORE 228403,55,NIL,1.30371752523845,103.849474599388,103.849474599388,228403,NIVEN ROAD,55 NIVEN ROAD SINGAPORE 228403,29798.0175164528,31783.9840731397
56 NIVEN ROAD SINGAPORE 228404,56,NIL,1.30359595471594,103.849721289033,103.849721289033,228404,NIVEN ROAD,56 NIVEN ROAD SINGAPORE 228404,29825.4719094755,31770.5416075494
56A NIVEN ROAD SINGAPORE 228405,56A,NIL,1.30366884897149,103.849723386135,103.849723386135,228405,NIVEN ROAD,56A NIVEN ROAD SINGAPORE 228405,29825.7052453617,31778.6018808093
58 NIVEN ROAD SINGAPORE 228407,58,NIL,1.30370674693565,103.849737435357,103.849737435357,228407,NIVEN ROAD,58 NIVEN ROAD SINGAPORE 228407,29827.2687683292,31782.7924528886
59 NIVEN ROAD SINGAPORE 228408,59,NIL,1.30381471277519,103.849472481074,103.849472481074,228408,NIVEN ROAD,59 NIVEN ROAD SINGAPORE 228408,29797.781698592,31794.7305694185
60 NIVEN ROAD SINGAPORE 228409,60,NIL,1.30374568314177,103.849713858642,103.849713858642,228409,NIVEN ROAD,60 NIVEN ROAD SINGAPORE 228409,29824.6448670886,31787.0978011601
61 NIVEN ROAD SINGAPORE 228410,61,NIL,1.30386349989749,103.849477373615,103.849477373615,228410,NIVEN ROAD,61 NIVEN ROAD SINGAPORE 228410,29798.3261590824,31800.1252018884
62 NIVEN ROAD SINGAPORE 228411,62,NIL,1.30377486893471,103.849738885952,103.849738885952,228411,NIVEN ROAD,62 NIVEN ROAD SINGAPORE 228411,29827.4301572181,31790.3250341192
63 NIVEN ROAD SINGAPORE 228412,63,NIL,1.30390895816317,103.849480699848,103.849480699848,228412,NIVEN ROAD,63 NIVEN ROAD SINGAPORE 228412,29798.6963062556,31805.1517454069
64 NIVEN ROAD SINGAPORE 228413,64,NIL,1.30380623920681,103.849750154221,103.849750154221,228413,NIVEN ROAD,64 NIVEN ROAD SINGAPORE 228413,29828.6841900516,31793.7938055899
65 NIVEN ROAD SINGAPORE 228414,65,NIL,1.30395730076331,103.849482456278,103.849482456278,228414,NIVEN ROAD,65 NIVEN ROAD SINGAPORE 228414,29798.8917466262,31810.4972226713
66 NIVEN ROAD SINGAPORE 228415,66,NIL,1.3038393343148,103.849754646323,103.849754646323,228415,NIVEN ROAD,66 NIVEN ROAD SINGAPORE 228415,29829.1840960709,31797.4532956257
66A NIVEN ROAD SINGAPORE 228416,66A,NIL,1.3038393343148,103.849754646323,103.849754646323,228416,NIVEN ROAD,66A NIVEN ROAD SINGAPORE 228416,29829.1840960709,31797.4532956257
66B NIVEN ROAD SINGAPORE 228417,66B,NIL,1.3038393343148,103.849754646323,103.849754646323,228417,NIVEN ROAD,66B NIVEN ROAD SINGAPORE 228417,29829.1840960709,31797.4532956257
67 NIVEN ROAD SINGAPORE 228418,67,NIL,1.30400458234372,103.849488967587,103.849488967587,228418,NIVEN ROAD,67 NIVEN ROAD SINGAPORE 228418,29799.6163621563,31815.7253812309
68 NIVEN ROAD SINGAPORE 228419,68,NIL,1.30387624195009,103.849763024111,103.849763024111,228419,NIVEN ROAD,68 NIVEN ROAD SINGAPORE 228419,29830.116440773,31801.5343581382
70 NIVEN ROAD NIVEN LOFT SINGAPORE 228421,70,NIVEN LOFT,1.30398191862117,103.849783163498,103.849783163498,228421,NIVEN ROAD,NIVEN LOFT,29832.357694163,31813.2195553947
71 NIVEN ROAD SINGAPORE 228422,71,NIL,1.30427847492671,103.849569587245,103.849569587245,228422,NIVEN ROAD,71 NIVEN ROAD SINGAPORE 228422,29808.5883978903,31846.0110717192
73 NIVEN ROAD SINGAPORE 228424,73,NIL,1.30432066508179,103.849574823791,103.849574823791,228424,NIVEN ROAD,73 NIVEN ROAD SINGAPORE 228424,29809.171147381,31850.6762457825
75 NIVEN ROAD SINGAPORE 228426,75,NIL,1.30436232665198,103.84958105575,103.84958105575,228426,NIVEN ROAD,75 NIVEN ROAD SINGAPORE 228426,29809.8646776918,31855.2829723675
77 NIVEN ROAD SINGAPORE 228428,77,NIL,1.30440264008206,103.849588087027,103.849588087027,228428,NIVEN ROAD,77 NIVEN ROAD SINGAPORE 228428,29810.6471656067,31859.7406291328
3 MOUNT SOPHIA EQUITY HEIGHTS SINGAPORE 228450,3,EQUITY HEIGHTS,1.30214198776631,103.846373144818,103.846373144818,228450,MOUNT SOPHIA,EQUITY HEIGHTS,29452.8548388574,31609.7672492433
4 MOUNT SOPHIA 8 @ MOUNT SOPHIA SINGAPORE 228451,4,8 @ MOUNT SOPHIA,1.3014000099814,103.846196007806,103.846196007806,228451,MOUNT SOPHIA,8 @ MOUNT SOPHIA,29433.1415129388,31527.7230644543
5 MOUNT SOPHIA SOPHIA HILLS SINGAPORE 228453,5,SOPHIA HILLS,1.30069058142746,103.848129303731,103.848129303731,228453,MOUNT SOPHIA,SOPHIA HILLS,29648.300355277,31449.2792865969
6 MOUNT SOPHIA 8 @ MOUNT SOPHIA SINGAPORE 228457,6,8 @ MOUNT SOPHIA,1.30142760828012,103.845928062337,103.845928062337,228457,MOUNT SOPHIA,8 @ MOUNT SOPHIA,29403.3215861842,31530.77459177
7 MOUNT SOPHIA SOPHIA HILLS SINGAPORE 228458,7,SOPHIA HILLS,1.30034930626746,103.847931269785,103.847931269785,228458,MOUNT SOPHIA,SOPHIA HILLS,29626.2611769531,31411.5427081659
10 MOUNT SOPHIA 8 @ MOUNT SOPHIA SINGAPORE 228459,10,8 @ MOUNT SOPHIA,1.30054947410356,103.846277669472,103.846277669472,228459,MOUNT SOPHIA,8 @ MOUNT SOPHIA,29442.2302014809,31433.6752329525
11 MOUNT SOPHIA SOPHIA HILLS SINGAPORE 228461,11,SOPHIA HILLS,1.30036937784865,103.847286583786,103.847286583786,228461,MOUNT SOPHIA,SOPHIA HILLS,29554.5134035265,31413.7617145889
10A MOUNT SOPHIA 8 @ MOUNT SOPHIA SINGAPORE 228462,10A,8 @ MOUNT SOPHIA,1.30103203548181,103.846389616785,103.846389616785,228462,MOUNT SOPHIA,8 @ MOUNT SOPHIA,29454.6886549192,31487.0344495717
8 MOUNT SOPHIA 8 @ MOUNT SOPHIA SINGAPORE 228463,8,8 @ MOUNT SOPHIA,1.30096483460999,103.845956557221,103.845956557221,228463,MOUNT SOPHIA,8 @ MOUNT SOPHIA,29406.4930655183,31479.6034779605
30 MOUNT SOPHIA THE CATHAY RESIDENCE SINGAPORE 228464,30,THE CATHAY RESIDENCE,1.29957070181431,103.847694079052,103.847694079052,228464,MOUNT SOPHIA,THE CATHAY RESIDENCE,29599.8644683538,31325.4484855495
9 MOUNT SOPHIA SOPHIA HILLS SINGAPORE 228470,9,SOPHIA HILLS,1.30021278095059,103.84758009046,103.84758009046,228470,MOUNT SOPHIA,SOPHIA HILLS,29587.1781575345,31396.4462183397
13 MOUNT SOPHIA SOPHIA HILLS SINGAPORE 228471,13,SOPHIA HILLS,1.30091897579297,103.847111226621,103.847111226621,228471,MOUNT SOPHIA,SOPHIA HILLS,29534.9973945925,31474.5333182756
15 MOUNT SOPHIA SOPHIA HILLS SINGAPORE 228472,15,SOPHIA HILLS,1.30110557069815,103.846980939381,103.846980939381,228472,MOUNT SOPHIA,SOPHIA HILLS,29520.4974867255,31495.1659433972
17 MOUNT SOPHIA SOPHIA HILLS SINGAPORE 228473,17,SOPHIA HILLS,1.30174572312556,103.846739972688,103.846739972688,228473,MOUNT SOPHIA,SOPHIA HILLS,29493.6796899354,31565.9505593143
19 MOUNT SOPHIA SOPHIA HILLS SINGAPORE 228474,19,SOPHIA HILLS,1.30152608161095,103.846959221716,103.846959221716,228474,MOUNT SOPHIA,SOPHIA HILLS,29518.0802552775,31541.6638621278
21 MOUNT SOPHIA SOPHIA HILLS SINGAPORE 228475,21,SOPHIA HILLS,1.3013126659791,103.84715690285,103.84715690285,228475,MOUNT SOPHIA,SOPHIA HILLS,29540.0805089744,31518.065579962
23 MOUNT SOPHIA SOPHIA HILLS SINGAPORE 228476,23,SOPHIA HILLS,1.30111456586051,103.847373372103,103.847373372103,228476,MOUNT SOPHIA,SOPHIA HILLS,29564.1717052544,31496.1608217545
25 MOUNT SOPHIA SOPHIA HILLS SINGAPORE 228477,25,SOPHIA HILLS,1.30089754938697,103.847641178837,103.847641178837,228477,MOUNT SOPHIA,SOPHIA HILLS,29593.9763164092,31472.1644247994
27 MOUNT SOPHIA SOPHIA HILLS SINGAPORE 228478,27,SOPHIA HILLS,1.30050483669434,103.84769412295,103.84769412295,228478,MOUNT SOPHIA,SOPHIA HILLS,29599.8687664075,31428.7403106187
29 MOUNT SOPHIA SOPHIA HILLS SINGAPORE 228479,29,SOPHIA HILLS,1.30075361230449,103.847362727046,103.847362727046,228479,MOUNT SOPHIA,SOPHIA HILLS,29562.9872282473,31456.2484293133
31 MOUNT SOPHIA SOPHIA HILLS SINGAPORE 228480,31,SOPHIA HILLS,1.30132167432065,103.846793259202,103.846793259202,228480,MOUNT SOPHIA,SOPHIA HILLS,29499.6102473252,31519.0614571627
33 MOUNT SOPHIA HOUSE ON THE HILL PRE-SCHOOL - SOPHIA HILLS SINGAPORE 228481,33,HOUSE ON THE HILL PRE-SCHOOL - SOPHIA HILLS,1.30178268606854,103.847150912242,103.847150912242,228481,MOUNT SOPHIA,HOUSE ON THE HILL PRE-SCHOOL - SOPHIA HILLS,29539.4135236852,31570.0379781034
18 MOUNT SOPHIA HAUS ON HANDY SINGAPORE 228482,18,HAUS ON HANDY,1.30062300223401,103.846766553608,103.846766553608,228482,MOUNT SOPHIA,HAUS ON HANDY,29496.6385669522,31441.8058792744
1 MOUNT EMILY ROAD SINGAPORE 228483,1,NIL,1.30405942059508,103.8494957006,103.8494957006,228483,MOUNT EMILY ROAD,1 MOUNT EMILY ROAD SINGAPORE 228483,29800.3656460932,31821.7891177498
2 MOUNT EMILY ROAD SINGAPORE 228484,2,NIL,1.30436404749245,103.84943009639,103.84943009639,228484,MOUNT EMILY ROAD,2 MOUNT EMILY ROAD SINGAPORE 228484,29793.0642819889,31855.4731461089
3 MOUNT EMILY ROAD EMILY RESIDENCE SINGAPORE 228485,3,EMILY RESIDENCE,1.30407535521206,103.849184825415,103.849184825415,228485,MOUNT EMILY ROAD,EMILY RESIDENCE,29765.7680694498,31823.5508657414
4 MOUNT EMILY ROAD SINGAPORE 228486,4,NIL,1.30439913596795,103.849385237293,103.849385237293,228486,MOUNT EMILY ROAD,4 MOUNT EMILY ROAD SINGAPORE 228486,29788.071850487,31859.3530173339
6 MOUNT EMILY ROAD SINGAPORE 228487,6,NIL,1.30443154029468,103.849328254213,103.849328254213,228487,MOUNT EMILY ROAD,6 MOUNT EMILY ROAD SINGAPORE 228487,29781.7301328061,31862.936080711
65 MOUNT EMILY ROAD SINGAPORE 228488,65,NIL,1.30528161706371,103.84719961349,103.84719961349,228488,MOUNT EMILY ROAD,65 MOUNT EMILY ROAD SINGAPORE 228488,29544.8314019665,31956.9317907449
2C MOUNT EMILY ROAD SINGAPORE 228489,2C,NIL,1.3042279633316,103.849557834744,103.849557834744,228489,MOUNT EMILY ROAD,2C MOUNT EMILY ROAD SINGAPORE 228489,29807.2804880459,31840.4257509522
5 MOUNT EMILY ROAD PARC EMILY SINGAPORE 228490,5,PARC EMILY,1.30435494846521,103.848757878309,103.848757878309,228490,MOUNT EMILY ROAD,PARC EMILY,29718.2525713742,31854.466554042
7 MOUNT EMILY ROAD PARC EMILY SINGAPORE 228491,7,PARC EMILY,1.30432466166875,103.848783680916,103.848783680916,228491,MOUNT EMILY ROAD,PARC EMILY,29721.124185794,31851.1176135205
9 MOUNT EMILY ROAD PARC EMILY SINGAPORE 228492,9,PARC EMILY,1.30376843180555,103.848708365255,103.848708365255,228492,MOUNT EMILY ROAD,PARC EMILY,29712.7426178865,31789.6125257835
11 MOUNT EMILY ROAD PARC EMILY SINGAPORE 228493,11,PARC EMILY,1.30356701208416,103.848733778441,103.848733778441,228493,MOUNT EMILY ROAD,PARC EMILY,29715.5710096247,31767.3405866642
13 MOUNT EMILY ROAD PARC EMILY SINGAPORE 228494,13,PARC EMILY,1.30381789876716,103.849127162779,103.849127162779,228494,MOUNT EMILY ROAD,PARC EMILY,29759.3509239536,31795.0826163366
15 MOUNT EMILY ROAD PARC EMILY SINGAPORE 228495,15,PARC EMILY,1.30351073200086,103.849134794298,103.849134794298,228495,MOUNT EMILY ROAD,PARC EMILY,29760.2004554523,31761.1177010871
3 MOUNT ELIZABETH DBS MOUNT ELIZABETH HOSPITAL SINGAPORE 228510,3,DBS MOUNT ELIZABETH HOSPITAL,1.30540799634699,103.835473484406,103.835473484406,228510,MOUNT ELIZABETH,DBS MOUNT ELIZABETH HOSPITAL,28239.8211093275,31970.9020088986
12 MOUNT ELIZABETH ELIZABETH TOWERS SINGAPORE 228511,12,ELIZABETH TOWERS,1.30587322570615,103.83635902347,103.83635902347,228511,MOUNT ELIZABETH,ELIZABETH TOWERS,28338.3733918983,32022.3447778597
14 MOUNT ELIZABETH ELIZABETH TOWER SINGAPORE 228512,14,ELIZABETH TOWER,1.30626330955029,103.836260973088,103.836260973088,228512,MOUNT ELIZABETH,ELIZABETH TOWER,28327.4612389449,32065.4782285932
16 MOUNT ELIZABETH RHAPSODY ON MOUNT ELIZABETH SINGAPORE 228513,16,RHAPSODY ON MOUNT ELIZABETH,1.30669217339059,103.836183395425,103.836183395425,228513,MOUNT ELIZABETH,RHAPSODY ON MOUNT ELIZABETH,28318.8275084654,32112.8997748457
18 MOUNT ELIZABETH OAKWOOD STUDIOS SINGAPORE SINGAPORE 228514,18,OAKWOOD STUDIOS SINGAPORE,1.30696309187938,103.836152369141,103.836152369141,228514,MOUNT ELIZABETH,OAKWOOD STUDIOS SINGAPORE,28315.3745368831,32142.8565431554
21 MOUNT ELIZABETH SINGAPORE 228516,21,NIL,1.30733616413651,103.835678764705,103.835678764705,228516,MOUNT ELIZABETH,21 MOUNT ELIZABETH SINGAPORE 228516,28262.6667175414,32184.1088992357
22 MOUNT ELIZABETH THE QUINCY HOTEL SINGAPORE 228517,22,THE QUINCY HOTEL,1.30776112848489,103.835754610284,103.835754610284,228517,MOUNT ELIZABETH,THE QUINCY HOTEL,28271.1075804289,32231.0992780607
24 MOUNT ELIZABETH THE ELIZABETH SINGAPORE 228518,24,THE ELIZABETH,1.30802412049122,103.835712302794,103.835712302794,228518,MOUNT ELIZABETH,THE ELIZABETH,28266.399123149,32260.1795763653
30 MOUNT ELIZABETH HIGH POINT SINGAPORE 228519,30,HIGH POINT,1.30845412429124,103.835456199061,103.835456199061,228519,MOUNT ELIZABETH,HIGH POINT,28237.8971249424,32307.7271585017
52 MONK'S HILL TERRACE SINGAPORE 228541,52,NIL,1.31164229427284,103.84058967547,103.84058967547,228541,MONK'S HILL TERRACE,52 MONK'S HILL TERRACE SINGAPORE 228541,28809.2040766189,32660.2596663814
54 MONK'S HILL TERRACE SINGAPORE 228542,54,NIL,1.31166661476081,103.840543133666,103.840543133666,228542,MONK'S HILL TERRACE,54 MONK'S HILL TERRACE SINGAPORE 228542,28804.0244073691,32662.9488859307
56 MONK'S HILL TERRACE SINGAPORE 228543,56,NIL,1.31168834163637,103.840493721454,103.840493721454,228543,MONK'S HILL TERRACE,56 MONK'S HILL TERRACE SINGAPORE 228543,28798.5252898196,32665.3513163347
58 MONK'S HILL TERRACE SINGAPORE 228544,58,NIL,1.3117122025353,103.840443544459,103.840443544459,228544,MONK'S HILL TERRACE,58 MONK'S HILL TERRACE SINGAPORE 228544,28792.941058699,32667.9897159394
60 MONK'S HILL TERRACE SINGAPORE 228545,60,NIL,1.31173650988625,103.840395282969,103.840395282969,228545,MONK'S HILL TERRACE,60 MONK'S HILL TERRACE SINGAPORE 228545,28787.5700049885,32670.6774826255
62 MONK'S HILL TERRACE SINGAPORE 228546,62,NIL,1.31175695568843,103.840345921066,103.840345921066,228546,MONK'S HILL TERRACE,62 MONK'S HILL TERRACE SINGAPORE 228546,28782.0764870159,32672.938258864
64 MONK'S HILL TERRACE SINGAPORE 228547,64,NIL,1.31178099642344,103.840296998679,103.840296998679,228547,MONK'S HILL TERRACE,64 MONK'S HILL TERRACE SINGAPORE 228547,28776.631882105,32675.596544534
66 MONK'S HILL TERRACE SINGAPORE 228549,66,NIL,1.31180501444217,103.840246447447,103.840246447447,228549,MONK'S HILL TERRACE,66 MONK'S HILL TERRACE SINGAPORE 228549,28771.006002239,32678.2523179613
68 MONK'S HILL TERRACE SINGAPORE 228550,68,NIL,1.31182905354086,103.840194610327,103.840194610327,228550,MONK'S HILL TERRACE,68 MONK'S HILL TERRACE SINGAPORE 228550,28765.237015347,32680.9104220234
70 MONK'S HILL TERRACE SINGAPORE 228551,70,NIL,1.31185173546146,103.840146045035,103.840146045035,228551,MONK'S HILL TERRACE,70 MONK'S HILL TERRACE SINGAPORE 228551,28759.8321522987,32683.4184574224
72 MONK'S HILL TERRACE SINGAPORE 228552,72,NIL,1.31187269614362,103.840099187997,103.840099187997,228552,MONK'S HILL TERRACE,72 MONK'S HILL TERRACE SINGAPORE 228552,28754.6174024558,32685.7361677401
74 MONK'S HILL TERRACE SINGAPORE 228553,74,NIL,1.31189553819666,103.840050437218,103.840050437218,228553,MONK'S HILL TERRACE,74 MONK'S HILL TERRACE SINGAPORE 228553,28749.1918966426,32688.2619099095
30A MONK'S HILL TERRACE TEMPORARY SITE OFFICE SINGAPORE 228554,30A,TEMPORARY SITE OFFICE,1.31144020611132,103.841003747046,103.841003747046,228554,MONK'S HILL TERRACE,TEMPORARY SITE OFFICE,28855.2863856647,32637.9139339179
51A MONK'S HILL TERRACE TEMPORARY SITE OFFICE SINGAPORE 228555,51A,TEMPORARY SITE OFFICE,1.3114422439035,103.840212620393,103.840212620393,228555,MONK'S HILL TERRACE,TEMPORARY SITE OFFICE,28767.2414823007,32638.1390066445
44 MONK'S HILL ROAD MONKS HILL FLAT SINGAPORE 228575,44,MONKS HILL FLAT,1.31003131926182,103.839945004816,103.839945004816,228575,MONK'S HILL ROAD,MONKS HILL FLAT,28737.458815434,32482.1261351239
50 MONK'S HILL ROAD MONKS HILL FLAT SINGAPORE 228576,50,MONKS HILL FLAT,1.30900400541626,103.840161523178,103.840161523178,228576,MONK'S HILL ROAD,MONKS HILL FLAT,28761.555581023,32368.5311186649
46 MONK'S HILL ROAD MONKS HILL FLAT SINGAPORE 228577,46,MONKS HILL FLAT,1.30968598143613,103.839999644274,103.839999644274,228577,MONK'S HILL ROAD,MONKS HILL FLAT,28743.5397744346,32443.9404706173
46A MONK'S HILL ROAD SINGAPORE 228578,46A,NIL,1.3098071340234,103.839992929865,103.839992929865,228578,MONK'S HILL ROAD,46A MONK'S HILL ROAD SINGAPORE 228578,28742.7924881848,32457.3368986044
1 MAKEWAY AVENUE NEWTON EDGE SINGAPORE 228598,1,NEWTON EDGE,1.31285376960405,103.84210742583,103.84210742583,228598,MAKEWAY AVENUE,NEWTON EDGE,28978.1148321647,32794.2189217489
2 MAKEWAY AVENUE THE ATELIER SINGAPORE 228599,2,THE ATELIER,1.31283039144925,103.841544287772,103.841544287772,228599,MAKEWAY AVENUE,THE ATELIER,28915.4429439232,32791.6336727235
3 MAKEWAY AVENUE NEWTON EDGE SINGAPORE 228600,3,NEWTON EDGE,1.31249048224015,103.842087094326,103.842087094326,228600,MAKEWAY AVENUE,NEWTON EDGE,28975.8522701142,32754.0484644789
5 MAKEWAY AVENUE NEWTON EDGE SINGAPORE 228601,5,NEWTON EDGE,1.31267675739282,103.842352233114,103.842352233114,228601,MAKEWAY AVENUE,NEWTON EDGE,29005.3596194005,32774.6459182017
9 MAKEWAY AVENUE SINGAPORE 228603,9,NIL,1.31225580123037,103.842055215309,103.842055215309,228603,MAKEWAY AVENUE,9 MAKEWAY AVENUE SINGAPORE 228603,28972.3045294741,32728.0986323915
11 MAKEWAY AVENUE SINGAPORE 228604,11,NIL,1.3121264859398,103.842057306332,103.842057306332,228604,MAKEWAY AVENUE,11 MAKEWAY AVENUE SINGAPORE 228604,28972.5372902695,32713.7996131312
4 MAKEWAY AVENUE KOPAR AT NEWTON SINGAPORE 228605,4,KOPAR AT NEWTON,1.31242688268348,103.841064338246,103.841064338246,228605,MAKEWAY AVENUE,KOPAR AT NEWTON,28862.0292752013,32747.0155773908
6 MAKEWAY AVENUE KOPAR AT NEWTON SINGAPORE 228606,6,KOPAR AT NEWTON,1.31241382105386,103.841382136508,103.841382136508,228606,MAKEWAY AVENUE,KOPAR AT NEWTON,28897.397202299,32745.5714010838
8 MAKEWAY AVENUE KOPAR AT NEWTON SINGAPORE 228607,8,KOPAR AT NEWTON,1.31273110891936,103.840805628022,103.840805628022,228607,MAKEWAY AVENUE,KOPAR AT NEWTON,28833.2371886382,32780.6552631538
1 MAKEPEACE ROAD SINGAPORE 228626,1,NIL,1.31193224494851,103.842310930572,103.842310930572,228626,MAKEPEACE ROAD,1 MAKEPEACE ROAD SINGAPORE 228626,29000.7633352689,32692.3215426896
2 MAKEPEACE ROAD SINGAPORE 228627,2,NIL,1.31181364457399,103.842634448232,103.842634448232,228627,MAKEPEACE ROAD,2 MAKEPEACE ROAD SINGAPORE 228627,29036.7678283323,32679.207454456
3 MAKEPEACE ROAD SINGAPORE 228628,3,NIL,1.3119883614439,103.842271152038,103.842271152038,228628,MAKEPEACE ROAD,3 MAKEPEACE ROAD SINGAPORE 228628,28996.3363399701,32698.5266004223
4 MAKEPEACE ROAD SINGAPORE 228629,4,NIL,1.31185998229241,103.842653421765,103.842653421765,228629,MAKEPEACE ROAD,4 MAKEPEACE ROAD SINGAPORE 228629,29038.8793834122,32684.331249008
5 MAKEPEACE ROAD SINGAPORE 228630,5,NIL,1.31204049905499,103.842280160505,103.842280160505,228630,MAKEPEACE ROAD,5 MAKEPEACE ROAD SINGAPORE 228630,28997.3388761273,32704.2917130142
6 MAKEPEACE ROAD SINGAPORE 228631,6,NIL,1.31190997933006,103.84265717463,103.84265717463,228631,MAKEPEACE ROAD,6 MAKEPEACE ROAD SINGAPORE 228631,29039.2970210519,32689.8596659657
7 MAKEPEACE ROAD SINGAPORE 228632,7,NIL,1.31208594753255,103.842343081019,103.842343081019,228632,MAKEPEACE ROAD,7 MAKEPEACE ROAD SINGAPORE 228632,29004.3413136238,32709.3171971552
8 MAKEPEACE ROAD SINGAPORE 228633,8,NIL,1.31195993968702,103.842661041995,103.842661041995,228633,MAKEPEACE ROAD,8 MAKEPEACE ROAD SINGAPORE 228633,29039.7274015117,32695.3840270136
9 MAKEPEACE ROAD SINGAPORE 228634,9,NIL,1.31214068995796,103.842284153965,103.842284153965,228634,MAKEPEACE ROAD,9 MAKEPEACE ROAD SINGAPORE 228634,28997.7832706645,32715.3703096099
10 MAKEPEACE ROAD SINGAPORE 228635,10,NIL,1.31200996054007,103.842664609375,103.842664609375,228635,MAKEPEACE ROAD,10 MAKEPEACE ROAD SINGAPORE 228635,29040.1243963866,32700.9150772858
11 MAKEPEACE ROAD SINGAPORE 228636,11,NIL,1.31219051180162,103.842289398049,103.842289398049,228636,MAKEPEACE ROAD,11 MAKEPEACE ROAD SINGAPORE 228636,28998.3668676578,32720.8793550581
12 MAKEPEACE ROAD SINGAPORE 228637,12,NIL,1.31206007911415,103.842668608648,103.842668608648,228637,MAKEPEACE ROAD,12 MAKEPEACE ROAD SINGAPORE 228637,29040.5694568194,32706.4569332283
13 MAKEPEACE ROAD SINGAPORE 228638,13,NIL,1.31224041439533,103.842294961157,103.842294961157,228638,MAKEPEACE ROAD,13 MAKEPEACE ROAD SINGAPORE 228638,28998.9859689968,32726.3973295614
14 MAKEPEACE ROAD SINGAPORE 228639,14,NIL,1.31211010708331,103.842672411828,103.842672411828,228639,MAKEPEACE ROAD,14 MAKEPEACE ROAD SINGAPORE 228639,29040.9926940352,32711.98877047
15 MAKEPEACE ROAD SINGAPORE 228640,15,NIL,1.31229034108376,103.842298786632,103.842298786632,228640,MAKEPEACE ROAD,15 MAKEPEACE ROAD SINGAPORE 228640,28999.4116881881,32731.9179676473
16 MAKEPEACE ROAD SINGAPORE 228641,16,NIL,1.31216095602132,103.842664577026,103.842664577026,228641,MAKEPEACE ROAD,16 MAKEPEACE ROAD SINGAPORE 228641,29040.1207339605,32717.6113813929
17 MAKEPEACE ROAD SINGAPORE 228642,17,NIL,1.31234022315453,103.842302383378,103.842302383378,228642,MAKEPEACE ROAD,17 MAKEPEACE ROAD SINGAPORE 228642,28999.8119520051,32737.4336720537
18 MAKEPEACE ROAD SINGAPORE 228643,18,NIL,1.31221018464688,103.842679907225,103.842679907225,228643,MAKEPEACE ROAD,18 MAKEPEACE ROAD SINGAPORE 228643,29041.8268191312,32723.0548361205
19 MAKEPEACE ROAD SINGAPORE 228644,19,NIL,1.31239023059409,103.842306227619,103.842306227619,228644,MAKEPEACE ROAD,19 MAKEPEACE ROAD SINGAPORE 228644,29000.2397596864,32742.9632391948
20 MAKEPEACE ROAD SINGAPORE 228645,20,NIL,1.31230964551408,103.842607922927,103.842607922927,228645,MAKEPEACE ROAD,20 MAKEPEACE ROAD SINGAPORE 228645,29033.8156102728,32734.0526777357
21 MAKEPEACE ROAD SINGAPORE 228646,21,NIL,1.3124404482623,103.842309575239,103.842309575239,228646,MAKEPEACE ROAD,21 MAKEPEACE ROAD SINGAPORE 228646,29000.6122980304,32748.5160521474
23 MAKEPEACE ROAD SINGAPORE 228647,23,NIL,1.31249048280158,103.842313356655,103.842313356655,228647,MAKEPEACE ROAD,23 MAKEPEACE ROAD SINGAPORE 228647,29001.0331138074,32754.0486158188
25 MAKEPEACE ROAD SINGAPORE 228649,25,NIL,1.31254003610376,103.842321149669,103.842321149669,228649,MAKEPEACE ROAD,25 MAKEPEACE ROAD SINGAPORE 228649,29001.9003823455,32759.527968375
27 MAKEPEACE ROAD SINGAPORE 228650,27,NIL,1.31259034083124,103.842321112044,103.842321112044,228650,MAKEPEACE ROAD,27 MAKEPEACE ROAD SINGAPORE 228650,29001.8961750958,32765.0904065464
2 MACKENZIE ROAD REX CINEMAS SINGAPORE 228673,2,REX CINEMAS,1.30484520976053,103.850066460543,103.850066460543,228673,MACKENZIE ROAD,REX CINEMAS,29863.8854313632,31908.6780565474
11 MACKENZIE ROAD G4 STATION BACKPACKERS HOSTEL SINGAPORE 228675,11,G4 STATION BACKPACKERS HOSTEL,1.30434932431199,103.8499182954,103.8499182954,228675,MACKENZIE ROAD,G4 STATION BACKPACKERS HOSTEL,29847.3963721413,31853.8454852849
13 MACKENZIE ROAD SINGAPORE 228676,13,NIL,1.30435524479515,103.849848753036,103.849848753036,228676,MACKENZIE ROAD,13 MACKENZIE ROAD SINGAPORE 228676,29839.6569395084,31854.5000909679
15 MACKENZIE ROAD SINGAPORE 228677,15,NIL,1.30441539574488,103.849800322845,103.849800322845,228677,MACKENZIE ROAD,15 MACKENZIE ROAD SINGAPORE 228677,29834.267059112,31861.1512382459
19 MACKENZIE ROAD MACKENZIE REGENCY SINGAPORE 228678,19,MACKENZIE REGENCY,1.30453653348622,103.849640454994,103.849640454994,228678,MACKENZIE ROAD,MACKENZIE REGENCY,29816.4751447998,31874.5459106881
21 MACKENZIE ROAD MACKENZIE REGENCY SINGAPORE 228679,21,MACKENZIE REGENCY,1.30453653348622,103.849640454722,103.849640454722,228679,MACKENZIE ROAD,MACKENZIE REGENCY,29816.4751145318,31874.5459106881
23 MACKENZIE ROAD MACKENZIE REGENCY SINGAPORE 228680,23,MACKENZIE REGENCY,1.30465722284432,103.849480361389,103.849480361389,228680,MACKENZIE ROAD,MACKENZIE REGENCY,29798.6581080602,31887.8910041731
25 MACKENZIE ROAD MACKENZIE REGENCY SINGAPORE 228681,25,MACKENZIE REGENCY,1.30465722284432,103.849480361389,103.849480361389,228681,MACKENZIE ROAD,MACKENZIE REGENCY,29798.6581080602,31887.8910041731
27 MACKENZIE ROAD MACKENZIE REGENCY SINGAPORE 228682,27,MACKENZIE REGENCY,1.30465722284432,103.849480361389,103.849480361389,228682,MACKENZIE ROAD,MACKENZIE REGENCY,29798.6581080602,31887.8910041731
31 MACKENZIE ROAD MACKENZIE REGENCY SINGAPORE 228684,31,MACKENZIE REGENCY,1.30465722284432,103.849480361389,103.849480361389,228684,MACKENZIE ROAD,MACKENZIE REGENCY,29798.6581080602,31887.8910041731
33 MACKENZIE ROAD MACKENZIE REGENCY SINGAPORE 228686,33,MACKENZIE REGENCY,1.30465722284432,103.849480361389,103.849480361389,228686,MACKENZIE ROAD,MACKENZIE REGENCY,29798.6581080602,31887.8910041731
68 MACKENZIE ROAD PARC MACKENZIE SINGAPORE 228687,68,PARC MACKENZIE,1.3062554196251,103.847876483186,103.847876483186,228687,MACKENZIE ROAD,PARC MACKENZIE,29620.1601502793,32064.6102941595
88 MACKENZIE ROAD MACKENZIE 88 SINGAPORE 228697,88,MACKENZIE 88,1.30647254108334,103.847682721688,103.847682721688,228697,MACKENZIE ROAD,MACKENZIE 88,29598.596149032,32088.6183442883
104 MACKENZIE ROAD SINGAPORE 228705,104,NIL,1.30646811858586,103.847406050385,103.847406050385,228705,MACKENZIE ROAD,104 MACKENZIE ROAD SINGAPORE 228705,29567.8051950922,32088.1291531362
106 MACKENZIE ROAD SINGAPORE 228706,106,NIL,1.3064877309057,103.847375175128,103.847375175128,228706,MACKENZIE ROAD,106 MACKENZIE ROAD SINGAPORE 228706,29564.3690525079,32090.2977633644
108 MACKENZIE ROAD SINGAPORE 228707,108,NIL,1.30650844169681,103.847347644862,103.847347644862,228707,MACKENZIE ROAD,108 MACKENZIE ROAD SINGAPORE 228707,29561.3051758567,32092.587839013
110 MACKENZIE ROAD SINGAPORE 228708,110,NIL,1.30653125094446,103.847316559931,103.847316559931,228708,MACKENZIE ROAD,110 MACKENZIE ROAD SINGAPORE 228708,29557.8456966579,32095.1099490244
116 MACKENZIE ROAD SINGAPORE 228710,116,NIL,1.30663305840201,103.847339635701,103.847339635701,228710,MACKENZIE ROAD,116 MACKENZIE ROAD SINGAPORE 228710,29560.4137534685,32106.3673083317
122 MACKENZIE ROAD SINGAPORE 228711,122,NIL,1.30676164568435,103.847169883347,103.847169883347,228711,MACKENZIE ROAD,122 MACKENZIE ROAD SINGAPORE 228711,29541.5218098229,32120.5857239515
124 MACKENZIE ROAD SINGAPORE 228712,124,NIL,1.3068008054769,103.847102014536,103.847102014536,228712,MACKENZIE ROAD,124 MACKENZIE ROAD SINGAPORE 228712,29533.9686160944,32124.9157708976
131 MACKENZIE ROAD THE MKZ SINGAPORE 228714,131,THE MKZ,1.30652212866478,103.846587371813,103.846587371813,228714,MACKENZIE ROAD,THE MKZ,29476.6938120294,32094.1008144468
138 MACKENZIE ROAD MACKENZIE 138 SINGAPORE 228719,138,MACKENZIE 138,1.30693743456241,103.847015585508,103.847015585508,228719,MACKENZIE ROAD,MACKENZIE 138,29524.3497838164,32140.0234598797
140 MACKENZIE ROAD SINGAPORE 228720,140,NIL,1.30693853210888,103.846837075204,103.846837075204,228720,MACKENZIE ROAD,140 MACKENZIE ROAD SINGAPORE 228720,29504.4832413644,32140.1447134223
142 MACKENZIE ROAD SINGAPORE 228721,142,NIL,1.30698367984929,103.846811040634,103.846811040634,228721,MACKENZIE ROAD,142 MACKENZIE ROAD SINGAPORE 228721,29501.5858083544,32145.1369027793
144 MACKENZIE ROAD SINGAPORE 228722,144,NIL,1.30700925197715,103.846761377287,103.846761377287,228722,MACKENZIE ROAD,144 MACKENZIE ROAD SINGAPORE 228722,29496.058723188,32147.96450755
146 MACKENZIE ROAD SINGAPORE 228723,146,NIL,1.30712182195877,103.846856143611,103.846856143611,228723,MACKENZIE ROAD,146 MACKENZIE ROAD SINGAPORE 228723,29506.6052691666,32160.4119737111
148 MACKENZIE ROAD SINGAPORE 228724,148,NIL,1.30716611728444,103.846882542288,103.846882542288,228724,MACKENZIE ROAD,148 MACKENZIE ROAD SINGAPORE 228724,29509.5431704698,32165.309938835
165 MACKENZIE ROAD SINGAPORE 228725,165,NIL,1.30758626631254,103.846500687865,103.846500687865,228725,MACKENZIE ROAD,165 MACKENZIE ROAD SINGAPORE 228725,29467.046073827,32211.7676314153
167 MACKENZIE ROAD SINGAPORE 228726,167,NIL,1.3075862660388,103.846500688137,103.846500688137,228726,MACKENZIE ROAD,167 MACKENZIE ROAD SINGAPORE 228726,29467.0461040949,32211.7676011473
169 MACKENZIE ROAD SINGAPORE 228727,169,NIL,1.3075862660388,103.846500688137,103.846500688137,228727,MACKENZIE ROAD,169 MACKENZIE ROAD SINGAPORE 228727,29467.0461040949,32211.7676011473
171 MACKENZIE ROAD SINGAPORE 228728,171,NIL,1.3075862660388,103.846500688137,103.846500688137,228728,MACKENZIE ROAD,171 MACKENZIE ROAD SINGAPORE 228728,29467.0461040949,32211.7676011473
73 MACKENZIE ROAD MACKENZIE MOTOR VEHICLES TRADING CENTRE SINGAPORE 228729,73,MACKENZIE MOTOR VEHICLES TRADING CENTRE,1.30496963827014,103.848938761914,103.848938761914,228729,MACKENZIE ROAD,MACKENZIE MOTOR VEHICLES TRADING CENTRE,29738.3828387689,31922.4359145258
15 KRAMAT ROAD HOTEL SUPREME SINGAPORE 228750,15,HOTEL SUPREME,1.30133843547176,103.8424272571,103.8424272571,228750,KRAMAT ROAD,HOTEL SUPREME,29013.7136131739,31520.9126470461
20 KRAMAT LANE EMBASSY OF THE REPUBLIC OF UZBEKISTAN SINGAPORE 228773,20,EMBASSY OF THE REPUBLIC OF UZBEKISTAN,1.30106357567537,103.842461997492,103.842461997492,228773,KRAMAT LANE,EMBASSY OF THE REPUBLIC OF UZBEKISTAN,29017.5800151462,31490.5200803075
5 KOEK ROAD CHURCH OF PRAISE SINGAPORE 228796,5,CHURCH OF PRAISE,1.30199868252287,103.84073976691,103.84073976691,228796,KOEK ROAD,CHURCH OF PRAISE,28825.9109745193,31593.9187513608
52 KAMPONG JAVA ROAD SINGAPORE 228859,52,NIL,1.31237919671652,103.846274736683,103.846274736683,228859,KAMPONG JAVA ROAD,52 KAMPONG JAVA ROAD SINGAPORE 228859,29441.8970720526,32741.74510419
53 KAMPONG JAVA ROAD SINGAPORE 228860,53,NIL,1.31246313077628,103.846194198084,103.846194198084,228860,KAMPONG JAVA ROAD,53 KAMPONG JAVA ROAD SINGAPORE 228860,29432.9338443019,32751.0260549653
54 KAMPONG JAVA ROAD SINGAPORE 228861,54,NIL,1.31254694056982,103.846111486688,103.846111486688,228861,KAMPONG JAVA ROAD,54 KAMPONG JAVA ROAD SINGAPORE 228861,29423.7288056295,32760.2932640761
55 KAMPONG JAVA ROAD SINGAPORE 228862,55,NIL,1.31263379044735,103.846027105932,103.846027105932,228862,KAMPONG JAVA ROAD,55 KAMPONG JAVA ROAD SINGAPORE 228862,29414.3379820734,32769.8966294136
56 KAMPONG JAVA ROAD SINGAPORE 228863,56,NIL,1.31272076294788,103.845944008611,103.845944008611,228863,KAMPONG JAVA ROAD,56 KAMPONG JAVA ROAD SINGAPORE 228863,29405.0899931332,32779.5135548078
57 KAMPONG JAVA ROAD SINGAPORE 228864,57,NIL,1.31280534548327,103.845860894411,103.845860894411,228864,KAMPONG JAVA ROAD,57 KAMPONG JAVA ROAD SINGAPORE 228864,29395.8401275771,32788.8662104364
100 KAMPONG JAVA ROAD PARC CENTENNIAL SINGAPORE 228867,100,PARC CENTENNIAL,1.31317508970172,103.84379589573,103.84379589573,228867,KAMPONG JAVA ROAD,PARC CENTENNIAL,29166.0252853781,32829.7495695278
102 KAMPONG JAVA ROAD SINGAPORE 228868,102,NIL,1.31291504989051,103.84334805084,103.84334805084,228868,KAMPONG JAVA ROAD,102 KAMPONG JAVA ROAD SINGAPORE 228868,29116.1845402578,32800.9954995513
103 KAMPONG JAVA ROAD SINGAPORE 228869,103,NIL,1.31296929146759,103.843342434272,103.843342434272,228869,KAMPONG JAVA ROAD,103 KAMPONG JAVA ROAD SINGAPORE 228869,29115.559445858,32806.9932518657
104 KAMPONG JAVA ROAD SINGAPORE 228870,104,NIL,1.31302839320069,103.843330014323,103.843330014323,228870,KAMPONG JAVA ROAD,104 KAMPONG JAVA ROAD SINGAPORE 228870,29114.1771978457,32813.5284122303
105 KAMPONG JAVA ROAD SINGAPORE 228871,105,NIL,1.31307748723052,103.843324117874,103.843324117874,228871,KAMPONG JAVA ROAD,105 KAMPONG JAVA ROAD SINGAPORE 228871,29113.5209576907,32818.9569751099
106 KAMPONG JAVA ROAD SINGAPORE 228872,106,NIL,1.3131372702715,103.8433150111,103.8433150111,228872,KAMPONG JAVA ROAD,106 KAMPONG JAVA ROAD SINGAPORE 228872,29112.5074342564,32825.5674724858
107 KAMPONG JAVA ROAD SINGAPORE 228873,107,NIL,1.31319015577616,103.843309190546,103.843309190546,228873,KAMPONG JAVA ROAD,107 KAMPONG JAVA ROAD SINGAPORE 228873,29111.8596388688,32831.4152772073
108 KAMPONG JAVA ROAD SINGAPORE 228874,108,NIL,1.31324643338872,103.843301097945,103.843301097945,228874,KAMPONG JAVA ROAD,108 KAMPONG JAVA ROAD SINGAPORE 228874,29110.9589847447,32837.6381627843
109 KAMPONG JAVA ROAD SINGAPORE 228875,109,NIL,1.31330294946054,103.843283545854,103.843283545854,228875,KAMPONG JAVA ROAD,109 KAMPONG JAVA ROAD SINGAPORE 228875,29109.0055798795,32843.8874117732
129 KAMPONG JAVA ROAD SINGAPORE 228876,129,NIL,1.31301867296062,103.842397908917,103.842397908917,228876,KAMPONG JAVA ROAD,129 KAMPONG JAVA ROAD SINGAPORE 228876,29010.4427640503,32812.4532026444
129A KAMPONG JAVA ROAD SINGAPORE 228877,129A,NIL,1.31301867296062,103.842397909189,103.842397909189,228877,KAMPONG JAVA ROAD,129A KAMPONG JAVA ROAD SINGAPORE 228877,29010.4427943183,32812.4532026444
129B KAMPONG JAVA ROAD SINGAPORE 228878,129B,NIL,1.3130168120533,103.842342078595,103.842342078595,228878,KAMPONG JAVA ROAD,129B KAMPONG JAVA ROAD SINGAPORE 228878,29004.2293826202,32812.2474106234
129C KAMPONG JAVA ROAD SINGAPORE 228879,129C,NIL,1.3130168120533,103.842342078867,103.842342078867,228879,KAMPONG JAVA ROAD,129C KAMPONG JAVA ROAD SINGAPORE 228879,29004.2294128882,32812.2474106234
129D KAMPONG JAVA ROAD SINGAPORE 228880,129D,NIL,1.31301024100943,103.842289650364,103.842289650364,228880,KAMPONG JAVA ROAD,129D KAMPONG JAVA ROAD SINGAPORE 228880,28998.3946233988,32811.5207974054
129E KAMPONG JAVA ROAD SINGAPORE 228881,129E,NIL,1.31301024100943,103.842289650092,103.842289650092,228881,KAMPONG JAVA ROAD,129E KAMPONG JAVA ROAD SINGAPORE 228881,28998.3945931308,32811.5207974054
21 KAMPONG JAVA ROAD KAMPONG JAVA NEIGHBOURHOOD POLICE CENTRE SINGAPORE 228892,21,KAMPONG JAVA NEIGHBOURHOOD POLICE CENTRE,1.31204343396145,103.846482122063,103.846482122063,228892,KAMPONG JAVA ROAD,KAMPONG JAVA NEIGHBOURHOOD POLICE CENTRE,29464.977287408,32704.6183045581
51A KAMPONG JAVA ROAD TEMPORARY SITE OFFICE SINGAPORE 228893,51A,TEMPORARY SITE OFFICE,1.31350593574621,103.845295224446,103.845295224446,228893,KAMPONG JAVA ROAD,TEMPORARY SITE OFFICE,29332.8860811908,32866.3335734066
1 JALAN LADA PUTEH KIMSIA PARK SINGAPORE 228913,1,KIMSIA PARK,1.30536961133574,103.833958868036,103.833958868036,228913,JALAN LADA PUTEH,KIMSIA PARK,28071.258253986,31966.6574992742
2 JALAN LADA PUTEH KIMSIA PARK SINGAPORE 228914,2,KIMSIA PARK,1.30509245142062,103.834200423439,103.834200423439,228914,JALAN LADA PUTEH,KIMSIA PARK,28098.141157208,31936.0105906688
3 JALAN LADA PUTEH KIMSIA PARK SINGAPORE 228915,3,KIMSIA PARK,1.30538565590669,103.834012248536,103.834012248536,228915,JALAN LADA PUTEH,KIMSIA PARK,28077.1990116863,31968.4316268712
4 JALAN LADA PUTEH KIMSIA PARK SINGAPORE 228916,4,KIMSIA PARK,1.3050966304835,103.834252264296,103.834252264296,228916,JALAN LADA PUTEH,KIMSIA PARK,28103.9105678527,31936.4726919755
5 JALAN LADA PUTEH KIMSIA PARK SINGAPORE 228917,5,KIMSIA PARK,1.30538264291013,103.834074343014,103.834074343014,228917,JALAN LADA PUTEH,KIMSIA PARK,28084.1095555844,31968.0984671749
6 JALAN LADA PUTEH KIMSIA PARK SINGAPORE 228918,6,KIMSIA PARK,1.30509888492386,103.834316525571,103.834316525571,228918,JALAN LADA PUTEH,KIMSIA PARK,28111.0622567767,31936.7219790891
7 JALAN LADA PUTEH KIMSIA PARK SINGAPORE 228919,7,KIMSIA PARK,1.30538013276066,103.834132838487,103.834132838487,228919,JALAN LADA PUTEH,KIMSIA PARK,28090.6195632545,31967.8209097628
8 JALAN LADA PUTEH KIMSIA PARK SINGAPORE 228920,8,KIMSIA PARK,1.30510395115121,103.83437253032,103.83437253032,228920,JALAN LADA PUTEH,KIMSIA PARK,28117.2950702524,31937.2821789309
9 JALAN LADA PUTEH KIMSIA PARK SINGAPORE 228921,9,KIMSIA PARK,1.30538368086625,103.834196881375,103.834196881375,228921,JALAN LADA PUTEH,KIMSIA PARK,28097.7469469886,31968.213243369
10 JALAN LADA PUTEH KIMSIA PARK SINGAPORE 228922,10,KIMSIA PARK,1.3051063087858,103.834436826407,103.834436826407,228922,JALAN LADA PUTEH,KIMSIA PARK,28124.4506334793,31937.5428770762
11 JALAN LADA PUTEH KIMSIA PARK SINGAPORE 228923,11,KIMSIA PARK,1.30538649482119,103.834253176596,103.834253176596,228923,JALAN LADA PUTEH,KIMSIA PARK,28104.0120866699,31968.5243982412
12 JALAN LADA PUTEH KIMSIA PARK SINGAPORE 228924,12,KIMSIA PARK,1.30511003536124,103.834492856721,103.834492856721,228924,JALAN LADA PUTEH,KIMSIA PARK,28130.6862921445,31937.9549454059
13 JALAN LADA PUTEH KIMSIA PARK SINGAPORE 228925,13,KIMSIA PARK,1.30540569059685,103.834314329515,103.834314329515,228925,JALAN LADA PUTEH,KIMSIA PARK,28110.8178428086,31970.6469708681
14 JALAN LADA PUTEH KIMSIA PARK SINGAPORE 228926,14,KIMSIA PARK,1.30510636019261,103.834555062701,103.834555062701,228926,JALAN LADA PUTEH,KIMSIA PARK,28137.6092459159,31937.5485674571
15 JALAN LADA PUTEH KIMSIA PARK SINGAPORE 228927,15,KIMSIA PARK,1.3053932277841,103.834373461943,103.834373461943,228927,JALAN LADA PUTEH,KIMSIA PARK,28117.3987380965,31969.2688998356
16 JALAN LADA PUTEH KIMSIA PARK SINGAPORE 228928,16,KIMSIA PARK,1.30512021349192,103.834659212212,103.834659212212,228928,JALAN LADA PUTEH,KIMSIA PARK,28149.2001281371,31939.0803998448
17 JALAN LADA PUTEH KIMSIA PARK SINGAPORE 228929,17,KIMSIA PARK,1.3054078073228,103.834436997881,103.834436997881,228929,JALAN LADA PUTEH,KIMSIA PARK,28124.469702309,31970.8810331859
18 JALAN LADA PUTEH KIMSIA PARK SINGAPORE 228930,18,KIMSIA PARK,1.30512332252105,103.834714681992,103.834714681992,228930,JALAN LADA PUTEH,KIMSIA PARK,28155.373404488,31939.4241836034
19 JALAN LADA PUTEH KIMSIA PARK SINGAPORE 228931,19,KIMSIA PARK,1.30541332110068,103.834493344778,103.834493344778,228931,JALAN LADA PUTEH,KIMSIA PARK,28130.7405929072,31971.490721181
20 JALAN LADA PUTEH KIMSIA PARK SINGAPORE 228932,20,KIMSIA PARK,1.30510296797463,103.834777944029,103.834777944029,228932,JALAN LADA PUTEH,KIMSIA PARK,28162.4138888409,31937.1734866016
21 JALAN LADA PUTEH KIMSIA PARK SINGAPORE 228933,21,KIMSIA PARK,1.30540795150405,103.834597471446,103.834597471446,228933,JALAN LADA PUTEH,KIMSIA PARK,28142.3289326169,31970.8969844133
22 JALAN LADA PUTEH KIMSIA PARK SINGAPORE 228934,22,KIMSIA PARK,1.3051161815779,103.834837524401,103.834837524401,228934,JALAN LADA PUTEH,KIMSIA PARK,28169.044635497,31938.6345827114
23 JALAN LADA PUTEH KIMSIA PARK SINGAPORE 228935,23,KIMSIA PARK,1.30541175553918,103.834659377723,103.834659377723,228935,JALAN LADA PUTEH,KIMSIA PARK,28149.2185310712,31971.3176185824
24 JALAN LADA PUTEH KIMSIA PARK SINGAPORE 228936,24,KIMSIA PARK,1.30513515616317,103.834898499448,103.834898499448,228936,JALAN LADA PUTEH,KIMSIA PARK,28175.8305963753,31940.7326988075
25 JALAN LADA PUTEH KIMSIA PARK SINGAPORE 228937,25,KIMSIA PARK,1.30541579827155,103.834714737906,103.834714737906,228937,JALAN LADA PUTEH,KIMSIA PARK,28155.3796094246,31971.7646464333
26 JALAN LADA PUTEH KIMSIA PARK SINGAPORE 228938,26,KIMSIA PARK,1.30512592146968,103.834957522264,103.834957522264,228938,JALAN LADA PUTEH,KIMSIA PARK,28182.3992936648,31939.7115781084
27 JALAN LADA PUTEH KIMSIA PARK SINGAPORE 228939,27,KIMSIA PARK,1.30541946735167,103.834779686735,103.834779686735,228939,JALAN LADA PUTEH,KIMSIA PARK,28162.6078158123,31972.1703584883
28 JALAN LADA PUTEH KIMSIA PARK SINGAPORE 228940,28,KIMSIA PARK,1.3051409948094,103.835018789136,103.835018789136,228940,JALAN LADA PUTEH,KIMSIA PARK,28189.2177320896,31941.3783149011
29 JALAN LADA PUTEH SINGAPORE 228941,29,NIL,1.30548763066392,103.834833692807,103.834833692807,228941,JALAN LADA PUTEH,29 JALAN LADA PUTEH SINGAPORE 228941,28168.618189875,31979.7075101845
30 JALAN LADA PUTEH KIMSIA PARK SINGAPORE 228942,30,KIMSIA PARK,1.30507068206846,103.835084693073,103.835084693073,228942,JALAN LADA PUTEH,KIMSIA PARK,28196.552239636,31933.6034989953
31 JALAN LADA PUTEH KIMSIA PARK SINGAPORE 228943,31,KIMSIA PARK,1.3054254800978,103.834899909531,103.834899909531,228943,JALAN LADA PUTEH,KIMSIA PARK,28175.9875056027,31972.8352250177
33 JALAN LADA PUTEH KIMSIA PARK SINGAPORE 228944,33,KIMSIA PARK,1.30542926743198,103.834955265634,103.834955265634,228944,JALAN LADA PUTEH,KIMSIA PARK,28182.1481299363,31973.2540128399
35 JALAN LADA PUTEH KIMSIA PARK SINGAPORE 228945,35,KIMSIA PARK,1.30543176000139,103.835020394237,103.835020394237,228945,JALAN LADA PUTEH,KIMSIA PARK,28189.3963434612,31973.5296331011
37 JALAN LADA PUTEH KIMSIA PARK SINGAPORE 228946,37,KIMSIA PARK,1.305451250837,103.835089230918,103.835089230918,228946,JALAN LADA PUTEH,KIMSIA PARK,28197.0572306756,31975.6848346125
1 JALAN KAYU MANIS KIMSIA PARK SINGAPORE 228968,1,KIMSIA PARK,1.30488259148999,103.83440106009,103.83440106009,228968,JALAN KAYU MANIS,KIMSIA PARK,28120.4701817445,31912.8053685389
3 JALAN KAYU MANIS KIMSIA PARK SINGAPORE 228969,3,KIMSIA PARK,1.3048847774988,103.834453124231,103.834453124231,228969,JALAN KAYU MANIS,KIMSIA PARK,28126.2644424029,31913.0470886566
5 JALAN KAYU MANIS KIMSIA PARK SINGAPORE 228970,5,KIMSIA PARK,1.30489049520402,103.834516667768,103.834516667768,228970,JALAN KAYU MANIS,KIMSIA PARK,28133.3362541189,31913.6793263014
7 JALAN KAYU MANIS KIMSIA PARK SINGAPORE 228971,7,KIMSIA PARK,1.30489332365961,103.83457298528,103.83457298528,228971,JALAN KAYU MANIS,KIMSIA PARK,28139.6038757749,31913.9920853768
9 JALAN KAYU MANIS KIMSIA PARK SINGAPORE 228972,9,KIMSIA PARK,1.30489789907387,103.834636905497,103.834636905497,228972,JALAN KAYU MANIS,KIMSIA PARK,28146.7176086484,31914.4980147239
11 JALAN KAYU MANIS KIMSIA PARK SINGAPORE 228973,11,KIMSIA PARK,1.30490264119301,103.834695087106,103.834695087106,228973,JALAN KAYU MANIS,KIMSIA PARK,28153.1926870653,31915.0223772749
11A JALAN KAYU MANIS KIMSIA PARK SINGAPORE 228974,11A,KIMSIA PARK,1.30490330441348,103.834757091552,103.834757091552,228974,JALAN KAYU MANIS,KIMSIA PARK,28160.0932122609,31915.0957165994
15 JALAN KAYU MANIS KIMSIA PARK SINGAPORE 228976,15,KIMSIA PARK,1.30490812591339,103.834813532812,103.834813532812,228976,JALAN KAYU MANIS,KIMSIA PARK,28166.3746058494,31915.6288568638
17 JALAN KAYU MANIS KIMSIA PARK SINGAPORE 228977,17,KIMSIA PARK,1.30491400894392,103.834877527008,103.834877527008,228977,JALAN KAYU MANIS,KIMSIA PARK,28173.4965716144,31916.2793763708
19 JALAN KAYU MANIS KIMSIA PARK SINGAPORE 228978,19,KIMSIA PARK,1.30491586646047,103.83493386655,103.83493386655,228978,JALAN KAYU MANIS,KIMSIA PARK,28179.766644978,31916.4847749081
21 JALAN KAYU MANIS KIMSIA PARK SINGAPORE 228979,21,KIMSIA PARK,1.30491774888733,103.834987397165,103.834987397165,228979,JALAN KAYU MANIS,KIMSIA PARK,28185.7241106043,31916.6929278318
1 JALAN JINTAN KIM SIA COURT SINGAPORE 229001,1,KIM SIA COURT,1.30590952063275,103.833909984178,103.833909984178,229001,JALAN JINTAN,KIM SIA COURT,28065.8179168608,32026.3578887489
2 JALAN JINTAN KIMSIA PARK SINGAPORE 229002,2,KIMSIA PARK,1.30557005178411,103.833864977349,103.833864977349,229002,JALAN JINTAN,KIMSIA PARK,28060.8090801109,31988.8211698141
4 JALAN JINTAN KIMSIA PARK SINGAPORE 229003,4,KIMSIA PARK,1.30557401761017,103.833941001155,103.833941001155,229003,JALAN JINTAN,KIMSIA PARK,28069.2698290637,31989.2596923616
6 JALAN JINTAN SINGAPORE 229004,6,NIL,1.3055158416708,103.834006437888,103.834006437888,229004,JALAN JINTAN,6 JALAN JINTAN SINGAPORE 229004,28076.5523362141,31982.8268983196
8 JALAN JINTAN KIMSIA PARK SINGAPORE 229005,8,KIMSIA PARK,1.3055904076141,103.834060524175,103.834060524175,229005,JALAN JINTAN,KIMSIA PARK,28082.571639332,31991.0720181558
9 JALAN JINTAN KIM SIA COURT SINGAPORE 229006,9,KIM SIA COURT,1.3059398553099,103.834343686391,103.834343686391,229006,JALAN JINTAN,KIM SIA COURT,28114.0849689711,32029.7121564373
10 JALAN JINTAN KIMSIA PARK SINGAPORE 229007,10,KIMSIA PARK,1.30557981549686,103.834125071572,103.834125071572,229007,JALAN JINTAN,KIMSIA PARK,28089.7551701758,31989.9007985257
12 JALAN JINTAN KIMSIA PARK SINGAPORE 229008,12,KIMSIA PARK,1.30559826207033,103.834180666474,103.834180666474,229008,JALAN JINTAN,KIMSIA PARK,28095.9423697991,31991.9405276794
14 JALAN JINTAN KIMSIA PARK SINGAPORE 229009,14,KIMSIA PARK,1.30559122492084,103.834243457749,103.834243457749,229009,JALAN JINTAN,KIMSIA PARK,28102.9304602714,31991.1623983551
16 JALAN JINTAN KIMSIA PARK SINGAPORE 229010,16,KIMSIA PARK,1.30560596240913,103.834300852834,103.834300852834,229010,JALAN JINTAN,KIMSIA PARK,28109.3180036796,31992.79199633
18 JALAN JINTAN KIMSIA PARK SINGAPORE 229011,18,KIMSIA PARK,1.30560650054324,103.834363223098,103.834363223098,229011,JALAN JINTAN,KIMSIA PARK,28116.2592393132,31992.8515031859
19 JALAN JINTAN KIM SIA COURT SINGAPORE 229012,19,KIM SIA COURT,1.3062594745668,103.834620885952,103.834620885952,229012,JALAN JINTAN,KIM SIA COURT,28144.9347033352,32065.0540228002
20 JALAN JINTAN KIMSIA PARK SINGAPORE 229013,20,KIMSIA PARK,1.30561608363737,103.834419270289,103.834419270289,229013,JALAN JINTAN,KIMSIA PARK,28122.4967745943,31993.9111550283
22 JALAN JINTAN KIMSIA PARK SINGAPORE 229014,22,KIMSIA PARK,1.30562244076091,103.83453119441,103.83453119441,229014,JALAN JINTAN,KIMSIA PARK,28134.9528973969,31994.6140986811
24 JALAN JINTAN KIMSIA PARK SINGAPORE 229015,24,KIMSIA PARK,1.30562266519693,103.834582273755,103.834582273755,229015,JALAN JINTAN,KIMSIA PARK,28140.6375576872,31994.6389184278
26 JALAN JINTAN KIMSIA PARK SINGAPORE 229016,26,KIMSIA PARK,1.30562860106351,103.834646805113,103.834646805113,229016,JALAN JINTAN,KIMSIA PARK,28147.81930272,31995.2952796556
27 JALAN JINTAN KIM SIA COURT SINGAPORE 229017,27,KIM SIA COURT,1.30599755818749,103.834933058661,103.834933058661,229017,JALAN JINTAN,KIM SIA COURT,28179.6766582616,32036.0926776733
28 JALAN JINTAN KIMSIA PARK SINGAPORE 229018,28,KIMSIA PARK,1.30562988839963,103.834702787843,103.834702787843,229018,JALAN JINTAN,KIMSIA PARK,28154.0496644881,31995.4376299828
30 JALAN JINTAN KIMSIA PARK SINGAPORE 229019,30,KIMSIA PARK,1.30563592089091,103.83476717152,103.83476717152,229019,JALAN JINTAN,KIMSIA PARK,28161.2149740057,31996.1046758089
32 JALAN JINTAN KIMSIA PARK SINGAPORE 229020,32,KIMSIA PARK,1.3056276984654,103.834825726556,103.834825726556,229020,JALAN JINTAN,KIMSIA PARK,28167.7316103633,31995.1954861134
34 JALAN JINTAN KIMSIA PARK SINGAPORE 229021,34,KIMSIA PARK,1.30563199849945,103.834886923537,103.834886923537,229021,JALAN JINTAN,KIMSIA PARK,28174.5422699163,31995.670965869
36 JALAN JINTAN KIMSIA PARK SINGAPORE 229022,36,KIMSIA PARK,1.30564585893321,103.834943199189,103.834943199189,229022,JALAN JINTAN,KIMSIA PARK,28180.8052303027,31997.2035852242
38 JALAN JINTAN KIMSIA PARK SINGAPORE 229023,38,KIMSIA PARK,1.30565123883879,103.835007690568,103.835007690568,229023,JALAN JINTAN,KIMSIA PARK,28187.9825259419,31997.7984721772
40 JALAN JINTAN KIMSIA PARK SINGAPORE 229024,40,KIMSIA PARK,1.3056555238182,103.835061488821,103.835061488821,229024,JALAN JINTAN,KIMSIA PARK,28193.9697752651,31998.2722871937
2 JALAN ELOK SINGAPORE 229046,2,NIL,1.30613161405383,103.835847940578,103.835847940578,229046,JALAN ELOK,2 JALAN ELOK SINGAPORE 229046,28281.4945535967,32050.9159686789
4 JALAN ELOK SINGAPORE 229047,4,NIL,1.30613813662619,103.835784585496,103.835784585496,229047,JALAN ELOK,4 JALAN ELOK SINGAPORE 229047,28274.4437175943,32051.6371941939
6 JALAN ELOK SINGAPORE 229048,6,NIL,1.30617755232738,103.835713744684,103.835713744684,229048,JALAN ELOK,6 JALAN ELOK SINGAPORE 229048,28266.5597856073,32055.9955719747
8 JALAN ELOK SINGAPORE 229049,8,NIL,1.30617323560893,103.835660050856,103.835660050856,229049,JALAN ELOK,8 JALAN ELOK SINGAPORE 229049,28260.5841591898,32055.5182458702
10 JALAN ELOK SINGAPORE 229050,10,NIL,1.30616421452024,103.835599894967,103.835599894967,229050,JALAN ELOK,10 JALAN ELOK SINGAPORE 229050,28253.8893654794,32054.5207341984
12 JALAN ELOK SINGAPORE 229051,12,NIL,1.3061751762141,103.835536447417,103.835536447417,229051,JALAN ELOK,12 JALAN ELOK SINGAPORE 229051,28246.8282383615,32055.7328156065
14 JALAN ELOK SINGAPORE 229052,14,NIL,1.30619943367218,103.83546405009,103.83546405009,229052,JALAN ELOK,14 JALAN ELOK SINGAPORE 229052,28238.771082704,32058.4150735196
15 JALAN ELOK SINGAPORE 229053,15,NIL,1.30618106504002,103.835189317709,103.835189317709,229053,JALAN ELOK,15 JALAN ELOK SINGAPORE 229053,28208.1959092198,32056.3839404732
16 JALAN ELOK SINGAPORE 229054,16,NIL,1.30636789004205,103.835463259881,103.835463259881,229054,JALAN ELOK,16 JALAN ELOK SINGAPORE 229054,28238.6831239434,32077.0421117712
17 JALAN ELOK SINGAPORE 229055,17,NIL,1.30623002438085,103.835178635495,103.835178635495,229055,JALAN ELOK,17 JALAN ELOK SINGAPORE 229055,28207.0070736231,32061.7976115048
18 JALAN ELOK SINGAPORE 229056,18,NIL,1.30637174935905,103.835514533432,103.835514533432,229056,JALAN ELOK,18 JALAN ELOK SINGAPORE 229056,28244.3893955732,32077.4688600749
19 JALAN ELOK SINGAPORE 229057,19,NIL,1.30629452819647,103.835167527113,103.835167527113,229057,JALAN ELOK,19 JALAN ELOK SINGAPORE 229057,28205.770808097,32068.9301105272
20 JALAN ELOK SINGAPORE 229058,20,NIL,1.30637422110955,103.83558024408,103.83558024408,229058,JALAN ELOK,20 JALAN ELOK SINGAPORE 229058,28251.7023825832,32077.7421799675
21 JALAN ELOK SINGAPORE 229059,21,NIL,1.30635273779267,103.835160954404,103.835160954404,229059,JALAN ELOK,21 JALAN ELOK SINGAPORE 229059,28205.0393217336,32075.366627533
22 JALAN ELOK SINGAPORE 229060,22,NIL,1.30638565515453,103.835640782641,103.835640782641,229060,JALAN ELOK,22 JALAN ELOK SINGAPORE 229060,28258.4397633476,32079.0065039154
23 JALAN ELOK SINGAPORE 229061,23,NIL,1.30641498195003,103.835139413983,103.835139413983,229061,JALAN ELOK,23 JALAN ELOK SINGAPORE 229061,28202.6420671558,32082.2492643502
24 JALAN ELOK SINGAPORE 229062,24,NIL,1.30639043995702,103.835694226804,103.835694226804,229062,JALAN ELOK,24 JALAN ELOK SINGAPORE 229062,28264.3876037551,32079.5355882701
25 JALAN ELOK SINGAPORE 229063,25,NIL,1.30647222198296,103.8351341054,103.8351341054,229063,JALAN ELOK,25 JALAN ELOK SINGAPORE 229063,28202.0512663815,32088.5785721578
26 JALAN ELOK SINGAPORE 229064,26,NIL,1.30639638509968,103.835760822996,103.835760822996,229064,JALAN ELOK,26 JALAN ELOK SINGAPORE 229064,28271.7991433209,32080.1929786094
27 JALAN ELOK SINGAPORE 229065,27,NIL,1.3065338124638,103.835115181077,103.835115181077,229065,JALAN ELOK,27 JALAN ELOK SINGAPORE 229065,28199.9451595386,32095.3889290299
28 JALAN ELOK SINGAPORE 229066,28,NIL,1.30640152767221,103.835810613214,103.835810613214,229066,JALAN ELOK,28 JALAN ELOK SINGAPORE 229066,28277.3403333677,32080.7616232187
29 JALAN ELOK SINGAPORE 229067,29,NIL,1.30658624492814,103.835104554073,103.835104554073,229067,JALAN ELOK,29 JALAN ELOK SINGAPORE 229067,28198.7624683427,32101.1866402384
31 JALAN ELOK SINGAPORE 229068,31,NIL,1.3066646970541,103.835130966706,103.835130966706,229068,JALAN ELOK,31 JALAN ELOK SINGAPORE 229068,28201.701943581,32109.8614746407
33 JALAN ELOK SINGAPORE 229069,33,NIL,1.30666498264702,103.835370915516,103.835370915516,229069,JALAN ELOK,33 JALAN ELOK SINGAPORE 229069,28228.4060235564,32109.8930744156
35 JALAN ELOK SINGAPORE 229070,35,NIL,1.30667008799932,103.835421064741,103.835421064741,229070,JALAN ELOK,35 JALAN ELOK SINGAPORE 229070,28233.9871673416,32110.4576025791
37 JALAN ELOK SINGAPORE 229071,37,NIL,1.30667573669863,103.835485141662,103.835485141662,229071,JALAN ELOK,37 JALAN ELOK SINGAPORE 229071,28241.1183345737,32111.0822126921
39 JALAN ELOK SINGAPORE 229072,39,NIL,1.30667959793049,103.835537281179,103.835537281179,229072,JALAN ELOK,39 JALAN ELOK SINGAPORE 229072,28246.9209794635,32111.5091728698
41 JALAN ELOK SINGAPORE 229073,41,NIL,1.30668558742291,103.835602976063,103.835602976063,229073,JALAN ELOK,41 JALAN ELOK SINGAPORE 229073,28254.2322109304,32112.1714666225
43 JALAN ELOK SINGAPORE 229074,43,NIL,1.30669058628861,103.835652903631,103.835652903631,229074,JALAN ELOK,43 JALAN ELOK SINGAPORE 229074,28259.7886863099,32112.7242205404
45 JALAN ELOK SINGAPORE 229075,45,NIL,1.3066957439057,103.835716227734,103.835716227734,229075,JALAN ELOK,45 JALAN ELOK SINGAPORE 229075,28266.8360717623,32113.2945298888
47 JALAN ELOK SINGAPORE 229076,47,NIL,1.30670347571133,103.835774239951,103.835774239951,229076,JALAN ELOK,47 JALAN ELOK SINGAPORE 229076,28273.2922932254,32114.1494793575
1 JALAN ARUAN SINGAPORE 229098,1,NIL,1.31325209714281,103.842968064456,103.842968064456,229098,JALAN ARUAN,1 JALAN ARUAN SINGAPORE 229098,29073.8955360036,32838.2642862946
1A JALAN ARUAN SINGAPORE 229099,1A,NIL,1.31325209714281,103.842968064184,103.842968064184,229099,JALAN ARUAN,1A JALAN ARUAN SINGAPORE 229099,29073.8955057357,32838.2642862946
2 JALAN ARUAN SINGAPORE 229100,2,NIL,1.31320359364851,103.842589782367,103.842589782367,229100,JALAN ARUAN,2 JALAN ARUAN SINGAPORE 229100,29031.7963725431,32832.9008601159
2A JALAN ARUAN SINGAPORE 229101,2A,NIL,1.31320359392223,103.842589782639,103.842589782639,229101,JALAN ARUAN,2A JALAN ARUAN SINGAPORE 229101,29031.7964028111,32832.9008903839
3 JALAN ARUAN SINGAPORE 229102,3,NIL,1.31319872411676,103.842974855143,103.842974855143,229102,JALAN ARUAN,3 JALAN ARUAN SINGAPORE 229102,29074.6512972889,32832.3625742942
3A JALAN ARUAN SINGAPORE 229103,3A,NIL,1.3131987243905,103.842974855143,103.842974855143,229103,JALAN ARUAN,3A JALAN ARUAN SINGAPORE 229103,29074.6512972889,32832.3626045622
4 JALAN ARUAN SINGAPORE 229104,4,NIL,1.313151472406,103.842596093577,103.842596093577,229104,JALAN ARUAN,4 JALAN ARUAN SINGAPORE 229104,29032.4987713732,32827.1375636049
4A JALAN ARUAN SINGAPORE 229105,4A,NIL,1.31315147267975,103.842596093849,103.842596093849,229105,JALAN ARUAN,4A JALAN ARUAN SINGAPORE 229105,29032.4988016412,32827.1375938728
5 JALAN ARUAN SINGAPORE 229106,5,NIL,1.31314405605895,103.842981925956,103.842981925956,229106,JALAN ARUAN,5 JALAN ARUAN SINGAPORE 229106,29075.4382345974,32826.3176644612
5A JALAN ARUAN SINGAPORE 229107,5A,NIL,1.31314405633268,103.842981925684,103.842981925684,229107,JALAN ARUAN,5A JALAN ARUAN SINGAPORE 229107,29075.4382043295,32826.3176947292
6 JALAN ARUAN SINGAPORE 229108,6,NIL,1.31309677615632,103.842602730602,103.842602730602,229108,JALAN ARUAN,6 JALAN ARUAN SINGAPORE 229108,29033.2374312477,32821.0895361695
6A JALAN ARUAN SINGAPORE 229109,6A,NIL,1.3130967758826,103.84260273033,103.84260273033,229109,JALAN ARUAN,6A JALAN ARUAN SINGAPORE 229109,29033.2374009797,32821.0895059016
7 JALAN ARUAN SINGAPORE 229110,7,NIL,1.31309272036905,103.843003676789,103.843003676789,229110,JALAN ARUAN,7 JALAN ARUAN SINGAPORE 229110,29077.8589165956,32820.6412370633
7A JALAN ARUAN SINGAPORE 229111,7A,NIL,1.3130927200953,103.843003676517,103.843003676517,229111,JALAN ARUAN,7A JALAN ARUAN SINGAPORE 229111,29077.8588863276,32820.6412067954
8 JALAN ARUAN SINGAPORE 229112,8,NIL,1.3130420779906,103.842609336621,103.842609336621,229112,JALAN ARUAN,8 JALAN ARUAN SINGAPORE 229112,29033.9726405721,32815.0412968602
8A JALAN ARUAN SINGAPORE 229113,8A,NIL,1.3130420779906,103.842609336349,103.842609336349,229113,JALAN ARUAN,8A JALAN ARUAN SINGAPORE 229113,29033.9726103041,32815.0412968602
9 JALAN ARUAN SINGAPORE 229114,9,NIL,1.31303484038427,103.842996443176,103.842996443176,229114,JALAN ARUAN,9 JALAN ARUAN SINGAPORE 229114,29077.0539092999,32814.2411627099
9A JALAN ARUAN SINGAPORE 229115,9A,NIL,1.313034840658,103.842996443176,103.842996443176,229115,JALAN ARUAN,9A JALAN ARUAN SINGAPORE 229115,29077.0539092999,32814.2411929779
10 JALAN ARUAN SINGAPORE 229116,10,NIL,1.31298762070316,103.842617723247,103.842617723247,229116,JALAN ARUAN,10 JALAN ARUAN SINGAPORE 229116,29034.9060143856,32809.0196933746
10A JALAN ARUAN SINGAPORE 229117,10A,NIL,1.31298762070316,103.842617723247,103.842617723247,229117,JALAN ARUAN,10A JALAN ARUAN SINGAPORE 229117,29034.9060143856,32809.0196933746
11 JALAN ARUAN SINGAPORE 229118,11,NIL,1.31298012688709,103.843003402479,103.843003402479,229118,JALAN ARUAN,11 JALAN ARUAN SINGAPORE 229118,29077.828436736,32808.1912283935
11A JALAN ARUAN SINGAPORE 229119,11A,NIL,1.31298012661336,103.843003402207,103.843003402207,229119,JALAN ARUAN,11A JALAN ARUAN SINGAPORE 229119,29077.828406468,32808.1911981255
12 JALAN ARUAN SINGAPORE 229120,12,NIL,1.31293270410462,103.842622678934,103.842622678934,229120,JALAN ARUAN,12 JALAN ARUAN SINGAPORE 229120,29035.4575575851,32802.9473002143
12A JALAN ARUAN SINGAPORE 229121,12A,NIL,1.31293270410462,103.842622679206,103.842622679206,229121,JALAN ARUAN,12A JALAN ARUAN SINGAPORE 229121,29035.4575878531,32802.9473002143
13 JALAN ARUAN SINGAPORE 229122,13,NIL,1.31292542570693,103.84301060275,103.84301060275,229122,JALAN ARUAN,13 JALAN ARUAN SINGAPORE 229122,29078.6297816047,32802.1426561344
13A JALAN ARUAN SINGAPORE 229123,13A,NIL,1.31292542598067,103.843010603022,103.843010603022,229123,JALAN ARUAN,13A JALAN ARUAN SINGAPORE 229123,29078.6298118727,32802.1426864024
14 JALAN ARUAN SINGAPORE 229124,14,NIL,1.31287799471564,103.842629305894,103.842629305894,229124,JALAN ARUAN,14 JALAN ARUAN SINGAPORE 229124,29036.1950975442,32796.8978199158
14A JALAN ARUAN SINGAPORE 229125,14A,NIL,1.31287799444191,103.842629305894,103.842629305894,229125,JALAN ARUAN,14A JALAN ARUAN SINGAPORE 229125,29036.1950975442,32796.8977896478
15 JALAN ARUAN SINGAPORE 229126,15,NIL,1.31287076476527,103.843017857415,103.843017857415,229126,JALAN ARUAN,15 JALAN ARUAN SINGAPORE 229126,29079.4371800702,32796.0985332709
15A JALAN ARUAN SINGAPORE 229127,15A,NIL,1.31287076449154,103.843017857687,103.843017857687,229127,JALAN ARUAN,15A JALAN ARUAN SINGAPORE 229127,29079.4372103382,32796.0985030029
16 JALAN ARUAN SINGAPORE 229128,16,NIL,1.31282330859403,103.842635899673,103.842635899673,229128,JALAN ARUAN,16 JALAN ARUAN SINGAPORE 229128,29036.9289448094,32790.8509123977
16A JALAN ARUAN SINGAPORE 229129,16A,NIL,1.31282330859403,103.842635899401,103.842635899401,229129,JALAN ARUAN,16A JALAN ARUAN SINGAPORE 229129,29036.9289145414,32790.8509123977
17 JALAN ARUAN SINGAPORE 229130,17,NIL,1.31281615145356,103.843024987245,103.843024987245,229130,JALAN ARUAN,17 JALAN ARUAN SINGAPORE 229130,29080.2306855312,32790.0596770346
17A JALAN ARUAN SINGAPORE 229131,17A,NIL,1.31281615172729,103.843024987245,103.843024987245,229131,JALAN ARUAN,17A JALAN ARUAN SINGAPORE 229131,29080.2306855312,32790.0597073026
18 JALAN ARUAN SINGAPORE 229132,18,NIL,1.31275708736064,103.842643783921,103.842643783921,229132,JALAN ARUAN,18 JALAN ARUAN SINGAPORE 229132,29037.806413658,32783.5285120439
18A JALAN ARUAN SINGAPORE 229133,18A,NIL,1.31275708736064,103.842643783921,103.842643783921,229133,JALAN ARUAN,18A JALAN ARUAN SINGAPORE 229133,29037.806413658,32783.5285120439
19 JALAN ARUAN SINGAPORE 229134,19,NIL,1.31276453798395,103.843031445585,103.843031445585,229134,JALAN ARUAN,19 JALAN ARUAN SINGAPORE 229134,29080.9494593404,32784.3525276333
19A JALAN ARUAN SINGAPORE 229135,19A,NIL,1.31276453771022,103.843031445857,103.843031445857,229135,JALAN ARUAN,19A JALAN ARUAN SINGAPORE 229135,29080.9494896084,32784.3524973653
1 HULLET ROAD URBAN SUITES SINGAPORE 229157,1,URBAN SUITES,1.30361026763408,103.838456864166,103.838456864166,229157,HULLET ROAD,URBAN SUITES,28571.8442130471,31772.1189024504
3 HULLET ROAD URBAN SUITES SINGAPORE 229158,3,URBAN SUITES,1.30381654602219,103.838293168253,103.838293168253,229158,HULLET ROAD,URBAN SUITES,28553.6263071308,31794.928068012
6 HULLET ROAD HULLET RISE SINGAPORE 229159,6,HULLET RISE,1.3031487262709,103.838274527087,103.838274527087,229159,HULLET ROAD,HULLET RISE,28551.5518605988,31721.0839945674
8 HULLET ROAD 8 HULLET SINGAPORE 229160,8,8 HULLET,1.3030109404897,103.838718322482,103.838718322482,229160,HULLET ROAD,8 HULLET,28600.9422786571,31705.8484536242
5 HULLET ROAD URBAN SUITES SINGAPORE 229161,5,URBAN SUITES,1.30422070655432,103.838389476201,103.838389476201,229161,HULLET ROAD,URBAN SUITES,28564.3444120409,31839.618080074
1 HOOPER ROAD SINGAPORE 229182,1,NIL,1.31149426333879,103.843411659057,103.843411659057,229182,HOOPER ROAD,1 HOOPER ROAD SINGAPORE 229182,29123.2641611137,32643.8922541849
3 HOOPER ROAD SINGAPORE 229183,3,NIL,1.31152120546709,103.843353432803,103.843353432803,229183,HOOPER ROAD,3 HOOPER ROAD SINGAPORE 229183,29116.7841187473,32646.8713502157
5 HOOPER ROAD SINGAPORE 229184,5,NIL,1.31154862361649,103.843294994411,103.843294994411,229184,HOOPER ROAD,5 HOOPER ROAD SINGAPORE 229184,29110.2804673538,32649.9030822683
7 HOOPER ROAD SINGAPORE 229185,7,NIL,1.31158020797832,103.843237036882,103.843237036882,229185,HOOPER ROAD,7 HOOPER ROAD SINGAPORE 229185,29103.8303297563,32653.3954930343
9 HOOPER ROAD SINGAPORE 229186,9,NIL,1.31160842323143,103.843179593638,103.843179593638,229186,HOOPER ROAD,9 HOOPER ROAD SINGAPORE 229186,29097.4374289149,32656.5153654553
10 HOOPER ROAD SINGAPORE 229187,10,NIL,1.31146223038135,103.843786588779,103.843786588779,229187,HOOPER ROAD,10 HOOPER ROAD SINGAPORE 229187,29164.9903019425,32640.3503855355
11 HOOPER ROAD SINGAPORE 229188,11,NIL,1.31163558681681,103.843118179044,103.843118179044,229188,HOOPER ROAD,11 HOOPER ROAD SINGAPORE 229188,29090.602554976,32659.518948283
12 HOOPER ROAD SINGAPORE 229189,12,NIL,1.31155775175737,103.843835130862,103.843835130862,229189,HOOPER ROAD,12 HOOPER ROAD SINGAPORE 229189,29170.3925316762,32650.9126708657
13 HOOPER ROAD SINGAPORE 229190,13,NIL,1.31166471743723,103.84305894187,103.84305894187,229190,HOOPER ROAD,13 HOOPER ROAD SINGAPORE 229190,29084.0100065144,32662.7400368433
14 HOOPER ROAD SINGAPORE 229191,14,NIL,1.31165283543449,103.84388340043,103.84388340043,229191,HOOPER ROAD,14 HOOPER ROAD SINGAPORE 229191,29175.7644328913,32661.4265576899
15 HOOPER ROAD SINGAPORE 229192,15,NIL,1.31169582303349,103.843001268,103.843001268,229192,HOOPER ROAD,15 HOOPER ROAD SINGAPORE 229192,29077.5914384229,32666.179508904
16 HOOPER ROAD SINGAPORE 229193,16,NIL,1.31174144095411,103.843929842046,103.843929842046,229193,HOOPER ROAD,16 HOOPER ROAD SINGAPORE 229193,29180.9329029862,32671.2241224106
17 HOOPER ROAD SINGAPORE 229194,17,NIL,1.31174030760283,103.843426708564,103.843426708564,229194,HOOPER ROAD,17 HOOPER ROAD SINGAPORE 229194,29124.9389189202,32671.0985708144
18 HOOPER ROAD SINGAPORE 229195,18,NIL,1.31192052095982,103.844041158793,103.844041158793,229195,HOOPER ROAD,18 HOOPER ROAD SINGAPORE 229195,29193.3213163102,32691.0259216465
19 HOOPER ROAD SINGAPORE 229196,19,NIL,1.31179965032151,103.843457143365,103.843457143365,229196,HOOPER ROAD,19 HOOPER ROAD SINGAPORE 229196,29128.3259971021,32677.6603972726
20 HOOPER ROAD SINGAPORE 229197,20,NIL,1.31196649811897,103.844069865711,103.844069865711,229197,HOOPER ROAD,20 HOOPER ROAD SINGAPORE 229197,29196.5161019918,32696.1098532639
21 HOOPER ROAD SINGAPORE 229198,21,NIL,1.31190608785597,103.843516566572,103.843516566572,229198,HOOPER ROAD,21 HOOPER ROAD SINGAPORE 229198,29134.9391883286,32689.4297395255
22 HOOPER ROAD SINGAPORE 229199,22,NIL,1.3120145515577,103.844095007076,103.844095007076,229199,HOOPER ROAD,22 HOOPER ROAD SINGAPORE 229199,29199.3140744064,32701.4233675376
23 HOOPER ROAD SINGAPORE 229200,23,NIL,1.3119631074224,103.843541981023,103.843541981023,229200,HOOPER ROAD,23 HOOPER ROAD SINGAPORE 229200,29137.7675497998,32695.7346816044
24 HOOPER ROAD SINGAPORE 229201,24,NIL,1.31206348231937,103.844118055888,103.844118055888,229201,HOOPER ROAD,24 HOOPER ROAD SINGAPORE 229201,29201.8791649546,32706.8338906989
25 HOOPER ROAD SINGAPORE 229202,25,NIL,1.31201850373615,103.843571269992,103.843571269992,229202,HOOPER ROAD,25 HOOPER ROAD SINGAPORE 229202,29141.0271089654,32701.860134542
26 HOOPER ROAD SINGAPORE 229203,26,NIL,1.31211155793841,103.844141247211,103.844141247211,229203,HOOPER ROAD,26 HOOPER ROAD SINGAPORE 229203,29204.4601159263,32712.1498566791
27 HOOPER ROAD SINGAPORE 229204,27,NIL,1.31208138144529,103.843600501336,103.843600501336,229204,HOOPER ROAD,27 HOOPER ROAD SINGAPORE 229204,29144.2802513195,32708.8128417414
28 HOOPER ROAD SINGAPORE 229205,28,NIL,1.31215741768326,103.844165729035,103.844165729035,229205,HOOPER ROAD,28 HOOPER ROAD SINGAPORE 229205,29207.1846884806,32717.2208033297
29 HOOPER ROAD SINGAPORE 229206,29,NIL,1.31214746537349,103.843633286833,103.843633286833,229206,HOOPER ROAD,29 HOOPER ROAD SINGAPORE 229206,29147.9289356852,32716.1200778354
30 HOOPER ROAD SINGAPORE 229207,30,NIL,1.31220122472162,103.844186270783,103.844186270783,229207,HOOPER ROAD,30 HOOPER ROAD SINGAPORE 229207,29209.4707687544,32722.0647703726
31 HOOPER ROAD SINGAPORE 229208,31,NIL,1.31220736210995,103.843667316039,103.843667316039,229208,HOOPER ROAD,31 HOOPER ROAD SINGAPORE 229208,29151.7160355393,32722.7431666926
32 HOOPER ROAD SINGAPORE 229209,32,NIL,1.31224539365186,103.844202898301,103.844202898301,229209,HOOPER ROAD,32 HOOPER ROAD SINGAPORE 229209,29211.3212322071,32726.9487516899
33 HOOPER ROAD SINGAPORE 229210,33,NIL,1.31231411420466,103.843715582398,103.843715582398,229210,HOOPER ROAD,33 HOOPER ROAD SINGAPORE 229210,29157.0875735385,32734.5472868569
35 HOOPER ROAD SINGAPORE 229211,35,NIL,1.31237296063939,103.843746537495,103.843746537495,229211,HOOPER ROAD,35 HOOPER ROAD SINGAPORE 229211,29160.5325543731,32741.0542374607
17A HOOPER ROAD SINGAPORE 229212,17A,NIL,1.31182912013908,103.843253212894,103.843253212894,229212,HOOPER ROAD,17A HOOPER ROAD SINGAPORE 229212,29105.6304575512,32680.9189273268
19A HOOPER ROAD SINGAPORE 229213,19A,NIL,1.31188837910217,103.843282498608,103.843282498608,229213,HOOPER ROAD,19A HOOPER ROAD SINGAPORE 229213,29108.889653502,32687.471491782
21A HOOPER ROAD SINGAPORE 229214,21A,NIL,1.3119977376684,103.843336152463,103.843336152463,229214,HOOPER ROAD,21A HOOPER ROAD SINGAPORE 229214,29114.8607699899,32699.5638236888
23A HOOPER ROAD SINGAPORE 229215,23A,NIL,1.31205424095177,103.843367649307,103.843367649307,229215,HOOPER ROAD,23A HOOPER ROAD SINGAPORE 229215,29118.366044648,32705.8116803523
25A HOOPER ROAD SINGAPORE 229216,25A,NIL,1.31211297570831,103.843398529328,103.843398529328,229216,HOOPER ROAD,25A HOOPER ROAD SINGAPORE 229216,29121.80267152,32712.3062816188
27A HOOPER ROAD SINGAPORE 229217,27A,NIL,1.31217357212541,103.84342863342,103.84342863342,229217,HOOPER ROAD,27A HOOPER ROAD SINGAPORE 229217,29125.1529438337,32719.0067354422
29A HOOPER ROAD SINGAPORE 229218,29A,NIL,1.31223416882111,103.843457452441,103.843457452441,229218,HOOPER ROAD,29A HOOPER ROAD SINGAPORE 229218,29128.3601999236,32725.7072195336
31A HOOPER ROAD SINGAPORE 229219,31A,NIL,1.31229557221331,103.843484833819,103.843484833819,229219,HOOPER ROAD,31A HOOPER ROAD SINGAPORE 229219,29131.4074594527,32732.4969033729
33A HOOPER ROAD SINGAPORE 229220,33A,NIL,1.31240236258952,103.84354397582,103.84354397582,229220,HOOPER ROAD,33A HOOPER ROAD SINGAPORE 229220,29137.9893535841,32744.3052610569
35A HOOPER ROAD SINGAPORE 229221,35A,NIL,1.3124628809934,103.843573446766,103.843573446766,229221,HOOPER ROAD,35A HOOPER ROAD SINGAPORE 229221,29141.2691620318,32750.997088505
2 HANDY ROAD DBS THE CATHAY SINGAPORE 229233,2,DBS THE CATHAY,1.29918373808483,103.847789785765,103.847789785765,229233,HANDY ROAD,DBS THE CATHAY,29610.5160139678,31282.6600898318
6 HANDY ROAD THE LUXE SINGAPORE 229234,6,THE LUXE,1.29964986441928,103.847185497309,103.847185497309,229234,HANDY ROAD,THE LUXE,29543.2638230901,31334.2015626878
20 HANDY ROAD NOMU SINGAPORE 229236,20,NOMU,1.2998091733077,103.846962853661,103.846962853661,229236,HANDY ROAD,NOMU,29518.4854830438,31351.8169843871
38 HANDY ROAD SUITES AT ORCHARD SINGAPORE 229239,38,SUITES AT ORCHARD,1.30042006162394,103.845957552922,103.845957552922,229239,HANDY ROAD,SUITES AT ORCHARD,29406.6041792864,31419.36528695
28 HANDY ROAD HAUS ON HANDY SINGAPORE 229240,28,HAUS ON HANDY,1.29987982178361,103.846414189196,103.846414189196,229240,HANDY ROAD,HAUS ON HANDY,29457.4240028756,31359.6286061611
30 HANDY ROAD HAUS ON HANDY SINGAPORE 229241,30,HAUS ON HANDY,1.30013550331303,103.846750395382,103.846750395382,229241,HANDY ROAD,HAUS ON HANDY,29494.8405881831,31387.9007492997
5 HALIFAX ROAD SINGAPORE 229259,5,NIL,1.31256849773282,103.84581359281,103.84581359281,229259,HALIFAX ROAD,5 HALIFAX ROAD SINGAPORE 229259,29390.5760409208,32762.6767769903
7 HALIFAX ROAD SINGAPORE 229260,7,NIL,1.31247262003959,103.845919696264,103.845919696264,229260,HALIFAX ROAD,7 HALIFAX ROAD SINGAPORE 229260,29402.3843986038,32752.0751735494
11 HALIFAX ROAD KKH@HALIFAX SINGAPORE 229262,11,KKH@HALIFAX,1.31221204151204,103.846149829884,103.846149829884,229262,HALIFAX ROAD,KKH@HALIFAX,29427.9962281184,32723.2618691288
2 EMERALD HILL ROAD PERANAKAN PLACE SINGAPORE 229287,2,PERANAKAN PLACE,1.3015856114882,103.839313048244,103.839313048244,229287,EMERALD HILL ROAD,PERANAKAN PLACE,28667.1302169599,31548.2430624086
3 EMERALD HILL ROAD EMERALD HILL CONSERVATION AREA SINGAPORE 229288,3,EMERALD HILL CONSERVATION AREA,1.30177521128459,103.838952947079,103.838952947079,229288,EMERALD HILL ROAD,EMERALD HILL CONSERVATION AREA,28627.05416553,31569.2079391852
5 EMERALD HILL ROAD EMERALD HILL CONSERVATION AREA SINGAPORE 229289,5,EMERALD HILL CONSERVATION AREA,1.30182379559446,103.838957568529,103.838957568529,229289,EMERALD HILL ROAD,EMERALD HILL CONSERVATION AREA,28627.5684791096,31574.5801430792
6 EMERALD HILL ROAD EMERALD HILL CONSERVATION AREA SINGAPORE 229290,6,EMERALD HILL CONSERVATION AREA,1.30164232025712,103.839290522599,103.839290522599,229290,EMERALD HILL ROAD,EMERALD HILL CONSERVATION AREA,28664.6233014762,31554.5136200581
7 EMERALD HILL ROAD EMERALD HILL CONSERVATION AREA SINGAPORE 229291,7,EMERALD HILL CONSERVATION AREA,1.30186989986143,103.838971970618,103.838971970618,229291,EMERALD HILL ROAD,EMERALD HILL CONSERVATION AREA,28629.1712899199,31579.678119041
8 EMERALD HILL ROAD EMERALD HILL CONSERVATION AREA SINGAPORE 229292,8,EMERALD HILL CONSERVATION AREA,1.30169251440199,103.839290140053,103.839290140053,229292,EMERALD HILL ROAD,EMERALD HILL CONSERVATION AREA,28664.5807144232,31560.0638299659
9 EMERALD HILL ROAD EMERALD HILL CONSERVATION AREA SINGAPORE 229293,9,EMERALD HILL CONSERVATION AREA,1.30192000147193,103.838977140367,103.838977140367,229293,EMERALD HILL ROAD,EMERALD HILL CONSERVATION AREA,28629.7466237545,31585.2180983685
10 EMERALD HILL ROAD EMERALD HILL CONSERVATION AREA SINGAPORE 229294,10,EMERALD HILL CONSERVATION AREA,1.30174479112953,103.839280427796,103.839280427796,229294,EMERALD HILL ROAD,EMERALD HILL CONSERVATION AREA,28663.4998144563,31565.8443186916
12 EMERALD HILL ROAD EMERALD HILL CONSERVATION AREA SINGAPORE 229295,12,EMERALD HILL CONSERVATION AREA,1.30179385886341,103.83927990491,103.83927990491,229295,EMERALD HILL ROAD,EMERALD HILL CONSERVATION AREA,28663.4416091237,31571.2699758448
14 EMERALD HILL ROAD EMERALD HILL CONSERVATION AREA SINGAPORE 229296,14,EMERALD HILL CONSERVATION AREA,1.30184002335894,103.839290457246,103.839290457246,229296,EMERALD HILL ROAD,EMERALD HILL CONSERVATION AREA,28664.6159766242,31576.374610763
15 EMERALD HILL ROAD EMERALD HILL CONSERVATION AREA SINGAPORE 229297,15,EMERALD HILL CONSERVATION AREA,1.30200724285703,103.839001383844,103.839001383844,229297,EMERALD HILL ROAD,EMERALD HILL CONSERVATION AREA,28632.444681555,31594.8648074605
16 EMERALD HILL ROAD EMERALD HILL CONSERVATION AREA SINGAPORE 229298,16,EMERALD HILL CONSERVATION AREA,1.30188932896473,103.839290792703,103.839290792703,229298,EMERALD HILL ROAD,EMERALD HILL CONSERVATION AREA,28664.6532970481,31581.826570794
17 EMERALD HILL ROAD EMERALD HILL CONSERVATION AREA SINGAPORE 229299,17,EMERALD HILL CONSERVATION AREA,1.30208030975908,103.838922412406,103.838922412406,229299,EMERALD HILL ROAD,EMERALD HILL CONSERVATION AREA,28623.6558579262,31602.9441495501
18 EMERALD HILL ROAD EMERALD HILL CONSERVATION AREA SINGAPORE 229300,18,EMERALD HILL CONSERVATION AREA,1.30193683504945,103.839291303577,103.839291303577,229300,EMERALD HILL ROAD,EMERALD HILL CONSERVATION AREA,28664.7101403214,31587.0795491003
19 EMERALD HILL ROAD EMERALD HILL CONSERVATION AREA SINGAPORE 229301,19,EMERALD HILL CONSERVATION AREA,1.30211286993879,103.838960456965,103.838960456965,229301,EMERALD HILL ROAD,EMERALD HILL CONSERVATION AREA,28627.8898645611,31606.5444959439
20 EMERALD HILL ROAD EMERALD HILL CONSERVATION AREA SINGAPORE 229302,20,EMERALD HILL CONSERVATION AREA,1.30198232180122,103.839293779986,103.839293779986,229302,EMERALD HILL ROAD,EMERALD HILL CONSERVATION AREA,28664.9857303128,31592.1092404909
21 EMERALD HILL ROAD EMERALD HILL CONSERVATION AREA SINGAPORE 229303,21,EMERALD HILL CONSERVATION AREA,1.30215776268904,103.838963481934,103.838963481934,229303,EMERALD HILL ROAD,EMERALD HILL CONSERVATION AREA,28628.2265050756,31611.5085058101
22 EMERALD HILL ROAD EMERALD HILL CONSERVATION AREA SINGAPORE 229304,22,EMERALD HILL CONSERVATION AREA,1.30202802671652,103.839296937685,103.839296937685,229304,EMERALD HILL ROAD,EMERALD HILL CONSERVATION AREA,28665.3371416042,31597.1630554628
23 EMERALD HILL ROAD EMERALD HILL CONSERVATION AREA SINGAPORE 229305,23,EMERALD HILL CONSERVATION AREA,1.30220412428923,103.838967061728,103.838967061728,229305,EMERALD HILL ROAD,EMERALD HILL CONSERVATION AREA,28628.6248922776,31616.6349336766
24 EMERALD HILL ROAD EMERALD HILL CONSERVATION AREA SINGAPORE 229306,24,EMERALD HILL CONSERVATION AREA,1.30207369331012,103.839299709183,103.839299709183,229306,EMERALD HILL ROAD,EMERALD HILL CONSERVATION AREA,28665.6455723578,31602.2126329187
26 EMERALD HILL ROAD EMERALD HILL CONSERVATION AREA SINGAPORE 229307,26,EMERALD HILL CONSERVATION AREA,1.30211980554215,103.839302004189,103.839302004189,229307,EMERALD HILL ROAD,EMERALD HILL CONSERVATION AREA,28665.900973605,31607.3114866521
28 EMERALD HILL ROAD EMERALD HILL CONSERVATION AREA SINGAPORE 229308,28,EMERALD HILL CONSERVATION AREA,1.3021661572884,103.839305190174,103.839305190174,229308,EMERALD HILL ROAD,EMERALD HILL CONSERVATION AREA,28666.2555327658,31612.4368248712
30 EMERALD HILL ROAD EMERALD HILL CONSERVATION AREA SINGAPORE 229309,30,EMERALD HILL CONSERVATION AREA,1.30221051488394,103.839310840218,103.839310840218,229309,EMERALD HILL ROAD,EMERALD HILL CONSERVATION AREA,28666.8843198596,31617.3416608293
32 EMERALD HILL ROAD EMERALD HILL CONSERVATION AREA SINGAPORE 229310,32,EMERALD HILL CONSERVATION AREA,1.30225395054799,103.839315977866,103.839315977866,229310,EMERALD HILL ROAD,EMERALD HILL CONSERVATION AREA,28667.4560820721,31622.1445542164
34 EMERALD HILL ROAD EMERALD HILL CONSERVATION AREA SINGAPORE 229311,34,EMERALD HILL CONSERVATION AREA,1.30229814500112,103.839320577828,103.839320577828,229311,EMERALD HILL ROAD,EMERALD HILL CONSERVATION AREA,28667.9680044809,31627.0313504562
36 EMERALD HILL ROAD EMERALD HILL CONSERVATION AREA SINGAPORE 229312,36,EMERALD HILL CONSERVATION AREA,1.30234552464264,103.839312041836,103.839312041836,229312,EMERALD HILL ROAD,EMERALD HILL CONSERVATION AREA,28667.0180135434,31632.270344954
37 EMERALD HILL ROAD CHATSWORTH INTERNATIONAL SCHOOL (ORCHARD CAMPUS) SINGAPORE 229313,37,CHATSWORTH INTERNATIONAL SCHOOL (ORCHARD CAMPUS),1.3028288772814,103.838513861885,103.838513861885,229313,EMERALD HILL ROAD,CHATSWORTH INTERNATIONAL SCHOOL (ORCHARD CAMPUS),28578.1877165381,31685.7167939022
38 EMERALD HILL ROAD EMERALD HILL CONSERVATION AREA SINGAPORE 229314,38,EMERALD HILL CONSERVATION AREA,1.30238623908921,103.839332983209,103.839332983209,229314,EMERALD HILL ROAD,EMERALD HILL CONSERVATION AREA,28669.3485877542,31636.7723443154
39 EMERALD HILL ROAD EMERALD HILL CONSERVATION AREA SINGAPORE 229315,39,EMERALD HILL CONSERVATION AREA,1.30268256323289,103.838990368049,103.838990368049,229315,EMERALD HILL ROAD,EMERALD HILL CONSERVATION AREA,28631.2185558025,31669.5382539257
40 EMERALD HILL ROAD EMERALD HILL CONSERVATION AREA SINGAPORE 229316,40,EMERALD HILL CONSERVATION AREA,1.30243679949179,103.839331218233,103.839331218233,229316,EMERALD HILL ROAD,EMERALD HILL CONSERVATION AREA,28669.1521485401,31642.3630527835
41 EMERALD HILL ROAD EMERALD HILL CONSERVATION AREA SINGAPORE 229317,41,EMERALD HILL CONSERVATION AREA,1.30275608696342,103.838925391442,103.838925391442,229317,EMERALD HILL ROAD,EMERALD HILL CONSERVATION AREA,28623.9872318124,31677.6681132801
42 EMERALD HILL ROAD EMERALD HILL CONSERVATION AREA SINGAPORE 229318,42,EMERALD HILL CONSERVATION AREA,1.30247871315796,103.839354007114,103.839354007114,229318,EMERALD HILL ROAD,EMERALD HILL CONSERVATION AREA,28671.688333163,31646.9976561833
43 EMERALD HILL ROAD EMERALD HILL CONSERVATION AREA SINGAPORE 229319,43,EMERALD HILL CONSERVATION AREA,1.30277613412719,103.839022496281,103.839022496281,229319,EMERALD HILL ROAD,EMERALD HILL CONSERVATION AREA,28634.7941127187,31679.8848496024
44 EMERALD HILL ROAD EMERALD HILL CONSERVATION AREA SINGAPORE 229320,44,EMERALD HILL CONSERVATION AREA,1.30252402387854,103.839365054713,103.839365054713,229320,EMERALD HILL ROAD,EMERALD HILL CONSERVATION AREA,28672.9178186618,31652.0078852605
45 EMERALD HILL ROAD SINGAPORE 229321,45,NIL,1.30286289356054,103.839005806113,103.839005806113,229321,EMERALD HILL ROAD,45 EMERALD HILL ROAD SINGAPORE 229321,28632.9366270937,31689.4782567751
46 EMERALD HILL ROAD EMERALD HILL CONSERVATION AREA SINGAPORE 229322,46,EMERALD HILL CONSERVATION AREA,1.30256899790661,103.839376453699,103.839376453699,229322,EMERALD HILL ROAD,EMERALD HILL CONSERVATION AREA,28674.1864103954,31656.9808847159
47 EMERALD HILL ROAD EMERALD HILL CONSERVATION AREA SINGAPORE 229323,47,EMERALD HILL CONSERVATION AREA,1.30294223501043,103.839030194543,103.839030194543,229323,EMERALD HILL ROAD,EMERALD HILL CONSERVATION AREA,28635.6508177295,31698.2514318544
48 EMERALD HILL ROAD EMERALD HILL CONSERVATION AREA SINGAPORE 229324,48,EMERALD HILL CONSERVATION AREA,1.30261391882688,103.839389320245,103.839389320245,229324,EMERALD HILL ROAD,EMERALD HILL CONSERVATION AREA,28675.618328169,31661.9480121844
49 EMERALD HILL ROAD EMERALD HILL CONSERVATION AREA SINGAPORE 229325,49,EMERALD HILL CONSERVATION AREA,1.30296993441505,103.839110248953,103.839110248953,229325,EMERALD HILL ROAD,EMERALD HILL CONSERVATION AREA,28644.5601382013,31701.3143096641
50 EMERALD HILL ROAD EMERALD HILL CONSERVATION AREA SINGAPORE 229326,50,EMERALD HILL CONSERVATION AREA,1.3026595194274,103.839401637682,103.839401637682,229326,EMERALD HILL ROAD,EMERALD HILL CONSERVATION AREA,28676.9891348835,31666.9902950563
51 EMERALD HILL ROAD EMERALD HILL CONSERVATION AREA SINGAPORE 229327,51,EMERALD HILL CONSERVATION AREA,1.30304445806106,103.839060188093,103.839060188093,229327,EMERALD HILL ROAD,EMERALD HILL CONSERVATION AREA,28638.9888012419,31709.5547379628
52 EMERALD HILL ROAD EMERALD HILL CONSERVATION AREA SINGAPORE 229328,52,EMERALD HILL CONSERVATION AREA,1.3027053154738,103.839413702459,103.839413702459,229328,EMERALD HILL ROAD,EMERALD HILL CONSERVATION AREA,28678.3318226412,31672.0541892685
53 EMERALD HILL ROAD EMERALD HILL CONSERVATION AREA SINGAPORE 229329,53,EMERALD HILL CONSERVATION AREA,1.30325589175431,103.839232480805,103.839232480805,229329,EMERALD HILL ROAD,EMERALD HILL CONSERVATION AREA,28658.1633570511,31732.9340312649
54 EMERALD HILL ROAD EMERALD HILL CONSERVATION AREA SINGAPORE 229330,54,EMERALD HILL CONSERVATION AREA,1.30275656921758,103.839421973515,103.839421973515,229330,EMERALD HILL ROAD,EMERALD HILL CONSERVATION AREA,28679.2523022946,31677.7215665393
55 EMERALD HILL ROAD EMERALD HILL CONSERVATION AREA SINGAPORE 229331,55,EMERALD HILL CONSERVATION AREA,1.30329911460572,103.83928907416,103.83928907416,229331,EMERALD HILL ROAD,EMERALD HILL CONSERVATION AREA,28664.4616704434,31737.7134064306
56 EMERALD HILL ROAD EMERALD HILL CONSERVATION AREA SINGAPORE 229332,56,EMERALD HILL CONSERVATION AREA,1.30280725027983,103.839443397939,103.839443397939,229332,EMERALD HILL ROAD,EMERALD HILL CONSERVATION AREA,28681.6366324434,31683.3256231882
57 EMERALD HILL ROAD EMERALD HILL CONSERVATION AREA SINGAPORE 229333,57,EMERALD HILL CONSERVATION AREA,1.30335085570971,103.839248740589,103.839248740589,229333,EMERALD HILL ROAD,EMERALD HILL CONSERVATION AREA,28659.9728981899,31743.4346607123
58 EMERALD HILL ROAD SINGAPORE 229334,58,NIL,1.30285825872807,103.839464193295,103.839464193295,229334,EMERALD HILL ROAD,58 EMERALD HILL ROAD SINGAPORE 229334,28683.9509527469,31688.9658803456
59 EMERALD HILL ROAD EMERALD HILL CONSERVATION AREA SINGAPORE 229335,59,EMERALD HILL CONSERVATION AREA,1.30340098468677,103.839256247129,103.839256247129,229335,EMERALD HILL ROAD,EMERALD HILL CONSERVATION AREA,28660.8082945403,31748.9776668381
60 EMERALD HILL ROAD EMERALD HILL CONSERVATION AREA SINGAPORE 229336,60,EMERALD HILL CONSERVATION AREA,1.30290529227126,103.839496461499,103.839496461499,229336,EMERALD HILL ROAD,EMERALD HILL CONSERVATION AREA,28687.5420976747,31694.166616112
61 EMERALD HILL ROAD EMERALD HILL CONSERVATION AREA SINGAPORE 229337,61,EMERALD HILL CONSERVATION AREA,1.30345097980501,103.839265163026,103.839265163026,229337,EMERALD HILL ROAD,EMERALD HILL CONSERVATION AREA,28661.800539583,31754.5058719199
62 EMERALD HILL ROAD EMERALD HILL CONSERVATION AREA SINGAPORE 229338,62,EMERALD HILL CONSERVATION AREA,1.30295765870376,103.839519111436,103.839519111436,229338,EMERALD HILL ROAD,EMERALD HILL CONSERVATION AREA,28690.0628153589,31699.9570327364
63 EMERALD HILL ROAD EMERALD HILL CONSERVATION AREA SINGAPORE 229339,63,EMERALD HILL CONSERVATION AREA,1.30350105622074,103.839274566841,103.839274566841,229339,EMERALD HILL ROAD,EMERALD HILL CONSERVATION AREA,28662.8470853874,31760.0430665948
64 EMERALD HILL ROAD EMERALD HILL CONSERVATION AREA SINGAPORE 229340,64,EMERALD HILL CONSERVATION AREA,1.3030061074801,103.83953752078,103.83953752078,229340,EMERALD HILL ROAD,EMERALD HILL CONSERVATION AREA,28692.1115946407,31705.3142539803
65 EMERALD HILL ROAD EMERALD HILL CONSERVATION AREA SINGAPORE 229341,65,EMERALD HILL CONSERVATION AREA,1.30355118738701,103.839282282528,103.839282282528,229341,EMERALD HILL ROAD,EMERALD HILL CONSERVATION AREA,28663.7057578173,31765.5863148645
66 EMERALD HILL ROAD EMERALD HILL CONSERVATION AREA SINGAPORE 229342,66,EMERALD HILL CONSERVATION AREA,1.30306479290109,103.839504955838,103.839504955838,229342,EMERALD HILL ROAD,EMERALD HILL CONSERVATION AREA,28688.4873970747,31711.8033767398
67 EMERALD HILL ROAD EMERALD HILL CONSERVATION AREA SINGAPORE 229343,67,EMERALD HILL CONSERVATION AREA,1.30359921921939,103.839321675858,103.839321675858,229343,EMERALD HILL ROAD,EMERALD HILL CONSERVATION AREA,28668.0898633832,31770.8974379674
68 EMERALD HILL ROAD EMERALD HILL CONSERVATION AREA SINGAPORE 229344,68,EMERALD HILL CONSERVATION AREA,1.30308739375373,103.839579475619,103.839579475619,229344,EMERALD HILL ROAD,EMERALD HILL CONSERVATION AREA,28696.7807640769,31714.3024830837
69 EMERALD HILL ROAD EMERALD HILL CONSERVATION AREA SINGAPORE 229345,69,EMERALD HILL CONSERVATION AREA,1.30365160739468,103.839295591978,103.839295591978,229345,EMERALD HILL ROAD,EMERALD HILL CONSERVATION AREA,28665.1869518692,31776.6902457625
70 EMERALD HILL ROAD EMERALD HILL CONSERVATION AREA SINGAPORE 229346,70,EMERALD HILL CONSERVATION AREA,1.30312829077952,103.839599687031,103.839599687031,229346,EMERALD HILL ROAD,EMERALD HILL CONSERVATION AREA,28699.0300990185,31718.8246711921
71 EMERALD HILL ROAD EMERALD HILL CONSERVATION AREA SINGAPORE 229347,71,EMERALD HILL CONSERVATION AREA,1.30370198519787,103.839301783536,103.839301783536,229347,EMERALD HILL ROAD,EMERALD HILL CONSERVATION AREA,28665.8760025185,31782.2607654855
72 EMERALD HILL ROAD EMERALD HILL CONSERVATION AREA SINGAPORE 229348,72,EMERALD HILL CONSERVATION AREA,1.30316906243433,103.839620331967,103.839620331967,229348,EMERALD HILL ROAD,EMERALD HILL CONSERVATION AREA,28701.327681127,31723.3329965621
73 EMERALD HILL ROAD EMERALD HILL CONSERVATION AREA SINGAPORE 229349,73,EMERALD HILL CONSERVATION AREA,1.30375233453449,103.839307270414,103.839307270414,229349,EMERALD HILL ROAD,EMERALD HILL CONSERVATION AREA,28666.4866288221,31787.8281373382
74 EMERALD HILL ROAD EMERALD HILL CONSERVATION AREA SINGAPORE 229350,74,EMERALD HILL CONSERVATION AREA,1.30321022388217,103.839641979393,103.839641979393,229350,EMERALD HILL ROAD,EMERALD HILL CONSERVATION AREA,28703.7368310234,31727.8844235409
75 EMERALD HILL ROAD EMERALD HILL CONSERVATION AREA SINGAPORE 229351,75,EMERALD HILL CONSERVATION AREA,1.30380258560073,103.839312837525,103.839312837525,229351,EMERALD HILL ROAD,EMERALD HILL CONSERVATION AREA,28667.1061841808,31793.3846429866
76 EMERALD HILL ROAD EMERALD HILL CONSERVATION AREA SINGAPORE 229352,76,EMERALD HILL CONSERVATION AREA,1.30330579490237,103.839686779371,103.839686779371,229352,EMERALD HILL ROAD,EMERALD HILL CONSERVATION AREA,28708.7226338368,31738.4521873761
77 EMERALD HILL ROAD EMERALD HILL CONSERVATION AREA SINGAPORE 229353,77,EMERALD HILL CONSERVATION AREA,1.30385289333248,103.839317240324,103.839317240324,229353,EMERALD HILL ROAD,EMERALD HILL CONSERVATION AREA,28667.5961623006,31798.9474141058
78 EMERALD HILL ROAD EMERALD HILL CONSERVATION AREA SINGAPORE 229354,78,EMERALD HILL CONSERVATION AREA,1.30335566162148,103.839702302831,103.839702302831,229354,EMERALD HILL ROAD,EMERALD HILL CONSERVATION AREA,28710.4502395438,31743.9661967736
79 EMERALD HILL ROAD EMERALD HILL CONSERVATION AREA SINGAPORE 229355,79,EMERALD HILL CONSERVATION AREA,1.30390374824805,103.839325128989,103.839325128989,229355,EMERALD HILL ROAD,EMERALD HILL CONSERVATION AREA,28668.4740851689,31804.5706909243
80 EMERALD HILL ROAD EMERALD HILL CONSERVATION AREA SINGAPORE 229356,80,EMERALD HILL CONSERVATION AREA,1.30340444627447,103.839717654675,103.839717654675,229356,EMERALD HILL ROAD,EMERALD HILL CONSERVATION AREA,28712.1587461522,31749.3605568334
81 EMERALD HILL ROAD EMERALD HILL CONSERVATION AREA SINGAPORE 229357,81,EMERALD HILL CONSERVATION AREA,1.303955195539,103.839325825086,103.839325825086,229357,EMERALD HILL ROAD,EMERALD HILL CONSERVATION AREA,28668.5515409391,31810.2594676595
82 EMERALD HILL ROAD EMERALD HILL CONSERVATION AREA SINGAPORE 229358,82,EMERALD HILL CONSERVATION AREA,1.30345491493248,103.839733064454,103.839733064454,229358,EMERALD HILL ROAD,EMERALD HILL CONSERVATION AREA,28713.873699842,31754.941125527
83 EMERALD HILL ROAD EMERALD HILL CONSERVATION AREA SINGAPORE 229359,83,EMERALD HILL CONSERVATION AREA,1.30400582600175,103.839330252364,103.839330252364,229359,EMERALD HILL ROAD,EMERALD HILL CONSERVATION AREA,28669.0442431774,31815.8579247314
84 EMERALD HILL ROAD EMERALD HILL CONSERVATION AREA SINGAPORE 229360,84,EMERALD HILL CONSERVATION AREA,1.3035000742633,103.839749310262,103.839749310262,229360,EMERALD HILL ROAD,EMERALD HILL CONSERVATION AREA,28715.6816973127,31759.9346164074
85 EMERALD HILL ROAD EMERALD HILL CONSERVATION AREA SINGAPORE 229361,85,EMERALD HILL CONSERVATION AREA,1.30405456922932,103.839384484763,103.839384484763,229361,EMERALD HILL ROAD,EMERALD HILL CONSERVATION AREA,28675.0798002034,31821.2477143239
87 EMERALD HILL ROAD SINGAPORE 229363,87,NIL,1.3041559763251,103.839280490293,103.839280490293,229363,EMERALD HILL ROAD,87 EMERALD HILL ROAD SINGAPORE 229363,28663.5061404649,31832.4607613049
88 EMERALD HILL ROAD SINGAPORE 229364,88,NIL,1.30354156952613,103.839824396895,103.839824396895,229364,EMERALD HILL ROAD,88 EMERALD HILL ROAD SINGAPORE 229364,28724.0381427938,31764.5229703281
89 EMERALD HILL ROAD EMERALD HILL CONSERVATION AREA SINGAPORE 229365,89,EMERALD HILL CONSERVATION AREA,1.30420103542729,103.839315612307,103.839315612307,229365,EMERALD HILL ROAD,EMERALD HILL CONSERVATION AREA,28667.4148873463,31837.4431741051
90 EMERALD HILL ROAD EMERALD HILL CONSERVATION AREA SINGAPORE 229366,90,EMERALD HILL CONSERVATION AREA,1.30365143256769,103.839704014277,103.839704014277,229366,EMERALD HILL ROAD,EMERALD HILL CONSERVATION AREA,28710.6406251611,31776.6710255928
91 EMERALD HILL ROAD EMERALD HILL CONSERVATION AREA SINGAPORE 229367,91,EMERALD HILL CONSERVATION AREA,1.30425751338767,103.839314285217,103.839314285217,229367,EMERALD HILL ROAD,EMERALD HILL CONSERVATION AREA,28667.267179586,31843.6882158443
92 EMERALD HILL ROAD EMERALD HILL CONSERVATION AREA SINGAPORE 229368,92,EMERALD HILL CONSERVATION AREA,1.30369173138987,103.839761635151,103.839761635151,229368,EMERALD HILL ROAD,EMERALD HILL CONSERVATION AREA,28717.0532909948,31781.1270781551
93 EMERALD HILL ROAD EMERALD HILL CONSERVATION AREA SINGAPORE 229369,93,EMERALD HILL CONSERVATION AREA,1.30430125809054,103.839321497472,103.839321497472,229369,EMERALD HILL ROAD,EMERALD HILL CONSERVATION AREA,28668.069825978,31848.5252817869
94 EMERALD HILL ROAD EMERALD HILL CONSERVATION AREA SINGAPORE 229370,94,EMERALD HILL CONSERVATION AREA,1.30374803550543,103.839769956273,103.839769956273,229370,EMERALD HILL ROAD,EMERALD HILL CONSERVATION AREA,28717.9793399572,31787.3528997265
95 EMERALD HILL ROAD EMERALD HILL CONSERVATION AREA SINGAPORE 229371,95,EMERALD HILL CONSERVATION AREA,1.30435562617377,103.839296443818,103.839296443818,229371,EMERALD HILL ROAD,EMERALD HILL CONSERVATION AREA,28665.2815695861,31854.5370179079
96 EMERALD HILL ROAD EMERALD HILL CONSERVATION AREA SINGAPORE 229372,96,EMERALD HILL CONSERVATION AREA,1.30380343138587,103.839774020489,103.839774020489,229372,EMERALD HILL ROAD,EMERALD HILL CONSERVATION AREA,28718.4316344382,31793.4782921281
97 EMERALD HILL ROAD EMERALD HILL CONSERVATION AREA SINGAPORE 229373,97,EMERALD HILL CONSERVATION AREA,1.30440740607796,103.839285445668,103.839285445668,229373,EMERALD HILL ROAD,EMERALD HILL CONSERVATION AREA,28664.0575625924,31860.2625702452
98 EMERALD HILL ROAD EMERALD HILL CONSERVATION AREA SINGAPORE 229374,98,EMERALD HILL CONSERVATION AREA,1.30385646303864,103.839776474082,103.839776474082,229374,EMERALD HILL ROAD,EMERALD HILL CONSERVATION AREA,28718.704681919,31799.3422599528
99 EMERALD HILL ROAD EMERALD HILL CONSERVATION AREA SINGAPORE 229375,99,EMERALD HILL CONSERVATION AREA,1.30445674777971,103.839300794792,103.839300794792,229375,EMERALD HILL ROAD,EMERALD HILL CONSERVATION AREA,28665.7657665219,31865.71852565
100 EMERALD HILL ROAD EMERALD HILL CONSERVATION AREA SINGAPORE 229376,100,EMERALD HILL CONSERVATION AREA,1.30390851883746,103.839777319775,103.839777319775,229376,EMERALD HILL ROAD,EMERALD HILL CONSERVATION AREA,28718.7987850802,31805.0983224157
101 EMERALD HILL ROAD EMERALD HILL CONSERVATION AREA SINGAPORE 229377,101,EMERALD HILL CONSERVATION AREA,1.30450768348506,103.839292446461,103.839292446461,229377,EMERALD HILL ROAD,EMERALD HILL CONSERVATION AREA,28664.8366604932,31871.3507315237
102 EMERALD HILL ROAD EMERALD HILL CONSERVATION AREA SINGAPORE 229378,102,EMERALD HILL CONSERVATION AREA,1.30396163480149,103.839779186181,103.839779186181,229378,EMERALD HILL ROAD,EMERALD HILL CONSERVATION AREA,28719.0064839842,31810.9716127813
103 EMERALD HILL ROAD EMERALD HILL CONSERVATION AREA SINGAPORE 229379,103,EMERALD HILL CONSERVATION AREA,1.3045580557226,103.839336515826,103.839336515826,229379,EMERALD HILL ROAD,EMERALD HILL CONSERVATION AREA,28669.7411635034,31876.920645887
104 EMERALD HILL ROAD EMERALD HILL CONSERVATION AREA SINGAPORE 229380,104,EMERALD HILL CONSERVATION AREA,1.30402721938998,103.839747115151,103.839747115151,229380,EMERALD HILL ROAD,EMERALD HILL CONSERVATION AREA,28715.4372530766,31818.2236098032
106 EMERALD HILL ROAD EMERALD HILL CONSERVATION AREA SINGAPORE 229382,106,EMERALD HILL CONSERVATION AREA,1.30408771218161,103.839749936197,103.839749936197,229382,EMERALD HILL ROAD,EMERALD HILL CONSERVATION AREA,28715.7511926042,31824.9125920609
106A EMERALD HILL ROAD EMERALD HILL CONSERVATION AREA SINGAPORE 229383,106A,EMERALD HILL CONSERVATION AREA,1.30408771218161,103.839749936197,103.839749936197,229383,EMERALD HILL ROAD,EMERALD HILL CONSERVATION AREA,28715.7511926042,31824.9125920609
107 EMERALD HILL ROAD EMERALD HILL CONSERVATION AREA SINGAPORE 229384,107,EMERALD HILL CONSERVATION AREA,1.30465075112725,103.839290195414,103.839290195414,229384,EMERALD HILL ROAD,EMERALD HILL CONSERVATION AREA,28664.5861021243,31887.1704142857
108 EMERALD HILL ROAD EMERALD HILL CONSERVATION AREA SINGAPORE 229385,108,EMERALD HILL CONSERVATION AREA,1.30415797240238,103.839718006057,103.839718006057,229385,EMERALD HILL ROAD,EMERALD HILL CONSERVATION AREA,28712.1976405112,31832.6815965138
108A EMERALD HILL ROAD EMERALD HILL CONSERVATION AREA SINGAPORE 229386,108A,EMERALD HILL CONSERVATION AREA,1.30415797240238,103.839718005785,103.839718005785,229386,EMERALD HILL ROAD,EMERALD HILL CONSERVATION AREA,28712.1976102432,31832.6815965138
110 EMERALD HILL ROAD EMERALD HILL CONSERVATION AREA SINGAPORE 229389,110,EMERALD HILL CONSERVATION AREA,1.30422687231045,103.839738246109,103.839738246109,229389,EMERALD HILL ROAD,EMERALD HILL CONSERVATION AREA,28714.450153592,31840.3001993559
110A EMERALD HILL ROAD EMERALD HILL CONSERVATION AREA SINGAPORE 229390,110A,EMERALD HILL CONSERVATION AREA,1.30422687231045,103.839738246653,103.839738246653,229390,EMERALD HILL ROAD,EMERALD HILL CONSERVATION AREA,28714.450214128,31840.3001993559
111 EMERALD HILL ROAD 111 EMERALD HILL SINGAPORE 229391,111,111 EMERALD HILL,1.30505900921312,103.83923580687,103.83923580687,229391,EMERALD HILL ROAD,111 EMERALD HILL,28658.5330502046,31932.3134775292
112 EMERALD HILL ROAD EMERALD HILL CONSERVATION AREA SINGAPORE 229392,112,EMERALD HILL CONSERVATION AREA,1.30427448735164,103.839734154412,103.839734154412,229392,EMERALD HILL ROAD,EMERALD HILL CONSERVATION AREA,28713.9947717767,31845.5652243197
112A EMERALD HILL ROAD EMERALD HILL CONSERVATION AREA SINGAPORE 229393,112A,EMERALD HILL CONSERVATION AREA,1.30427448707792,103.839734154683,103.839734154683,229393,EMERALD HILL ROAD,EMERALD HILL CONSERVATION AREA,28713.9948020447,31845.5651940517
114 EMERALD HILL ROAD EMERALD HILL CONSERVATION AREA SINGAPORE 229394,114,EMERALD HILL CONSERVATION AREA,1.30433628916419,103.83972528094,103.83972528094,229394,EMERALD HILL ROAD,EMERALD HILL CONSERVATION AREA,28713.0072182715,31852.3989480753
114A EMERALD HILL ROAD EMERALD HILL CONSERVATION AREA SINGAPORE 229395,114A,EMERALD HILL CONSERVATION AREA,1.30433628861674,103.839725280668,103.839725280668,229395,EMERALD HILL ROAD,EMERALD HILL CONSERVATION AREA,28713.0071880035,31852.3988875393
116 EMERALD HILL ROAD EMERALD HILL CONSERVATION AREA SINGAPORE 229397,116,EMERALD HILL CONSERVATION AREA,1.304384075835,103.839721545798,103.839721545798,229397,EMERALD HILL ROAD,EMERALD HILL CONSERVATION AREA,28712.5915177837,31857.6829510648
116A EMERALD HILL ROAD EMERALD HILL CONSERVATION AREA SINGAPORE 229398,116A,EMERALD HILL CONSERVATION AREA,1.30438407638247,103.839721545526,103.839721545526,229398,EMERALD HILL ROAD,EMERALD HILL CONSERVATION AREA,28712.5914875157,31857.6830116007
119 EMERALD HILL ROAD RESIDENCES AT EMERALD HILL SINGAPORE 229401,119,RESIDENCES AT EMERALD HILL,1.305381735873,103.839061553236,103.839061553236,229401,EMERALD HILL ROAD,RESIDENCES AT EMERALD HILL,28639.1401411612,31967.9988855086
119A EMERALD HILL ROAD RESIDENCES AT EMERALD HILL SINGAPORE 229402,119A,RESIDENCES AT EMERALD HILL,1.30532827749931,103.839281112598,103.839281112598,229402,EMERALD HILL ROAD,RESIDENCES AT EMERALD HILL,28663.5750909317,31962.0877904315
120 EMERALD HILL ROAD EMERALD HILL CONSERVATION AREA SINGAPORE 229403,120,EMERALD HILL CONSERVATION AREA,1.30444020937135,103.839746797989,103.839746797989,229403,EMERALD HILL ROAD,EMERALD HILL CONSERVATION AREA,28715.4018395357,31863.8899156805
121 EMERALD HILL ROAD EMERALD HILL CONSERVATION AREA SINGAPORE 229404,121,EMERALD HILL CONSERVATION AREA,1.30588118753387,103.839248250966,103.839248250966,229404,EMERALD HILL ROAD,EMERALD HILL CONSERVATION AREA,28659.9177499237,32023.2257275265
122 EMERALD HILL ROAD EMERALD HILL CONSERVATION AREA SINGAPORE 229405,122,EMERALD HILL CONSERVATION AREA,1.30448526968442,103.839734181869,103.839734181869,229405,EMERALD HILL ROAD,EMERALD HILL CONSERVATION AREA,28713.9977683071,31868.8724495526
123 EMERALD HILL ROAD EMERALD HILL CONSERVATION AREA SINGAPORE 229406,123,EMERALD HILL CONSERVATION AREA,1.30593488171238,103.839211638752,103.839211638752,229406,EMERALD HILL ROAD,EMERALD HILL CONSERVATION AREA,28655.8431344917,32029.1629438717
124 EMERALD HILL ROAD EMERALD HILL CONSERVATION AREA SINGAPORE 229407,124,EMERALD HILL CONSERVATION AREA,1.30453032092689,103.839736156499,103.839736156499,229407,EMERALD HILL ROAD,EMERALD HILL CONSERVATION AREA,28714.2175138686,31873.8539845813
125 EMERALD HILL ROAD EMERALD HILL CONSERVATION AREA SINGAPORE 229408,125,EMERALD HILL CONSERVATION AREA,1.30598959465454,103.839204860519,103.839204860519,229408,EMERALD HILL ROAD,EMERALD HILL CONSERVATION AREA,28655.0887655336,32035.212817654
126 EMERALD HILL ROAD EMERALD HILL CONSERVATION AREA SINGAPORE 229409,126,EMERALD HILL CONSERVATION AREA,1.3045747885902,103.83973049334,103.83973049334,229409,EMERALD HILL ROAD,EMERALD HILL CONSERVATION AREA,28713.5872436436,31878.7709882688
127 EMERALD HILL ROAD EMERALD HILL CONSERVATION AREA SINGAPORE 229410,127,EMERALD HILL CONSERVATION AREA,1.30604441489809,103.8391988759,103.8391988759,229410,EMERALD HILL ROAD,EMERALD HILL CONSERVATION AREA,28654.4227185519,32041.2745564841
128 EMERALD HILL ROAD EMERALD HILL CONSERVATION AREA SINGAPORE 229411,128,EMERALD HILL CONSERVATION AREA,1.30461919959192,103.839724360757,103.839724360757,229411,EMERALD HILL ROAD,EMERALD HILL CONSERVATION AREA,28712.9047308788,31883.6817264818
130 EMERALD HILL ROAD EMERALD HILL CONSERVATION AREA SINGAPORE 229412,130,EMERALD HILL CONSERVATION AREA,1.30466814305866,103.839720446388,103.839720446388,229412,EMERALD HILL ROAD,EMERALD HILL CONSERVATION AREA,28712.4690837897,31889.0936419703
134 EMERALD HILL ROAD TOP TEN SINGAPORE 229414,134,TOP TEN,1.30484422731081,103.839705299625,103.839705299625,229414,EMERALD HILL ROAD,TOP TEN,28710.7833387041,31908.5641278569
136 EMERALD HILL ROAD TOP TEN SINGAPORE 229415,136,TOP TEN,1.3048442270371,103.839705299353,103.839705299353,229415,EMERALD HILL ROAD,TOP TEN,28710.7833084362,31908.5640975889
140 EMERALD HILL ROAD EMERALD APARTMENTS SINGAPORE 229417,140,EMERALD APARTMENTS,1.30514122743721,103.839658737676,103.839658737676,229417,EMERALD HILL ROAD,EMERALD APARTMENTS,28705.6013388196,31941.4048599228
142 EMERALD HILL ROAD EMERALD APARTMENTS SINGAPORE 229418,142,EMERALD APARTMENTS,1.30514122771097,103.83965873822,103.83965873822,229418,EMERALD HILL ROAD,EMERALD APARTMENTS,28705.6013993556,31941.4048901908
148 EMERALD HILL ROAD SINGAPORE 229419,148,NIL,1.30547160901816,103.839614891169,103.839614891169,229419,EMERALD HILL ROAD,148 EMERALD HILL ROAD SINGAPORE 229419,28700.721534485,31977.9367423337
150 EMERALD HILL ROAD EMERALD HILL CONSERVATION AREA SINGAPORE 229420,150,EMERALD HILL CONSERVATION AREA,1.30558796691604,103.839602443025,103.839602443025,229420,EMERALD HILL ROAD,EMERALD HILL CONSERVATION AREA,28699.3361386023,31990.8029963169
152 EMERALD HILL ROAD EMERALD HILL CONSERVATION AREA SINGAPORE 229421,152,EMERALD HILL CONSERVATION AREA,1.30564417416064,103.8395984721,103.8395984721,229421,EMERALD HILL ROAD,EMERALD HILL CONSERVATION AREA,28698.8941957718,31997.0181030203
154 EMERALD HILL ROAD EMERALD HILL CONSERVATION AREA SINGAPORE 229422,154,EMERALD HILL CONSERVATION AREA,1.3057229715153,103.839585556069,103.839585556069,229422,EMERALD HILL ROAD,EMERALD HILL CONSERVATION AREA,28697.4567389572,32005.73110535
156 EMERALD HILL ROAD EMERALD HILL CONSERVATION AREA SINGAPORE 229423,156,EMERALD HILL CONSERVATION AREA,1.3057834769896,103.839551686448,103.839551686448,229423,EMERALD HILL ROAD,EMERALD HILL CONSERVATION AREA,28693.6873458726,32012.4214799348
158 EMERALD HILL ROAD EMERALD HILL CONSERVATION AREA SINGAPORE 229424,158,EMERALD HILL CONSERVATION AREA,1.30584737678269,103.839615357174,103.839615357174,229424,EMERALD HILL ROAD,EMERALD HILL CONSERVATION AREA,28700.7732927371,32019.4872077852
160 EMERALD HILL ROAD EMERALD HILL CONSERVATION AREA SINGAPORE 229425,160,EMERALD HILL CONSERVATION AREA,1.30589973970216,103.839618988403,103.839618988403,229425,EMERALD HILL ROAD,EMERALD HILL CONSERVATION AREA,28701.1774005881,32025.2772309259
162 EMERALD HILL ROAD EMERALD HILL CONSERVATION AREA SINGAPORE 229426,162,EMERALD HILL CONSERVATION AREA,1.30595224468854,103.83962281083,103.83962281083,229426,EMERALD HILL ROAD,EMERALD HILL CONSERVATION AREA,28701.6027868306,32031.0829631519
164 EMERALD HILL ROAD EMERALD HILL CONSERVATION AREA SINGAPORE 229427,164,EMERALD HILL CONSERVATION AREA,1.30600622806693,103.839642386428,103.839642386428,229427,EMERALD HILL ROAD,EMERALD HILL CONSERVATION AREA,28703.7813552273,32037.0521727558
166 EMERALD HILL ROAD EMERALD HILL CONSERVATION AREA SINGAPORE 229428,166,EMERALD HILL CONSERVATION AREA,1.30605904592695,103.839647420219,103.839647420219,229428,EMERALD HILL ROAD,EMERALD HILL CONSERVATION AREA,28704.3415550692,32042.8925012872
146 EMERALD HILL ROAD SINGAPORE 229430,146,NIL,1.30529085186588,103.839632347789,103.839632347789,229430,EMERALD HILL ROAD,146 EMERALD HILL ROAD SINGAPORE 229430,28702.6643455559,31957.9495516978
146A EMERALD HILL ROAD SINGAPORE 229431,146A,NIL,1.30539971905561,103.839622073228,103.839622073228,229431,EMERALD HILL ROAD,146A EMERALD HILL ROAD SINGAPORE 229431,28701.5208513988,31969.9875223059
37A EMERALD HILL ROAD CHATSWORTH INTERNATIONAL SCHOOL (ORCHARD CAMPUS) SINGAPORE 229432,37A,CHATSWORTH INTERNATIONAL SCHOOL (ORCHARD CAMPUS),1.30223301697266,103.838639954906,103.838639954906,229432,EMERALD HILL ROAD,CHATSWORTH INTERNATIONAL SCHOOL (ORCHARD CAMPUS),28592.2208618289,31619.8296588212
119B EMERALD HILL ROAD RESIDENCES AT EMERALD HILL SINGAPORE 229433,119B,RESIDENCES AT EMERALD HILL,1.30540618822376,103.839271421057,103.839271421057,229433,EMERALD HILL ROAD,RESIDENCES AT EMERALD HILL,28662.4964913325,31970.702754762
119C EMERALD HILL ROAD RESIDENCES AT EMERALD HILL SINGAPORE 229434,119C,RESIDENCES AT EMERALD HILL,1.3054843992332,103.839261737948,103.839261737948,229434,EMERALD HILL ROAD,RESIDENCES AT EMERALD HILL,28661.4188300399,31979.3509230688
119D EMERALD HILL ROAD RESIDENCES AT EMERALD HILL SINGAPORE 229435,119D,RESIDENCES AT EMERALD HILL,1.30556327185573,103.839251817952,103.839251817952,229435,EMERALD HILL ROAD,RESIDENCES AT EMERALD HILL,28660.3148053335,31988.072249094
17 CUPPAGE ROAD CUPPAGE TERRACE SINGAPORE 229450,17,CUPPAGE TERRACE,1.30180918370494,103.840176990924,103.840176990924,229450,CUPPAGE ROAD,CUPPAGE TERRACE,28763.2791610882,31572.9647710565
19 CUPPAGE ROAD CUPPAGE TERRACE SINGAPORE 229451,19,CUPPAGE TERRACE,1.30185111216979,103.840190785983,103.840190785983,229451,CUPPAGE ROAD,CUPPAGE TERRACE,28764.814413758,31577.6010089275
21 CUPPAGE ROAD CUPPAGE TERRACE SINGAPORE 229452,21,CUPPAGE TERRACE,1.30189274199287,103.840204204633,103.840204204633,229452,CUPPAGE ROAD,CUPPAGE TERRACE,28766.3077755384,31582.2042244263
23 CUPPAGE ROAD CUPPAGE TERRACE SINGAPORE 229453,23,CUPPAGE TERRACE,1.30193459299195,103.840217694269,103.840217694269,229453,CUPPAGE ROAD,CUPPAGE TERRACE,28767.8090372635,31586.8318964578
25 CUPPAGE ROAD CUPPAGE TERRACE SINGAPORE 229454,25,CUPPAGE TERRACE,1.30197677055409,103.840231289431,103.840231289431,229454,CUPPAGE ROAD,CUPPAGE TERRACE,28769.3220429653,31591.495678192
27 CUPPAGE ROAD CUPPAGE TERRACE SINGAPORE 229455,27,CUPPAGE TERRACE,1.30201905459817,103.840244918863,103.840244918863,229455,CUPPAGE ROAD,CUPPAGE TERRACE,28770.8388624331,31596.1712341737
29 CUPPAGE ROAD CUPPAGE TERRACE SINGAPORE 229456,29,CUPPAGE TERRACE,1.30206111773981,103.840258476765,103.840258476765,229456,CUPPAGE ROAD,CUPPAGE TERRACE,28772.3477214212,31600.8223638907
31 CUPPAGE ROAD CUPPAGE TERRACE SINGAPORE 229457,31,CUPPAGE TERRACE,1.30210264135418,103.840271861149,103.840271861149,229457,CUPPAGE ROAD,CUPPAGE TERRACE,28773.8372694366,31605.4138354138
33 CUPPAGE ROAD CUPPAGE TERRACE SINGAPORE 229458,33,CUPPAGE TERRACE,1.30214427117673,103.840285279802,103.840285279802,229458,CUPPAGE ROAD,CUPPAGE TERRACE,28775.330631217,31610.0170509126
35 CUPPAGE ROAD CUPPAGE TERRACE SINGAPORE 229459,35,CUPPAGE TERRACE,1.30218503545627,103.840298419138,103.840298419138,229459,CUPPAGE ROAD,CUPPAGE TERRACE,28776.7929077782,31614.5245590471
37 CUPPAGE ROAD CUPPAGE TERRACE SINGAPORE 229460,37,CUPPAGE TERRACE,1.30222577701583,103.840311591111,103.840311591111,229460,CUPPAGE ROAD,CUPPAGE TERRACE,28778.2588164974,31619.0295549408
39 CUPPAGE ROAD CUPPAGE TERRACE SINGAPORE 229461,39,CUPPAGE TERRACE,1.30226750565592,103.840324941229,103.840324941229,229461,CUPPAGE ROAD,CUPPAGE TERRACE,28779.7445507469,31623.6436971817
41 CUPPAGE ROAD CUPPAGE TERRACE SINGAPORE 229462,41,CUPPAGE TERRACE,1.30230817549721,103.84033813224,103.84033813224,229462,CUPPAGE ROAD,CUPPAGE TERRACE,28781.212578225,31628.1407628637
43 CUPPAGE ROAD CUPPAGE TERRACE SINGAPORE 229463,43,CUPPAGE TERRACE,1.30233289322259,103.840370009296,103.840370009296,229463,CUPPAGE ROAD,CUPPAGE TERRACE,28784.7601977922,31630.8739315253
45 CUPPAGE ROAD CUPPAGE TERRACE SINGAPORE 229464,45,CUPPAGE TERRACE,1.30237441519568,103.840382734968,103.840382734968,229464,CUPPAGE ROAD,CUPPAGE TERRACE,28786.1764367502,31635.4652214386
47 CUPPAGE ROAD CUPPAGE TERRACE SINGAPORE 229465,47,CUPPAGE TERRACE,1.30242794944738,103.840376233905,103.840376233905,229465,CUPPAGE ROAD,CUPPAGE TERRACE,28785.4529108675,31641.3847612832
49 CUPPAGE ROAD CUPPAGE TERRACE SINGAPORE 229466,49,CUPPAGE TERRACE,1.30245954634877,103.840410619377,103.840410619377,229466,CUPPAGE ROAD,CUPPAGE TERRACE,28789.2796920491,31644.8785946425
57 CUPPAGE ROAD SIAN TECK TNG TEMPLE SINGAPORE 229468,57,SIAN TECK TNG TEMPLE,1.30321393964677,103.840222084374,103.840222084374,229468,CUPPAGE ROAD,SIAN TECK TNG TEMPLE,28768.2972295722,31728.2954627611
51 CUPPAGE ROAD 51 CUPPAGE ROAD SINGAPORE 229469,51,51 CUPPAGE ROAD,1.30289720538928,103.840025090828,103.840025090828,229469,CUPPAGE ROAD,51 CUPPAGE ROAD,28746.3737354819,31693.2725604083
100 CLEMENCEAU AVENUE NORTH CAVENAGH HOUSE SINGAPORE 229491,100,CAVENAGH HOUSE,1.30790270242326,103.840635750149,103.840635750149,229491,CLEMENCEAU AVENUE NORTH,CAVENAGH HOUSE,28814.3329561912,32246.7548478153
420 CLEMENCEAU AVENUE NORTH SINGAPORE 229492,420,NIL,1.31039881365697,103.839964342214,103.839964342214,229492,CLEMENCEAU AVENUE NORTH,420 CLEMENCEAU AVENUE NORTH SINGAPORE 229492,28739.6107782722,32522.7617810369
500 CLEMENCEAU AVENUE NORTH DBS NEWTON FOOD CENTRE SINGAPORE 229495,500,DBS NEWTON FOOD CENTRE,1.31189240495009,103.839562766706,103.839562766706,229495,CLEMENCEAU AVENUE NORTH,DBS NEWTON FOOD CENTRE,28694.9187987903,32687.9153112266
10 CLEMENCEAU AVENUE NORTH SINGAPORE 229496,10,NIL,1.30714337883548,103.840667233363,103.840667233363,229496,CLEMENCEAU AVENUE NORTH,10 CLEMENCEAU AVENUE NORTH SINGAPORE 229496,28817.8369898628,32162.7927625068
426 CLEMENCEAU AVENUE NORTH MONKS HILL FLAT SINGAPORE 229516,426,MONKS HILL FLAT,1.30837856883389,103.840453309205,103.840453309205,229516,CLEMENCEAU AVENUE NORTH,MONKS HILL FLAT,28794.0288294982,32299.373649016
7 CLAYMORE ROAD SINGAPORE 229538,7,NIL,1.30803347738244,103.829025149921,103.829025149921,229538,CLAYMORE ROAD,7 CLAYMORE ROAD SINGAPORE 229538,27522.1813505385,32261.2144992631
9 CLAYMORE ROAD SINGAPORE 229539,9,NIL,1.30838098405879,103.829484573194,103.829484573194,229539,CLAYMORE ROAD,9 CLAYMORE ROAD SINGAPORE 229539,27573.3109366735,32299.6399164684
10 CLAYMORE ROAD SINGAPORE 229540,10,NIL,1.30739904535658,103.829895253334,103.829895253334,229540,CLAYMORE ROAD,10 CLAYMORE ROAD SINGAPORE 229540,27619.0156526221,32191.0621209908
11 CLAYMORE ROAD SINGAPORE 229541,11,NIL,1.30839392222001,103.829785235353,103.829785235353,229541,CLAYMORE ROAD,11 CLAYMORE ROAD SINGAPORE 229541,27606.771829457,32301.0705024507
15 CLAYMORE ROAD ETONHOUSE INTERNATIONAL PRE-SCHOOL (CLAYMORE) SINGAPORE 229542,15,ETONHOUSE INTERNATIONAL PRE-SCHOOL (CLAYMORE),1.30832627851801,103.830054727412,103.830054727412,229542,CLAYMORE ROAD,ETONHOUSE INTERNATIONAL PRE-SCHOOL (CLAYMORE),27636.7637691628,32293.5907691196
25 CLAYMORE ROAD THE CLAYMORE SINGAPORE 229543,25,THE CLAYMORE,1.30783864295486,103.831055432986,103.831055432986,229543,CLAYMORE ROAD,THE CLAYMORE,27748.1329083676,32239.6704143491
27 CLAYMORE ROAD THE CLAYMORE SINGAPORE 229544,27,THE CLAYMORE,1.30912829551282,103.831608449156,103.831608449156,229544,CLAYMORE ROAD,THE CLAYMORE,27809.6785552027,32382.2735097036
21 CLAYMORE ROAD THE TATE RESIDENCES SINGAPORE 229545,21,THE TATE RESIDENCES,1.30797486539571,103.830325471683,103.830325471683,229545,CLAYMORE ROAD,THE TATE RESIDENCES,27666.8950323975,32254.7332764473
23 CLAYMORE ROAD THE TATE RESIDENCES SINGAPORE 229546,23,THE TATE RESIDENCES,1.30846017296762,103.830642263702,103.830642263702,229546,CLAYMORE ROAD,THE TATE RESIDENCES,27702.1510890275,32308.3960506748
6 CLAYMORE HILL CLAYMORE PLAZA SINGAPORE 229571,6,CLAYMORE PLAZA,1.30681455140449,103.83161179273,103.83161179273,229571,CLAYMORE HILL,CLAYMORE PLAZA,27810.050488187,32126.4315915219
8 CLAYMORE HILL 8 ON CLAYMORE SINGAPORE 229572,8,8 ON CLAYMORE,1.3076349219986,103.832038066833,103.832038066833,229572,CLAYMORE HILL,8 ON CLAYMORE,27857.4908913942,32217.143921487
10 CLAYMORE HILL THE AMERICAN CLUB SINGAPORE 229573,10,THE AMERICAN CLUB,1.30851242020942,103.832206903568,103.832206903568,229573,CLAYMORE HILL,THE AMERICAN CLUB,27876.2808924699,32314.1731493864
1 CLAYMORE DRIVE EMBASSY OF ROMANIA SINGAPORE 229594,1,EMBASSY OF ROMANIA,1.30756236897064,103.829352193027,103.829352193027,229594,CLAYMORE DRIVE,EMBASSY OF ROMANIA,27558.5781166712,32209.1216950826
11 CAVENAGH ROAD HOLIDAY INN SINGAPORE ORCHARD CITY CENTRE SINGAPORE 229616,11,HOLIDAY INN SINGAPORE ORCHARD CITY CENTRE,1.30226198295862,103.841113190259,103.841113190259,229616,CAVENAGH ROAD,HOLIDAY INN SINGAPORE ORCHARD CITY CENTRE,28867.4695215225,31623.0332827549
22 CAVENAGH ROAD HOTEL GRAND CENTRAL SINGAPORE 229617,22,HOTEL GRAND CENTRAL,1.30128072466288,103.841789514242,103.841789514242,229617,CAVENAGH ROAD,HOTEL GRAND CENTRAL,28942.7386116395,31514.5310361627
63 CAVENAGH ROAD HIJAUAN SINGAPORE 229618,63,HIJAUAN,1.30360072008439,103.841116863266,103.841116863266,229618,CAVENAGH ROAD,HIJAUAN,28867.8778366232,31771.0639421456
65 CAVENAGH ROAD WATERSCAPE AT CAVENAGH SINGAPORE 229619,65,WATERSCAPE AT CAVENAGH,1.30395577762362,103.840804014831,103.840804014831,229619,CAVENAGH ROAD,WATERSCAPE AT CAVENAGH,28833.0605446845,31810.3242714126
65A CAVENAGH ROAD WATERSCAPE AT CAVENAGH SINGAPORE 229620,65A,WATERSCAPE AT CAVENAGH,1.30417808993957,103.840685919031,103.840685919031,229620,CAVENAGH ROAD,WATERSCAPE AT CAVENAGH,28819.9174899915,31834.9063841216
69 CAVENAGH ROAD CAVENAGH GARDENS SINGAPORE 229622,69,CAVENAGH GARDENS,1.3047460376708,103.840877644324,103.840877644324,229622,CAVENAGH ROAD,CAVENAGH GARDENS,28841.2545721652,31897.7071837056
71 CAVENAGH ROAD CAVENAGH GARDENS SINGAPORE 229623,71,CAVENAGH GARDENS,1.3050573620098,103.84064004861,103.84064004861,229623,CAVENAGH ROAD,CAVENAGH GARDENS,28814.8122497136,31932.1317485552
73 CAVENAGH ROAD CAVENAGH GARDENS SINGAPORE 229624,73,CAVENAGH GARDENS,1.30552876210563,103.840491727566,103.840491727566,229624,CAVENAGH ROAD,CAVENAGH GARDENS,28798.3053323813,31984.2566973343
81 CAVENAGH ROAD CAVENAGH LODGE SINGAPORE 229626,81,CAVENAGH LODGE,1.30607179278728,103.840764608781,103.840764608781,229626,CAVENAGH ROAD,CAVENAGH LODGE,28828.6743203606,32044.3023234326
139 CAVENAGH ROAD TOWNHOUSE APARTMENTS SINGAPORE 229627,139,TOWNHOUSE APARTMENTS,1.30924339094276,103.84261059819,103.84261059819,229627,CAVENAGH ROAD,TOWNHOUSE APARTMENTS,29034.1145974156,32395.0020140931
151 CAVENAGH ROAD CAVENAGH COURT SINGAPORE 229628,151,CAVENAGH COURT,1.30990860733718,103.843150652659,103.843150652659,229628,CAVENAGH ROAD,CAVENAGH COURT,29094.2173089311,32468.558450887
91 CAVENAGH ROAD CAVENAGH FORTUNA SINGAPORE 229629,91,CAVENAGH FORTUNA,1.30678888908423,103.840966340816,103.840966340816,229629,CAVENAGH ROAD,CAVENAGH FORTUNA,28851.1249919236,32123.595209036
65B CAVENAGH ROAD WATERSCAPE AT CAVENAGH SINGAPORE 229630,65B,WATERSCAPE AT CAVENAGH,1.30440750635011,103.840599417121,103.840599417121,229630,CAVENAGH ROAD,WATERSCAPE AT CAVENAGH,28810.2905458938,31860.274041811
65C CAVENAGH ROAD WATERSCAPE AT CAVENAGH SINGAPORE 229631,65C,WATERSCAPE AT CAVENAGH,1.30464484865419,103.84052736264,103.84052736264,229631,CAVENAGH ROAD,WATERSCAPE AT CAVENAGH,28802.2714673597,31886.5181089677
65D CAVENAGH ROAD WATERSCAPE AT CAVENAGH SINGAPORE 229632,65D,WATERSCAPE AT CAVENAGH,1.30441601451037,103.841058762776,103.841058762776,229632,CAVENAGH ROAD,WATERSCAPE AT CAVENAGH,28861.4115056535,31861.2149826195
65E CAVENAGH ROAD WATERSCAPE AT CAVENAGH SINGAPORE 229633,65E,WATERSCAPE AT CAVENAGH,1.30408753230847,103.841111335573,103.841111335573,229633,CAVENAGH ROAD,WATERSCAPE AT CAVENAGH,28867.2624885142,31824.8931297474
65F CAVENAGH ROAD WATERSCAPE AT CAVENAGH SINGAPORE 229634,65F,WATERSCAPE AT CAVENAGH,1.30456263679733,103.840803612742,103.840803612742,229634,CAVENAGH ROAD,WATERSCAPE AT CAVENAGH,28833.0155967288,31877.4276346155
28 CAVENAGH ROAD HOTEL CHANCELLOR @ ORCHARD SINGAPORE 229635,28,HOTEL CHANCELLOR @ ORCHARD,1.30142827019903,103.841979719981,103.841979719981,229635,CAVENAGH ROAD,HOTEL CHANCELLOR @ ORCHARD,28963.9067379283,31530.8459334075
20 CAIRNHILL ROAD EMERALD HILL CONSERVATION AREA SINGAPORE 229652,20,EMERALD HILL CONSERVATION AREA,1.30315765162828,103.837978329965,103.837978329965,229652,CAIRNHILL ROAD,EMERALD HILL CONSERVATION AREA,28518.5878167683,31722.070851909
22 CAIRNHILL ROAD EMERALD HILL CONSERVATION AREA SINGAPORE 229653,22,EMERALD HILL CONSERVATION AREA,1.30321123564947,103.837995273362,103.837995273362,229653,CAIRNHILL ROAD,EMERALD HILL CONSERVATION AREA,28520.4734516181,31727.9959005266
24 CAIRNHILL ROAD EMERALD HILL CONSERVATION AREA SINGAPORE 229654,24,EMERALD HILL CONSERVATION AREA,1.3032664894676,103.837998354633,103.837998354633,229654,CAIRNHILL ROAD,EMERALD HILL CONSERVATION AREA,28520.8163576052,31734.1055838428
26 CAIRNHILL ROAD EMERALD HILL CONSERVATION AREA SINGAPORE 229655,26,EMERALD HILL CONSERVATION AREA,1.30331980743622,103.838006706985,103.838006706985,229655,CAIRNHILL ROAD,EMERALD HILL CONSERVATION AREA,28521.7458873857,31740.0012119804
28 CAIRNHILL ROAD EMERALD HILL CONSERVATION AREA SINGAPORE 229656,28,EMERALD HILL CONSERVATION AREA,1.30338211835127,103.838016768426,103.838016768426,229656,CAIRNHILL ROAD,EMERALD HILL CONSERVATION AREA,28522.8656211747,31746.8912341855
32 CAIRNHILL ROAD URBAN RESORT CONDOMINIUM SINGAPORE 229657,32,URBAN RESORT CONDOMINIUM,1.30422334935226,103.837713806599,103.837713806599,229657,CAIRNHILL ROAD,URBAN RESORT CONDOMINIUM,28489.1485704454,31839.9101661164
38 CAIRNHILL ROAD THE LAURELS SINGAPORE 229658,38,THE LAURELS,1.30477434995815,103.83743185829,103.83743185829,229658,CAIRNHILL ROAD,THE LAURELS,28457.7702057455,31900.8369234893
40 CAIRNHILL ROAD THE LAURELS SINGAPORE 229660,40,THE LAURELS,1.30476841160306,103.837900951997,103.837900951997,229660,CAIRNHILL ROAD,THE LAURELS,28509.976030577,31900.1803806555
42 CAIRNHILL ROAD TAN CHIN TUAN MANSION SINGAPORE 229661,42,TAN CHIN TUAN MANSION,1.30525428727346,103.83764593858,103.83764593858,229661,CAIRNHILL ROAD,TAN CHIN TUAN MANSION,28481.595285912,31953.9059609491
50 CAIRNHILL ROAD THE LIGHT @ CAIRNHILL SINGAPORE 229662,50,THE LIGHT @ CAIRNHILL,1.30604255755324,103.837922866001,103.837922866001,229662,CAIRNHILL ROAD,THE LIGHT @ CAIRNHILL,28512.4146009535,32041.068885535
52 CAIRNHILL ROAD THE LIGHT @ CAIRNHILL SINGAPORE 229663,52,THE LIGHT @ CAIRNHILL,1.30608654729353,103.837906695163,103.837906695163,229663,CAIRNHILL ROAD,THE LIGHT @ CAIRNHILL,28510.6149271773,32045.933041323
53 CAIRNHILL ROAD CAIRNHILL PLAZA SINGAPORE 229664,53,CAIRNHILL PLAZA,1.30616222501617,103.836994537802,103.836994537802,229664,CAIRNHILL ROAD,CAIRNHILL PLAZA,28409.1002262356,32054.3009281009
54 CAIRNHILL ROAD THE LIGHT @ CAIRNHILL SINGAPORE 229665,54,THE LIGHT @ CAIRNHILL,1.3061302879385,103.837889540329,103.837889540329,229665,CAIRNHILL ROAD,THE LIGHT @ CAIRNHILL,28508.7057438362,32050.7696532458
55 CAIRNHILL ROAD CAIRNHILL PLAZA SINGAPORE 229666,55,CAIRNHILL PLAZA,1.30685526429939,103.836843330425,103.836843330425,229666,CAIRNHILL ROAD,CAIRNHILL PLAZA,28392.2721353276,32130.9336211532
56 CAIRNHILL ROAD THE LIGHT @ CAIRNHILL SINGAPORE 229667,56,THE LIGHT @ CAIRNHILL,1.30617829634046,103.83787991233,103.83787991233,229667,CAIRNHILL ROAD,THE LIGHT @ CAIRNHILL,28507.6342269443,32056.0781733021
57 CAIRNHILL ROAD ELIZABETH HEIGHTS SINGAPORE 229668,57,ELIZABETH HEIGHTS,1.30752558427329,103.836487890258,103.836487890258,229668,CAIRNHILL ROAD,ELIZABETH HEIGHTS,28352.7148468718,32205.0541018229
63 CAIRNHILL ROAD SINGAPORE 229671,63,NIL,1.30826817599361,103.836584155525,103.836584155525,229671,CAIRNHILL ROAD,63 CAIRNHILL ROAD SINGAPORE 229671,28363.4281694405,32287.1660868954
68 CAIRNHILL ROAD SINGAPORE 229674,68,NIL,1.30668007815474,103.837580912463,103.837580912463,229674,CAIRNHILL ROAD,68 CAIRNHILL ROAD SINGAPORE 229674,28474.3582110051,32111.562565593
70 CAIRNHILL ROAD SINGAPORE 229676,70,NIL,1.30675639019147,103.837618062088,103.837618062088,229676,CAIRNHILL ROAD,70 CAIRNHILL ROAD SINGAPORE 229676,28478.4926057057,32120.000764899
72 CAIRNHILL ROAD SINGAPORE 229677,72,NIL,1.30679814655027,103.837597171159,103.837597171159,229677,CAIRNHILL ROAD,72 CAIRNHILL ROAD SINGAPORE 229677,28476.167631072,32124.6179642063
74 CAIRNHILL ROAD SINGAPORE 229678,74,NIL,1.30683975509396,103.837575768922,103.837575768922,229678,CAIRNHILL ROAD,74 CAIRNHILL ROAD SINGAPORE 229678,28473.7857526299,32129.2188188024
76 CAIRNHILL ROAD SINGAPORE 229679,76,NIL,1.30688756502861,103.83757171988,103.83757171988,229679,CAIRNHILL ROAD,76 CAIRNHILL ROAD SINGAPORE 229679,28473.335122888,32134.5053945705
78 CAIRNHILL ROAD SINGAPORE 229680,78,NIL,1.30692669520318,103.837544713378,103.837544713378,229680,CAIRNHILL ROAD,78 CAIRNHILL ROAD SINGAPORE 229680,28470.3295423724,32138.8322028443
79 CAIRNHILL ROAD TRENDALE TOWER SINGAPORE 229681,79,TRENDALE TOWER,1.30964595890626,103.835867406972,103.835867406972,229681,CAIRNHILL ROAD,TRENDALE TOWER,28283.6605910473,32439.514141215
80 CAIRNHILL ROAD SINGAPORE 229682,80,NIL,1.30696466475645,103.837513625386,103.837513625386,229682,CAIRNHILL ROAD,80 CAIRNHILL ROAD SINGAPORE 229682,28466.8697302258,32143.0306748655
82 CAIRNHILL ROAD SINGAPORE 229684,82,NIL,1.30700603487684,103.837492879414,103.837492879414,229684,CAIRNHILL ROAD,82 CAIRNHILL ROAD SINGAPORE 229684,28464.5608884282,32147.6051660478
84 CAIRNHILL ROAD SINGAPORE 229686,84,NIL,1.30704775892983,103.837474539309,103.837474539309,229686,CAIRNHILL ROAD,84 CAIRNHILL ROAD SINGAPORE 229686,28462.5197972143,32152.2187937349
86 CAIRNHILL ROAD SINGAPORE 229687,86,NIL,1.30709311185194,103.837461495867,103.837461495867,229687,CAIRNHILL ROAD,86 CAIRNHILL ROAD SINGAPORE 229687,28461.0681749824,32157.2336840797
88 CAIRNHILL ROAD SINGAPORE 229688,88,NIL,1.30715753496277,103.837428025167,103.837428025167,229688,CAIRNHILL ROAD,88 CAIRNHILL ROAD SINGAPORE 229688,28457.3431850309,32164.3572540488
90 CAIRNHILL ROAD SINGAPORE 229689,90,NIL,1.30721046809525,103.837416755267,103.837416755267,229689,CAIRNHILL ROAD,90 CAIRNHILL ROAD SINGAPORE 229689,28456.0889403215,32170.2103253994
92 CAIRNHILL ROAD SINGAPORE 229690,92,NIL,1.30726066253899,103.837399500886,103.837399500886,229690,CAIRNHILL ROAD,92 CAIRNHILL ROAD SINGAPORE 229690,28454.1686788984,32175.7605655734
94 CAIRNHILL ROAD SINGAPORE 229691,94,NIL,1.30731027886126,103.837380591007,103.837380591007,229691,CAIRNHILL ROAD,94 CAIRNHILL ROAD SINGAPORE 229691,28452.0641762586,32181.2468797658
96 CAIRNHILL ROAD SINGAPORE 229692,96,NIL,1.30736593151518,103.837378825181,103.837378825181,229692,CAIRNHILL ROAD,96 CAIRNHILL ROAD SINGAPORE 229692,28451.8676462406,32187.400663536
98 CAIRNHILL ROAD SINGAPORE 229693,98,NIL,1.30742798921937,103.837394031249,103.837394031249,229693,CAIRNHILL ROAD,98 CAIRNHILL ROAD SINGAPORE 229693,28453.5599292098,32194.2626878563
100 CAIRNHILL ROAD SINGAPORE 229694,100,NIL,1.30747779605777,103.837376303089,103.837376303089,229694,CAIRNHILL ROAD,100 CAIRNHILL ROAD SINGAPORE 229694,28451.5869409591,32199.7700685654
102 CAIRNHILL ROAD SINGAPORE 229695,102,NIL,1.30751419222736,103.837322968298,103.837322968298,229695,CAIRNHILL ROAD,102 CAIRNHILL ROAD SINGAPORE 229695,28445.6512682801,32203.7945602164
104 CAIRNHILL ROAD SINGAPORE 229696,104,NIL,1.30756375243109,103.83730569433,103.83730569433,229696,CAIRNHILL ROAD,104 CAIRNHILL ROAD SINGAPORE 229696,28443.7288275622,32209.2746694721
106 CAIRNHILL ROAD SINGAPORE 229697,106,NIL,1.30761063636304,103.837278528725,103.837278528725,229697,CAIRNHILL ROAD,106 CAIRNHILL ROAD SINGAPORE 229697,28440.7055402771,32214.4588486515
108 CAIRNHILL ROAD SINGAPORE 229698,108,NIL,1.30763831224391,103.837209299313,103.837209299313,229698,CAIRNHILL ROAD,108 CAIRNHILL ROAD SINGAPORE 229698,28433.0009460934,32217.5190931465
110 CAIRNHILL ROAD SINGAPORE 229699,110,NIL,1.30768769287644,103.837193026471,103.837193026471,229699,CAIRNHILL ROAD,110 CAIRNHILL ROAD SINGAPORE 229699,28431.1899218243,32222.979346605
112 CAIRNHILL ROAD SINGAPORE 229700,112,NIL,1.30772930222835,103.837177635079,103.837177635079,229700,CAIRNHILL ROAD,112 CAIRNHILL ROAD SINGAPORE 229700,28429.4769960893,32227.5802920051
114 CAIRNHILL ROAD SINGAPORE 229701,114,NIL,1.30779933290608,103.837223644738,103.837223644738,229701,CAIRNHILL ROAD,114 CAIRNHILL ROAD SINGAPORE 229701,28434.5974308951,32235.3239318877
116 CAIRNHILL ROAD SINGAPORE 229702,116,NIL,1.30781981756088,103.837144975151,103.837144975151,229702,CAIRNHILL ROAD,116 CAIRNHILL ROAD SINGAPORE 229702,28425.8422349971,32237.5890061818
118 CAIRNHILL ROAD SINGAPORE 229703,118,NIL,1.30788766714239,103.837186083595,103.837186083595,229703,CAIRNHILL ROAD,118 CAIRNHILL ROAD SINGAPORE 229703,28430.4172104681,32245.0914707687
120 CAIRNHILL ROAD SINGAPORE 229704,120,NIL,1.30793620329719,103.837177120822,103.837177120822,229704,CAIRNHILL ROAD,120 CAIRNHILL ROAD SINGAPORE 229704,28429.4197290642,32250.4583474975
122 CAIRNHILL ROAD SINGAPORE 229705,122,NIL,1.30796044438867,103.837098075642,103.837098075642,229705,CAIRNHILL ROAD,122 CAIRNHILL ROAD SINGAPORE 229705,28420.6227330808,32253.1387893315
124 CAIRNHILL ROAD SINGAPORE 229706,124,NIL,1.30799731681083,103.837069360044,103.837069360044,229706,CAIRNHILL ROAD,124 CAIRNHILL ROAD SINGAPORE 229706,28417.4269485557,32257.2159472741
126 CAIRNHILL ROAD ONE-TWO-SIX CAIRNHILL ART CENTRE SINGAPORE 229707,126,ONE-TWO-SIX CAIRNHILL ART CENTRE,1.30847759288943,103.837534190632,103.837534190632,229707,CAIRNHILL ROAD,ONE-TWO-SIX CAIRNHILL ART CENTRE,28469.1581714032,32310.3224867657
128 CAIRNHILL ROAD SINGAPORE 229708,128,NIL,1.30815220288317,103.837057358678,103.837057358678,229708,CAIRNHILL ROAD,128 CAIRNHILL ROAD SINGAPORE 229708,28416.0912829703,32274.3424502332
128A CAIRNHILL ROAD SINGAPORE 229709,128A,NIL,1.30819786348653,103.83703900306,103.83703900306,229709,CAIRNHILL ROAD,128A CAIRNHILL ROAD SINGAPORE 229709,28414.0484664813,32279.3913617935
128B CAIRNHILL ROAD SINGAPORE 229710,128B,NIL,1.30824250060016,103.837021974393,103.837021974393,229710,CAIRNHILL ROAD,128B CAIRNHILL ROAD SINGAPORE 229710,28412.1533274846,32284.3271013629
128C CAIRNHILL ROAD SINGAPORE 229711,128C,NIL,1.30828712074238,103.837004842648,103.837004842648,229711,CAIRNHILL ROAD,128C CAIRNHILL ROAD SINGAPORE 229711,28410.2467169221,32289.2609643154
128D CAIRNHILL ROAD SINGAPORE 229712,128D,NIL,1.308331123619,103.836986091578,103.836986091578,229712,CAIRNHILL ROAD,128D CAIRNHILL ROAD SINGAPORE 229712,28408.1598907849,32294.1265729666
128E CAIRNHILL ROAD SINGAPORE 229713,128E,NIL,1.3083763437812,103.836970628112,103.836970628112,229713,CAIRNHILL ROAD,128E CAIRNHILL ROAD SINGAPORE 229713,28406.4389440352,32299.1267833412
128G CAIRNHILL ROAD SINGAPORE 229715,128G,NIL,1.30846568014496,103.836936381208,103.836936381208,229715,CAIRNHILL ROAD,128G CAIRNHILL ROAD SINGAPORE 229715,28402.6275692573,32309.0051333103
128H CAIRNHILL ROAD SINGAPORE 229716,128H,NIL,1.30851037665959,103.836918174897,103.836918174897,229716,CAIRNHILL ROAD,128H CAIRNHILL ROAD SINGAPORE 229716,28400.6013698913,32313.9474410322
130 CAIRNHILL ROAD THE EDGE ON CAIRNHILL SINGAPORE 229717,130,THE EDGE ON CAIRNHILL,1.30883087550059,103.837130247196,103.837130247196,229717,CAIRNHILL ROAD,THE EDGE ON CAIRNHILL,28424.2029815344,32349.3865886964
138 CAIRNHILL ROAD SUITES @ CAIRNHILL SINGAPORE 229719,138,SUITES @ CAIRNHILL,1.31000645134284,103.836516434155,103.836516434155,229719,CAIRNHILL ROAD,SUITES @ CAIRNHILL,28355.8911690833,32479.3756229077
32A CAIRNHILL ROAD URBAN RESORT CONDOMINIUM SINGAPORE 229720,32A,URBAN RESORT CONDOMINIUM,1.30434812479251,103.838011013653,103.838011013653,229720,CAIRNHILL ROAD,URBAN RESORT CONDOMINIUM,28522.2249690313,31853.7072514035
"65 CAIRNHILL ROAD THE RITZ-CARLTON RESIDENCES, SINGAPORE, CAIRNHILL SINGAPORE 229721",65,"THE RITZ-CARLTON RESIDENCES, SINGAPORE, CAIRNHILL",1.30803126826052,103.836183107285,103.836183107285,229721,CAIRNHILL ROAD,"THE RITZ-CARLTON RESIDENCES, SINGAPORE, CAIRNHILL",28318.7952730628,32260.969994491
136 CAIRNHILL ROAD MINISTRY OF EDUCATION LANGUAGE CENTRE (NEWTON) SINGAPORE 229722,136,MINISTRY OF EDUCATION LANGUAGE CENTRE (NEWTON),1.30970893342784,103.837458970527,103.837458970527,229722,CAIRNHILL ROAD,MINISTRY OF EDUCATION LANGUAGE CENTRE (NEWTON),28460.7866524663,32446.4777751565
9 CAIRNHILL ROAD CAIRNHILL NINE SINGAPORE 229723,9,CAIRNHILL NINE,1.30348685424971,103.837444387582,103.837444387582,229723,CAIRNHILL ROAD,CAIRNHILL NINE,28459.1648333631,31758.4722793102
11 CAIRNHILL ROAD ASCOTT ORCHARD SINGAPORE SINGAPORE 229724,11,ASCOTT ORCHARD SINGAPORE,1.30398869655791,103.837118386032,103.837118386032,229724,CAIRNHILL ROAD,ASCOTT ORCHARD SINGAPORE,28422.8837514641,31813.9633608274
71 CAIRNHILL ROAD KLIMT CAIRNHILL SINGAPORE 229725,71,KLIMT CAIRNHILL,1.30896390883059,103.836154325224,103.836154325224,229725,CAIRNHILL ROAD,KLIMT CAIRNHILL,28315.5919820778,32364.0965866391
4 CAIRNHILL RISE SINGAPORE 229740,4,NIL,1.30655426322836,103.839372976253,103.839372976253,229740,CAIRNHILL RISE,4 CAIRNHILL RISE SINGAPORE 229740,28673.7983445767,32097.6510067936
6 CAIRNHILL RISE CAIRNHILL ASTORIA SINGAPORE 229741,6,CAIRNHILL ASTORIA,1.30692988560598,103.839716150584,103.839716150584,229741,CAIRNHILL RISE,CAIRNHILL ASTORIA,28711.990365359,32139.1854907498
6A CAIRNHILL RISE CAIRNHILL ASTORIA SINGAPORE 229742,6A,CAIRNHILL ASTORIA,1.30703131475145,103.83944585017,103.83944585017,229742,CAIRNHILL RISE,CAIRNHILL ASTORIA,28681.9084086698,32150.4009288996
8 CAIRNHILL RISE ALBA SINGAPORE 229743,8,ALBA,1.30741535240087,103.83971731014,103.83971731014,229743,CAIRNHILL RISE,ALBA,28712.1192767015,32192.8659112118
16 CAIRNHILL RISE CAIRNHILL 16 SINGAPORE 229744,16,CAIRNHILL 16,1.30851030840347,103.837972449413,103.837972449413,229744,CAIRNHILL RISE,CAIRNHILL 16,28517.932272777,32313.9400859121
12 CAIRNHILL RISE THE VERMONT ON CAIRNHILL SINGAPORE 229745,12,THE VERMONT ON CAIRNHILL,1.30859093723545,103.838674160874,103.838674160874,229745,CAIRNHILL RISE,THE VERMONT ON CAIRNHILL,28596.0261830101,32322.8557626605
12A CAIRNHILL RISE THE VERMONT ON CAIRNHILL SINGAPORE 229746,12A,THE VERMONT ON CAIRNHILL,1.30863840755851,103.838363580206,103.838363580206,229746,CAIRNHILL RISE,THE VERMONT ON CAIRNHILL,28561.4614471281,32328.1047153249
12B CAIRNHILL RISE THE VERMONT ON CAIRNHILL SINGAPORE 229747,12B,THE VERMONT ON CAIRNHILL,1.30899132013919,103.838284668111,103.838284668111,229747,CAIRNHILL RISE,THE VERMONT ON CAIRNHILL,28552.6791916527,32367.1279554758
19 CAIRNHILL CIRCLE THE LIGHT @ CAIRNHILL SINGAPORE 229768,19,THE LIGHT @ CAIRNHILL,1.30644832933558,103.838413078586,103.838413078586,229768,CAIRNHILL CIRCLE,THE LIGHT @ CAIRNHILL,28566.9706439162,32085.9371457547
31 CAIRNHILL CIRCLE CAIRNHILL RESIDENCES SINGAPORE 229774,31,CAIRNHILL RESIDENCES,1.30773531465583,103.839088016031,103.839088016031,229774,CAIRNHILL CIRCLE,CAIRNHILL RESIDENCES,28642.0846106168,32228.2455217522
33 CAIRNHILL CIRCLE CAIRNHILL RESIDENCES SINGAPORE 229775,33,CAIRNHILL RESIDENCES,1.30818049702388,103.838705136023,103.838705136023,229775,CAIRNHILL CIRCLE,CAIRNHILL RESIDENCES,28599.4735247474,32277.4714030512
51 CAIRNHILL CIRCLE THE PEAK @ CAIRNHILL I SINGAPORE 229784,51,THE PEAK @ CAIRNHILL I,1.30819273275748,103.838374223228,103.838374223228,229784,CAIRNHILL CIRCLE,THE PEAK @ CAIRNHILL I,28562.6460149391,32278.8242911194
53 CAIRNHILL CIRCLE SINGAPORE 229785,53,NIL,1.30814363414603,103.838211137369,103.838211137369,229785,CAIRNHILL CIRCLE,53 CAIRNHILL CIRCLE SINGAPORE 229785,28544.4960909151,32273.3951834161
61 CAIRNHILL CIRCLE THE PEAK @ CAIRNHILL II SINGAPORE 229789,61,THE PEAK @ CAIRNHILL II,1.30812038350771,103.837940839529,103.837940839529,229789,CAIRNHILL CIRCLE,THE PEAK @ CAIRNHILL II,28514.4144671736,32270.824190611
63 CAIRNHILL CIRCLE THE PROMONT SINGAPORE 229790,63,THE PROMONT,1.30770642748752,103.837966131924,103.837966131924,229790,CAIRNHILL CIRCLE,THE PROMONT,28517.2293593911,32225.0510690175
99 CAIRNHILL CIRCLE HILLTOPS SINGAPORE 229808,99,HILLTOPS,1.30733322469102,103.838480574083,103.838480574083,229808,CAIRNHILL CIRCLE,HILLTOPS,28574.4820678281,32183.7843356449
101 CAIRNHILL CIRCLE HILLTOPS SINGAPORE 229809,101,HILLTOPS,1.30726175508578,103.838536274396,103.838536274396,229809,CAIRNHILL CIRCLE,HILLTOPS,28580.6810114291,32175.8816072401
2 CAIRNHILL CIRCLE CAIRNHILL CREST SINGAPORE 229811,2,CAIRNHILL CREST,1.30557829834877,103.838140768626,103.838140768626,229811,CAIRNHILL CIRCLE,CAIRNHILL CREST,28536.6652489714,31989.7335376479
4 CAIRNHILL CIRCLE CAIRNHILL CREST SINGAPORE 229812,4,CAIRNHILL CREST,1.30512898045315,103.838413905452,103.838413905452,229812,CAIRNHILL CIRCLE,CAIRNHILL CREST,28567.0629612664,31940.0503373835
6 CAIRNHILL CIRCLE CAIRNHILL CREST SINGAPORE 229813,6,CAIRNHILL CREST,1.30549423358174,103.838806441536,103.838806441536,229813,CAIRNHILL CIRCLE,CAIRNHILL CREST,28610.7485302901,31980.4382398482
8 CAIRNHILL CIRCLE CAIRNHILL CREST SINGAPORE 229814,8,CAIRNHILL CREST,1.30582153984418,103.838847909555,103.838847909555,229814,CAIRNHILL CIRCLE,CAIRNHILL CREST,28615.3634594996,32016.6300917305
15 CAIRNHILL CIRCLE HELIOS RESIDENCES SINGAPORE 229815,15,HELIOS RESIDENCES,1.30656259650495,103.837800731046,103.837800731046,229815,CAIRNHILL CIRCLE,HELIOS RESIDENCES,28498.8220061651,32098.5720918048
17 CAIRNHILL CIRCLE HELIOS RESIDENCES SINGAPORE 229816,17,HELIOS RESIDENCES,1.30682945098827,103.838164594407,103.838164594407,229816,CAIRNHILL CIRCLE,HELIOS RESIDENCES,28539.3165730052,32128.0795621648
73 BUKIT TIMAH ROAD REX HOUSE SINGAPORE 229832,73,REX HOUSE,1.30675739289762,103.847809942097,103.847809942097,229832,BUKIT TIMAH ROAD,REX HOUSE,29612.7544221673,32120.1158740409
75 BUKIT TIMAH ROAD BOON SIEW BUILDING SINGAPORE 229833,75,BOON SIEW BUILDING,1.30697941554959,103.847566425989,103.847566425989,229833,BUKIT TIMAH ROAD,BOON SIEW BUILDING,29585.6531959781,32144.6658421494
87 BUKIT TIMAH ROAD SINGAPORE 229834,87,NIL,1.30721409592247,103.847263535923,103.847263535923,229834,BUKIT TIMAH ROAD,87 BUKIT TIMAH ROAD SINGAPORE 229834,29551.9441965325,32170.6154018249
99 BUKIT TIMAH ROAD ALFA CENTRE SINGAPORE 229835,99,ALFA CENTRE,1.30732984809407,103.847051396585,103.847051396585,229835,BUKIT TIMAH ROAD,ALFA CENTRE,29528.3349876245,32183.4145516884
130 BUKIT TIMAH ROAD SINGAPORE 229836,130,NIL,1.31116486500219,103.843969875356,103.843969875356,229836,BUKIT TIMAH ROAD,130 BUKIT TIMAH ROAD SINGAPORE 229836,29185.3885015296,32607.4693365153
135 BUKIT TIMAH ROAD SINGAPORE 229837,135,NIL,1.31044978125442,103.843421193775,103.843421193775,229837,BUKIT TIMAH ROAD,135 BUKIT TIMAH ROAD SINGAPORE 229837,29124.325750106,32528.39879952
136 BUKIT TIMAH ROAD SINGAPORE 229838,136,NIL,1.31108046914691,103.843681079759,103.843681079759,229838,BUKIT TIMAH ROAD,136 BUKIT TIMAH ROAD SINGAPORE 229838,29153.2483219476,32598.1371420436
138 BUKIT TIMAH ROAD SINGAPORE 229839,138,NIL,1.31110571300941,103.843630776346,103.843630776346,229839,BUKIT TIMAH ROAD,138 BUKIT TIMAH ROAD SINGAPORE 229839,29147.6500162147,32600.9284555018
140 BUKIT TIMAH ROAD SINGAPORE 229840,140,NIL,1.31112781195584,103.843579759535,103.843579759535,229840,BUKIT TIMAH ROAD,140 BUKIT TIMAH ROAD SINGAPORE 229840,29141.9723175615,32603.3720200956
141 BUKIT TIMAH ROAD DBS EXXONMOBIL BUKIT TIMAH ROAD SINGAPORE 229841,141,DBS EXXONMOBIL BUKIT TIMAH ROAD,1.31090270967523,103.842792749529,103.842792749529,229841,BUKIT TIMAH ROAD,DBS EXXONMOBIL BUKIT TIMAH ROAD,29054.3856412023,32578.4810226131
142 BUKIT TIMAH ROAD SINGAPORE 229842,142,NIL,1.31115396052398,103.843524520908,103.843524520908,229842,BUKIT TIMAH ROAD,142 BUKIT TIMAH ROAD SINGAPORE 229842,29135.8247689968,32606.2633692399
143 BUKIT TIMAH ROAD SHELL NEWTON CIRCUS SINGAPORE 229843,143,SHELL NEWTON CIRCUS,1.31114373048923,103.842264959216,103.842264959216,229843,BUKIT TIMAH ROAD,SHELL NEWTON CIRCUS,28995.6474709287,32605.1316493284
144 BUKIT TIMAH ROAD SINGAPORE 229844,144,NIL,1.31118067598048,103.843472071089,103.843472071089,229844,BUKIT TIMAH ROAD,144 BUKIT TIMAH ROAD SINGAPORE 229844,29129.9875883367,32609.2174033783
150 BUKIT TIMAH ROAD CITIBANK SHELL NEWTON HOPPER SINGAPORE 229846,150,CITIBANK SHELL NEWTON HOPPER,1.31130526618514,103.843174685523,103.843174685523,229846,BUKIT TIMAH ROAD,CITIBANK SHELL NEWTON HOPPER,29096.8913339525,32622.9938156325
170 BUKIT TIMAH ROAD EMBASSY OF THE STATE OF KUWAIT SINGAPORE 229847,170,EMBASSY OF THE STATE OF KUWAIT,1.31150263615382,103.842745921619,103.842745921619,229847,BUKIT TIMAH ROAD,EMBASSY OF THE STATE OF KUWAIT,29049.1738878908,32644.8177885916
178 BUKIT TIMAH ROAD SINGAPORE 229851,178,NIL,1.3115749757929,103.842612099898,103.842612099898,229851,BUKIT TIMAH ROAD,178 BUKIT TIMAH ROAD SINGAPORE 229851,29034.2807686459,32652.8166783806
180 BUKIT TIMAH ROAD SINGAPORE 229852,180,NIL,1.31159455195752,103.84257131576,103.84257131576,229852,BUKIT TIMAH ROAD,180 BUKIT TIMAH ROAD SINGAPORE 229852,29029.7418726124,32654.9812932368
182 BUKIT TIMAH ROAD SINGAPORE 229853,182,NIL,1.31161451216853,103.842530609407,103.842530609407,229853,BUKIT TIMAH ROAD,182 BUKIT TIMAH ROAD SINGAPORE 229853,29025.2116332212,32657.1883740723
184 BUKIT TIMAH ROAD SINGAPORE 229854,184,NIL,1.31163423231599,103.842489654469,103.842489654469,229854,BUKIT TIMAH ROAD,184 BUKIT TIMAH ROAD SINGAPORE 229854,29020.653728893,32659.368909888
186 BUKIT TIMAH ROAD SINGAPORE 229855,186,NIL,1.31165948735671,103.842445035806,103.842445035806,229855,BUKIT TIMAH ROAD,186 BUKIT TIMAH ROAD SINGAPORE 229855,29015.6880845558,32662.1614643335
188 BUKIT TIMAH ROAD SINGAPORE 229856,188,NIL,1.31172820689387,103.842302158996,103.842302158996,229856,BUKIT TIMAH ROAD,188 BUKIT TIMAH ROAD SINGAPORE 229856,28999.7872230625,32669.7600600384
190 BUKIT TIMAH ROAD SINGAPORE 229857,190,NIL,1.31174707657215,103.842254824116,103.842254824116,229857,BUKIT TIMAH ROAD,190 BUKIT TIMAH ROAD SINGAPORE 229857,28994.5192923723,32671.8465532269
192 BUKIT TIMAH ROAD SINGAPORE 229858,192,NIL,1.31176677700516,103.842214193365,103.842214193365,229858,BUKIT TIMAH ROAD,192 BUKIT TIMAH ROAD SINGAPORE 229858,28989.9974674806,32674.0249097478
196 BUKIT TIMAH ROAD SINGAPORE 229860,196,NIL,1.31179052520962,103.842150231448,103.842150231448,229860,BUKIT TIMAH ROAD,196 BUKIT TIMAH ROAD SINGAPORE 229860,28982.8791036056,32676.6508389432
200 BUKIT TIMAH ROAD ATLAND HOUSE SINGAPORE 229862,200,ATLAND HOUSE,1.3118422371961,103.842073356633,103.842073356633,229862,BUKIT TIMAH ROAD,ATLAND HOUSE,28974.3236461319,32682.3688545506
204 BUKIT TIMAH ROAD BOON LIEW BUILDING SINGAPORE 229863,204,BOON LIEW BUILDING,1.31189105972178,103.841977316703,103.841977316703,229863,BUKIT TIMAH ROAD,BOON LIEW BUILDING,28963.6352946498,32687.7673613224
100 BUKIT TIMAH ROAD CHILDREN'S EMERGENCY (KK WOMEN'S AND CHILDREN'S HOSPITAL) SINGAPORE 229899,100,CHILDREN'S EMERGENCY (KK WOMEN'S AND CHILDREN'S HOSPITAL),1.31044853126535,103.846650072852,103.846650072852,229899,BUKIT TIMAH ROAD,CHILDREN'S EMERGENCY (KK WOMEN'S AND CHILDREN'S HOSPITAL),29483.6695531644,32528.2622606456
60 BUKIT TIMAH ROAD SINGAPORE 229900,60,NIL,1.3055689232954,103.849360695152,103.849360695152,229900,BUKIT TIMAH ROAD,60 BUKIT TIMAH ROAD SINGAPORE 229900,29785.3397109369,31988.7020652983
235 BUKIT TIMAH ROAD SINGAPORE 229901,235,NIL,1.31381633860492,103.837686588419,103.837686588419,229901,BUKIT TIMAH ROAD,235 BUKIT TIMAH ROAD SINGAPORE 229901,28486.1175950915,32900.6535623726
62 BUKIT TIMAH ROAD SINGAPORE 229902,62,NIL,1.30735515498529,103.848425563929,103.848425563929,229902,BUKIT TIMAH ROAD,62 BUKIT TIMAH ROAD SINGAPORE 229902,29681.2670324231,32186.2137348223
111 BUKIT TIMAH ROAD SINGAPORE 229903,111,NIL,1.30984540820084,103.844622866541,103.844622866541,229903,BUKIT TIMAH ROAD,111 BUKIT TIMAH ROAD SINGAPORE 229903,29258.0609013233,32461.5709052384
3 BIDEFORD ROAD RICHMOND PARK SINGAPORE 229920,3,RICHMOND PARK,1.30496278948447,103.836407903907,103.836407903907,229920,BIDEFORD ROAD,RICHMOND PARK,28343.8134566126,31921.673433749
20 BIDEFORD ROAD HOLIDAY INN EXPRESS SINGAPORE ORCHARD ROAD SINGAPORE 229921,20,HOLIDAY INN EXPRESS SINGAPORE ORCHARD ROAD,1.3032455660457,103.836690413897,103.836690413897,229921,BIDEFORD ROAD,HOLIDAY INN EXPRESS SINGAPORE ORCHARD ROAD,28375.2544760387,31731.7917478271
30 BIDEFORD ROAD ORCHARD HILLS SINGAPORE 229922,30,ORCHARD HILLS,1.30431929992819,103.836811508641,103.836811508641,229922,BIDEFORD ROAD,ORCHARD HILLS,28388.7310536448,31850.5197300371
22 BIDEFORD ROAD MASJID AL-FALAH SINGAPORE 229923,22,MASJID AL-FALAH,1.30370847731938,103.836647579487,103.836647579487,229923,BIDEFORD ROAD,MASJID AL-FALAH,28370.4873291394,31782.9780864324
28 BIDEFORD ROAD ORCHARD HILLS SINGAPORE 229924,28,ORCHARD HILLS,1.30425053217941,103.836812765601,103.836812765601,229924,BIDEFORD ROAD,ORCHARD HILLS,28388.8709522653,31842.915746633
1 ANTHONY ROAD CAIRNHILL COMMUNITY CLUB SINGAPORE 229944,1,CAIRNHILL COMMUNITY CLUB,1.31054973665848,103.839177089119,103.839177089119,229944,ANTHONY ROAD,CAIRNHILL COMMUNITY CLUB,28651.9968909966,32539.4498522505
3 ANTHONY ROAD ORCHARD SCOTTS SINGAPORE 229953,3,ORCHARD SCOTTS,1.31032066930575,103.838400921041,103.838400921041,229953,ANTHONY ROAD,ORCHARD SCOTTS,28565.6167570045,32514.1205743644
5 ANTHONY ROAD ORCHARD SCOTTS SINGAPORE 229954,5,ORCHARD SCOTTS,1.30965403078441,103.839120581223,103.839120581223,229954,ANTHONY ROAD,ORCHARD SCOTTS,28645.708323895,32440.4072888792
7 ANTHONY ROAD ORCHARD SCOTTS SINGAPORE 229955,7,ORCHARD SCOTTS,1.30966025311743,103.838445256943,103.838445256943,229955,ANTHONY ROAD,ORCHARD SCOTTS,28570.5510739787,32441.0951590762
2 ANTHONY ROAD SINGAPORE 229956,2,NIL,1.31097814637925,103.838639486969,103.838639486969,229956,ANTHONY ROAD,2 ANTHONY ROAD SINGAPORE 229956,28592.1667426741,32586.821062848
8 ANTHONY ROAD SINGAPORE 229957,8,NIL,1.31122469335165,103.837764602288,103.837764602288,229957,ANTHONY ROAD,8 ANTHONY ROAD SINGAPORE 229957,28494.8002991686,32614.0827698857
8 ADIS ROAD PARC SOPHIA SINGAPORE 229975,8,PARC SOPHIA,1.30156333624985,103.847382274312,103.847382274312,229975,ADIS ROAD,PARC SOPHIA,29565.162164486,31545.7835465875
12 ADIS ROAD PARC SOPHIA SINGAPORE 229976,12,PARC SOPHIA,1.30124327686908,103.847738410626,103.847738410626,229976,ADIS ROAD,PARC SOPHIA,29604.7971205879,31510.3932514489
14 ADIS ROAD LIV ON SOPHIA SINGAPORE 229977,14,LIV ON SOPHIA,1.30106744301014,103.847993603538,103.847993603538,229977,ADIS ROAD,LIV ON SOPHIA,29633.197902658,31490.9506121092
10 ADIS ROAD PARC SOPHIA SINGAPORE 229979,10,PARC SOPHIA,1.30141809301737,103.847570294548,103.847570294548,229979,ADIS ROAD,PARC SOPHIA,29586.087208597,31529.7234149631
