ADDRESS,BLK_NO,BUILDING,LATITUDE,LONGITUDE,LONGTITUDE,POSTAL,ROAD_NAME,SEARCHVAL,X,Y
1 TECK WHYE AVENUE TECK WHYE HEIGHTS I SINGAPORE 680001,1,TECK WHYE HEIGHTS I,1.38253882861956,103.751710905678,103.751710905678,680001,TECK WHYE AVENUE,TECK WHYE HEIGHTS I,18918.0992086232,40499.791063603
2 TECK WHYE AVENUE KOWABUNGA! EDUCATION CENTRE LLP @ TECK WHYE SINGAPORE 680002,2,KOWABUNGA! EDUCATION CENTRE LLP @ TECK WHYE,1.38194642527068,103.751888178683,103.751888178683,680002,TECK WHYE AVENUE,KOWABUNGA! EDUCATION CENTRE LLP @ TECK WHYE,18937.8252168279,40434.2853656542
3 TECK WHYE AVENUE PCF SPARKLETOTS PRESCHOOL @ CHUA CHU KANG 3 (CC) SINGAPORE 680003,3,PCF SPARKLETOTS PRESCHOOL @ CHUA CHU KANG 3 (CC),1.38247656452574,103.752527980381,103.752527980381,680003,TECK WHYE AVENUE,PCF SPARKLETOTS PRESCHOOL @ CHUA CHU KANG 3 (CC),19009.0291048549,40492.9030996207
4 TECK WHYE AVENUE TECK WHYE HEIGHTS I SINGAPORE 680004,4,TECK WHYE HEIGHTS I,1.38193929484651,103.752806721707,103.752806721707,680004,TECK WHYE AVENUE,TECK WHYE HEIGHTS I,19040.047492425,40433.4934341293
5 TECK WHYE AVENUE TECK WHYE HEIGHTS I SINGAPORE 680005,5,TECK WHYE HEIGHTS I,1.38211439144289,103.75356509712,103.75356509712,680005,TECK WHYE AVENUE,TECK WHYE HEIGHTS I,19124.4457999151,40452.8518982064
6 TECK WHYE AVENUE NEW LIFE CHILDREN & STUDENT CARE @ TECK WHYE SINGAPORE 680006,6,NEW LIFE CHILDREN & STUDENT CARE @ TECK WHYE,1.38158682382234,103.753828252297,103.753828252297,680006,TECK WHYE AVENUE,NEW LIFE CHILDREN & STUDENT CARE @ TECK WHYE,19153.7297109449,40394.5151116643
7 TECK WHYE AVENUE TECK WHYE HEIGHTS I SINGAPORE 680007,7,TECK WHYE HEIGHTS I,1.38147444864872,103.754521535437,103.754521535437,680007,TECK WHYE AVENUE,TECK WHYE HEIGHTS I,19230.8830133164,40382.0866537988
8 TECK WHYE AVENUE TECK WHYE HEIGHTS II SINGAPORE 680008,8,TECK WHYE HEIGHTS II,1.38066226970719,103.754670556697,103.754670556697,680008,TECK WHYE AVENUE,TECK WHYE HEIGHTS II,19247.4642385487,40292.2793970834
9 TECK WHYE LANE SINGAPORE 680009,9,NIL,1.38003501182773,103.754145535915,103.754145535915,680009,TECK WHYE LANE,9 TECK WHYE LANE SINGAPORE 680009,19189.0336817931,40222.9222798143
10 TECK WHYE AVENUE PCF SPARKLETOTS PRESCHOOL @ CHUA CHU KANG BLK 10 (KN) SINGAPORE 680010,10,PCF SPARKLETOTS PRESCHOOL @ CHUA CHU KANG BLK 10 (KN),1.38047054647235,103.755211077169,103.755211077169,680010,TECK WHYE AVENUE,PCF SPARKLETOTS PRESCHOOL @ CHUA CHU KANG BLK 10 (KN),19307.6167106293,40271.0776127968
11 TECK WHYE LANE TECK WHYE HEIGHTS II SINGAPORE 680011,11,TECK WHYE HEIGHTS II,1.37976221059279,103.754969354123,103.754969354123,680011,TECK WHYE LANE,TECK WHYE HEIGHTS II,19280.7133765183,40192.7542409785
12 TECK WHYE LANE TECK WHYE HEIGHTS II SINGAPORE 680012,12,TECK WHYE HEIGHTS II,1.37946433280774,103.755671539991,103.755671539991,680012,TECK WHYE LANE,TECK WHYE HEIGHTS II,19358.8568354407,40159.8138364423
13 TECK WHYE LANE TECK WHYE HEIGHTS II SINGAPORE 680013,13,TECK WHYE HEIGHTS II,1.37894634652916,103.755847939018,103.755847939018,680013,TECK WHYE LANE,TECK WHYE HEIGHTS II,19378.4859860977,40102.5368530825
14 TECK WHYE LANE TECK WHYE HEIGHTS II SINGAPORE 680014,14,TECK WHYE HEIGHTS II,1.37848150958552,103.755675386906,103.755675386906,680014,TECK WHYE LANE,TECK WHYE HEIGHTS II,19359.2814044487,40051.1381240375
15 TECK WHYE LANE TECK WHYE HEIGHTS III SINGAPORE 680015,15,TECK WHYE HEIGHTS III,1.37913357256794,103.7547387164,103.7547387164,680015,TECK WHYE LANE,TECK WHYE HEIGHTS III,19255.0439772988,40123.2434228882
16 TECK WHYE LANE DBS TECK WHYE LANE SINGAPORE 680016,16,DBS TECK WHYE LANE,1.37842710387364,103.754911815576,103.754911815576,680016,TECK WHYE LANE,DBS TECK WHYE LANE,19274.3051903453,40045.1249955874
17 TECK WHYE LANE TECK WHYE HEIGHTS III SINGAPORE 680017,17,TECK WHYE HEIGHTS III,1.37919759061172,103.753933666216,103.753933666216,680017,TECK WHYE LANE,TECK WHYE HEIGHTS III,19165.4521378232,40130.32519277
18 TECK WHYE LANE TECK WHYE HEIGHTS III SINGAPORE 680018,18,TECK WHYE HEIGHTS III,1.37829768797221,103.754071398872,103.754071398872,680018,TECK WHYE LANE,TECK WHYE HEIGHTS III,19180.7767574433,40030.8179250453
19 TECK WHYE LANE PCF SPARKLETOTS PRESCHOOL @ CHUA CHU KANG 19 (CC) SINGAPORE 680019,19,PCF SPARKLETOTS PRESCHOOL @ CHUA CHU KANG 19 (CC),1.37939429441995,103.752949446949,103.752949446949,680019,TECK WHYE LANE,PCF SPARKLETOTS PRESCHOOL @ CHUA CHU KANG 19 (CC),19055.9215062177,40152.0793980286
20 TECK WHYE LANE TECK WHYE HEIGHTS III SINGAPORE 680020,20,TECK WHYE HEIGHTS III,1.37875454766792,103.753163445856,103.753163445856,680020,TECK WHYE LANE,TECK WHYE HEIGHTS III,19079.7345397267,40081.3385798838
25 TECK WHYE LANE TECK WHYE HEIGHTS II SINGAPORE 680025,25,TECK WHYE HEIGHTS II,1.37798715606626,103.75518761449,103.75518761449,680025,TECK WHYE LANE,TECK WHYE HEIGHTS II,19304.9965928867,39996.4767484907
26 TECK WHYE LANE TECK WHYE HEIGHTS II SINGAPORE 680026,26,TECK WHYE HEIGHTS II,1.37762112372223,103.755740001262,103.755740001262,680026,TECK WHYE LANE,TECK WHYE HEIGHTS II,19366.4690820063,39956.0007056575
101 TECK WHYE LANE SINGAPORE 680101,101,NIL,1.37788964623982,103.754239909547,103.754239909547,680101,TECK WHYE LANE,101 TECK WHYE LANE SINGAPORE 680101,19199.5284089837,39985.6980773453
102 TECK WHYE LANE SINGAPORE 680102,102,NIL,1.377082841385,103.754394432037,103.754394432037,680102,TECK WHYE LANE,102 TECK WHYE LANE SINGAPORE 680102,19216.7218949907,39896.4850416854
103 TECK WHYE LANE SINGAPORE 680103,103,NIL,1.37713078246274,103.753555993761,103.753555993761,680103,TECK WHYE LANE,103 TECK WHYE LANE SINGAPORE 680103,19123.4142367616,39901.78923342
104 TECK WHYE LANE SINGAPORE 680104,104,NIL,1.37708162127187,103.752870448301,103.752870448301,680104,TECK WHYE LANE,104 TECK WHYE LANE SINGAPORE 680104,19047.121301828,39896.3557973951
105 TECK WHYE LANE SINGAPORE 680105,105,NIL,1.37765001961331,103.7529943035,103.7529943035,680105,TECK WHYE LANE,105 TECK WHYE LANE SINGAPORE 680105,19060.9069760833,39959.2059943285
106 TECK WHYE LANE SINGAPORE 680106,106,NIL,1.37795798795128,103.752931630674,103.752931630674,680106,TECK WHYE LANE,106 TECK WHYE LANE SINGAPORE 680106,19053.9334142432,39993.2598369122
107 TECK WHYE LANE SINGAPORE 680107,107,NIL,1.37805538148223,103.753588247554,103.753588247554,680107,TECK WHYE LANE,107 TECK WHYE LANE SINGAPORE 680107,19127.0071069645,40004.0266732778
108 TECK WHYE LANE SINGAPORE 680108,108,NIL,1.378324137359,103.752950750544,103.752950750544,680108,TECK WHYE LANE,108 TECK WHYE LANE SINGAPORE 680108,19056.0625852896,40033.7467459533
109 TECK WHYE LANE SINGAPORE 680109,109,NIL,1.37865989251211,103.752077659463,103.752077659463,680109,TECK WHYE LANE,109 TECK WHYE LANE SINGAPORE 680109,18958.8996334383,40070.8761788998
110 TECK WHYE LANE SINGAPORE 680110,110,NIL,1.37823695284901,103.752208325828,103.752208325828,680110,TECK WHYE LANE,110 TECK WHYE LANE SINGAPORE 680110,18973.4395858487,40024.1091172583
111 TECK WHYE LANE SINGAPORE 680111,111,NIL,1.37787904560638,103.752103670331,103.752103670331,680111,TECK WHYE LANE,111 TECK WHYE LANE SINGAPORE 680111,18961.7913760673,39984.5339101553
112 TECK WHYE LANE SINGAPORE 680112,112,NIL,1.37748545136822,103.751921303308,103.751921303308,680112,TECK WHYE LANE,112 TECK WHYE LANE SINGAPORE 680112,18941.4946952974,39941.0129081588
113 TECK WHYE LANE SINGAPORE 680113,113,NIL,1.37793931794235,103.75091538895,103.75091538895,680113,TECK WHYE LANE,113 TECK WHYE LANE SINGAPORE 680113,18829.5505854739,39991.2030668836
114 TECK WHYE LANE SINGAPORE 680114,114,NIL,1.37850799248774,103.750707442454,103.750707442454,680114,TECK WHYE LANE,114 TECK WHYE LANE SINGAPORE 680114,18806.4108935306,40054.0850754678
115 TECK WHYE LANE SINGAPORE 680115,115,NIL,1.37893677955462,103.751182368998,103.751182368998,680115,TECK WHYE LANE,115 TECK WHYE LANE SINGAPORE 680115,18859.2659666128,40101.4963911437
116 TECK WHYE LANE SINGAPORE 680116,116,NIL,1.37898192310747,103.751779491677,103.751779491677,680116,TECK WHYE LANE,116 TECK WHYE LANE SINGAPORE 680116,18925.71847736,40106.4858563822
117 TECK WHYE LANE SINGAPORE 680117,117,NIL,1.3795891559942,103.751272002099,103.751272002099,680117,TECK WHYE LANE,117 TECK WHYE LANE SINGAPORE 680117,18869.2435047654,40173.6325936057
118 TECK WHYE LANE SINGAPORE 680118,118,NIL,1.37987102781951,103.750647321595,103.750647321595,680118,TECK WHYE LANE,118 TECK WHYE LANE SINGAPORE 680118,18799.7254223581,40204.8029869888
119 TECK WHYE LANE SINGAPORE 680119,119,NIL,1.37921555538309,103.750399424474,103.750399424474,680119,TECK WHYE LANE,119 TECK WHYE LANE SINGAPORE 680119,18772.1350352848,40132.3250589911
120 TECK WHYE LANE SINGAPORE 680120,120,NIL,1.37884184875046,103.750340641074,103.750340641074,680120,TECK WHYE LANE,120 TECK WHYE LANE SINGAPORE 680120,18765.5917328326,40091.0026627965
121 TECK WHYE LANE SINGAPORE 680121,121,NIL,1.37830357075531,103.750108106647,103.750108106647,680121,TECK WHYE LANE,121 TECK WHYE LANE SINGAPORE 680121,18739.7114565708,40031.4834574703
122 TECK WHYE LANE SINGAPORE 680122,122,NIL,1.37851898360363,103.749630691351,103.749630691351,680122,TECK WHYE LANE,122 TECK WHYE LANE SINGAPORE 680122,18686.5818831446,40055.3046027999
123 TECK WHYE LANE SINGAPORE 680123,123,NIL,1.37919636089776,103.7494576863,103.7494576863,680123,TECK WHYE LANE,123 TECK WHYE LANE SINGAPORE 680123,18667.3312033564,40130.2063001301
124 TECK WHYE LANE SINGAPORE 680124,124,NIL,1.38010501012606,103.749632027385,103.749632027385,680124,TECK WHYE LANE,124 TECK WHYE LANE SINGAPORE 680124,18686.736734149,40230.6795402896
130 CHOA CHU KANG AVENUE 1 SINGAPORE 680130,130,NIL,1.3812909121038,103.750296649613,103.750296649613,680130,CHOA CHU KANG AVENUE 1,130 CHOA CHU KANG AVENUE 1 SINGAPORE 680130,18760.7054814175,40361.8081035521
131 CHOA CHU KANG AVENUE 1 SINGAPORE 680131,131,NIL,1.38149344880731,103.750955861582,103.750955861582,680131,CHOA CHU KANG AVENUE 1,131 CHOA CHU KANG AVENUE 1 SINGAPORE 680131,18834.0682939198,40384.2010540701
132 CHOA CHU KANG AVENUE 1 SINGAPORE 680132,132,NIL,1.38106199176972,103.750795989119,103.750795989119,680132,CHOA CHU KANG AVENUE 1,132 CHOA CHU KANG AVENUE 1 SINGAPORE 680132,18816.2748359395,40336.4932937622
133 TECK WHYE LANE SINGAPORE 680133,133,NIL,1.38074415084014,103.751221118009,103.751221118009,680133,TECK WHYE LANE,133 TECK WHYE LANE SINGAPORE 680133,18863.5851473529,40301.3463834822
134 TECK WHYE LANE SINGAPORE 680134,134,NIL,1.38026609488201,103.750956814968,103.750956814968,680134,TECK WHYE LANE,134 TECK WHYE LANE SINGAPORE 680134,18834.1696916651,40248.4863464497
135 TECK WHYE LANE SINGAPORE 680135,135,NIL,1.38045272354815,103.751556332544,103.751556332544,680135,TECK WHYE LANE,135 TECK WHYE LANE SINGAPORE 680135,18900.8892265651,40269.1205152366
136 TECK WHYE LANE SINGAPORE 680136,136,NIL,1.3799061370713,103.751696104326,103.751696104326,680136,TECK WHYE LANE,136 TECK WHYE LANE SINGAPORE 680136,18916.4420062471,40208.6811632067
137 TECK WHYE LANE TECK WHYE SHOPPING CENTRE SINGAPORE 680137,137,TECK WHYE SHOPPING CENTRE,1.3800477264564,103.752464583648,103.752464583648,680137,TECK WHYE LANE,TECK WHYE SHOPPING CENTRE,19001.9647087958,40224.3344931304
138 TECK WHYE LANE SINGAPORE 680138,138,NIL,1.38024085034488,103.752435768455,103.752435768455,680138,TECK WHYE LANE,138 TECK WHYE LANE SINGAPORE 680138,18998.7586634243,40245.6892820746
139 TECK WHYE LANE SINGAPORE 680139,139,NIL,1.38022680750527,103.752577308156,103.752577308156,680139,TECK WHYE LANE,139 TECK WHYE LANE SINGAPORE 680139,19014.5102129551,40244.1359594185
140 TECK WHYE LANE SINGAPORE 680140,140,NIL,1.38001805825626,103.753148377762,103.753148377762,680140,TECK WHYE LANE,140 TECK WHYE LANE SINGAPORE 680140,19078.0623546988,40221.0513552036
141 TECK WHYE LANE SINGAPORE 680141,141,NIL,1.38041161319004,103.75257991701,103.75257991701,680141,TECK WHYE LANE,141 TECK WHYE LANE SINGAPORE 680141,19014.8012396181,40264.5708438009
142 TECK WHYE LANE SINGAPORE 680142,142,NIL,1.38079049641025,103.75195441174,103.75195441174,680142,TECK WHYE LANE,142 TECK WHYE LANE SINGAPORE 680142,18945.191747901,40306.4682408813
143 TECK WHYE LANE SINGAPORE 680143,143,NIL,1.38049224194683,103.753102744838,103.753102744838,680143,TECK WHYE LANE,143 TECK WHYE LANE SINGAPORE 680143,19072.9857479334,40273.4844017904
144 TECK WHYE LANE SINGAPORE 680144,144,NIL,1.38082768721762,103.752476579633,103.752476579633,680144,TECK WHYE LANE,144 TECK WHYE LANE SINGAPORE 680144,19003.30264448,40310.57863307
145 TECK WHYE AVENUE SINGAPORE 680145,145,NIL,1.38150500437531,103.752466910692,103.752466910692,680145,TECK WHYE AVENUE,145 TECK WHYE AVENUE SINGAPORE 680145,19002.2291601691,40385.473035818
146 TECK WHYE AVENUE SINGAPORE 680146,146,NIL,1.3811166785123,103.752527098337,103.752527098337,680146,TECK WHYE AVENUE,146 TECK WHYE AVENUE SINGAPORE 680146,19008.9258304946,40342.5336633958
150 JALAN TECK WHYE SINGAPORE 680150,150,NIL,1.37820351130765,103.756450878128,103.756450878128,680150,JALAN TECK WHYE,150 JALAN TECK WHYE SINGAPORE 680150,19445.5829627542,40020.3956594076
151 JALAN TECK WHYE SINGAPORE 680151,151,NIL,1.37841061448898,103.757251128701,103.757251128701,680151,JALAN TECK WHYE,151 JALAN TECK WHYE SINGAPORE 680151,19534.6416619653,40043.2932377495
152 JALAN TECK WHYE SINGAPORE 680152,152,NIL,1.37881790510246,103.758023837892,103.758023837892,680152,JALAN TECK WHYE,152 JALAN TECK WHYE SINGAPORE 680152,19620.6360305045,40088.3266703561
153 JALAN TECK WHYE TECK WHYE VISTA SINGAPORE 680153,153,TECK WHYE VISTA,1.37915123926616,103.758554890844,103.758554890844,680153,JALAN TECK WHYE,TECK WHYE VISTA,19679.7367809545,40125.1832374278
154 JALAN TECK WHYE SINGAPORE 680154,154,NIL,1.37964487632189,103.757746962906,103.757746962906,680154,JALAN TECK WHYE,154 JALAN TECK WHYE SINGAPORE 680154,19589.8261893429,40179.7700023949
155 JALAN TECK WHYE SINGAPORE 680155,155,NIL,1.37893693677123,103.75716507033,103.75716507033,680155,JALAN TECK WHYE,155 JALAN TECK WHYE SINGAPORE 680155,19525.0662945118,40101.4916390702
156 JALAN TECK WHYE SINGAPORE 680156,156,NIL,1.37883825439681,103.756635416804,103.756635416804,680156,JALAN TECK WHYE,156 JALAN TECK WHYE SINGAPORE 680156,19466.1220900733,40090.5817259457
157 JALAN TECK WHYE SINGAPORE 680157,157,NIL,1.37918786548209,103.756782882659,103.756782882659,680157,JALAN TECK WHYE,157 JALAN TECK WHYE SINGAPORE 680157,19482.5344502246,40129.2394499257
158 JALAN TECK WHYE SINGAPORE 680158,158,NIL,1.37999554881374,103.756963104815,103.756963104815,680158,JALAN TECK WHYE,158 JALAN TECK WHYE SINGAPORE 680158,19502.5937997336,40218.5484048259
159 JALAN TECK WHYE SINGAPORE 680159,159,NIL,1.38021644657731,103.756463742103,103.756463742103,680159,JALAN TECK WHYE,159 JALAN TECK WHYE SINGAPORE 680159,19447.02175136,40242.9759692103
160 JALAN TECK WHYE SINGAPORE 680160,160,NIL,1.38079449708347,103.756442998925,103.756442998925,680160,JALAN TECK WHYE,160 JALAN TECK WHYE SINGAPORE 680160,19444.7153612692,40306.8939903416
161 JALAN TECK WHYE TECK WHYE VIEW SINGAPORE 680161,161,TECK WHYE VIEW,1.38012990422531,103.758203987241,103.758203987241,680161,JALAN TECK WHYE,TECK WHYE VIEW,19640.6889934689,40233.4003596138
162 JALAN TECK WHYE SINGAPORE 680162,162,NIL,1.38086551927932,103.757683733859,103.757683733859,680162,JALAN TECK WHYE,162 JALAN TECK WHYE SINGAPORE 680162,19582.7938773455,40314.7428417355
163 JALAN TECK WHYE SINGAPORE 680163,163,NIL,1.3809102767137,103.756925824414,103.756925824414,680163,JALAN TECK WHYE,163 JALAN TECK WHYE SINGAPORE 680163,19498.4482058799,40319.6945930664
164 JALAN TECK WHYE SINGAPORE 680164,164,NIL,1.38115926308689,103.756362638551,103.756362638551,680164,JALAN TECK WHYE,164 JALAN TECK WHYE SINGAPORE 680164,19435.7735632518,40347.2282882072
165 TECK WHYE CRESCENT TECK WHYE CREST SINGAPORE 680165,165,TECK WHYE CREST,1.38292232427838,103.753939006148,103.753939006148,680165,TECK WHYE CRESCENT,TECK WHYE CREST,19166.0601610802,40542.187700808
166 TECK WHYE CRESCENT TECK WHYE CREST SINGAPORE 680166,166,TECK WHYE CREST,1.38294870170981,103.752865119141,103.752865119141,680166,TECK WHYE CRESCENT,TECK WHYE CREST,19046.5501752431,40545.1084098965
201 CHOA CHU KANG AVENUE 1 SINGAPORE 680201,201,NIL,1.38213809278539,103.749542169054,103.749542169054,680201,CHOA CHU KANG AVENUE 1,201 CHOA CHU KANG AVENUE 1 SINGAPORE 680201,18676.7445462924,40455.4880882483
202 CHOA CHU KANG AVENUE 1 SINGAPORE 680202,202,NIL,1.3818369774308,103.74946480804,103.74946480804,680202,CHOA CHU KANG AVENUE 1,202 CHOA CHU KANG AVENUE 1 SINGAPORE 680202,18668.1340616243,40422.1925494596
203 CHOA CHU KANG AVENUE 1 SINGAPORE 680203,203,NIL,1.38133728174881,103.749449671373,103.749449671373,680203,CHOA CHU KANG AVENUE 1,203 CHOA CHU KANG AVENUE 1 SINGAPORE 680203,18666.447590108,40366.9387386683
204 CHOA CHU KANG AVENUE 1 SINGAPORE 680204,204,NIL,1.38079125656246,103.749226658966,103.749226658966,680204,CHOA CHU KANG AVENUE 1,204 CHOA CHU KANG AVENUE 1 SINGAPORE 680204,18641.6269656876,40306.5628585983
205 CHOA CHU KANG CENTRAL SINGAPORE 680205,205,NIL,1.38092680230382,103.748559601544,103.748559601544,680205,CHOA CHU KANG CENTRAL,205 CHOA CHU KANG CENTRAL SINGAPORE 680205,18567.3923444506,40321.5534710195
206 CHOA CHU KANG CENTRAL SINGAPORE 680206,206,NIL,1.3806670668767,103.748339853034,103.748339853034,680206,CHOA CHU KANG CENTRAL,206 CHOA CHU KANG CENTRAL SINGAPORE 680206,18542.9360557506,40292.8340881523
207 CHOA CHU KANG CENTRAL SINGAPORE 680207,207,NIL,1.38112820902783,103.747704698918,103.747704698918,680207,CHOA CHU KANG CENTRAL,207 CHOA CHU KANG CENTRAL SINGAPORE 680207,18472.2531705266,40343.8274380919
208 CHOA CHU KANG CENTRAL SINGAPORE 680208,208,NIL,1.38146075573503,103.748182713332,103.748182713332,680208,CHOA CHU KANG CENTRAL,208 CHOA CHU KANG CENTRAL SINGAPORE 680208,18525.4515128126,40380.5968939085
209 CHOA CHU KANG CENTRAL SINGAPORE 680209,209,NIL,1.38282662612164,103.748014485664,103.748014485664,680209,CHOA CHU KANG CENTRAL,209 CHOA CHU KANG CENTRAL SINGAPORE 680209,18506.7353050811,40531.6287449561
210 CHOA CHU KANG CENTRAL SINGAPORE 680210,210,NIL,1.38252550607593,103.747937128636,103.747937128636,680210,CHOA CHU KANG CENTRAL,210 CHOA CHU KANG CENTRAL SINGAPORE 680210,18498.1252441648,40498.3326916117
211 CHOA CHU KANG CENTRAL SINGAPORE 680211,211,NIL,1.38192105715299,103.74790119771,103.74790119771,680211,CHOA CHU KANG CENTRAL,211 CHOA CHU KANG CENTRAL SINGAPORE 680211,18494.1241799332,40431.4958682749
212 CHOA CHU KANG CENTRAL SINGAPORE 680212,212,NIL,1.3824698614123,103.747347893013,103.747347893013,680212,CHOA CHU KANG CENTRAL,212 CHOA CHU KANG CENTRAL SINGAPORE 680212,18432.5505049452,40492.1821465176
213 CHOA CHU KANG CENTRAL SINGAPORE 680213,213,NIL,1.38217295387287,103.747211973147,103.747211973147,680213,CHOA CHU KANG CENTRAL,213 CHOA CHU KANG CENTRAL SINGAPORE 680213,18417.4231417747,40459.3521293178
214 CHOA CHU KANG CENTRAL SINGAPORE 680214,214,NIL,1.38276016314999,103.746717702615,103.746717702615,680214,CHOA CHU KANG CENTRAL,214 CHOA CHU KANG CENTRAL SINGAPORE 680214,18362.4194050645,40524.2848240677
215 CHOA CHU KANG CENTRAL SINGAPORE 680215,215,NIL,1.38289363072177,103.747120904492,103.747120904492,680215,CHOA CHU KANG CENTRAL,215 CHOA CHU KANG CENTRAL SINGAPORE 680215,18407.2912369054,40539.0413741693
216 CHOA CHU KANG CENTRAL SINGAPORE 680216,216,NIL,1.38319877383368,103.747183263739,103.747183263739,680216,CHOA CHU KANG CENTRAL,216 CHOA CHU KANG CENTRAL SINGAPORE 680216,18414.2322606631,40572.7823366057
217 CHOA CHU KANG CENTRAL SINGAPORE 680217,217,NIL,1.38335694185996,103.746605997144,103.746605997144,680217,CHOA CHU KANG CENTRAL,217 CHOA CHU KANG CENTRAL SINGAPORE 680217,18349.9904023744,40590.2741135918
218 CHOA CHU KANG CENTRAL SINGAPORE 680218,218,NIL,1.38283798336508,103.745841987451,103.745841987451,680218,CHOA CHU KANG CENTRAL,218 CHOA CHU KANG CENTRAL SINGAPORE 680218,18264.9636407383,40532.8933715839
219 CHOA CHU KANG CENTRAL SINGAPORE 680219,219,NIL,1.38251524796551,103.745366857118,103.745366857118,680219,CHOA CHU KANG CENTRAL,219 CHOA CHU KANG CENTRAL SINGAPORE 680219,18212.08629042,40497.208841376
220 CHOA CHU KANG CENTRAL SINGAPORE 680220,220,NIL,1.38193301079554,103.745580988412,103.745580988412,680220,CHOA CHU KANG CENTRAL,220 CHOA CHU KANG CENTRAL SINGAPORE 680220,18235.9140341701,40432.8270541988
221 CHOA CHU KANG CENTRAL SINGAPORE 680221,221,NIL,1.38222959408828,103.745057027229,103.745057027229,680221,CHOA CHU KANG CENTRAL,221 CHOA CHU KANG CENTRAL SINGAPORE 680221,18177.6049428331,40465.6239279564
223 CHOA CHU KANG CENTRAL SINGAPORE 680223,223,NIL,1.38148413412097,103.744533459829,103.744533459829,680223,CHOA CHU KANG CENTRAL,223 CHOA CHU KANG CENTRAL SINGAPORE 680223,18119.3353814837,40383.1968229059
224 CHOA CHU KANG CENTRAL SINGAPORE 680224,224,NIL,1.38078152626664,103.74466959968,103.74466959968,680224,CHOA CHU KANG CENTRAL,224 CHOA CHU KANG CENTRAL SINGAPORE 680224,18134.4831452752,40305.5053557847
225 CHOA CHU KANG CENTRAL SINGAPORE 680225,225,NIL,1.38109065348717,103.744889593727,103.744889593727,680225,CHOA CHU KANG CENTRAL,225 CHOA CHU KANG CENTRAL SINGAPORE 680225,18158.9670081073,40339.6862028278
226 CHOA CHU KANG CENTRAL SINGAPORE 680226,226,NIL,1.38115995023886,103.745292702375,103.745292702375,680226,CHOA CHU KANG CENTRAL,226 CHOA CHU KANG CENTRAL SINGAPORE 680226,18203.8282461548,40347.3470295072
227 CHOA CHU KANG CENTRAL SINGAPORE 680227,227,NIL,1.38118249686415,103.745966246926,103.745966246926,680227,CHOA CHU KANG CENTRAL,227 CHOA CHU KANG CENTRAL SINGAPORE 680227,18278.7854246991,40349.8373581357
228 CHOA CHU KANG CENTRAL SINGAPORE 680228,228,NIL,1.3809461575335,103.746498914115,103.746498914115,680228,CHOA CHU KANG CENTRAL,228 CHOA CHU KANG CENTRAL SINGAPORE 680228,18338.0636666063,40323.7019530386
229 CHOA CHU KANG CENTRAL SINGAPORE 680229,229,NIL,1.38065374945261,103.746367289377,103.746367289377,680229,CHOA CHU KANG CENTRAL,229 CHOA CHU KANG CENTRAL SINGAPORE 680229,18323.414295435,40291.3694506884
230 CHOA CHU KANG CENTRAL SINGAPORE 680230,230,NIL,1.38038258134348,103.746190535886,103.746190535886,680230,CHOA CHU KANG CENTRAL,230 CHOA CHU KANG CENTRAL SINGAPORE 680230,18303.7427393338,40261.3857438751
231 CHOA CHU KANG CENTRAL SINGAPORE 680231,231,NIL,1.38008135969444,103.746113120679,103.746113120679,680231,CHOA CHU KANG CENTRAL,231 CHOA CHU KANG CENTRAL SINGAPORE 680231,18295.126170801,40228.0784611087
232 CHOA CHU KANG CENTRAL SINGAPORE 680232,232,NIL,1.38058554951928,103.747098393775,103.747098393775,680232,CHOA CHU KANG CENTRAL,232 CHOA CHU KANG CENTRAL SINGAPORE 680232,18404.7768149618,40283.8252768181
233 CHOA CHU KANG CENTRAL SINGAPORE 680233,233,NIL,1.3803055953649,103.747293951775,103.747293951775,680233,CHOA CHU KANG CENTRAL,233 CHOA CHU KANG CENTRAL SINGAPORE 680233,18426.5388596272,40252.8685451318
234 CHOA CHU KANG CENTRAL SINGAPORE 680234,234,NIL,1.3802069557625,103.748137630209,103.748137630209,680234,CHOA CHU KANG CENTRAL,234 CHOA CHU KANG CENTRAL SINGAPORE 680234,18520.4293581508,40241.9580871854
235 CHOA CHU KANG CENTRAL SINGAPORE 680235,235,NIL,1.37975664367524,103.748749195334,103.748749195334,680235,CHOA CHU KANG CENTRAL,235 CHOA CHU KANG CENTRAL SINGAPORE 680235,18588.4871616829,40192.1623808257
236 CHOA CHU KANG CENTRAL SINGAPORE 680236,236,NIL,1.37981581239549,103.748209630694,103.748209630694,680236,CHOA CHU KANG CENTRAL,236 CHOA CHU KANG CENTRAL SINGAPORE 680236,18528.4405670092,40198.7071058732
237 CHOA CHU KANG CENTRAL SINGAPORE 680237,237,NIL,1.3794475026281,103.748287395227,103.748287395227,680237,CHOA CHU KANG CENTRAL,237 CHOA CHU KANG CENTRAL SINGAPORE 680237,18537.0933360504,40157.980928421
238 CHOA CHU KANG CENTRAL SINGAPORE 680238,238,NIL,1.37914625858488,103.74820998984,103.74820998984,680238,CHOA CHU KANG CENTRAL,238 CHOA CHU KANG CENTRAL SINGAPORE 680238,18528.477887433,40124.67116368
239 CHOA CHU KANG CENTRAL SINGAPORE 680239,239,NIL,1.37944877151316,103.747548438263,103.747548438263,680239,CHOA CHU KANG CENTRAL,239 CHOA CHU KANG CENTRAL SINGAPORE 680239,18454.8566166172,40158.1241867878
248 CHOA CHU KANG AVENUE 2 SINGAPORE 680248,248,NIL,1.37900459646071,103.745926026056,103.745926026056,680248,CHOA CHU KANG AVENUE 2,248 CHOA CHU KANG AVENUE 2 SINGAPORE 680248,18274.3004964795,40109.0160782132
249 CHOA CHU KANG AVENUE 2 SINGAPORE 680249,249,NIL,1.37962407045143,103.745530138585,103.745530138585,680249,CHOA CHU KANG AVENUE 2,249 CHOA CHU KANG AVENUE 2 SINGAPORE 680249,18230.2456580549,40177.5160667207
250 CHOA CHU KANG AVENUE 2 SINGAPORE 680250,250,NIL,1.37930897796883,103.745365161971,103.745365161971,680250,CHOA CHU KANG AVENUE 2,250 CHOA CHU KANG AVENUE 2 SINGAPORE 680250,18211.8845240409,40142.6753776316
251 CHOA CHU KANG AVENUE 2 SINGAPORE 680251,251,NIL,1.37829226381639,103.744574238625,103.744574238625,680251,CHOA CHU KANG AVENUE 2,251 CHOA CHU KANG AVENUE 2 SINGAPORE 680251,18123.8603845136,40030.2554248348
252 CHOA CHU KANG AVENUE 2 SINGAPORE 680252,252,NIL,1.37803539434682,103.745020692529,103.745020692529,680252,CHOA CHU KANG AVENUE 2,252 CHOA CHU KANG AVENUE 2 SINGAPORE 680252,18173.5441296017,40001.85022364
253 CHOA CHU KANG AVENUE 1 CHOA CHU KANG MARKET SINGAPORE 680253,253,CHOA CHU KANG MARKET,1.37677749544409,103.744548948082,103.744548948082,680253,CHOA CHU KANG AVENUE 1,CHOA CHU KANG MARKET,18121.0396203063,39862.7599396724
254 CHOA CHU KANG AVENUE 2 SINGAPORE 680254,254,NIL,1.37822238271604,103.743885220226,103.743885220226,680254,CHOA CHU KANG AVENUE 2,254 CHOA CHU KANG AVENUE 2 SINGAPORE 680254,18047.1808668915,40022.5311867297
271 CHOA CHU KANG AVENUE 2 SINGAPORE 680271,271,NIL,1.37869966040642,103.742532296308,103.742532296308,680271,CHOA CHU KANG AVENUE 2,271 CHOA CHU KANG AVENUE 2 SINGAPORE 680271,17896.6191684343,40075.311891377
272 CHOA CHU KANG AVENUE 2 SINGAPORE 680272,272,NIL,1.3787209383866,103.742923724743,103.742923724743,680272,CHOA CHU KANG AVENUE 2,272 CHOA CHU KANG AVENUE 2 SINGAPORE 680272,17940.1803965801,40077.6630478166
273 CHOA CHU KANG AVENUE 2 SINGAPORE 680273,273,NIL,1.37924870864955,103.743076786516,103.743076786516,680273,CHOA CHU KANG AVENUE 2,273 CHOA CHU KANG AVENUE 2 SINGAPORE 680273,17957.216489072,40136.0206284635
274 CHOA CHU KANG AVENUE 2 SINGAPORE 680274,274,NIL,1.37936988042156,103.74286869532,103.74286869532,680274,CHOA CHU KANG AVENUE 2,274 CHOA CHU KANG AVENUE 2 SINGAPORE 680274,17934.0590298213,40149.4200832471
275 CHOA CHU KANG AVENUE 2 SINGAPORE 680275,275,NIL,1.37927559119004,103.742229694175,103.742229694175,680275,CHOA CHU KANG AVENUE 2,275 CHOA CHU KANG AVENUE 2 SINGAPORE 680275,17862.9457338685,40138.99675823
276 CHOA CHU KANG AVENUE 2 SINGAPORE 680276,276,NIL,1.37956864583538,103.744327184637,103.744327184637,680276,CHOA CHU KANG AVENUE 2,276 CHOA CHU KANG AVENUE 2 SINGAPORE 680276,18096.3716070605,40171.3924601302
277 CHOA CHU KANG AVENUE 2 SINGAPORE 680277,277,NIL,1.37987227900139,103.744605644093,103.744605644093,680277,CHOA CHU KANG AVENUE 2,277 CHOA CHU KANG AVENUE 2 SINGAPORE 680277,18127.3619362097,40204.9655563291
278 CHOA CHU KANG AVENUE 3 SINGAPORE 680278,278,NIL,1.38009306194055,103.743465436354,103.743465436354,680278,CHOA CHU KANG AVENUE 3,278 CHOA CHU KANG AVENUE 3 SINGAPORE 680278,18000.4719197787,40229.3834046908
279 CHOA CHU KANG AVENUE 3 SINGAPORE 680279,279,NIL,1.38069462181096,103.743434411582,103.743434411582,680279,CHOA CHU KANG AVENUE 3,279 CHOA CHU KANG AVENUE 3 SINGAPORE 680279,17997.021763118,40295.9010521378
280 CHOA CHU KANG AVENUE 3 SINGAPORE 680280,280,NIL,1.3808318992022,103.74293968344,103.74293968344,680280,CHOA CHU KANG AVENUE 3,280 CHOA CHU KANG AVENUE 3 SINGAPORE 680280,17941.9652693123,40311.082595
281 CHOA CHU KANG AVENUE 3 SINGAPORE 680281,281,NIL,1.38032442970476,103.74259978067,103.74259978067,680281,CHOA CHU KANG AVENUE 3,281 CHOA CHU KANG AVENUE 3 SINGAPORE 680281,17904.1361919222,40254.9705657978
282 CHOA CHU KANG AVENUE 3 SINGAPORE 680282,282,NIL,1.38025443409642,103.743214351168,103.743214351168,680282,CHOA CHU KANG AVENUE 3,282 CHOA CHU KANG AVENUE 3 SINGAPORE 680282,17972.5299398061,40247.2281971704
283 CHOA CHU KANG AVENUE 3 SINGAPORE 680283,283,NIL,1.37970871614932,103.742871205952,103.742871205952,680283,CHOA CHU KANG AVENUE 3,283 CHOA CHU KANG AVENUE 3 SINGAPORE 680283,17934.3398561738,40186.8868528716
284 CHOA CHU KANG AVENUE 3 SINGAPORE 680284,284,NIL,1.37971380334915,103.742134226705,103.742134226705,680284,CHOA CHU KANG AVENUE 3,284 CHOA CHU KANG AVENUE 3 SINGAPORE 680284,17852.3232455188,40187.4525009505
285 CHOA CHU KANG AVENUE 3 SINGAPORE 680285,285,NIL,1.38012255733941,103.741885701698,103.741885701698,680285,CHOA CHU KANG AVENUE 3,285 CHOA CHU KANG AVENUE 3 SINGAPORE 680285,17824.6672374569,40232.6515599638
286 CHOA CHU KANG AVENUE 3 SINGAPORE 680286,286,NIL,1.37961045064346,103.741530726305,103.741530726305,680286,CHOA CHU KANG AVENUE 3,286 CHOA CHU KANG AVENUE 3 SINGAPORE 680286,17785.1607084097,40176.0268516541
287 CHOA CHU KANG AVENUE 2 SINGAPORE 680287,287,NIL,1.37893095463901,103.741564347018,103.741564347018,680287,CHOA CHU KANG AVENUE 2,287 CHOA CHU KANG AVENUE 2 SINGAPORE 680287,17788.8993794899,40100.8913946841
288 CHOA CHU KANG AVENUE 3 SINGAPORE 680288,288,NIL,1.37893861533693,103.741023148247,103.741023148247,680288,CHOA CHU KANG AVENUE 3,288 CHOA CHU KANG AVENUE 3 SINGAPORE 680288,17728.6706926264,40101.7408051118
289 CHOA CHU KANG AVENUE 3 SINGAPORE 680289,289,NIL,1.37936640828773,103.740771937699,103.740771937699,680289,CHOA CHU KANG AVENUE 3,289 CHOA CHU KANG AVENUE 3 SINGAPORE 680289,17700.7159092966,40149.0451234635
290 CHOA CHU KANG AVENUE 3 SINGAPORE 680290,290,NIL,1.37885430144501,103.740416962384,103.740416962384,680290,CHOA CHU KANG AVENUE 3,290 CHOA CHU KANG AVENUE 3 SINGAPORE 680290,17661.2093499815,40092.4204151537
291 CHOA CHU KANG AVENUE 3 SINGAPORE 680291,291,NIL,1.378703619825,103.739795696799,103.739795696799,680291,CHOA CHU KANG AVENUE 3,291 CHOA CHU KANG AVENUE 3 SINGAPORE 680291,17592.0695265671,40075.7614920065
292 CHOA CHU KANG AVENUE 3 SINGAPORE 680292,292,NIL,1.37815633473393,103.739808638278,103.739808638278,680292,CHOA CHU KANG AVENUE 3,292 CHOA CHU KANG AVENUE 3 SINGAPORE 680292,17593.5073768655,40015.245350102
293 CHOA CHU KANG AVENUE 3 SINGAPORE 680293,293,NIL,1.37817045766097,103.740252438446,103.740252438446,680293,CHOA CHU KANG AVENUE 3,293 CHOA CHU KANG AVENUE 3 SINGAPORE 680293,17642.8969171522,40016.8050593026
294 CHOA CHU KANG AVENUE 2 SINGAPORE 680294,294,NIL,1.37859984734646,103.74097440321,103.74097440321,680294,CHOA CHU KANG AVENUE 2,294 CHOA CHU KANG AVENUE 2 SINGAPORE 680294,17723.2445209175,40064.2817235552
295 CHOA CHU KANG AVENUE 2 SINGAPORE 680295,295,NIL,1.37816643855629,103.740967962566,103.740967962566,680295,CHOA CHU KANG AVENUE 2,295 CHOA CHU KANG AVENUE 2 SINGAPORE 680295,17722.5258984482,40016.357547164
296 CHOA CHU KANG AVENUE 2 SINGAPORE 680296,296,NIL,1.37738338043104,103.740781439449,103.740781439449,680296,CHOA CHU KANG AVENUE 2,296 CHOA CHU KANG AVENUE 2 SINGAPORE 680296,17701.7648160048,39929.7716514189
297 CHOA CHU KANG AVENUE 2 SINGAPORE 680297,297,NIL,1.3770789738897,103.741911971924,103.741911971924,680297,CHOA CHU KANG AVENUE 2,297 CHOA CHU KANG AVENUE 2 SINGAPORE 680297,17827.5778673068,39896.1070248373
302 CHOA CHU KANG AVENUE 4 SINGAPORE 680302,302,NIL,1.38501654423548,103.743339409916,103.743339409916,680302,CHOA CHU KANG AVENUE 4,302 CHOA CHU KANG AVENUE 4 SINGAPORE 680302,17986.4673777325,40773.7982819453
303 CHOA CHU KANG AVENUE 4 SINGAPORE 680303,303,NIL,1.38454796392361,103.743802293189,103.743802293189,680303,CHOA CHU KANG AVENUE 4,303 CHOA CHU KANG AVENUE 4 SINGAPORE 680303,18037.9784615338,40721.9830351751
304 CHOA CHU KANG AVENUE 4 SINGAPORE 680304,304,NIL,1.3844960805464,103.743145847184,103.743145847184,680304,CHOA CHU KANG AVENUE 4,304 CHOA CHU KANG AVENUE 4 SINGAPORE 680304,17964.9241100531,40716.2487959284
305 CHOA CHU KANG AVENUE 4 SINGAPORE 680305,305,NIL,1.38432785634159,103.742917135674,103.742917135674,680305,CHOA CHU KANG AVENUE 4,305 CHOA CHU KANG AVENUE 4 SINGAPORE 680305,17939.470703166,40697.6483632345
306 CHOA CHU KANG AVENUE 4 SINGAPORE 680306,306,NIL,1.384956724776,103.742877957261,103.742877957261,680306,CHOA CHU KANG AVENUE 4,306 CHOA CHU KANG AVENUE 4 SINGAPORE 680306,17935.1132939626,40767.1856960785
307 CHOA CHU KANG AVENUE 4 SINGAPORE 680307,307,NIL,1.38523428420139,103.74270487573,103.74270487573,680307,CHOA CHU KANG AVENUE 4,307 CHOA CHU KANG AVENUE 4 SINGAPORE 680307,17915.8526862757,40797.8775829077
308 CHOA CHU KANG AVENUE 4 SINGAPORE 680308,308,NIL,1.38557729351054,103.742778536251,103.742778536251,680308,CHOA CHU KANG AVENUE 4,308 CHOA CHU KANG AVENUE 4 SINGAPORE 680308,17924.0516171688,40835.8055457994
309 CHOA CHU KANG AVENUE 4 CHOA CHU KANG CENTRAL POST OFFICE SINGAPORE 680309,309,CHOA CHU KANG CENTRAL POST OFFICE,1.38525196962708,103.745864156514,103.745864156514,680309,CHOA CHU KANG AVENUE 4,CHOA CHU KANG CENTRAL POST OFFICE,18267.440621186,40799.8199399579
340 CHOA CHU KANG LOOP SINGAPORE 680340,340,NIL,1.38409830722396,103.74549899545,103.74549899545,680340,CHOA CHU KANG LOOP,340 CHOA CHU KANG LOOP SINGAPORE 680340,18226.7981044417,40672.2551593669
341 CHOA CHU KANG LOOP SINGAPORE 680341,341,NIL,1.38435516978372,103.746146014182,103.746146014182,680341,CHOA CHU KANG LOOP,341 CHOA CHU KANG LOOP SINGAPORE 680341,18298.8041545739,40700.6550939325
342 CHOA CHU KANG LOOP SINGAPORE 680342,342,NIL,1.38394155773497,103.746425614003,103.746425614003,680342,CHOA CHU KANG LOOP,342 CHOA CHU KANG LOOP SINGAPORE 680342,18329.9184008483,40654.918778209
343 CHOA CHU KANG LOOP SINGAPORE 680343,343,NIL,1.38341750127746,103.745686287938,103.745686287938,680343,CHOA CHU KANG LOOP,343 CHOA CHU KANG LOOP SINGAPORE 680343,18247.6386100743,40596.9742344674
344 CHOA CHU KANG LOOP SINGAPORE 680344,344,NIL,1.38328262549326,103.74511032068,103.74511032068,680344,CHOA CHU KANG LOOP,344 CHOA CHU KANG LOOP SINGAPORE 680344,18183.5401614923,40582.0627122894
345 CHOA CHU KANG LOOP SINGAPORE 680345,345,NIL,1.38280878340153,103.744790220928,103.744790220928,680345,CHOA CHU KANG LOOP,345 CHOA CHU KANG LOOP SINGAPORE 680345,18147.9151381413,40529.6689232793
346 CHOA CHU KANG LOOP SINGAPORE 680346,346,NIL,1.38358998692837,103.744901135483,103.744901135483,680346,CHOA CHU KANG LOOP,346 CHOA CHU KANG LOOP SINGAPORE 680346,18160.2617513789,40616.0500863828
350 CHOA CHU KANG CENTRAL SINGAPORE 680350,350,NIL,1.38352784095572,103.74346921753,103.74346921753,680350,CHOA CHU KANG CENTRAL,350 CHOA CHU KANG CENTRAL SINGAPORE 680350,18000.90708258,40609.1842785627
351 CHOA CHU KANG CENTRAL SINGAPORE 680351,351,NIL,1.38350488400214,103.743079424598,103.743079424598,680351,CHOA CHU KANG CENTRAL,351 CHOA CHU KANG CENTRAL SINGAPORE 680351,17957.527946624,40606.647458313
352 CHOA CHU KANG CENTRAL SINGAPORE 680352,352,NIL,1.38284472448446,103.743157330273,103.743157330273,680352,CHOA CHU KANG CENTRAL,352 CHOA CHU KANG CENTRAL SINGAPORE 680352,17966.1950929575,40533.6499501057
353 CHOA CHU KANG CENTRAL SINGAPORE 680353,353,NIL,1.38213707062575,103.743397513845,103.743397513845,680353,CHOA CHU KANG CENTRAL,353 CHOA CHU KANG CENTRAL SINGAPORE 680353,17992.9215409718,40455.4000689518
354 CHOA CHU KANG CENTRAL SINGAPORE 680354,354,NIL,1.38264543801157,103.743561079684,103.743561079684,680354,CHOA CHU KANG CENTRAL,354 CHOA CHU KANG CENTRAL SINGAPORE 680354,18011.1264921911,40511.6121338401
355 CHOA CHU KANG CENTRAL SINGAPORE 680355,355,NIL,1.38312422256392,103.743774848821,103.743774848821,680355,CHOA CHU KANG CENTRAL,355 CHOA CHU KANG CENTRAL SINGAPORE 680355,18034.9183078436,40564.5528653171
401 CHOA CHU KANG AVENUE 3 SINGAPORE 680401,401,NIL,1.37969264223731,103.739760661718,103.739760661718,680401,CHOA CHU KANG AVENUE 3,401 CHOA CHU KANG AVENUE 3 SINGAPORE 680401,17588.1748542981,40185.1228650473
402 CHOA CHU KANG AVENUE 3 SINGAPORE 680402,402,NIL,1.37920252711367,103.739438134005,103.739438134005,680402,CHOA CHU KANG AVENUE 3,402 CHOA CHU KANG AVENUE 3 SINGAPORE 680402,17552.279386512,40130.9297654778
403 CHOA CHU KANG AVENUE 3 SINGAPORE 680403,403,NIL,1.37949409265012,103.73888752547,103.73888752547,680403,CHOA CHU KANG AVENUE 3,403 CHOA CHU KANG AVENUE 3 SINGAPORE 680403,17491.0047592027,40163.1720692366
404 CHOA CHU KANG AVENUE 3 SINGAPORE 680404,404,NIL,1.38012964850802,103.738888788773,103.738888788773,680404,CHOA CHU KANG AVENUE 3,404 CHOA CHU KANG AVENUE 3 SINGAPORE 680404,17491.1481386423,40233.4486975838
405 CHOA CHU KANG AVENUE 3 SINGAPORE 680405,405,NIL,1.38021754622899,103.739453325086,103.739453325086,680405,CHOA CHU KANG AVENUE 3,405 CHOA CHU KANG AVENUE 3 SINGAPORE 680405,17553.9743936006,40243.165507324
406 CHOA CHU KANG AVENUE 3 SINGAPORE 680406,406,NIL,1.38037389462046,103.740209588608,103.740209588608,680406,CHOA CHU KANG AVENUE 3,406 CHOA CHU KANG AVENUE 3 SINGAPORE 680406,17638.1377912685,40260.4504329097
407 CHOA CHU KANG AVENUE 3 SINGAPORE 680407,407,NIL,1.38041759813853,103.740828418583,103.740828418583,680407,CHOA CHU KANG AVENUE 3,407 CHOA CHU KANG AVENUE 3 SINGAPORE 680407,17707.0060503324,40265.2802648023
408 CHOA CHU KANG AVENUE 3 SINGAPORE 680408,408,NIL,1.37991383605328,103.740467037393,103.740467037393,680408,CHOA CHU KANG AVENUE 3,408 CHOA CHU KANG AVENUE 3 SINGAPORE 680408,17666.7866497329,40209.5783062447
409 CHOA CHU KANG AVENUE 3 SINGAPORE 680409,409,NIL,1.38112967018954,103.741877152961,103.741877152961,680409,CHOA CHU KANG AVENUE 3,409 CHOA CHU KANG AVENUE 3 SINGAPORE 680409,17823.7201522458,40344.0131624416
410 CHOA CHU KANG AVENUE 3 SINGAPORE 680410,410,NIL,1.38062798768557,103.741520103731,103.741520103731,680410,CHOA CHU KANG AVENUE 3,410 CHOA CHU KANG AVENUE 3 SINGAPORE 680410,17783.9828903591,40288.5411194861
411 CHOA CHU KANG AVENUE 3 SINGAPORE 680411,411,NIL,1.38105980228791,103.741260166437,103.741260166437,680411,CHOA CHU KANG AVENUE 3,411 CHOA CHU KANG AVENUE 3 SINGAPORE 680411,17755.0569587713,40336.2901653238
412 CHOA CHU KANG AVENUE 3 SINGAPORE 680412,412,NIL,1.38180972459048,103.742381573149,103.742381573149,680412,CHOA CHU KANG AVENUE 3,412 CHOA CHU KANG AVENUE 3 SINGAPORE 680412,17879.8586962027,40419.2080657296
413 CHOA CHU KANG AVENUE 3 SINGAPORE 680413,413,NIL,1.38132792158886,103.742568460559,103.742568460559,680413,CHOA CHU KANG AVENUE 3,413 CHOA CHU KANG AVENUE 3 SINGAPORE 680413,17900.6548895072,40365.9318741895
414 CHOA CHU KANG AVENUE 4 SINGAPORE 680414,414,NIL,1.38216660471552,103.742248296899,103.742248296899,680414,CHOA CHU KANG AVENUE 4,414 CHOA CHU KANG AVENUE 4 SINGAPORE 680414,17865.0282316841,40458.6706759334
415 CHOA CHU KANG AVENUE 4 SINGAPORE 680415,415,NIL,1.38274610888732,103.742446143166,103.742446143166,680415,CHOA CHU KANG AVENUE 4,415 CHOA CHU KANG AVENUE 4 SINGAPORE 680415,17887.0484925183,40522.7485422865
416 CHOA CHU KANG AVENUE 4 SINGAPORE 680416,416,NIL,1.38334049587446,103.742083284398,103.742083284398,680416,CHOA CHU KANG AVENUE 4,416 CHOA CHU KANG AVENUE 4 SINGAPORE 680416,17846.6693980368,40588.4744700845
417 CHOA CHU KANG AVENUE 4 SINGAPORE 680417,417,NIL,1.38296498350584,103.741578052416,103.741578052416,680417,CHOA CHU KANG AVENUE 4,417 CHOA CHU KANG AVENUE 4 SINGAPORE 680417,17790.4418359408,40546.9543331526
418 CHOA CHU KANG AVENUE 4 SINGAPORE 680418,418,NIL,1.3823730080302,103.741352252705,103.741352252705,680418,CHOA CHU KANG AVENUE 4,418 CHOA CHU KANG AVENUE 4 SINGAPORE 680418,17765.3106317399,40481.4975785334
419 CHOA CHU KANG AVENUE 4 SINGAPORE 680419,419,NIL,1.38192576906172,103.74156049873,103.74156049873,680419,CHOA CHU KANG AVENUE 4,419 CHOA CHU KANG AVENUE 4 SINGAPORE 680419,17788.483890878,40432.0432042256
420 CHOA CHU KANG AVENUE 4 SINGAPORE 680420,420,NIL,1.38147127512783,103.741375947485,103.741375947485,680420,CHOA CHU KANG AVENUE 4,420 CHOA CHU KANG AVENUE 4 SINGAPORE 680420,17767.9437041795,40381.7883022837
421 CHOA CHU KANG AVENUE 4 SINGAPORE 680421,421,NIL,1.38177896881885,103.740747501903,103.740747501903,680421,CHOA CHU KANG AVENUE 4,421 CHOA CHU KANG AVENUE 4 SINGAPORE 680421,17698.006894486,40415.8142680544
422 CHOA CHU KANG AVENUE 4 SINGAPORE 680422,422,NIL,1.38225681754484,103.740957419462,103.740957419462,680422,CHOA CHU KANG AVENUE 4,422 CHOA CHU KANG AVENUE 4 SINGAPORE 680422,17721.3701457577,40468.6515132952
423 CHOA CHU KANG AVENUE 4 SINGAPORE 680423,423,NIL,1.3820241469387,103.740310723833,103.740310723833,680423,CHOA CHU KANG AVENUE 4,423 CHOA CHU KANG AVENUE 4 SINGAPORE 680423,17649.4000237221,40442.9267539345
424 CHOA CHU KANG AVENUE 4 SINGAPORE 680424,424,NIL,1.38148303585952,103.740309029232,103.740309029232,680424,CHOA CHU KANG AVENUE 4,424 CHOA CHU KANG AVENUE 4 SINGAPORE 680424,17649.2090932811,40383.0933669377
425 CHOA CHU KANG AVENUE 4 SINGAPORE 680425,425,NIL,1.38121893045435,103.739482403988,103.739482403988,680425,CHOA CHU KANG AVENUE 4,425 CHOA CHU KANG AVENUE 4 SINGAPORE 680425,17557.2148839375,40353.8935100976
426 CHOA CHU KANG AVENUE 4 SINGAPORE 680426,426,NIL,1.38053535977727,103.739234509084,103.739234509084,680426,CHOA CHU KANG AVENUE 4,426 CHOA CHU KANG AVENUE 4 SINGAPORE 680426,17529.6242849873,40278.30872491
427 CHOA CHU KANG AVENUE 4 SINGAPORE 680427,427,NIL,1.38088419447891,103.73976352832,103.73976352832,680427,CHOA CHU KANG AVENUE 4,427 CHOA CHU KANG AVENUE 4 SINGAPORE 680427,17588.4990546722,40316.8788230773
428 CHOA CHU KANG AVENUE 4 SINGAPORE 680428,428,NIL,1.38123953345099,103.739992955985,103.739992955985,680428,CHOA CHU KANG AVENUE 4,428 CHOA CHU KANG AVENUE 4 SINGAPORE 680428,17614.0330349319,40356.1694505978
429 CHOA CHU KANG AVENUE 4 SINGAPORE 680429,429,NIL,1.38274325486337,103.740135563152,103.740135563152,680429,CHOA CHU KANG AVENUE 4,429 CHOA CHU KANG AVENUE 4 SINGAPORE 680429,17629.909954451,40522.4429264534
430 CHOA CHU KANG AVENUE 4 SINGAPORE 680430,430,NIL,1.38391802750636,103.741090395244,103.741090395244,680430,CHOA CHU KANG AVENUE 4,430 CHOA CHU KANG AVENUE 4 SINGAPORE 680430,17736.1758207968,40652.3393406365
431 CHOA CHU KANG AVENUE 4 SINGAPORE 680431,431,NIL,1.38403775540864,103.741773099201,103.741773099201,680431,CHOA CHU KANG AVENUE 4,431 CHOA CHU KANG AVENUE 4 SINGAPORE 680431,17812.1526671769,40665.5753180403
432 CHOA CHU KANG AVENUE 4 SINGAPORE 680432,432,NIL,1.38464414439202,103.741833630214,103.741833630214,680432,CHOA CHU KANG AVENUE 4,432 CHOA CHU KANG AVENUE 4 SINGAPORE 680432,17818.8915916076,40732.6265597735
433 CHOA CHU KANG AVENUE 4 SINGAPORE 680433,433,NIL,1.38493078338858,103.741771823351,103.741771823351,680433,CHOA CHU KANG AVENUE 4,433 CHOA CHU KANG AVENUE 4 SINGAPORE 680433,17812.0144938314,40764.3219513353
434 CHOA CHU KANG AVENUE 4 SINGAPORE 680434,434,NIL,1.38444682435766,103.74108952188,103.74108952188,680434,CHOA CHU KANG AVENUE 4,434 CHOA CHU KANG AVENUE 4 SINGAPORE 680434,17736.0809003999,40710.8110921178
435 CHOA CHU KANG AVENUE 4 SINGAPORE 680435,435,NIL,1.38513876368188,103.741050016887,103.741050016887,680435,CHOA CHU KANG AVENUE 4,435 CHOA CHU KANG AVENUE 4 SINGAPORE 680435,17731.687472295,40787.3225013576
436 CHOA CHU KANG AVENUE 4 SINGAPORE 680436,436,NIL,1.3845738801474,103.740368750567,103.740368750567,680436,CHOA CHU KANG AVENUE 4,436 CHOA CHU KANG AVENUE 4 SINGAPORE 680436,17655.8687155945,40724.8634273093
437 CHOA CHU KANG AVENUE 4 SINGAPORE 680437,437,NIL,1.38410980069154,103.740645540511,103.740645540511,680437,CHOA CHU KANG AVENUE 4,437 CHOA CHU KANG AVENUE 4 SINGAPORE 680437,17686.6699303808,40673.5466034282
438 CHOA CHU KANG AVENUE 4 SINGAPORE 680438,438,NIL,1.38427313008787,103.739864729553,103.739864729553,680438,CHOA CHU KANG AVENUE 4,438 CHOA CHU KANG AVENUE 4 SINGAPORE 680438,17599.7762395097,40691.6101728939
439 CHOA CHU KANG AVENUE 4 SINGAPORE 680439,439,NIL,1.38372413417485,103.739787430026,103.739787430026,680439,CHOA CHU KANG AVENUE 4,439 CHOA CHU KANG AVENUE 4 SINGAPORE 680439,17591.1713846866,40630.9052495752
440 CHOA CHU KANG AVENUE 4 SINGAPORE 680440,440,NIL,1.38345332138043,103.739367787801,103.739367787801,680440,CHOA CHU KANG AVENUE 4,440 CHOA CHU KANG AVENUE 4 SINGAPORE 680440,17544.4693084061,40600.9619505182
441 CHOA CHU KANG AVENUE 4 SINGAPORE 680441,441,NIL,1.38292240385745,103.739807246356,103.739807246356,680441,CHOA CHU KANG AVENUE 4,441 CHOA CHU KANG AVENUE 4 SINGAPORE 680441,17593.3731988939,40542.2537758164
442 CHOA CHU KANG AVENUE 4 SINGAPORE 680442,442,NIL,1.38093969896375,103.737733890511,103.737733890511,680442,CHOA CHU KANG AVENUE 4,442 CHOA CHU KANG AVENUE 4 SINGAPORE 680442,17362.6259211889,40323.0252214596
443 CHOA CHU KANG AVENUE 4 SINGAPORE 680443,443,NIL,1.38128651592265,103.737535307012,103.737535307012,680443,CHOA CHU KANG AVENUE 4,443 CHOA CHU KANG AVENUE 4 SINGAPORE 680443,17340.5275992248,40361.3754227255
444 CHOA CHU KANG AVENUE 4 SINGAPORE 680444,444,NIL,1.38161754509099,103.737451795053,103.737451795053,680444,CHOA CHU KANG AVENUE 4,444 CHOA CHU KANG AVENUE 4 SINGAPORE 680444,17331.2352374196,40397.9793732055
445 CHOA CHU KANG AVENUE 4 SINGAPORE 680445,445,NIL,1.38170883113996,103.736662612875,103.736662612875,680445,CHOA CHU KANG AVENUE 4,445 CHOA CHU KANG AVENUE 4 SINGAPORE 680445,17243.4095347933,40408.0768936463
446 CHOA CHU KANG AVENUE 4 SINGAPORE 680446,446,NIL,1.3807129959352,103.73689142472,103.73689142472,680446,CHOA CHU KANG AVENUE 4,446 CHOA CHU KANG AVENUE 4 SINGAPORE 680446,17268.8689650092,40297.9613029864
447 CHOA CHU KANG AVENUE 4 SINGAPORE 680447,447,NIL,1.38063153989996,103.737541420963,103.737541420963,680447,CHOA CHU KANG AVENUE 4,447 CHOA CHU KANG AVENUE 4 SINGAPORE 680447,17341.2050875044,40288.9513717368
448 CHOA CHU KANG AVENUE 4 SINGAPORE 680448,448,NIL,1.38022306846711,103.737346540576,103.737346540576,680448,CHOA CHU KANG AVENUE 4,448 CHOA CHU KANG AVENUE 4 SINGAPORE 680448,17319.5155043919,40243.7854864337
449 CHOA CHU KANG AVENUE 4 SINGAPORE 680449,449,NIL,1.3791714217924,103.736251145733,103.736251145733,680449,CHOA CHU KANG AVENUE 4,449 CHOA CHU KANG AVENUE 4 SINGAPORE 680449,17197.6069321847,40127.5045193676
450 CHOA CHU KANG AVENUE 4 SINGAPORE 680450,450,NIL,1.37953908953632,103.736076503187,103.736076503187,680450,CHOA CHU KANG AVENUE 4,450 CHOA CHU KANG AVENUE 4 SINGAPORE 680450,17178.1730402913,40168.1602026857
451 CHOA CHU KANG AVENUE 4 SINGAPORE 680451,451,NIL,1.38005209281397,103.735651375333,103.735651375333,680451,CHOA CHU KANG AVENUE 4,451 CHOA CHU KANG AVENUE 4 SINGAPORE 680451,17130.8639093293,40224.8875194602
452 CHOA CHU KANG AVENUE 4 SINGAPORE 680452,452,NIL,1.38031130418576,103.735332010832,103.735332010832,680452,CHOA CHU KANG AVENUE 4,452 CHOA CHU KANG AVENUE 4 SINGAPORE 680452,17095.3237876724,40253.5513000414
453 CHOA CHU KANG AVENUE 4 SINGAPORE 680453,453,NIL,1.37997802767876,103.73490597126,103.73490597126,680453,CHOA CHU KANG AVENUE 4,453 CHOA CHU KANG AVENUE 4 SINGAPORE 680453,17047.9093543952,40216.7011800483
454 CHOA CHU KANG AVENUE 4 SINGAPORE 680454,454,NIL,1.37893713397214,103.73503881658,103.73503881658,680454,CHOA CHU KANG AVENUE 4,454 CHOA CHU KANG AVENUE 4 SINGAPORE 680454,17062.6886357525,40101.6036608778
455 CHOA CHU KANG AVENUE 4 SINGAPORE 680455,455,NIL,1.37942324084484,103.735183712105,103.735183712105,680455,CHOA CHU KANG AVENUE 4,455 CHOA CHU KANG AVENUE 4 SINGAPORE 680455,17078.8159320327,40155.354303062
456 CHOA CHU KANG AVENUE 4 SINGAPORE 680456,456,NIL,1.3790217623655,103.735214746213,103.735214746213,680456,CHOA CHU KANG AVENUE 4,456 CHOA CHU KANG AVENUE 4 SINGAPORE 680456,17082.2678139675,40110.9606448282
457 CHOA CHU KANG AVENUE 4 SINGAPORE 680457,457,NIL,1.37863545271757,103.736186811602,103.736186811602,680457,CHOA CHU KANG AVENUE 4,457 CHOA CHU KANG AVENUE 4 SINGAPORE 680457,17190.4449218782,40068.2399888579
458 CHOA CHU KANG AVENUE 4 SINGAPORE 680458,458,NIL,1.37810129875023,103.73600232931,103.73600232931,680458,CHOA CHU KANG AVENUE 4,458 CHOA CHU KANG AVENUE 4 SINGAPORE 680458,17169.9119086917,40009.1767101698
459 CHOA CHU KANG AVENUE 4 SINGAPORE 680459,459,NIL,1.37818434118826,103.735126609036,103.735126609036,680459,CHOA CHU KANG AVENUE 4,459 CHOA CHU KANG AVENUE 4 SINGAPORE 680459,17072.4554179348,40018.3631340321
460 CHOA CHU KANG AVENUE 4 SINGAPORE 680460,460,NIL,1.37782264943043,103.735012354055,103.735012354055,680460,CHOA CHU KANG AVENUE 4,460 CHOA CHU KANG AVENUE 4 SINGAPORE 680460,17059.738596987,39978.3695628587
461 CHOA CHU KANG AVENUE 4 SINGAPORE 680461,461,NIL,1.37817763759625,103.734550487829,103.734550487829,680461,CHOA CHU KANG AVENUE 4,461 CHOA CHU KANG AVENUE 4 SINGAPORE 680461,17008.3402008889,40017.6245346945
462 CHOA CHU KANG AVENUE 4 SINGAPORE 680462,462,NIL,1.37751332977504,103.735227415835,103.735227415835,680462,CHOA CHU KANG AVENUE 4,462 CHOA CHU KANG AVENUE 4 SINGAPORE 680462,17083.6709166206,39944.16553054
463 CHOA CHU KANG AVENUE 4 SINGAPORE 680463,463,NIL,1.37717864078464,103.735454175075,103.735454175075,680463,CHOA CHU KANG AVENUE 4,463 CHOA CHU KANG AVENUE 4 SINGAPORE 680463,17108.9049108941,39907.1562312208
464 CHOA CHU KANG AVENUE 4 SINGAPORE 680464,464,NIL,1.37691411063327,103.735857454273,103.735857454273,680464,CHOA CHU KANG AVENUE 4,464 CHOA CHU KANG AVENUE 4 SINGAPORE 680464,17153.7837346401,39877.903950233
465 CHOA CHU KANG AVENUE 4 SINGAPORE 680465,465,NIL,1.37729601829662,103.736538815878,103.736538815878,680465,CHOA CHU KANG AVENUE 4,465 CHOA CHU KANG AVENUE 4 SINGAPORE 680465,17229.6126311151,39920.1303300299
469 CHOA CHU KANG AVENUE 3 SINGAPORE 680469,469,NIL,1.37779477244622,103.73737904885,103.73737904885,680469,CHOA CHU KANG AVENUE 3,469 CHOA CHU KANG AVENUE 3 SINGAPORE 680469,17323.1224492081,39975.2763262633
470 CHOA CHU KANG AVENUE 3 SINGAPORE 680470,470,NIL,1.37817751599485,103.737107245589,103.737107245589,680470,CHOA CHU KANG AVENUE 3,470 CHOA CHU KANG AVENUE 3 SINGAPORE 680470,17292.8758044187,40017.599442536
471 CHOA CHU KANG AVENUE 3 SINGAPORE 680471,471,NIL,1.37859282552753,103.737126374388,103.737126374388,680471,CHOA CHU KANG AVENUE 3,471 CHOA CHU KANG AVENUE 3 SINGAPORE 680471,17295.0064585963,40063.5222393069
472 CHOA CHU KANG AVENUE 3 SINGAPORE 680472,472,NIL,1.37908544061279,103.737542449427,103.737542449427,680472,CHOA CHU KANG AVENUE 3,472 CHOA CHU KANG AVENUE 3 SINGAPORE 680472,17341.3126599183,40117.9913223535
473 CHOA CHU KANG AVENUE 3 SINGAPORE 680473,473,NIL,1.37961821111761,103.738115482342,103.738115482342,680473,CHOA CHU KANG AVENUE 3,473 CHOA CHU KANG AVENUE 3 SINGAPORE 680473,17405.0864843754,40176.8999013752
474 CHOA CHU KANG AVENUE 3 SINGAPORE 680474,474,NIL,1.37856931410449,103.738475704352,103.738475704352,680474,CHOA CHU KANG AVENUE 3,474 CHOA CHU KANG AVENUE 3 SINGAPORE 680474,17445.1701028002,40060.9164383207
475 CHOA CHU KANG AVENUE 3 DBS SUNSHINE PLACE SINGAPORE 680475,475,DBS SUNSHINE PLACE,1.37789727709418,103.739015486021,103.739015486021,680475,CHOA CHU KANG AVENUE 3,DBS SUNSHINE PLACE,17505.2381877424,39986.6035138089
476 CHOA CHU KANG AVENUE 5 SUNSHINE COURT SINGAPORE 680476,476,SUNSHINE COURT,1.37693407876395,103.738130160253,103.738130160253,680476,CHOA CHU KANG AVENUE 5,SUNSHINE COURT,17406.7080916027,39880.1017085314
483 CHOA CHU KANG AVENUE 5 SINGAPORE 680483,483,NIL,1.37584148701172,103.737757429932,103.737757429932,680483,CHOA CHU KANG AVENUE 5,483 CHOA CHU KANG AVENUE 5 SINGAPORE 680483,17365.2229444599,39759.2899572495
484 CHOA CHU KANG AVENUE 5 SINGAPORE 680484,484,NIL,1.37647656461683,103.737135249373,103.737135249373,680484,CHOA CHU KANG AVENUE 5,484 CHOA CHU KANG AVENUE 5 SINGAPORE 680484,17295.9846895626,39829.5164920837
485 CHOA CHU KANG AVENUE 5 SINGAPORE 680485,485,NIL,1.37499843819864,103.737744294777,103.737744294777,680485,CHOA CHU KANG AVENUE 5,485 CHOA CHU KANG AVENUE 5 SINGAPORE 680485,17363.7574292244,39666.0698340293
486 CHOA CHU KANG AVENUE 5 SINGAPORE 680486,486,NIL,1.37544982404192,103.738349548996,103.738349548996,680486,CHOA CHU KANG AVENUE 5,486 CHOA CHU KANG AVENUE 5 SINGAPORE 680486,17431.1168293003,39715.9791664016
487 CHOA CHU KANG AVENUE 5 SUNSHINE GARDENS SINGAPORE 680487,487,SUNSHINE GARDENS,1.37628705581631,103.738815673764,103.738815673764,680487,CHOA CHU KANG AVENUE 5,SUNSHINE GARDENS,17482.9944886519,39808.5540670119
488 CHOA CHU KANG AVENUE 5 SUNSHINE GARDENS SINGAPORE 680488,488,SUNSHINE GARDENS,1.37672379608721,103.738696100619,103.738696100619,680488,CHOA CHU KANG AVENUE 5,SUNSHINE GARDENS,17469.6893791733,39856.8471798562
489 CHOA CHU KANG AVENUE 5 SUNSHINE GARDENS SINGAPORE 680489,489,SUNSHINE GARDENS,1.37559581288131,103.740932195578,103.740932195578,680489,CHOA CHU KANG AVENUE 5,SUNSHINE GARDENS,17718.5344594354,39732.1106093954
490 CHOA CHU KANG AVENUE 5 SUNSHINE GARDENS SINGAPORE 680490,490,SUNSHINE GARDENS,1.37521518161998,103.741193241888,103.741193241888,680490,CHOA CHU KANG AVENUE 5,SUNSHINE GARDENS,17747.5840962715,39690.0211619567
501 CHOA CHU KANG STREET 51 SINGAPORE 680501,501,NIL,1.38959498074238,103.74324795084,103.74324795084,680501,CHOA CHU KANG STREET 51,501 CHOA CHU KANG STREET 51 SINGAPORE 680501,17976.3084132848,41280.0595787577
502 CHOA CHU KANG STREET 51 SINGAPORE 680502,502,NIL,1.38910701991989,103.743365257042,103.743365257042,680502,CHOA CHU KANG STREET 51,502 CHOA CHU KANG STREET 51 SINGAPORE 680502,17989.3610272435,41226.1027813349
503 CHOA CHU KANG STREET 51 SINGAPORE 680503,503,NIL,1.38830517444057,103.742322678004,103.742322678004,680503,CHOA CHU KANG STREET 51,503 CHOA CHU KANG STREET 51 SINGAPORE 680503,17873.3319806056,41137.4431049544
504 CHOA CHU KANG STREET 51 SINGAPORE 680504,504,NIL,1.3891663147976,103.742676142012,103.742676142012,680504,CHOA CHU KANG STREET 51,504 CHOA CHU KANG STREET 51 SINGAPORE 680504,17912.6716422588,41232.6622468904
505 CHOA CHU KANG STREET 51 SINGAPORE 680505,505,NIL,1.38907418639043,103.742140885339,103.742140885339,680505,CHOA CHU KANG STREET 51,505 CHOA CHU KANG STREET 51 SINGAPORE 680505,17853.1040686956,41222.4774335846
506 CHOA CHU KANG STREET 51 SINGAPORE 680506,506,NIL,1.3887781628167,103.741831087827,103.741831087827,680506,CHOA CHU KANG STREET 51,506 CHOA CHU KANG STREET 51 SINGAPORE 680506,17818.6263229987,41189.7459386736
507 CHOA CHU KANG STREET 51 SINGAPORE 680507,507,NIL,1.38910481548092,103.74128676791,103.74128676791,680507,CHOA CHU KANG STREET 51,507 CHOA CHU KANG STREET 51 SINGAPORE 680507,17758.0519152246,41225.8679320496
508 CHOA CHU KANG STREET 51 SINGAPORE 680508,508,NIL,1.38836602447224,103.741643089,103.741643089,680508,CHOA CHU KANG STREET 51,508 CHOA CHU KANG STREET 51 SINGAPORE 680508,17797.702701482,41144.1745229252
509 CHOA CHU KANG STREET 51 SINGAPORE 680509,509,NIL,1.38799995768277,103.741818224223,103.741818224223,680509,CHOA CHU KANG STREET 51,509 CHOA CHU KANG STREET 51 SINGAPORE 680509,17817.1914389627,41103.6959073115
510 CHOA CHU KANG STREET 51 SINGAPORE 680510,510,NIL,1.38794756262544,103.741378171035,103.741378171035,680510,CHOA CHU KANG STREET 51,510 CHOA CHU KANG STREET 51 SINGAPORE 680510,17768.218930955,41097.9042194318
511 CHOA CHU KANG STREET 51 SINGAPORE 680511,511,NIL,1.38933738267797,103.740876076316,103.740876076316,680511,CHOA CHU KANG STREET 51,511 CHOA CHU KANG STREET 51 SINGAPORE 680511,17712.3482283866,41251.585850846
512 CHOA CHU KANG STREET 51 SINGAPORE 680512,512,NIL,1.38957559400369,103.741058409113,103.741058409113,680512,CHOA CHU KANG STREET 51,512 CHOA CHU KANG STREET 51 SINGAPORE 680512,17732.6405505668,41277.9252924211
513 CHOA CHU KANG STREET 51 SINGAPORE 680513,513,NIL,1.38976124644103,103.742482515604,103.742482515604,680513,CHOA CHU KANG STREET 51,513 CHOA CHU KANG STREET 51 SINGAPORE 680513,17891.1260439456,41298.4476815443
514 CHOA CHU KANG STREET 51 SINGAPORE 680514,514,NIL,1.3903050833703,103.74308786685,103.74308786685,680514,CHOA CHU KANG STREET 51,514 CHOA CHU KANG STREET 51 SINGAPORE 680514,17958.4961286196,41358.5799043439
515 CHOA CHU KANG STREET 51 SINGAPORE 680515,515,NIL,1.3901811717092,103.74357056159,103.74357056159,680515,CHOA CHU KANG STREET 51,515 CHOA CHU KANG STREET 51 SINGAPORE 680515,18012.2132944139,41344.8763168603
516 CHOA CHU KANG STREET 51 SINGAPORE 680516,516,NIL,1.39095082459102,103.743525075211,103.743525075211,680516,CHOA CHU KANG STREET 51,516 CHOA CHU KANG STREET 51 SINGAPORE 680516,18007.1544852238,41429.9809277505
517 CHOA CHU KANG STREET 51 SINGAPORE 680517,517,NIL,1.39107222845659,103.742897400008,103.742897400008,680517,CHOA CHU KANG STREET 51,517 CHOA CHU KANG STREET 51 SINGAPORE 680517,17937.3028799044,41443.4078355953
518 CHOA CHU KANG STREET 51 SINGAPORE 680518,518,NIL,1.39076886489636,103.742553977401,103.742553977401,680518,CHOA CHU KANG STREET 51,518 CHOA CHU KANG STREET 51 SINGAPORE 680518,17899.0831033811,41409.8648560401
523 CHOA CHU KANG STREET 51 SINGAPORE 680523,523,NIL,1.39155917752352,103.740845041672,103.740845041672,680523,CHOA CHU KANG STREET 51,523 CHOA CHU KANG STREET 51 SINGAPORE 680523,17708.9040950555,41497.2611165121
524 CHOA CHU KANG STREET 51 SINGAPORE 680524,524,NIL,1.39157862566789,103.741157853347,103.741157853347,680524,CHOA CHU KANG STREET 51,524 CHOA CHU KANG STREET 51 SINGAPORE 680524,17743.7160598282,41499.4102341607
525 CHOA CHU KANG STREET 51 SINGAPORE 680525,525,NIL,1.39150689178146,103.741538653261,103.741538653261,680525,CHOA CHU KANG STREET 51,525 CHOA CHU KANG STREET 51 SINGAPORE 680525,17786.0938400794,41491.4766021445
526 CHOA CHU KANG STREET 51 SINGAPORE 680526,526,NIL,1.39135405427241,103.74189333792,103.74189333792,680526,CHOA CHU KANG STREET 51,526 CHOA CHU KANG STREET 51 SINGAPORE 680526,17825.5649858536,41474.5750508402
527 CHOA CHU KANG STREET 51 SINGAPORE 680527,527,NIL,1.39188604126803,103.741404903499,103.741404903499,680527,CHOA CHU KANG STREET 51,527 CHOA CHU KANG STREET 51 SINGAPORE 680527,17771.21086061,41533.4016641639
528 CHOA CHU KANG STREET 51 SINGAPORE 680528,528,NIL,1.39241245545517,103.74154895979,103.74154895979,680528,CHOA CHU KANG STREET 51,528 CHOA CHU KANG STREET 51 SINGAPORE 680528,17787.2447196245,41591.6093274858
529 CHOA CHU KANG STREET 51 SINGAPORE 680529,529,NIL,1.39219218072532,103.742143506429,103.742143506429,680529,CHOA CHU KANG STREET 51,529 CHOA CHU KANG STREET 51 SINGAPORE 680529,17853.4090791671,41567.2498660665
530 CHOA CHU KANG STREET 51 SINGAPORE 680530,530,NIL,1.39268007502711,103.741839276777,103.741839276777,680530,CHOA CHU KANG STREET 51,530 CHOA CHU KANG STREET 51 SINGAPORE 680530,17819.5543696471,41621.200125603
531 CHOA CHU KANG STREET 51 SINGAPORE 680531,531,NIL,1.39289103497717,103.74153439843,103.74153439843,680531,CHOA CHU KANG STREET 51,531 CHOA CHU KANG STREET 51 SINGAPORE 680531,17785.6262905346,41644.5283568185
532 CHOA CHU KANG STREET 51 LIMBANG SHOPPING CENTRE SINGAPORE 680532,532,LIMBANG SHOPPING CENTRE,1.39222033136152,103.743611063324,103.743611063324,680532,CHOA CHU KANG STREET 51,LIMBANG SHOPPING CENTRE,18016.7291867808,41570.3563600387
533 CHOA CHU KANG STREET 51 CHERIE HEARTS HOLDINGS PTE. LTD. SINGAPORE 680533,533,CHERIE HEARTS HOLDINGS PTE. LTD.,1.39207387937105,103.743099576162,103.743099576162,680533,CHOA CHU KANG STREET 51,CHERIE HEARTS HOLDINGS PTE. LTD.,17959.8067020467,41554.1645929534
534 CHOA CHU KANG STREET 51 LIMBANG SHOPPING CENTRE SINGAPORE 680534,534,LIMBANG SHOPPING CENTRE,1.3922424057206,103.743190997915,103.743190997915,680534,CHOA CHU KANG STREET 51,LIMBANG SHOPPING CENTRE,17969.9814663809,41572.799016593
535 CHOA CHU KANG STREET 51 LIMBANG MEADOWS SINGAPORE 680535,535,LIMBANG MEADOWS,1.39133994451668,103.743931875351,103.743931875351,680535,CHOA CHU KANG STREET 51,LIMBANG MEADOWS,18052.4277007971,41473.0061704405
536 CHOA CHU KANG STREET 51 LIMBANG MEADOWS SINGAPORE 680536,536,LIMBANG MEADOWS,1.39181847386694,103.744050333747,103.744050333747,680536,CHOA CHU KANG STREET 51,LIMBANG MEADOWS,18065.6125858435,41525.9190856405
537 CHOA CHU KANG STREET 51 LIMBANG MEADOWS SINGAPORE 680537,537,LIMBANG MEADOWS,1.39214690999025,103.744076077211,103.744076077211,680537,CHOA CHU KANG STREET 51,LIMBANG MEADOWS,18068.4788730983,41562.2358232234
540 CHOA CHU KANG STREET 52 SINGAPORE 680540,540,NIL,1.39287401160154,103.743812499866,103.743812499866,680540,CHOA CHU KANG STREET 52,540 CHOA CHU KANG STREET 52 SINGAPORE 680540,18039.1491968762,41642.6362446193
541 CHOA CHU KANG STREET 52 SINGAPORE 680541,541,NIL,1.39278327502122,103.744321835531,103.744321835531,680541,CHOA CHU KANG STREET 52,541 CHOA CHU KANG STREET 52 SINGAPORE 680541,18095.831232748,41632.6008946188
542 CHOA CHU KANG STREET 52 SINGAPORE 680542,542,NIL,1.39360501825299,103.744792619365,103.744792619365,680542,CHOA CHU KANG STREET 52,542 CHOA CHU KANG STREET 52 SINGAPORE 680542,18148.2267470332,41723.463232711
543 CHOA CHU KANG STREET 52 SINGAPORE 680543,543,NIL,1.39370963092058,103.744289177124,103.744289177124,680543,CHOA CHU KANG STREET 52,543 CHOA CHU KANG STREET 52 SINGAPORE 680543,18092.2006486366,41735.0328970756
544 CHOA CHU KANG STREET 52 SINGAPORE 680544,544,NIL,1.39371737606695,103.743762503939,103.743762503939,680544,CHOA CHU KANG STREET 52,544 CHOA CHU KANG STREET 52 SINGAPORE 680544,18033.5888471948,41735.8915392365
545 CHOA CHU KANG STREET 52 SINGAPORE 680545,545,NIL,1.39348799782668,103.743397525961,103.743397525961,680545,CHOA CHU KANG STREET 52,545 CHOA CHU KANG STREET 52 SINGAPORE 680545,17992.9706053734,41710.5295719281
546 CHOA CHU KANG STREET 52 SINGAPORE 680546,546,NIL,1.39301282897146,103.743262359418,103.743262359418,680546,CHOA CHU KANG STREET 52,546 CHOA CHU KANG STREET 52 SINGAPORE 680546,17977.926327819,41657.9883173015
547 CHOA CHU KANG STREET 52 SINGAPORE 680547,547,NIL,1.39316986752422,103.742614364734,103.742614364734,680547,CHOA CHU KANG STREET 52,547 CHOA CHU KANG STREET 52 SINGAPORE 680547,17905.8136435803,41675.3556323387
548 CHOA CHU KANG STREET 52 SINGAPORE 680548,548,NIL,1.39339309874757,103.74193765951,103.74193765951,680548,CHOA CHU KANG STREET 52,548 CHOA CHU KANG STREET 52 SINGAPORE 680548,17830.5061433921,41700.0423511993
549 CHOA CHU KANG STREET 52 SINGAPORE 680549,549,NIL,1.39339017198123,103.742747108286,103.742747108286,680549,CHOA CHU KANG STREET 52,549 CHOA CHU KANG STREET 52 SINGAPORE 680549,17920.5872042887,41699.7152450979
550 CHOA CHU KANG STREET 52 SINGAPORE 680550,550,NIL,1.39401069858338,103.742692606674,103.742692606674,680550,CHOA CHU KANG STREET 52,550 CHOA CHU KANG STREET 52 SINGAPORE 680550,17914.5245271502,41768.3302519433
551 CHOA CHU KANG STREET 52 SINGAPORE 680551,551,NIL,1.39428872870193,103.743062965588,103.743062965588,680551,CHOA CHU KANG STREET 52,551 CHOA CHU KANG STREET 52 SINGAPORE 680551,17955.7418026375,41799.0718690697
552 CHOA CHU KANG STREET 52 SINGAPORE 680552,552,NIL,1.39461061740799,103.742663804267,103.742663804267,680552,CHOA CHU KANG STREET 52,552 CHOA CHU KANG STREET 52 SINGAPORE 680552,17911.321750721,41834.6664428301
553 CHOA CHU KANG NORTH 6 SINGAPORE 680553,553,NIL,1.3958713396608,103.743519194378,103.743519194378,680553,CHOA CHU KANG NORTH 6,553 CHOA CHU KANG NORTH 6 SINGAPORE 680553,18006.5207644487,41974.0672460422
554 CHOA CHU KANG NORTH 6 SINGAPORE 680554,554,NIL,1.39621153620284,103.74311302806,103.74311302806,680554,CHOA CHU KANG NORTH 6,554 CHOA CHU KANG NORTH 6 SINGAPORE 680554,17961.3212514156,42011.6862333566
555 CHOA CHU KANG NORTH 6 SINGAPORE 680555,555,NIL,1.39628678045986,103.743678368477,103.743678368477,680555,CHOA CHU KANG NORTH 6,555 CHOA CHU KANG NORTH 6 SINGAPORE 680555,18024.2364942459,42020.0039660875
556 CHOA CHU KANG NORTH 6 SINGAPORE 680556,556,NIL,1.39577216416704,103.743789183815,103.743789183815,680556,CHOA CHU KANG NORTH 6,556 CHOA CHU KANG NORTH 6 SINGAPORE 680556,18036.5666114334,41963.0997632146
557 CHOA CHU KANG NORTH 6 SINGAPORE 680557,557,NIL,1.39556990952056,103.744332777955,103.744332777955,680557,CHOA CHU KANG NORTH 6,557 CHOA CHU KANG NORTH 6 SINGAPORE 680557,18097.0606274419,41940.7331458423
558 CHOA CHU KANG NORTH 6 SINGAPORE 680558,558,NIL,1.39550937811325,103.744732855557,103.744732855557,680558,CHOA CHU KANG NORTH 6,558 CHOA CHU KANG NORTH 6 SINGAPORE 680558,18141.5837418428,41934.0382007919
559 CHOA CHU KANG NORTH 6 SINGAPORE 680559,559,NIL,1.39592454576189,103.744757449202,103.744757449202,680559,CHOA CHU KANG NORTH 6,559 CHOA CHU KANG NORTH 6 SINGAPORE 680559,18144.3224192774,41979.9452884793
560 CHOA CHU KANG NORTH 6 SINGAPORE 680560,560,NIL,1.3958254122727,103.745027325729,103.745027325729,680560,CHOA CHU KANG NORTH 6,560 CHOA CHU KANG NORTH 6 SINGAPORE 680560,18174.3557050489,41968.9824669212
561 CHOA CHU KANG NORTH 6 SINGAPORE 680561,561,NIL,1.39632645332412,103.744957171627,103.744957171627,680561,CHOA CHU KANG NORTH 6,561 CHOA CHU KANG NORTH 6 SINGAPORE 680561,18166.5505606243,42024.3854080699
562 CHOA CHU KANG STREET 52 SINGAPORE 680562,562,NIL,1.39629871036485,103.746022677229,103.746022677229,680562,CHOA CHU KANG STREET 52,562 CHOA CHU KANG STREET 52 SINGAPORE 680562,18285.12714238,42021.3132985272
563 CHOA CHU KANG STREET 52 SINGAPORE 680563,563,NIL,1.39566918442117,103.745726064367,103.745726064367,680563,CHOA CHU KANG STREET 52,563 CHOA CHU KANG STREET 52 SINGAPORE 680563,18252.1154567422,41951.7046543118
564 CHOA CHU KANG STREET 52 SINGAPORE 680564,564,NIL,1.39540526484437,103.745422901275,103.745422901275,680564,CHOA CHU KANG STREET 52,564 CHOA CHU KANG STREET 52 SINGAPORE 680564,18218.3763103839,41922.5229885299
565 CHOA CHU KANG STREET 52 SINGAPORE 680565,565,NIL,1.39490602898208,103.745309711791,103.745309711791,680565,CHOA CHU KANG STREET 52,565 CHOA CHU KANG STREET 52 SINGAPORE 680565,18205.7777464502,41867.3204214349
566 CHOA CHU KANG STREET 52 SINGAPORE 680566,566,NIL,1.39461688537766,103.745768782105,103.745768782105,680566,CHOA CHU KANG STREET 52,566 CHOA CHU KANG STREET 52 SINGAPORE 680566,18256.8650482111,41835.3464433514
567 CHOA CHU KANG STREET 52 SINGAPORE 680567,567,NIL,1.39513213569157,103.745875286592,103.745875286592,680567,CHOA CHU KANG STREET 52,567 CHOA CHU KANG STREET 52 SINGAPORE 680567,18268.71971591,41892.3198388349
568 CHOA CHU KANG STREET 52 SINGAPORE 680568,568,NIL,1.39567028728554,103.746282767188,103.746282767188,680568,CHOA CHU KANG STREET 52,568 CHOA CHU KANG STREET 52 SINGAPORE 680568,18314.0691462662,41951.8243036512
569 CHOA CHU KANG STREET 52 SINGAPORE 680569,569,NIL,1.39608478870921,103.746374587961,103.746374587961,680569,CHOA CHU KANG STREET 52,569 CHOA CHU KANG STREET 52 SINGAPORE 680569,18324.289282308,41997.6574466564
570 CHOA CHU KANG STREET 52 LIMBANG GREEN SINGAPORE 680570,570,LIMBANG GREEN,1.39420126519282,103.744465180235,103.744465180235,680570,CHOA CHU KANG STREET 52,LIMBANG GREEN,18111.7895428753,41789.3946498521
571 CHOA CHU KANG STREET 52 LIMBANG GREEN SINGAPORE 680571,571,LIMBANG GREEN,1.39395095192101,103.744927626518,103.744927626518,680571,CHOA CHU KANG STREET 52,LIMBANG GREEN,18163.2527124584,41761.7143063303
572 CHOA CHU KANG STREET 52 LIMBANG GREEN SINGAPORE 680572,572,LIMBANG GREEN,1.39371762095466,103.745303811777,103.745303811777,680572,CHOA CHU KANG STREET 52,LIMBANG GREEN,18205.116239666,41735.9121517334
573 CHOA CHU KANG STREET 52 LIMBANG GREEN SINGAPORE 680573,573,LIMBANG GREEN,1.39441682553354,103.745432631111,103.745432631111,680573,CHOA CHU KANG STREET 52,LIMBANG GREEN,18219.455031056,41813.2262073662
574 CHOA CHU KANG STREET 52 LIMBANG GREEN SINGAPORE 680574,574,LIMBANG GREEN,1.39441490205275,103.745142689272,103.745142689272,680574,CHOA CHU KANG STREET 52,LIMBANG GREEN,18187.1883010343,41813.0147249643
601 CHOA CHU KANG STREET 62 SINGAPORE 680601,601,NIL,1.39693363078609,103.744921736632,103.744921736632,680601,CHOA CHU KANG STREET 62,601 CHOA CHU KANG STREET 62 SINGAPORE 680601,18162.6096388763,42091.5242453478
602 CHOA CHU KANG STREET 62 SINGAPORE 680602,602,NIL,1.39724418317226,103.744501292642,103.744501292642,680602,CHOA CHU KANG STREET 62,602 CHOA CHU KANG STREET 62 SINGAPORE 680602,18115.8210869664,42125.8653613664
603 CHOA CHU KANG STREET 62 SINGAPORE 680603,603,NIL,1.39787825146928,103.744363385914,103.744363385914,680603,CHOA CHU KANG STREET 62,603 CHOA CHU KANG STREET 62 SINGAPORE 680603,18100.4765510131,42195.9780885819
604 CHOA CHU KANG STREET 62 SINGAPORE 680604,604,NIL,1.39817542038448,103.744673993982,103.744673993982,680604,CHOA CHU KANG STREET 62,604 CHOA CHU KANG STREET 62 SINGAPORE 680604,18135.0443439605,42228.8362550046
605 CHOA CHU KANG STREET 62 SINGAPORE 680605,605,NIL,1.39810611730232,103.743555918749,103.743555918749,680605,CHOA CHU KANG STREET 62,605 CHOA CHU KANG STREET 62 SINGAPORE 680605,18010.6171425609,42221.177789228
606 CHOA CHU KANG STREET 62 SINGAPORE 680606,606,NIL,1.39843572591709,103.743819552032,103.743819552032,680606,CHOA CHU KANG STREET 62,606 CHOA CHU KANG STREET 62 SINGAPORE 680606,18039.9574125772,42257.6231657434
607 CHOA CHU KANG STREET 62 SINGAPORE 680607,607,NIL,1.39901658579842,103.744182210841,103.744182210841,680607,CHOA CHU KANG STREET 62,607 CHOA CHU KANG STREET 62 SINGAPORE 680607,18080.3189516282,42321.850253256
608 CHOA CHU KANG STREET 62 SINGAPORE 680608,608,NIL,1.39846759912749,103.744645761889,103.744645761889,680608,CHOA CHU KANG STREET 62,608 CHOA CHU KANG STREET 62 SINGAPORE 680608,18131.9037077026,42261.1440586802
609 CHOA CHU KANG STREET 62 SINGAPORE 680609,609,NIL,1.39929966313489,103.744719393752,103.744719393752,680609,CHOA CHU KANG STREET 62,609 CHOA CHU KANG STREET 62 SINGAPORE 680609,18140.1014278764,42353.1492855698
610 CHOA CHU KANG STREET 62 SINGAPORE 680610,610,NIL,1.39942410073335,103.743786296577,103.743786296577,680610,CHOA CHU KANG STREET 62,610 CHOA CHU KANG STREET 62 SINGAPORE 680610,18036.2606929215,42366.9129247349
611 CHOA CHU KANG STREET 62 SINGAPORE 680611,611,NIL,1.39974204768206,103.743861775626,103.743861775626,680611,CHOA CHU KANG STREET 62,611 CHOA CHU KANG STREET 62 SINGAPORE 680611,18044.6618442144,42402.0696115736
612 CHOA CHU KANG STREET 62 SINGAPORE 680612,612,NIL,1.40000866051722,103.744352713589,103.744352713589,680612,CHOA CHU KANG STREET 62,612 CHOA CHU KANG STREET 62 SINGAPORE 680612,18099.297794655,42431.5482668113
613 CHOA CHU KANG STREET 62 SINGAPORE 680613,613,NIL,1.40063924818019,103.744405825635,103.744405825635,680613,CHOA CHU KANG STREET 62,613 CHOA CHU KANG STREET 62 SINGAPORE 680613,18105.211099294,42501.275319377
614 CHOA CHU KANG STREET 62 SINGAPORE 680614,614,NIL,1.40106749729864,103.744024958299,103.744024958299,680614,CHOA CHU KANG STREET 62,614 CHOA CHU KANG STREET 62 SINGAPORE 680614,18062.827477322,42548.630609015
615 CHOA CHU KANG STREET 62 SINGAPORE 680615,615,NIL,1.40089907208214,103.744889705072,103.744889705072,680615,CHOA CHU KANG STREET 62,615 CHOA CHU KANG STREET 62 SINGAPORE 680615,18159.0614744844,42530.0033286195
616 CHOA CHU KANG STREET 62 SINGAPORE 680616,616,NIL,1.39959239449991,103.744711678054,103.744711678054,680616,CHOA CHU KANG STREET 62,616 CHOA CHU KANG STREET 62 SINGAPORE 680616,18139.2439964339,42385.5181095023
617 CHOA CHU KANG NORTH 7 SINGAPORE 680617,617,NIL,1.40047053163504,103.746343470361,103.746343470361,680617,CHOA CHU KANG NORTH 7,617 CHOA CHU KANG NORTH 7 SINGAPORE 680617,18320.8442712054,42482.6113844533
618 CHOA CHU KANG NORTH 7 SINGAPORE 680618,618,NIL,1.4003500962761,103.746992957921,103.746992957921,680618,CHOA CHU KANG NORTH 7,618 CHOA CHU KANG NORTH 7 SINGAPORE 680618,18393.1230358714,42469.2915647347
619 CHOA CHU KANG NORTH 7 SINGAPORE 680619,619,NIL,1.40025308306096,103.74757923589,103.74757923589,680619,CHOA CHU KANG NORTH 7,619 CHOA CHU KANG NORTH 7 SINGAPORE 680619,18458.3675211202,42458.5619277228
620 CHOA CHU KANG STREET 62 SINGAPORE 680620,620,NIL,1.39957666181485,103.747100331609,103.747100331609,680620,CHOA CHU KANG STREET 62,620 CHOA CHU KANG STREET 62 SINGAPORE 680620,18405.0691431481,42383.7685595062
621 CHOA CHU KANG STREET 62 SINGAPORE 680621,621,NIL,1.39914640891261,103.747205206781,103.747205206781,680621,CHOA CHU KANG STREET 62,621 CHOA CHU KANG STREET 62 SINGAPORE 680621,18416.738601055,42336.1928886808
622 CHOA CHU KANG STREET 62 MARKET SINGAPORE 680622,622,MARKET,1.39827719583769,103.74718245127,103.74718245127,680622,CHOA CHU KANG STREET 62,MARKET,18414.202688843,42240.0796910413
623 CHOA CHU KANG STREET 62 YEW TEE SQUARE SINGAPORE 680623,623,YEW TEE SQUARE,1.39826041847499,103.74733011339,103.74733011339,680623,CHOA CHU KANG STREET 62,YEW TEE SQUARE,18430.6354496153,42238.2239306904
624 CHOA CHU KANG STREET 62 OCBC YEW TEE SQAURE SINGAPORE 680624,624,OCBC YEW TEE SQAURE,1.3977814000738,103.74697404926,103.74697404926,680624,CHOA CHU KANG STREET 62,OCBC YEW TEE SQAURE,18391.0083026523,42185.2578951791
625 CHOA CHU KANG STREET 62 SINGAPORE 680625,625,NIL,1.39863065232743,103.746034051085,103.746034051085,680625,CHOA CHU KANG STREET 62,625 CHOA CHU KANG STREET 62 SINGAPORE 680625,18286.4024838731,42279.1678862851
626 CHOA CHU KANG STREET 62 SINGAPORE 680626,626,NIL,1.39832082870875,103.745878081637,103.745878081637,680626,CHOA CHU KANG STREET 62,626 CHOA CHU KANG STREET 62 SINGAPORE 680626,18269.0438860152,42244.9097650778
627 CHOA CHU KANG STREET 62 SINGAPORE 680627,627,NIL,1.39793012120062,103.746086127522,103.746086127522,680627,CHOA CHU KANG STREET 62,627 CHOA CHU KANG STREET 62 SINGAPORE 680627,18292.1950192573,42201.7063953038
631 CHOA CHU KANG NORTH 6 SINGAPORE 680631,631,NIL,1.39660961102945,103.748105174635,103.748105174635,680631,CHOA CHU KANG NORTH 6,631 CHOA CHU KANG NORTH 6 SINGAPORE 680631,18516.88282823,42055.6826545727
632 CHOA CHU KANG NORTH 6 SINGAPORE 680632,632,NIL,1.39669111215807,103.748579728146,103.748579728146,680632,CHOA CHU KANG NORTH 6,632 CHOA CHU KANG NORTH 6 SINGAPORE 680632,18569.6946786316,42064.6927371621
633 CHOA CHU KANG NORTH 6 SINGAPORE 680633,633,NIL,1.39669074814578,103.749255216403,103.749255216403,680633,CHOA CHU KANG NORTH 6,633 CHOA CHU KANG NORTH 6 SINGAPORE 680633,18644.8675770964,42064.6497868933
634 CHOA CHU KANG NORTH 6 SINGAPORE 680634,634,NIL,1.39660911377874,103.749729373216,103.749729373216,680634,CHOA CHU KANG NORTH 6,634 CHOA CHU KANG NORTH 6 SINGAPORE 680634,18697.6346308822,42055.6211802978
635 CHOA CHU KANG NORTH 6 SINGAPORE 680635,635,NIL,1.39737094150025,103.749602912203,103.749602912203,680635,CHOA CHU KANG NORTH 6,635 CHOA CHU KANG NORTH 6 SINGAPORE 680635,18683.5641954355,42139.8608230166
636 CHOA CHU KANG NORTH 6 SINGAPORE 680636,636,NIL,1.39727775331581,103.748932039354,103.748932039354,680636,CHOA CHU KANG NORTH 6,636 CHOA CHU KANG NORTH 6 SINGAPORE 680636,18608.9045814388,42129.5592055637
637 CHOA CHU KANG NORTH 6 SINGAPORE 680637,637,NIL,1.3973795253429,103.748139020342,103.748139020342,680637,CHOA CHU KANG NORTH 6,637 CHOA CHU KANG NORTH 6 SINGAPORE 680637,18520.6524937265,42140.8158384394
638 CHOA CHU KANG STREET 64 SINGAPORE 680638,638,NIL,1.39780651380058,103.748372512668,103.748372512668,680638,CHOA CHU KANG STREET 64,638 CHOA CHU KANG STREET 64 SINGAPORE 680638,18546.6387987351,42188.029171234
639 CHOA CHU KANG STREET 64 SINGAPORE 680639,639,NIL,1.39782195310177,103.748998032412,103.748998032412,680639,CHOA CHU KANG STREET 64,639 CHOA CHU KANG STREET 64 SINGAPORE 680639,18616.2508934988,42189.7338640764
640 CHOA CHU KANG STREET 64 SINGAPORE 680640,640,NIL,1.39780253841646,103.749623257764,103.749623257764,680640,CHOA CHU KANG STREET 64,640 CHOA CHU KANG STREET 64 SINGAPORE 680640,18685.8300869651,42187.5845950879
641 CHOA CHU KANG STREET 64 SINGAPORE 680641,641,NIL,1.39830454666217,103.749817817326,103.749817817326,680641,CHOA CHU KANG STREET 64,641 CHOA CHU KANG STREET 64 SINGAPORE 680641,18707.4839538559,42243.0934136435
642 CHOA CHU KANG STREET 64 SINGAPORE 680642,642,NIL,1.39839626401986,103.749200958426,103.749200958426,680642,CHOA CHU KANG STREET 64,642 CHOA CHU KANG STREET 64 SINGAPORE 680642,18638.8361365171,42253.2375165094
643 CHOA CHU KANG STREET 64 SINGAPORE 680643,643,NIL,1.39856129024064,103.748604386179,103.748604386179,680643,CHOA CHU KANG STREET 64,643 CHOA CHU KANG STREET 64 SINGAPORE 680643,18572.4462502282,42271.4876880962
656 CHOA CHU KANG CRESCENT SINGAPORE 680656,656,NIL,1.40021628497652,103.750393021939,103.750393021939,680656,CHOA CHU KANG CRESCENT,656 CHOA CHU KANG CRESCENT SINGAPORE 680656,18771.5040386282,42454.4817127138
657 CHOA CHU KANG CRESCENT SINGAPORE 680657,657,NIL,1.40044599472035,103.749872437775,103.749872437775,680657,CHOA CHU KANG CRESCENT,657 CHOA CHU KANG CRESCENT SINGAPORE 680657,18713.5709059173,42479.8839364406
658 CHOA CHU KANG CRESCENT SINGAPORE 680658,658,NIL,1.40075418778953,103.749259984055,103.749259984055,680658,CHOA CHU KANG CRESCENT,658 CHOA CHU KANG CRESCENT SINGAPORE 680658,18645.4142471505,42513.9648386035
659 CHOA CHU KANG CRESCENT SINGAPORE 680659,659,NIL,1.40124273911529,103.749394179356,103.749394179356,680659,CHOA CHU KANG CRESCENT,659 CHOA CHU KANG CRESCENT SINGAPORE 680659,18660.3503166633,42567.9858949557
660 CHOA CHU KANG CRESCENT SINGAPORE 680660,660,NIL,1.40102235751598,103.749862447053,103.749862447053,680660,CHOA CHU KANG CRESCENT,660 CHOA CHU KANG CRESCENT SINGAPORE 680660,18712.4613421708,42543.6153251845
661 CHOA CHU KANG CRESCENT SINGAPORE 680661,661,NIL,1.40082816093623,103.75056549927,103.75056549927,680661,CHOA CHU KANG CRESCENT,661 CHOA CHU KANG CRESCENT SINGAPORE 680661,18790.7008414054,42522.1392524298
662 CHOA CHU KANG CRESCENT SINGAPORE 680662,662,NIL,1.40147482251423,103.750791419199,103.750791419199,680662,CHOA CHU KANG CRESCENT,662 CHOA CHU KANG CRESCENT SINGAPORE 680662,18815.8452121792,42593.643005373
663 CHOA CHU KANG CRESCENT SINGAPORE 680663,663,NIL,1.40198475097106,103.750788391041,103.750788391041,680663,CHOA CHU KANG CRESCENT,663 CHOA CHU KANG CRESCENT SINGAPORE 680663,18815.510206135,42650.0283847358
664 CHOA CHU KANG CRESCENT SINGAPORE 680664,664,NIL,1.40229618504156,103.750438456359,103.750438456359,680664,CHOA CHU KANG CRESCENT,664 CHOA CHU KANG CRESCENT SINGAPORE 680664,18776.5684171282,42684.466600446
665 CHOA CHU KANG CRESCENT SINGAPORE 680665,665,NIL,1.40199745834198,103.750078423488,103.750078423488,680665,CHOA CHU KANG CRESCENT,665 CHOA CHU KANG CRESCENT SINGAPORE 680665,18736.5004472509,42651.4362999983
666 CHOA CHU KANG CRESCENT SINGAPORE 680666,666,NIL,1.40243944111659,103.749920631876,103.749920631876,680666,CHOA CHU KANG CRESCENT,666 CHOA CHU KANG CRESCENT SINGAPORE 680666,18718.9421109678,42700.3091960717
667 CHOA CHU KANG CRESCENT SINGAPORE 680667,667,NIL,1.40258973962651,103.749629714805,103.749629714805,680667,CHOA CHU KANG CRESCENT,667 CHOA CHU KANG CRESCENT SINGAPORE 680667,18686.5675663883,42716.9296183418
668 CHOA CHU KANG CRESCENT SINGAPORE 680668,668,NIL,1.40174073824515,103.749496155327,103.749496155327,680668,CHOA CHU KANG CRESCENT,668 CHOA CHU KANG CRESCENT SINGAPORE 680668,18671.7008408252,42623.0517718364
669 CHOA CHU KANG CRESCENT SINGAPORE 680669,669,NIL,1.40292361646725,103.748268655447,103.748268655447,680669,CHOA CHU KANG CRESCENT,669 CHOA CHU KANG CRESCENT SINGAPORE 680669,18535.101400042,42753.8535316791
670 CHOA CHU KANG CRESCENT SINGAPORE 680670,670,NIL,1.40297792988038,103.747753040275,103.747753040275,680670,CHOA CHU KANG CRESCENT,670 CHOA CHU KANG CRESCENT SINGAPORE 680670,18477.7206277652,42759.8613329623
671 CHOA CHU KANG CRESCENT SINGAPORE 680671,671,NIL,1.4025550181861,103.748021726542,103.748021726542,680671,CHOA CHU KANG CRESCENT,671 CHOA CHU KANG CRESCENT SINGAPORE 680671,18507.6200685129,42713.0967532955
672 CHOA CHU KANG CRESCENT SINGAPORE 680672,672,NIL,1.40215166474802,103.747495879547,103.747495879547,680672,CHOA CHU KANG CRESCENT,672 CHOA CHU KANG CRESCENT SINGAPORE 680672,18449.0987683432,42668.4980597403
673 CHOA CHU KANG CRESCENT SINGAPORE 680673,673,NIL,1.40132802512812,103.748136094413,103.748136094413,680673,CHOA CHU KANG CRESCENT,673 CHOA CHU KANG CRESCENT SINGAPORE 680673,18520.3427311806,42577.4214545917
674 CHOA CHU KANG CRESCENT SINGAPORE 680674,674,NIL,1.40155376414482,103.746994051833,103.746994051833,680674,CHOA CHU KANG CRESCENT,674 CHOA CHU KANG CRESCENT SINGAPORE 680674,18393.2496771151,42602.387213992
675 CHOA CHU KANG CRESCENT SINGAPORE 680675,675,NIL,1.40134655668703,103.745990615944,103.745990615944,680675,CHOA CHU KANG CRESCENT,675 CHOA CHU KANG CRESCENT SINGAPORE 680675,18281.5799162956,42579.4793748036
676 CHOA CHU KANG CRESCENT SINGAPORE 680676,676,NIL,1.40191629081901,103.746188263266,103.746188263266,680676,CHOA CHU KANG CRESCENT,676 CHOA CHU KANG CRESCENT SINGAPORE 680676,18303.5777485538,42642.4769465495
677 CHOA CHU KANG CRESCENT SINGAPORE 680677,677,NIL,1.40151021475963,103.745481871107,103.745481871107,680677,CHOA CHU KANG CRESCENT,677 CHOA CHU KANG CRESCENT SINGAPORE 680677,18224.9641370401,42597.5779945962
678 CHOA CHU KANG CRESCENT SINGAPORE 680678,678,NIL,1.40171070184602,103.744092652395,103.744092652395,680678,CHOA CHU KANG CRESCENT,678 CHOA CHU KANG CRESCENT SINGAPORE 680678,18070.3636301756,42619.7527129501
679 CHOA CHU KANG CRESCENT SINGAPORE 680679,679,NIL,1.40262029061291,103.744715544736,103.744715544736,680679,CHOA CHU KANG CRESCENT,679 CHOA CHU KANG CRESCENT SINGAPORE 680679,18139.686968375,42720.3279259466
680 CHOA CHU KANG CRESCENT SINGAPORE 680680,680,NIL,1.40333610825505,103.745131655848,103.745131655848,680680,CHOA CHU KANG CRESCENT,680 CHOA CHU KANG CRESCENT SINGAPORE 680680,18185.9974980187,42799.4777650591
681 CHOA CHU KANG CRESCENT SINGAPORE 680681,681,NIL,1.40304334411889,103.74558981715,103.74558981715,680681,CHOA CHU KANG CRESCENT,681 CHOA CHU KANG CRESCENT SINGAPORE 680681,18236.9834323023,42767.1034323554
682 CHOA CHU KANG CRESCENT SINGAPORE 680682,682,NIL,1.4025105391984,103.745291155566,103.745291155566,680682,CHOA CHU KANG CRESCENT,682 CHOA CHU KANG CRESCENT SINGAPORE 680682,18203.7442222321,42708.1897380445
683 CHOA CHU KANG CRESCENT SINGAPORE 680683,683,NIL,1.40430685154581,103.745854267021,103.745854267021,680683,CHOA CHU KANG CRESCENT,683 CHOA CHU KANG CRESCENT SINGAPORE 680683,18266.4183503045,42906.8147548139
684 CHOA CHU KANG CRESCENT SINGAPORE 680684,684,NIL,1.40414426672121,103.746413790229,103.746413790229,680684,CHOA CHU KANG CRESCENT,684 CHOA CHU KANG CRESCENT SINGAPORE 680684,18328.6850107796,42888.8346039094
685 CHOA CHU KANG CRESCENT SINGAPORE 680685,685,NIL,1.40407879996278,103.748013933151,103.748013933151,680685,CHOA CHU KANG CRESCENT,685 CHOA CHU KANG CRESCENT SINGAPORE 680685,18506.7589141084,42881.589053968
686 CHOA CHU KANG CRESCENT SINGAPORE 680686,686,NIL,1.40407738847088,103.748902116777,103.748902116777,680686,CHOA CHU KANG CRESCENT,686 CHOA CHU KANG CRESCENT SINGAPORE 680686,18605.6016785195,42881.4293903541
687 CHOA CHU KANG DRIVE SINGAPORE 680687,687,NIL,1.40384695607459,103.749878668123,103.749878668123,680687,CHOA CHU KANG DRIVE,687 CHOA CHU KANG DRIVE SINGAPORE 680687,18714.2776633371,42855.9454128016
688 CHOA CHU KANG DRIVE SINGAPORE 680688,688,NIL,1.40372549749755,103.750531245446,103.750531245446,680688,CHOA CHU KANG DRIVE,688 CHOA CHU KANG DRIVE SINGAPORE 680688,18786.9001814937,42842.512542164
689 CHOA CHU KANG CRESCENT SINGAPORE 680689,689,NIL,1.40270911511587,103.751124431989,103.751124431989,680689,CHOA CHU KANG CRESCENT,689 CHOA CHU KANG CRESCENT SINGAPORE 680689,18852.9098413717,42730.1236745883
690 CHOA CHU KANG CRESCENT SINGAPORE 680690,690,NIL,1.40295563453983,103.752052773818,103.752052773818,680690,CHOA CHU KANG CRESCENT,690 CHOA CHU KANG CRESCENT SINGAPORE 680690,18956.2226724224,42757.3789648153
691 CHOA CHU KANG CRESCENT SINGAPORE 680691,691,NIL,1.40089645414753,103.751486213569,103.751486213569,680691,CHOA CHU KANG CRESCENT,691 CHOA CHU KANG CRESCENT SINGAPORE 680691,18893.1642317614,42529.68717953
692 CHOA CHU KANG CRESCENT SINGAPORE 680692,692,NIL,1.39978928047539,103.751316134409,103.751316134409,680692,CHOA CHU KANG CRESCENT,692 CHOA CHU KANG CRESCENT SINGAPORE 680692,18874.2324251812,42407.2620539125
701 CHOA CHU KANG STREET 53 SINGAPORE 680701,701,NIL,1.39165394542409,103.746220667925,103.746220667925,680701,CHOA CHU KANG STREET 53,701 CHOA CHU KANG STREET 53 SINGAPORE 680701,18307.1418944411,41507.7173125595
702 CHOA CHU KANG STREET 53 SINGAPORE 680702,702,NIL,1.39179994537682,103.745621182307,103.745621182307,680702,CHOA CHU KANG STREET 53,702 CHOA CHU KANG STREET 53 SINGAPORE 680702,18240.4275353663,41523.8637382053
703 CHOA CHU KANG STREET 53 SINGAPORE 680703,703,NIL,1.3913176745554,103.745930761025,103.745930761025,680703,CHOA CHU KANG STREET 53,703 CHOA CHU KANG STREET 53 SINGAPORE 680703,18274.8776463931,41470.5353343934
704 CHOA CHU KANG STREET 53 SINGAPORE 680704,704,NIL,1.39045874428793,103.745719464356,103.745719464356,680704,CHOA CHU KANG STREET 53,704 CHOA CHU KANG STREET 53 SINGAPORE 680704,18251.359544117,41375.55994053
705 CHOA CHU KANG STREET 53 SINGAPORE 680705,705,NIL,1.39036325274643,103.746124351793,103.746124351793,680705,CHOA CHU KANG STREET 53,705 CHOA CHU KANG STREET 53 SINGAPORE 680705,18296.4178872742,41364.999289671
706 CHOA CHU KANG STREET 53 SINGAPORE 680706,706,NIL,1.39036832173941,103.746864334257,103.746864334257,680706,CHOA CHU KANG STREET 53,706 CHOA CHU KANG STREET 53 SINGAPORE 680706,18378.7683840571,41365.5567653961
707 CHOA CHU KANG STREET 53 SINGAPORE 680707,707,NIL,1.39061452032511,103.747155528207,103.747155528207,680707,CHOA CHU KANG STREET 53,707 CHOA CHU KANG STREET 53 SINGAPORE 680707,18411.175496988,41392.7790029831
708 CHOA CHU KANG STREET 53 SINGAPORE 680708,708,NIL,1.39165031368934,103.746875282707,103.746875282707,680708,CHOA CHU KANG STREET 53,708 CHOA CHU KANG STREET 53 SINGAPORE 680708,18379.991997567,41507.3130533695
751 CHOA CHU KANG NORTH 5 SINGAPORE 680751,751,NIL,1.39246581726118,103.747906889864,103.747906889864,680751,CHOA CHU KANG NORTH 5,751 CHOA CHU KANG NORTH 5 SINGAPORE 680751,18494.7997310618,41597.483223211
752 CHOA CHU KANG NORTH 5 SINGAPORE 680752,752,NIL,1.39227305010242,103.747425149246,103.747425149246,680752,CHOA CHU KANG NORTH 5,752 CHOA CHU KANG NORTH 5 SINGAPORE 680752,18441.187504367,41576.1699316725
753 CHOA CHU KANG NORTH 5 SINGAPORE 680753,753,NIL,1.39234090627859,103.746943594779,103.746943594779,680753,CHOA CHU KANG NORTH 5,753 CHOA CHU KANG NORTH 5 SINGAPORE 680753,18387.5970403515,41583.6750901099
754 CHOA CHU KANG NORTH 5 SINGAPORE 680754,754,NIL,1.39229841178671,103.746603051441,103.746603051441,680754,CHOA CHU KANG NORTH 5,754 CHOA CHU KANG NORTH 5 SINGAPORE 680754,18349.6988308867,41578.9776503779
755 CHOA CHU KANG NORTH 5 SINGAPORE 680755,755,NIL,1.39236668753259,103.745984804269,103.745984804269,680755,CHOA CHU KANG NORTH 5,755 CHOA CHU KANG NORTH 5 SINGAPORE 680755,18280.8962533474,41586.529784726
756 CHOA CHU KANG NORTH 5 SINGAPORE 680756,756,NIL,1.39248775672758,103.745678714678,103.745678714678,680756,CHOA CHU KANG NORTH 5,756 CHOA CHU KANG NORTH 5 SINGAPORE 680756,18246.8329671519,41599.9182824995
757 CHOA CHU KANG NORTH 5 SINGAPORE 680757,757,NIL,1.39284801770148,103.74591415814,103.74591415814,680757,CHOA CHU KANG NORTH 5,757 CHOA CHU KANG NORTH 5 SINGAPORE 680757,18273.0362330675,41639.7531889025
758 CHOA CHU KANG NORTH 5 SINGAPORE 680758,758,NIL,1.39317151524526,103.746133684219,103.746133684219,680758,CHOA CHU KANG NORTH 5,758 CHOA CHU KANG NORTH 5 SINGAPORE 680758,18297.4679441648,41675.5230445564
759 CHOA CHU KANG NORTH 5 SINGAPORE 680759,759,NIL,1.3932185910197,103.74674083544,103.74674083544,680759,CHOA CHU KANG NORTH 5,759 CHOA CHU KANG NORTH 5 SINGAPORE 680759,18365.036132792,41680.7259596176
760 CHOA CHU KANG NORTH 5 SINGAPORE 680760,760,NIL,1.39302712654645,103.747272500906,103.747272500906,680760,CHOA CHU KANG NORTH 5,760 CHOA CHU KANG NORTH 5 SINGAPORE 680760,18424.2027766434,41659.5525969677
761 CHOA CHU KANG NORTH 5 SINGAPORE 680761,761,NIL,1.39307788437251,103.747844853058,103.747844853058,680761,CHOA CHU KANG NORTH 5,761 CHOA CHU KANG NORTH 5 SINGAPORE 680761,18487.8982978268,41665.1628282852
762 CHOA CHU KANG NORTH 5 SINGAPORE 680762,762,NIL,1.39239491035955,103.748636494203,103.748636494203,680762,CHOA CHU KANG NORTH 5,762 CHOA CHU KANG NORTH 5 SINGAPORE 680762,18575.9948989069,41589.6397595182
763 CHOA CHU KANG NORTH 5 SINGAPORE 680763,763,NIL,1.3928485364107,103.748557165772,103.748557165772,680763,CHOA CHU KANG NORTH 5,763 CHOA CHU KANG NORTH 5 SINGAPORE 680763,18567.1684824433,41639.7998015974
764 CHOA CHU KANG NORTH 5 SINGAPORE 680764,764,NIL,1.39318129660748,103.74913495353,103.74913495353,680764,CHOA CHU KANG NORTH 5,764 CHOA CHU KANG NORTH 5 SINGAPORE 680764,18631.4700291958,41676.5924729574
765 CHOA CHU KANG NORTH 5 SINGAPORE 680765,765,NIL,1.39272346157669,103.749748275147,103.749748275147,680765,CHOA CHU KANG NORTH 5,765 CHOA CHU KANG NORTH 5 SINGAPORE 680765,18699.7229098827,41625.9649116006
766 CHOA CHU KANG NORTH 5 SINGAPORE 680766,766,NIL,1.39359497879484,103.749696232859,103.749696232859,680766,CHOA CHU KANG NORTH 5,766 CHOA CHU KANG NORTH 5 SINGAPORE 680766,18693.9347028211,41722.3331775386
767 CHOA CHU KANG STREET 54 SINGAPORE 680767,767,NIL,1.39381403543098,103.749398690897,103.749398690897,680767,CHOA CHU KANG STREET 54,767 CHOA CHU KANG STREET 54 SINGAPORE 680767,18660.8230420332,41746.5565541033
768 CHOA CHU KANG STREET 54 SINGAPORE 680768,768,NIL,1.39412652775516,103.749961592812,103.749961592812,680768,CHOA CHU KANG STREET 54,768 CHOA CHU KANG STREET 54 SINGAPORE 680768,18723.4678706974,41781.1081839483
769 CHOA CHU KANG STREET 54 SINGAPORE 680769,769,NIL,1.39420918139982,103.750535413456,103.750535413456,680769,CHOA CHU KANG STREET 54,769 CHOA CHU KANG STREET 54 SINGAPORE 680769,18787.3268995285,41790.2453618012
770 CHOA CHU KANG STREET 54 SINGAPORE 680770,770,NIL,1.39483873062804,103.750352449501,103.750352449501,680770,CHOA CHU KANG STREET 54,770 CHOA CHU KANG STREET 54 SINGAPORE 680770,18766.9678667123,41859.8585159443
771 CHOA CHU KANG STREET 54 SINGAPORE 680771,771,NIL,1.39426765794686,103.749319274696,103.749319274696,680771,CHOA CHU KANG STREET 54,771 CHOA CHU KANG STREET 54 SINGAPORE 680771,18651.9868490109,41796.7162027005
784 CHOA CHU KANG DRIVE SINGAPORE 680784,784,NIL,1.3947072213297,103.747269527804,103.747269527804,680784,CHOA CHU KANG DRIVE,784 CHOA CHU KANG DRIVE SINGAPORE 680784,18423.8786973422,41845.3291875981
785 CHOA CHU KANG DRIVE SINGAPORE 680785,785,NIL,1.39485524508122,103.748044130582,103.748044130582,680785,CHOA CHU KANG DRIVE,785 CHOA CHU KANG DRIVE SINGAPORE 680785,18510.0823992565,41861.6937848702
786 CHOA CHU KANG DRIVE SINGAPORE 680786,786,NIL,1.39508340781996,103.748349077227,103.748349077227,680786,CHOA CHU KANG DRIVE,786 CHOA CHU KANG DRIVE SINGAPORE 680786,18544.0198614439,41886.921665011
787A CHOA CHU KANG DRIVE MULTI STOREY CAR PARK SINGAPORE 680787,787A,MULTI STOREY CAR PARK,1.39524038527168,103.747698862033,103.747698862033,680787,CHOA CHU KANG DRIVE,MULTI STOREY CAR PARK,18471.6600996535,41904.2820789479
788 CHOA CHU KANG NORTH 6 SINGAPORE 680788,788,NIL,1.39579180989479,103.748287590175,103.748287590175,680788,CHOA CHU KANG NORTH 6,788 CHOA CHU KANG NORTH 6 SINGAPORE 680788,18537.1799932877,41965.2535118628
789 CHOA CHU KANG NORTH 6 SINGAPORE 680789,789,NIL,1.39587445047224,103.749162518106,103.749162518106,680789,CHOA CHU KANG NORTH 6,789 CHOA CHU KANG NORTH 6 SINGAPORE 680789,18634.5482528722,41974.3879958652
790 CHOA CHU KANG NORTH 6 SINGAPORE 680790,790,NIL,1.39593012616265,103.749730898271,103.749730898271,680790,CHOA CHU KANG NORTH 6,790 CHOA CHU KANG NORTH 6 SINGAPORE 680790,18697.801679885,41980.5420823153
791 CHOA CHU KANG NORTH 6 SINGAPORE 680791,791,NIL,1.39556435453546,103.749987137326,103.749987137326,680791,CHOA CHU KANG NORTH 6,791 CHOA CHU KANG NORTH 6 SINGAPORE 680791,18726.3162695728,41940.0958534461
792 CHOA CHU KANG NORTH 6 SINGAPORE 680792,792,NIL,1.39516601250141,103.749224044069,103.749224044069,680792,CHOA CHU KANG NORTH 6,792 CHOA CHU KANG NORTH 6 SINGAPORE 680792,18641.3924796181,41896.0521839075
801 KEAT HONG CLOSE KEAT HONG CREST SINGAPORE 680801,801,KEAT HONG CREST,1.37524902954698,103.743449889014,103.743449889014,680801,KEAT HONG CLOSE,KEAT HONG CREST,17998.721492012,39693.7543242648
803 KEAT HONG CLOSE KEAT HONG PRIDE SINGAPORE 680803,803,KEAT HONG PRIDE,1.37415533445512,103.742759621749,103.742759621749,680803,KEAT HONG CLOSE,KEAT HONG PRIDE,17921.8985949513,39572.8218339961
804 KEAT HONG CLOSE KEAT HONG PRIDE SINGAPORE 680804,804,KEAT HONG PRIDE,1.37396879815938,103.742103763587,103.742103763587,680804,KEAT HONG CLOSE,KEAT HONG PRIDE,17848.9087748118,39552.1983498074
805 KEAT HONG CLOSE KEAT HONG PRIDE SINGAPORE 680805,805,KEAT HONG PRIDE,1.3733066831892,103.743253858649,103.743253858649,680805,KEAT HONG CLOSE,KEAT HONG PRIDE,17976.897609856,39478.9800971951
806 KEAT HONG CLOSE KEAT HONG PRIDE SINGAPORE 680806,806,KEAT HONG PRIDE,1.3728349378916,103.744155597565,103.744155597565,680806,KEAT HONG CLOSE,KEAT HONG PRIDE,18077.2482646806,39426.8130759187
807 CHOA CHU KANG AVENUE 1 KEAT HONG AXIS SINGAPORE 680807,807,KEAT HONG AXIS,1.37570710319428,103.744411646193,103.744411646193,680807,CHOA CHU KANG AVENUE 1,KEAT HONG AXIS,18105.7551965695,39744.4018322229
808 CHOA CHU KANG AVENUE 1 KEAT HONG AXIS SINGAPORE 680808,808,KEAT HONG AXIS,1.37543871415289,103.746097310456,103.746097310456,680808,CHOA CHU KANG AVENUE 1,KEAT HONG AXIS,18293.3478964893,39714.717778448
809 CHOA CHU KANG AVENUE 1 KEAT HONG AXIS SINGAPORE 680809,809,KEAT HONG AXIS,1.37498079671742,103.744550138051,103.744550138051,680809,CHOA CHU KANG AVENUE 1,KEAT HONG AXIS,18121.1646573478,39664.0898841433
810 CHOA CHU KANG AVENUE 7 KEAT HONG COLOURS SINGAPORE 680810,810,KEAT HONG COLOURS,1.3740546176425,103.746160942106,103.746160942106,680810,CHOA CHU KANG AVENUE 7,KEAT HONG COLOURS,18300.4237338472,39561.6709877234
811 CHOA CHU KANG AVENUE 7 KEAT HONG COLOURS SINGAPORE 680811,811,KEAT HONG COLOURS,1.37351680770233,103.746033759088,103.746033759088,680811,CHOA CHU KANG AVENUE 7,KEAT HONG COLOURS,18286.2676400058,39502.2031471655
812 CHOA CHU KANG AVENUE 7 KEAT HONG COLOURS SINGAPORE 680812,812,KEAT HONG COLOURS,1.37248197493874,103.745524262528,103.745524262528,680812,CHOA CHU KANG AVENUE 7,KEAT HONG COLOURS,18229.5626610024,39387.778545808
813 CHOA CHU KANG AVENUE 7 KEAT HONG COLOURS SINGAPORE 680813,813,KEAT HONG COLOURS,1.37428005972313,103.745199830842,103.745199830842,680813,CHOA CHU KANG AVENUE 7,KEAT HONG COLOURS,18193.4646701375,39586.6031799298
814 CHOA CHU KANG AVENUE 7 KEAT HONG QUAD SINGAPORE 680814,814,KEAT HONG QUAD,1.37659077434196,103.747461777118,103.747461777118,680814,CHOA CHU KANG AVENUE 7,KEAT HONG QUAD,18445.2009179359,39842.1013748888
815 CHOA CHU KANG AVENUE 7 KEAT HONG QUAD SINGAPORE 680815,815,KEAT HONG QUAD,1.37658125044576,103.746689379918,103.746689379918,680815,CHOA CHU KANG AVENUE 7,KEAT HONG QUAD,18359.2425682973,39841.0513785332
816 KEAT HONG LINK KEAT HONG MIRAGE SINGAPORE 680816,816,KEAT HONG MIRAGE,1.37647162798983,103.749127658214,103.749127658214,680816,KEAT HONG LINK,KEAT HONG MIRAGE,18630.5925300801,39828.9201522674
817 KEAT HONG LINK KEAT HONG MIRAGE SINGAPORE 680817,817,KEAT HONG MIRAGE,1.37754385007462,103.749700036701,103.749700036701,680817,KEAT HONG LINK,KEAT HONG MIRAGE,18694.2953761145,39947.4789061807
818 CHOA CHU KANG AVENUE 1 KEAT HONG MIRAGE SINGAPORE 680818,818,KEAT HONG MIRAGE,1.37802616177265,103.748826770919,103.748826770919,680818,CHOA CHU KANG AVENUE 1,KEAT HONG MIRAGE,18597.1135673104,40000.813968949
819 KEAT HONG LINK KEAT HONG VERGE SINGAPORE 680819,819,KEAT HONG VERGE,1.37516770596157,103.74972674844,103.74972674844,680819,KEAT HONG LINK,KEAT HONG VERGE,18697.2588538649,39684.7365838755
820 KEAT HONG LINK KEAT HONG VERGE SINGAPORE 680820,820,KEAT HONG VERGE,1.37487172265976,103.750268041827,103.750268041827,680820,KEAT HONG LINK,KEAT HONG VERGE,18757.4970448753,39652.0061180759
821 KEAT HONG LINK SINGAPORE 680821,821,NIL,1.37480118403433,103.749537925078,103.749537925078,680821,KEAT HONG LINK,821 KEAT HONG LINK SINGAPORE 680821,18676.2437019655,39644.209146006
8A TECK WHYE LANE SINGAPORE 681008,8A,NIL,1.38085242366659,103.754004341944,103.754004341944,681008,TECK WHYE LANE,8A TECK WHYE LANE SINGAPORE 681008,19173.3235691329,40313.3081393056
118A TECK WHYE LANE MULTI STOREY CAR PARK SINGAPORE 681118,118A,MULTI STOREY CAR PARK,1.37951848697265,103.750002788905,103.750002788905,681118,TECK WHYE LANE,MULTI STOREY CAR PARK,18727.9955978459,40165.8232721984
135A TECK WHYE LANE SINGAPORE 681135,135A,NIL,1.38029790360703,103.751973587306,103.751973587306,681135,TECK WHYE LANE,135A TECK WHYE LANE SINGAPORE 681135,18947.3238852099,40251.9997026604
146A TECK WHYE AVENUE SINGAPORE 681146,146A,NIL,1.38106680400447,103.753140677955,103.753140677955,681146,TECK WHYE AVENUE,146A TECK WHYE AVENUE SINGAPORE 681146,19077.2093726499,40337.01647586
151A JALAN TECK WHYE SINGAPORE 681151,151A,NIL,1.37810393084604,103.756717587998,103.756717587998,681151,JALAN TECK WHYE,151A JALAN TECK WHYE SINGAPORE 681151,19475.2641108036,40009.38359184
154A JALAN TECK WHYE MULTI STOREY CAR PARK SINGAPORE 681154,154A,MULTI STOREY CAR PARK,1.37918637147347,103.757531556198,103.757531556198,681154,JALAN TECK WHYE,MULTI STOREY CAR PARK,19565.8524933755,40129.0715836883
158A JALAN TECK WHYE MULTI STOREY CAR PARK SINGAPORE 681158,158A,MULTI STOREY CAR PARK,1.37966151992615,103.756569564489,103.756569564489,681158,JALAN TECK WHYE,MULTI STOREY CAR PARK,19458.7964813141,40181.6145635918
160A JALAN TECK WHYE FOODCOURT SINGAPORE 681160,160A,FOODCOURT,1.38049639723272,103.757079964941,103.757079964941,681160,JALAN TECK WHYE,FOODCOURT,19515.6006485,40273.9293108825
161A JALAN TECK WHYE TECK WHYE VIEW SINGAPORE 681161,161A,TECK WHYE VIEW,1.37973257708917,103.759125161219,103.759125161219,681161,JALAN TECK WHYE,TECK WHYE VIEW,19743.2027800176,40189.4626885541
165A TECK WHYE CRESCENT TECK WHYE CREST SINGAPORE 681165,165A,TECK WHYE CREST,1.38273704594211,103.753517098194,103.753517098194,681165,TECK WHYE CRESCENT,TECK WHYE CREST,19119.1064367834,40521.702117553
166A TECK WHYE CRESCENT TECK WHYE CREST SINGAPORE 681166,166A,TECK WHYE CREST,1.38329360087486,103.753025884378,103.753025884378,681166,TECK WHYE CRESCENT,TECK WHYE CREST,19064.4426095299,40583.2450402696
203A CHOA CHU KANG AVENUE 1 MULTI STOREY CAR PARK SINGAPORE 681203,203A,MULTI STOREY CAR PARK,1.38121927221658,103.748945706674,103.748945706674,681203,CHOA CHU KANG AVENUE 1,MULTI STOREY CAR PARK,18610.3621664625,40353.8918150906
227A CHOA CHU KANG CENTRAL MULTI STOREY CAR PARK SINGAPORE 681227,227A,MULTI STOREY CAR PARK,1.38053071249233,103.74543642345,103.74543642345,681227,CHOA CHU KANG CENTRAL,MULTI STOREY CAR PARK,18219.820032672,40277.7684414014
251A CHOA CHU KANG AVENUE 2 MULTI STOREY CAR PARK SINGAPORE 681251,251A,MULTI STOREY CAR PARK,1.37875601115902,103.744944334031,103.744944334031,681251,CHOA CHU KANG AVENUE 2,MULTI STOREY CAR PARK,18165.0493291672,40081.5327792671
253A CHOA CHU KANG AVENUE 1 MULTI STOREY CAR PARK SINGAPORE 681253,253A,MULTI STOREY CAR PARK,1.37740916365961,103.743940759157,103.743940759157,681253,CHOA CHU KANG AVENUE 1,MULTI STOREY CAR PARK,18053.3582899561,39932.6092143562
276A CHOA CHU KANG AVENUE 2 MULTI STOREY CAR PARK SINGAPORE 681276,276A,MULTI STOREY CAR PARK,1.38011737663171,103.744169983757,103.744169983757,681276,CHOA CHU KANG AVENUE 2,MULTI STOREY CAR PARK,18078.8793760547,40232.069052618
287A CHOA CHU KANG AVENUE 2 SINGAPORE 681287,287A,NIL,1.3787579315755,103.741866776677,103.741866776677,681287,CHOA CHU KANG AVENUE 2,287A CHOA CHU KANG AVENUE 2 SINGAPORE 681287,17822.5553191612,40081.7580638696
296A CHOA CHU KANG AVENUE 2 SINGAPORE 681296,296A,NIL,1.37714154932429,103.740943329677,103.740943329677,681296,CHOA CHU KANG AVENUE 2,296A CHOA CHU KANG AVENUE 2 SINGAPORE 681296,17719.7801685734,39903.0304628965
297A CHOA CHU KANG AVENUE 2 SINGAPORE 681297,297A,NIL,1.37693722071653,103.742296003255,103.742296003255,681297,CHOA CHU KANG AVENUE 2,297A CHOA CHU KANG AVENUE 2 SINGAPORE 681297,17870.315231204,39880.4310241938
306A CHOA CHU KANG AVENUE 4 SINGAPORE 681306,306A,NIL,1.38515003536544,103.742968230332,103.742968230332,681306,CHOA CHU KANG AVENUE 4,306A CHOA CHU KANG AVENUE 4 SINGAPORE 681306,17945.1603576737,40788.5606434997
343A CHOA CHU KANG LOOP MULTI STOREY CAR PARK SINGAPORE 681343,343A,MULTI STOREY CAR PARK,1.38383719191697,103.745948842956,103.745948842956,681343,CHOA CHU KANG LOOP,MULTI STOREY CAR PARK,18276.8593820911,40643.3804714754
345A CHOA CHU KANG LOOP SINGAPORE 681345,345A,NIL,1.38318995711154,103.744925344575,103.744925344575,681345,CHOA CHU KANG LOOP,345A CHOA CHU KANG LOOP SINGAPORE 681345,18162.9542701384,40571.8166668527
351A CHOA CHU KANG CENTRAL SINGAPORE 681351,351A,NIL,1.38321718703957,103.743064115362,103.743064115362,681351,CHOA CHU KANG CENTRAL,351A CHOA CHU KANG CENTRAL SINGAPORE 681351,17955.8230116377,40574.8354139421
405A CHOA CHU KANG AVENUE 3 SINGAPORE 681405,405A,NIL,1.38038852597102,103.739519469619,103.739519469619,681405,CHOA CHU KANG AVENUE 3,405A CHOA CHU KANG AVENUE 3 SINGAPORE 681405,17561.3362028683,40262.0713137053
406A CHOA CHU KANG AVENUE 3 SINGAPORE 681406,406A,NIL,1.38021680200608,103.739772267289,103.739772267289,681406,CHOA CHU KANG AVENUE 3,406A CHOA CHU KANG AVENUE 3 SINGAPORE 681406,17589.4686895302,40243.0818163492
414A CHOA CHU KANG AVENUE 4 SINGAPORE 681414,414A,NIL,1.38196598314216,103.742020466219,103.742020466219,681414,CHOA CHU KANG AVENUE 4,414A CHOA CHU KANG AVENUE 4 SINGAPORE 681414,17839.6726811882,40436.4879062939
421A CHOA CHU KANG AVENUE 4 SINGAPORE 681421,421A,NIL,1.38143922592344,103.741023590893,103.741023590893,681421,CHOA CHU KANG AVENUE 4,421A CHOA CHU KANG AVENUE 4 SINGAPORE 681421,17728.73068377,40378.2459796127
429A CHOA CHU KANG AVENUE 4 FOODCOURT SINGAPORE 681429,429A,FOODCOURT,1.38342388676801,103.740852261839,103.740852261839,681429,CHOA CHU KANG AVENUE 4,FOODCOURT,17709.6724478221,40597.7007266134
430A CHOA CHU KANG AVENUE 4 SINGAPORE 681430,430A,NIL,1.38433296022838,103.741680904465,103.741680904465,681430,CHOA CHU KANG AVENUE 4,430A CHOA CHU KANG AVENUE 4 SINGAPORE 681430,17801.893818384,40698.2180066872
440A CHOA CHU KANG AVENUE 4 SINGAPORE 681440,440A,NIL,1.38337604019764,103.739671857201,103.739671857201,681440,CHOA CHU KANG AVENUE 4,440A CHOA CHU KANG AVENUE 4 SINGAPORE 681440,17578.3080666978,40592.4152404927
445A CHOA CHU KANG AVENUE 4 MULTI STOREY CAR PARK SINGAPORE 681445,445A,MULTI STOREY CAR PARK,1.38122187788984,103.736636388659,103.736636388659,681445,CHOA CHU KANG AVENUE 4,MULTI STOREY CAR PARK,17240.4889165089,40354.232118031
450A CHOA CHU KANG AVENUE 4 MULTI STOREY CAR PARK SINGAPORE 681450,450A,MULTI STOREY CAR PARK,1.37935086992708,103.735688668976,103.735688668976,681450,CHOA CHU KANG AVENUE 4,MULTI STOREY CAR PARK,17135.0110468501,40147.3495715521
456A CHOA CHU KANG AVENUE 4 SINGAPORE 681456,456A,NIL,1.37892530950684,103.735506559967,103.735506559967,681456,CHOA CHU KANG AVENUE 4,456A CHOA CHU KANG AVENUE 4 SINGAPORE 681456,17114.7426363779,40100.2940257583
459A CHOA CHU KANG AVENUE 4 SINGAPORE 681459,459A,NIL,1.37823208019492,103.735538283685,103.735538283685,681459,CHOA CHU KANG AVENUE 4,459A CHOA CHU KANG AVENUE 4 SINGAPORE 681459,17118.2699461281,40023.6399937775
462A CHOA CHU KANG AVENUE 4 MULTI STOREY CAR PARK SINGAPORE 681462,462A,MULTI STOREY CAR PARK,1.37761510836633,103.735723043928,103.735723043928,681462,CHOA CHU KANG AVENUE 4,MULTI STOREY CAR PARK,17138.8286871007,39955.4174416102
471A CHOA CHU KANG AVENUE 3 SINGAPORE 681471,471A,NIL,1.37881672672959,103.737561151979,103.737561151979,681471,CHOA CHU KANG AVENUE 3,471A CHOA CHU KANG AVENUE 3 SINGAPORE 681471,17343.3928270992,40088.2781810462
474A CHOA CHU KANG AVENUE 3 MULTI STOREY CAR PARK SINGAPORE 681474,474A,MULTI STOREY CAR PARK,1.37863888437875,103.737905856969,103.737905856969,681474,CHOA CHU KANG AVENUE 3,MULTI STOREY CAR PARK,17381.7534405515,40068.6117099654
476A CHOA CHU KANG AVENUE 5 SUNSHINE COURT SINGAPORE 681476,476A,SUNSHINE COURT,1.37652018482202,103.738025725932,103.738025725932,681476,CHOA CHU KANG AVENUE 5,SUNSHINE COURT,17395.0840054043,39834.335820986
483A CHOA CHU KANG AVENUE 5 MULTI STOREY CAR PARK SINGAPORE 681483,483A,MULTI STOREY CAR PARK,1.37599174895958,103.737082921458,103.737082921458,681483,CHOA CHU KANG AVENUE 5,MULTI STOREY CAR PARK,17290.1590712722,39775.9082002249
484A CHOA CHU KANG AVENUE 5 SINGAPORE 681484,484A,NIL,1.37668464228405,103.736817870853,103.736817870853,681484,CHOA CHU KANG AVENUE 5,484A CHOA CHU KANG AVENUE 5 SINGAPORE 681484,17260.6652820427,39852.5261225011
485A CHOA CHU KANG AVENUE 5 SINGAPORE 681485,485A,NIL,1.37461810751349,103.738364995209,103.738364995209,681485,CHOA CHU KANG AVENUE 5,485A CHOA CHU KANG AVENUE 5 SINGAPORE 681485,17432.832146205,39624.0119863674
486A CHOA CHU KANG AVENUE 5 MULTI STOREY CAR PARK SINGAPORE 681486,486A,MULTI STOREY CAR PARK,1.37506059064075,103.738422304715,103.738422304715,681486,CHOA CHU KANG AVENUE 5,MULTI STOREY CAR PARK,17439.2119410094,39672.9393345416
487A CHOA CHU KANG AVENUE 5 SUNSHINE GARDENS SINGAPORE 681487,487A,SUNSHINE GARDENS,1.37587750919484,103.739113762764,103.739113762764,681487,CHOA CHU KANG AVENUE 5,SUNSHINE GARDENS,17516.1663524592,39763.2671097741
488A CHOA CHU KANG AVENUE 5 SUNSHINE GARDENS SINGAPORE 681488,488A,SUNSHINE GARDENS,1.37705950007098,103.738981398036,103.738981398036,681488,CHOA CHU KANG AVENUE 5,SUNSHINE GARDENS,17501.4409481129,39893.9664124921
489A CHOA CHU KANG AVENUE 5 SUNSHINE GARDENS SINGAPORE 681489,489A,SUNSHINE GARDENS,1.37560094818422,103.740360009689,103.740360009689,681489,CHOA CHU KANG AVENUE 5,SUNSHINE GARDENS,17654.8571898462,39732.6809187438
490A CHOA CHU KANG AVENUE 5 SUNSHINE GARDENS SINGAPORE 681490,490A,SUNSHINE GARDENS,1.37519738080978,103.741426402066,103.741426402066,681490,CHOA CHU KANG AVENUE 5,SUNSHINE GARDENS,17773.531900405,39688.051836133
502A CHOA CHU KANG STREET 51 MULTI STOREY CAR PARK SINGAPORE 681502,502A,MULTI STOREY CAR PARK,1.38871470811511,103.742956268034,103.742956268034,681502,CHOA CHU KANG STREET 51,MULTI STOREY CAR PARK,17943.8441544017,41182.7246139552
504A CHOA CHU KANG STREET 51 SINGAPORE 681504,504A,NIL,1.38893872005499,103.742303642032,103.742303642032,681504,CHOA CHU KANG STREET 51,504A CHOA CHU KANG STREET 51 SINGAPORE 681504,17871.2162182759,41207.4975360315
511A CHOA CHU KANG STREET 51 MULTI STOREY CAR PARK SINGAPORE 681511,511A,MULTI STOREY CAR PARK,1.38859055468141,103.741106691297,103.741106691297,681511,CHOA CHU KANG STREET 51,MULTI STOREY CAR PARK,17738.0094855186,41169.0042882748
513A CHOA CHU KANG STREET 51 MULTI STOREY CAR PARK SINGAPORE 681513,513A,MULTI STOREY CAR PARK,1.39032064291068,103.742372956822,103.742372956822,681513,CHOA CHU KANG STREET 51,MULTI STOREY CAR PARK,17878.9359464506,41360.3034541421
527A CHOA CHU KANG STREET 51 MULTI STOREY CAR PARK SINGAPORE 681527,527A,MULTI STOREY CAR PARK,1.39229089399419,103.74107061678,103.74107061678,681527,CHOA CHU KANG STREET 51,MULTI STOREY CAR PARK,17734.0108427256,41578.1697373558
533A CHOA CHU KANG STREET 51 LIMBANG SHOPPING CENTRE SINGAPORE 681533,533A,LIMBANG SHOPPING CENTRE,1.39164865474084,103.743387228295,103.743387228295,681533,CHOA CHU KANG STREET 51,LIMBANG SHOPPING CENTRE,17991.8168503707,41507.1441277526
537A CHOA CHU KANG STREET 51 SINGAPORE 681537,537A,NIL,1.3920519074895,103.743879743993,103.743879743993,681537,CHOA CHU KANG STREET 51,537A CHOA CHU KANG STREET 51 SINGAPORE 681537,18046.6291420842,41551.7317432258
541A CHOA CHU KANG STREET 52 MULTI STOREY CAR PARK SINGAPORE 681541,541A,MULTI STOREY CAR PARK,1.39306409609788,103.744756328406,103.744756328406,681541,CHOA CHU KANG STREET 52,MULTI STOREY CAR PARK,18144.1857895991,41663.6508819629
552A CHOA CHU KANG STREET 52 MULTI STOREY CAR PARK SINGAPORE 681552,552A,MULTI STOREY CAR PARK,1.3940650950487,103.742208414075,103.742208414075,681552,CHOA CHU KANG STREET 52,MULTI STOREY CAR PARK,17860.6404636931,41774.3472244255
559A CHOA CHU KANG NORTH 6 MULTI STOREY CAR PARK SINGAPORE 681559,559A,MULTI STOREY CAR PARK,1.396169309968,103.744276136696,103.744276136696,681559,CHOA CHU KANG NORTH 6,MULTI STOREY CAR PARK,18090.7597110039,42007.01213024
567A CHOA CHU KANG STREET 52 MULTI STOREY CAR PARK SINGAPORE 681567,567A,MULTI STOREY CAR PARK,1.39539827865869,103.746154243249,103.746154243249,681567,CHOA CHU KANG STREET 52,MULTI STOREY CAR PARK,18299.7650117176,41921.7474622522
572A CHOA CHU KANG STREET 52 LIMBANG GREEN SINGAPORE 681572,572A,LIMBANG GREEN,1.39361372140285,103.745441717605,103.745441717605,681572,CHOA CHU KANG STREET 52,LIMBANG GREEN,18220.4629246462,41724.4228791352
573A CHOA CHU KANG STREET 52 LIMBANG GREEN SINGAPORE 681573,573A,LIMBANG GREEN,1.39394093084577,103.745574792304,103.745574792304,681573,CHOA CHU KANG STREET 52,LIMBANG GREEN,18235.2737452425,41760.6035318635
602A CHOA CHU KANG STREET 62 SINGAPORE 681602,602A,NIL,1.39756597444873,103.744455654763,103.744455654763,681602,CHOA CHU KANG STREET 62,602A CHOA CHU KANG STREET 62 SINGAPORE 681602,18110.7435418935,42161.4476463255
604A CHOA CHU KANG STREET 62 MULTI STOREY CAR PARK SINGAPORE 681604,604A,MULTI STOREY CAR PARK,1.39744286860326,103.745137197199,103.745137197199,681604,CHOA CHU KANG STREET 62,MULTI STOREY CAR PARK,18186.5896608522,42147.8323505484
610A CHOA CHU KANG STREET 62 MULTI STOREY CAR PARK SINGAPORE 681610,610A,MULTI STOREY CAR PARK,1.39879247669957,103.743476760839,103.743476760839,681610,CHOA CHU KANG STREET 62,MULTI STOREY CAR PARK,18001.8108240385,42297.0723672286
611A CHOA CHU KANG STREET 62 MULTI STOREY CAR PARK SINGAPORE 681611,611A,MULTI STOREY CAR PARK,1.40044824585964,103.743711954064,103.743711954064,681611,CHOA CHU KANG STREET 62,MULTI STOREY CAR PARK,18027.9916916462,42480.1581643745
621A CHOA CHU KANG NORTH 7 MULTI STOREY CAR PARK SINGAPORE 681621,621A,MULTI STOREY CAR PARK,1.39963692638659,103.747572646388,103.747572646388,681621,CHOA CHU KANG NORTH 7,MULTI STOREY CAR PARK,18457.6317064362,42390.4303913824
625A CHOA CHU KANG STREET 62 MULTI STOREY CAR PARK SINGAPORE 681625,625A,MULTI STOREY CAR PARK,1.398409464943,103.746737237083,103.746737237083,681625,CHOA CHU KANG STREET 62,MULTI STOREY CAR PARK,18364.6568144206,42254.7071784604
632A CHOA CHU KANG NORTH 6 SINGAPORE 681632,632A,NIL,1.39684229860829,103.748917064882,103.748917064882,681632,CHOA CHU KANG NORTH 6,632A CHOA CHU KANG NORTH 6 SINGAPORE 681632,18607.2363917846,42081.4088365305
659A CHOA CHU KANG CRESCENT MULTI STOREY CAR PARK SINGAPORE 681659,659A,MULTI STOREY CAR PARK,1.40107031570678,103.749064212911,103.749064212911,681659,CHOA CHU KANG CRESCENT,MULTI STOREY CAR PARK,18623.6288053337,42548.9214843381
660A CHOA CHU KANG CRESCENT MULTI STOREY CAR PARK SINGAPORE 681660,660A,MULTI STOREY CAR PARK,1.40091107880499,103.749575772855,103.749575772855,681660,CHOA CHU KANG CRESCENT,MULTI STOREY CAR PARK,18680.5579187572,42531.3118135557
661A CHOA CHU KANG CRESCENT MULTI STOREY CAR PARK SINGAPORE 681661,661A,MULTI STOREY CAR PARK,1.40070093724986,103.75022873245,103.75022873245,681661,CHOA CHU KANG CRESCENT,MULTI STOREY CAR PARK,18753.222721287,42508.0728123579
668A CHOA CHU KANG CRESCENT FOODCOURT SINGAPORE 681668,668A,FOODCOURT,1.40165386398988,103.750480639498,103.750480639498,681668,CHOA CHU KANG CRESCENT,FOODCOURT,18781.2603178201,42613.4417475425
669A CHOA CHU KANG CRESCENT MULTI STOREY CAR PARK SINGAPORE 681669,669A,MULTI STOREY CAR PARK,1.40224929237463,103.748274386805,103.748274386805,681669,CHOA CHU KANG CRESCENT,MULTI STOREY CAR PARK,18535.7365131434,42679.2900790665
670A CHOA CHU KANG CRESCENT SINGAPORE 681670,670A,NIL,1.4026789634991,103.747562464245,103.747562464245,681670,CHOA CHU KANG CRESCENT,670A CHOA CHU KANG CRESCENT SINGAPORE 681670,18456.5108829997,42726.8038821351
671A CHOA CHU KANG CRESCENT SINGAPORE 681671,671A,NIL,1.40209862661951,103.747897404358,103.747897404358,681671,CHOA CHU KANG CRESCENT,671A CHOA CHU KANG CRESCENT SINGAPORE 681671,18493.7828478813,42662.631731011
672A CHOA CHU KANG CRESCENT SINGAPORE 681672,672A,NIL,1.4018932058408,103.747364979441,103.747364979441,681672,CHOA CHU KANG CRESCENT,672A CHOA CHU KANG CRESCENT SINGAPORE 681672,18434.5303034922,42639.9194835331
673A CHOA CHU KANG CRESCENT SINGAPORE 681673,673A,NIL,1.40101416839361,103.747524161982,103.747524161982,681673,CHOA CHU KANG CRESCENT,673A CHOA CHU KANG CRESCENT SINGAPORE 681673,18452.2416141639,42542.7192112599
674A CHOA CHU KANG CRESCENT SINGAPORE 681674,674A,NIL,1.40163882695973,103.746535330738,103.746535330738,681674,CHOA CHU KANG CRESCENT,674A CHOA CHU KANG CRESCENT SINGAPORE 681674,18342.2005432807,42611.794927083
675A CHOA CHU KANG CRESCENT MULTI STOREY CAR PARK SINGAPORE 681675,675A,MULTI STOREY CAR PARK,1.4012713913352,103.746721518668,103.746721518668,681675,CHOA CHU KANG CRESCENT,MULTI STOREY CAR PARK,18362.919250547,42571.1649412848
676A CHOA CHU KANG CRESCENT SINGAPORE 681676,676A,NIL,1.4020008434176,103.746684850931,103.746684850931,681676,CHOA CHU KANG CRESCENT,676A CHOA CHU KANG CRESCENT SINGAPORE 681676,18358.8416083166,42651.824305281
678A CHOA CHU KANG CRESCENT FOODCOURT SINGAPORE 681678,678A,FOODCOURT,1.40155939783169,103.744743200908,103.744743200908,681678,CHOA CHU KANG CRESCENT,FOODCOURT,18142.7602886381,42603.0195121728
683A CHOA CHU KANG CRESCENT SINGAPORE 681683,683A,NIL,1.40385480382021,103.745492505499,103.745492505499,681683,CHOA CHU KANG CRESCENT,683A CHOA CHU KANG CRESCENT SINGAPORE 681683,18226.1573312264,42856.8310540058
684A CHOA CHU KANG CRESCENT SINGAPORE 681684,684A,NIL,1.40400608389802,103.746767050296,103.746767050296,681684,CHOA CHU KANG CRESCENT,684A CHOA CHU KANG CRESCENT SINGAPORE 681684,18367.9974917835,42873.5535701867
685A CHOA CHU KANG CRESCENT SINGAPORE 681685,685A,NIL,1.40378102388881,103.747662621714,103.747662621714,681685,CHOA CHU KANG CRESCENT,685A CHOA CHU KANG CRESCENT SINGAPORE 681685,18467.6615173966,42848.6638742276
686A CHOA CHU KANG CRESCENT SINGAPORE 681686,686A,NIL,1.40438956727531,103.74785640306,103.74785640306,681686,CHOA CHU KANG CRESCENT,686A CHOA CHU KANG CRESCENT SINGAPORE 681686,18489.2292113388,42915.9528104365
687A CHOA CHU KANG DRIVE SINGAPORE 681687,687A,NIL,1.40451101735306,103.750161262445,103.750161262445,681687,CHOA CHU KANG DRIVE,687A CHOA CHU KANG DRIVE SINGAPORE 681687,18745.7291857535,42929.3729079869
688A CHOA CHU KANG DRIVE SINGAPORE 681688,688A,NIL,1.40396387456119,103.750566306243,103.750566306243,681688,CHOA CHU KANG DRIVE,688A CHOA CHU KANG DRIVE SINGAPORE 681688,18790.8029050464,42868.8709617648
689A CHOA CHU KANG DRIVE SINGAPORE 681689,689A,NIL,1.40298901385209,103.750320068403,103.750320068403,681689,CHOA CHU KANG DRIVE,689A CHOA CHU KANG DRIVE SINGAPORE 681689,18763.39615383,42761.0766530447
690A CHOA CHU KANG CRESCENT SINGAPORE 681690,690A,NIL,1.40277627634375,103.751539941559,103.751539941559,681690,CHOA CHU KANG CRESCENT,690A CHOA CHU KANG CRESCENT SINGAPORE 681690,18899.150694117,42737.5484109949
691A CHOA CHU KANG CRESCENT SINGAPORE 681691,691A,NIL,1.40115779753494,103.751471709468,103.751471709468,681691,CHOA CHU KANG CRESCENT,691A CHOA CHU KANG CRESCENT SINGAPORE 681691,18891.5511298366,42558.585294839
692A CHOA CHU KANG CRESCENT SINGAPORE 681692,692A,NIL,1.4002092135442,103.751271374918,103.751271374918,681692,CHOA CHU KANG CRESCENT,692A CHOA CHU KANG CRESCENT SINGAPORE 681692,18869.2529181084,42453.6963493414
708A CHOA CHU KANG STREET 53 MULTI STOREY CAR PARK SINGAPORE 681708,708A,MULTI STOREY CAR PARK,1.39097808991265,103.746429376017,103.746429376017,681708,CHOA CHU KANG STREET 53,MULTI STOREY CAR PARK,18330.3656405751,41432.9836933427
754A CHOA CHU KANG NORTH 5 MULTI STOREY CAR PARK SINGAPORE 681754,754A,MULTI STOREY CAR PARK,1.39279561406995,103.746731627991,103.746731627991,681754,CHOA CHU KANG NORTH 5,MULTI STOREY CAR PARK,18364.0097454647,41633.9552960861
762A CHOA CHU KANG NORTH 5 MULTI STOREY CAR PARK SINGAPORE 681762,762A,MULTI STOREY CAR PARK,1.39260759528275,103.749144851986,103.749144851986,681762,CHOA CHU KANG NORTH 5,MULTI STOREY CAR PARK,18632.5693320967,41613.1553798188
771A CHOA CHU KANG STREET 54 MULTI STOREY CAR PARK SINGAPORE 681771,771A,MULTI STOREY CAR PARK,1.39453297843943,103.749964278203,103.749964278203,681771,CHOA CHU KANG STREET 54,MULTI STOREY CAR PARK,18723.7683107043,41826.0514784995
787B CHOA CHU KANG DRIVE SINGAPORE 681787,787B,NIL,1.395361844967,103.748139410115,103.748139410115,681787,CHOA CHU KANG DRIVE,787B CHOA CHU KANG DRIVE SINGAPORE 681787,18520.6877861954,41917.7107120678
792A CHOA CHU KANG NORTH 6 MULTI STOREY CAR PARK SINGAPORE 681792,792A,MULTI STOREY CAR PARK,1.39527409432512,103.749534434215,103.749534434215,681792,CHOA CHU KANG NORTH 6,MULTI STOREY CAR PARK,18675.9352409439,41908.0021049511
801A KEAT HONG CLOSE KEAT HONG CREST SINGAPORE 681801,801A,KEAT HONG CREST,1.37583912801225,103.743195890055,103.743195890055,681801,KEAT HONG CLOSE,KEAT HONG CREST,17970.4569764053,39759.0055592749
802A KEAT HONG CLOSE KEAT HONG CREST SINGAPORE 681802,802A,KEAT HONG CREST,1.37451584184376,103.74347432386,103.74347432386,681802,KEAT HONG CLOSE,KEAT HONG CREST,18001.4377408708,39612.6819536295
803A KEAT HONG CLOSE KEAT HONG PRIDE SINGAPORE 681803,803A,KEAT HONG PRIDE,1.37386468483914,103.742970078269,103.742970078269,681803,KEAT HONG CLOSE,KEAT HONG PRIDE,17945.3186289603,39540.6823505778
804A KEAT HONG CLOSE KEAT HONG PRIDE SINGAPORE 681804,804A,KEAT HONG PRIDE,1.37367233098073,103.742000829882,103.742000829882,681804,KEAT HONG CLOSE,KEAT HONG PRIDE,17837.452252171,39519.4169127215
805A KEAT HONG CLOSE KEAT HONG PRIDE SINGAPORE 681805,805A,KEAT HONG PRIDE,1.37289627545554,103.742568745239,103.742568745239,681805,KEAT HONG CLOSE,KEAT HONG PRIDE,17900.6510757413,39433.6021241304
807A CHOA CHU KANG AVENUE 1 KEAT HONG AXIS SINGAPORE 681807,807A,KEAT HONG AXIS,1.37580545998649,103.744793478077,103.744793478077,681807,CHOA CHU KANG AVENUE 1,KEAT HONG AXIS,18148.2488123933,39755.2760593928
808A CHOA CHU KANG AVENUE 1 KEAT HONG AXIS SINGAPORE 681808,808A,KEAT HONG AXIS,1.3754798756659,103.745373277908,103.745373277908,681808,CHOA CHU KANG AVENUE 1,KEAT HONG AXIS,18212.7721023951,39719.2721716892
809A CHOA CHU KANG AVENUE 1 KEAT HONG AXIS SINGAPORE 681809,809A,KEAT HONG AXIS,1.37520977307986,103.745018192833,103.745018192833,681809,CHOA CHU KANG AVENUE 1,KEAT HONG AXIS,18173.254374194,39689.4070245679
810A CHOA CHU KANG AVENUE 7 KEAT HONG COLOURS SINGAPORE 681810,810A,KEAT HONG COLOURS,1.37454644083077,103.746304172261,103.746304172261,681810,CHOA CHU KANG AVENUE 7,KEAT HONG COLOURS,18316.3654873865,39616.0537767485
811A CHOA CHU KANG AVENUE 7 KEAT HONG COLOURS SINGAPORE 681811,811A,KEAT HONG COLOURS,1.3737308481902,103.745929784531,103.745929784531,681811,CHOA CHU KANG AVENUE 7,KEAT HONG COLOURS,18274.6974005504,39525.8711062297
812A CHOA CHU KANG AVENUE 7 KEAT HONG COLOURS SINGAPORE 681812,812A,KEAT HONG COLOURS,1.37338320239004,103.746795820058,103.746795820058,681812,CHOA CHU KANG AVENUE 7,KEAT HONG COLOURS,18371.0752311721,39487.4266504627
813A CHOA CHU KANG AVENUE 7 KEAT HONG COLOURS SINGAPORE 681813,813A,KEAT HONG COLOURS,1.37397666983114,103.745019850701,103.745019850701,681813,CHOA CHU KANG AVENUE 7,KEAT HONG COLOURS,18173.4338330692,39553.0565682165
815A CHOA CHU KANG AVENUE 7 KEAT HONG QUAD SINGAPORE 681815,815A,KEAT HONG QUAD,1.37607846692948,103.74690311631,103.74690311631,681815,CHOA CHU KANG AVENUE 7,KEAT HONG QUAD,18383.0267866859,39785.4552065786
816A KEAT HONG LINK KEAT HONG MIRAGE SINGAPORE 681816,816A,KEAT HONG MIRAGE,1.37603151881569,103.748824632963,103.748824632963,681816,KEAT HONG LINK,KEAT HONG MIRAGE,18596.86782155,39780.2562566232
817A KEAT HONG LINK KEAT HONG MIRAGE SINGAPORE 681817,817A,KEAT HONG MIRAGE,1.37660757238152,103.748545956804,103.748545956804,681817,KEAT HONG LINK,KEAT HONG MIRAGE,18565.8568496369,39843.9545019232
818A CHOA CHU KANG AVENUE 1 KEAT HONG MIRAGE SINGAPORE 681818,818A,KEAT HONG MIRAGE,1.37762936263123,103.748488766609,103.748488766609,681818,CHOA CHU KANG AVENUE 1,KEAT HONG MIRAGE,18559.4963052701,39956.9392250273
819A KEAT HONG LINK KEAT HONG VERGE SINGAPORE 681819,819A,KEAT HONG VERGE,1.37551918944304,103.749485384337,103.749485384337,681819,KEAT HONG LINK,KEAT HONG VERGE,18670.3993477933,39723.6028239951
820A KEAT HONG LINK KEAT HONG VERGE SINGAPORE 681820,820A,KEAT HONG VERGE,1.37523065052803,103.750249994734,103.750249994734,681820,KEAT HONG LINK,KEAT HONG VERGE,18755.490005143,39691.694648508
161B JALAN TECK WHYE TECK WHYE VIEW SINGAPORE 682161,161B,TECK WHYE VIEW,1.37983908650066,103.758553846182,103.758553846182,682161,JALAN TECK WHYE,TECK WHYE VIEW,19679.6229127999,40201.2419587038
166B TECK WHYE CRESCENT TECK WHYE CREST SINGAPORE 682166,166B,TECK WHYE CREST,1.38315989308266,103.753400918803,103.753400918803,682166,TECK WHYE CRESCENT,TECK WHYE CREST,19106.1787085254,40568.45888808
296B CHOA CHU KANG AVENUE 2 SINGAPORE 682296,296B,NIL,1.37684772581631,103.741509048162,103.741509048162,682296,CHOA CHU KANG AVENUE 2,296B CHOA CHU KANG AVENUE 2 SINGAPORE 682296,17782.7364245215,39870.5384785384
297B CHOA CHU KANG AVENUE 2 SINGAPORE 682297,297B,NIL,1.37735120606849,103.74310501791,103.74310501791,682297,CHOA CHU KANG AVENUE 2,297B CHOA CHU KANG AVENUE 2 SINGAPORE 682297,17960.3503453014,39926.2040549815
476B CHOA CHU KANG AVENUE 5 SUNSHINE COURT SINGAPORE 682476,476B,SUNSHINE COURT,1.37711823495119,103.737558566927,103.737558566927,682476,CHOA CHU KANG AVENUE 5,SUNSHINE COURT,17343.0975931864,39900.4673397671
483B CHOA CHU KANG AVENUE 5 SINGAPORE 682483,483B,NIL,1.3756663885649,103.737431555524,103.737431555524,682483,CHOA CHU KANG AVENUE 5,483B CHOA CHU KANG AVENUE 5 SINGAPORE 682483,17328.956330657,39739.9298889674
484B CHOA CHU KANG AVENUE 5 SINGAPORE 682484,484B,NIL,1.37623030762822,103.736338345807,103.736338345807,682484,CHOA CHU KANG AVENUE 5,484B CHOA CHU KANG AVENUE 5 SINGAPORE 682484,17207.2979838718,39802.290198585
485B CHOA CHU KANG AVENUE 5 SINGAPORE 682485,485B,NIL,1.37429936592367,103.738807275182,103.738807275182,682485,CHOA CHU KANG AVENUE 5,485B CHOA CHU KANG AVENUE 5 SINGAPORE 682485,17482.0511264037,39588.7651614714
486B CHOA CHU KANG AVENUE 5 SINGAPORE 682486,486B,NIL,1.37525242844761,103.738028515891,103.738028515891,682486,CHOA CHU KANG AVENUE 5,486B CHOA CHU KANG AVENUE 5 SINGAPORE 682486,17395.3888948038,39694.1535589695
487B CHOA CHU KANG AVENUE 5 SUNSHINE GARDENS SINGAPORE 682487,487B,SUNSHINE GARDENS,1.37635512444695,103.738360161731,103.738360161731,682487,CHOA CHU KANG AVENUE 5,SUNSHINE GARDENS,17432.3018813981,39816.0827739425
488B CHOA CHU KANG AVENUE 5 SUNSHINE GARDENS SINGAPORE 682488,488B,SUNSHINE GARDENS,1.3769739817533,103.739293156619,103.739293156619,682488,CHOA CHU KANG AVENUE 5,SUNSHINE GARDENS,17536.1354731089,39884.508848032
489B CHOA CHU KANG AVENUE 5 PCF SPARKLETOTS PRESCHOOL@KEAT HONG 489B (CC) SINGAPORE 682489,489B,PCF SPARKLETOTS PRESCHOOL@KEAT HONG 489B (CC),1.37573636567496,103.73958458863,103.73958458863,682489,CHOA CHU KANG AVENUE 5,PCF SPARKLETOTS PRESCHOOL@KEAT HONG 489B (CC),17568.5628958568,39747.6580921784
490B CHOA CHU KANG AVENUE 5 SUNSHINE GARDENS SINGAPORE 682490,490B,SUNSHINE GARDENS,1.37562311961725,103.741340715793,103.741340715793,682490,CHOA CHU KANG AVENUE 5,SUNSHINE GARDENS,17763.9978790181,39735.1282971036
672B CHOA CHU KANG CRESCENT SINGAPORE 682672,672B,NIL,1.40196021364915,103.747010636037,103.747010636037,682672,CHOA CHU KANG CRESCENT,672B CHOA CHU KANG CRESCENT SINGAPORE 682672,18395.0969321616,42647.3303269353
673B CHOA CHU KANG CRESCENT SINGAPORE 682673,673B,NIL,1.40097318180287,103.747961271519,103.747961271519,682673,CHOA CHU KANG CRESCENT,673B CHOA CHU KANG CRESCENT SINGAPORE 682673,18500.8858658876,42538.1853397097
678B CHOA CHU KANG CRESCENT SINGAPORE 682678,678B,NIL,1.40247624398312,103.744978111481,103.744978111481,682678,CHOA CHU KANG CRESCENT,678B CHOA CHU KANG CRESCENT SINGAPORE 682678,18168.9064994045,42704.3988546915
683B CHOA CHU KANG CRESCENT SINGAPORE 682683,683B,NIL,1.40376671076444,103.746257887648,103.746257887648,682683,CHOA CHU KANG CRESCENT,683B CHOA CHU KANG CRESCENT SINGAPORE 682683,18311.3336167019,42847.0869728122
684B CHOA CHU KANG CRESCENT SINGAPORE 682684,684B,NIL,1.40389957807762,103.747236264641,103.747236264641,682684,CHOA CHU KANG CRESCENT,684B CHOA CHU KANG CRESCENT SINGAPORE 682684,18420.2142433571,42861.7747540548
685B CHOA CHU KANG CRESCENT SINGAPORE 682685,685B,NIL,1.40363737705198,103.748176927162,103.748176927162,682685,CHOA CHU KANG CRESCENT,685B CHOA CHU KANG CRESCENT SINGAPORE 682685,18524.8961558472,42832.7780256532
686B CHOA CHU KANG CRESCENT SINGAPORE 682686,686B,NIL,1.40466479917824,103.748504488379,103.748504488379,682686,CHOA CHU KANG CRESCENT,686B CHOA CHU KANG CRESCENT SINGAPORE 682686,18561.3533974113,42946.3839688543
687B CHOA CHU KANG DRIVE SINGAPORE 682687,687B,NIL,1.40440569281917,103.750668870917,103.750668870917,682687,CHOA CHU KANG DRIVE,687B CHOA CHU KANG DRIVE SINGAPORE 682687,18802.2186869811,42917.7246376686
688B CHOA CHU KANG DRIVE SINGAPORE 682688,688B,NIL,1.40343593772923,103.75033691367,103.75033691367,682688,CHOA CHU KANG DRIVE,688B CHOA CHU KANG DRIVE SINGAPORE 682688,18765.2725569448,42810.4952203278
689B CHOA CHU KANG DRIVE SINGAPORE 682689,689B,NIL,1.40313482841143,103.749793059631,103.749793059631,682689,CHOA CHU KANG DRIVE,689B CHOA CHU KANG DRIVE SINGAPORE 682689,18704.747788664,42777.2021937817
690B CHOA CHU KANG CRESCENT SINGAPORE 682690,690B,NIL,1.40318377742922,103.751873055849,103.751873055849,682690,CHOA CHU KANG CRESCENT,690B CHOA CHU KANG CRESCENT SINGAPORE 682690,18936.2233745931,42782.6065725423
691B CHOA CHU KANG CRESCENT SINGAPORE 682691,691B,NIL,1.40162672032469,103.751577560463,103.751577560463,682691,CHOA CHU KANG CRESCENT,691B CHOA CHU KANG CRESCENT SINGAPORE 682691,18903.332730623,42610.436045954
692B CHOA CHU KANG CRESCENT SINGAPORE 682692,692B,NIL,1.40067815960728,103.751377169268,103.751377169268,682692,CHOA CHU KANG CRESCENT,692B CHOA CHU KANG CRESCENT SINGAPORE 682692,18881.0282231532,42505.549673235
787 CHOA CHU KANG NORTH 6 SINGAPORE 682787,787,NIL,1.39582035325566,103.747752649661,103.747752649661,682787,CHOA CHU KANG NORTH 6,787 CHOA CHU KANG NORTH 6 SINGAPORE 682787,18477.6482872842,41968.411854893
792B CHOA CHU KANG NORTH 6 SINGAPORE 682792,792B,NIL,1.395513648873,103.749123947874,103.749123947874,682792,CHOA CHU KANG NORTH 6,792B CHOA CHU KANG NORTH 6 SINGAPORE 682792,18630.2544669695,41934.4924929589
801B KEAT HONG CLOSE KEAT HONG CREST SINGAPORE 682801,801B,KEAT HONG CREST,1.37582471905172,103.742823385612,103.742823385612,682801,KEAT HONG CLOSE,KEAT HONG CREST,17929.0017340295,39757.4138568155
802B KEAT HONG CLOSE KEAT HONG CREST SINGAPORE 682802,802B,KEAT HONG CREST,1.37474137483876,103.742851486532,103.742851486532,682802,KEAT HONG CLOSE,KEAT HONG CREST,17932.1244819099,39637.622893285
803B KEAT HONG CLOSE KEAT HONG PRIDE SINGAPORE 682803,803B,KEAT HONG PRIDE,1.37381927100149,103.743367182453,103.743367182453,682803,KEAT HONG CLOSE,KEAT HONG PRIDE,17989.5113077825,39535.6590457316
804B KEAT HONG CLOSE KEAT HONG PRIDE SINGAPORE 682804,804B,KEAT HONG PRIDE,1.3731140372383,103.74188877037,103.74188877037,682804,KEAT HONG CLOSE,KEAT HONG PRIDE,17824.9790279567,39457.6840281393
805B KEAT HONG CLOSE KEAT HONG PRIDE SINGAPORE 682805,805B,KEAT HONG PRIDE,1.37274770355775,103.74315742408,103.74315742408,682805,KEAT HONG CLOSE,KEAT HONG PRIDE,17966.1632813066,39417.1713005081
807B CHOA CHU KANG AVENUE 1 KEAT HONG AXIS SINGAPORE 682807,807B,KEAT HONG AXIS,1.37604418165093,103.745170882728,103.745170882728,682807,CHOA CHU KANG AVENUE 1,KEAT HONG AXIS,18190.2503010705,39781.6711637899
808B CHOA CHU KANG AVENUE 1 KEAT HONG AXIS SINGAPORE 682808,808B,KEAT HONG AXIS,1.37559249810909,103.7460213304,103.7460213304,682808,CHOA CHU KANG AVENUE 1,KEAT HONG AXIS,18284.8928681854,39731.7227554508
809B CHOA CHU KANG AVENUE 1 KEAT HONG AXIS SINGAPORE 682809,809B,KEAT HONG AXIS,1.37476188616122,103.744965122728,103.744965122728,682809,CHOA CHU KANG AVENUE 1,KEAT HONG AXIS,18167.346487524,39639.8821258564
810B CHOA CHU KANG AVENUE 7 KEAT HONG COLOURS SINGAPORE 682810,810B,KEAT HONG COLOURS,1.37421764851385,103.745467656318,103.745467656318,682810,CHOA CHU KANG AVENUE 7,KEAT HONG COLOURS,18223.2701287959,39579.7009597272
811B CHOA CHU KANG AVENUE 7 KEAT HONG COLOURS SINGAPORE 682811,811B,KEAT HONG COLOURS,1.37312145835945,103.745382153467,103.745382153467,682811,CHOA CHU KANG AVENUE 7,KEAT HONG COLOURS,18213.7502425574,39458.4900342766
812B CHOA CHU KANG AVENUE 7 KEAT HONG COLOURS SINGAPORE 682812,812B,KEAT HONG COLOURS,1.37298072773967,103.746249268178,103.746249268178,682812,CHOA CHU KANG AVENUE 7,KEAT HONG COLOURS,18310.249024041,39442.925207939
813B CHOA CHU KANG AVENUE 7 KEAT HONG COLOURS SINGAPORE 682813,813B,KEAT HONG COLOURS,1.37389487423615,103.744734782719,103.744734782719,682813,CHOA CHU KANG AVENUE 7,KEAT HONG COLOURS,18141.7088999553,39544.0131908469
815B CHOA CHU KANG AVENUE 7 KEAT HONG QUAD SINGAPORE 682815,815B,KEAT HONG QUAD,1.37684626113984,103.747376759116,103.747376759116,682815,CHOA CHU KANG AVENUE 7,KEAT HONG QUAD,18435.7404780164,39870.3521790989
816B KEAT HONG LINK KEAT HONG MIRAGE SINGAPORE 682816,816B,KEAT HONG MIRAGE,1.37604113515339,103.748460043787,103.748460043787,682816,KEAT HONG LINK,KEAT HONG MIRAGE,18556.2935591089,39781.3210237548
817B KEAT HONG LINK KEAT HONG MIRAGE SINGAPORE 682817,817B,KEAT HONG MIRAGE,1.37708774602652,103.748768050663,103.748768050663,682817,KEAT HONG LINK,KEAT HONG MIRAGE,18590.5750471996,39897.0488434173
818B CHOA CHU KANG AVENUE 1 KEAT HONG MIRAGE SINGAPORE 682818,818B,KEAT HONG MIRAGE,1.37725874802106,103.748291851205,103.748291851205,682818,CHOA CHU KANG AVENUE 1,KEAT HONG MIRAGE,18537.5805900516,39915.9592808001
820B KEAT HONG LINK KEAT HONG VERGE SINGAPORE 682820,820B,KEAT HONG VERGE,1.37473334970214,103.750063085928,103.750063085928,682820,KEAT HONG LINK,KEAT HONG VERGE,18734.687425294,39636.7063182015
161C JALAN TECK WHYE TECK WHYE VIEW SINGAPORE 683161,161C,TECK WHYE VIEW,1.38049970002909,103.758352607594,103.758352607594,683161,JALAN TECK WHYE,TECK WHYE VIEW,19657.2298714789,40274.2900144439
296C CHOA CHU KANG AVENUE 2 SINGAPORE 683296,296C,NIL,1.37658460954055,103.742297171999,103.742297171999,683296,CHOA CHU KANG AVENUE 2,296C CHOA CHU KANG AVENUE 2 SINGAPORE 683296,17870.4438095996,39841.441018289
297C CHOA CHU KANG AVENUE 2 SINGAPORE 683297,297C,NIL,1.37780775426379,103.74306718468,103.74306718468,683297,CHOA CHU KANG AVENUE 2,297C CHOA CHU KANG AVENUE 2 SINGAPORE 683297,17956.1418848457,39976.6870564483
476C CHOA CHU KANG AVENUE 5 SUNSHINE COURT SINGAPORE 683476,476C,SUNSHINE COURT,1.37734684156778,103.737912934165,103.737912934165,683476,CHOA CHU KANG AVENUE 5,SUNSHINE COURT,17382.5353231067,39925.7439513616
484C CHOA CHU KANG AVENUE 5 SINGAPORE 683484,484C,NIL,1.37549260049004,103.73687123842,103.73687123842,683484,CHOA CHU KANG AVENUE 5,484C CHOA CHU KANG AVENUE 5 SINGAPORE 683484,17266.5991083747,39720.7157729045
485C CHOA CHU KANG AVENUE 5 SINGAPORE 683485,485C,NIL,1.37479885966148,103.738969879592,103.738969879592,683485,CHOA CHU KANG AVENUE 5,485C CHOA CHU KANG AVENUE 5 SINGAPORE 683485,17500.1492013717,39643.995998865
487C CHOA CHU KANG AVENUE 5 SUNSHINE GARDENS SINGAPORE 683487,487C,SUNSHINE GARDENS,1.37651280702577,103.739137682367,103.739137682367,683487,CHOA CHU KANG AVENUE 5,SUNSHINE GARDENS,17518.8310852097,39833.5151046086
488C CHOA CHU KANG AVENUE 5 SUNSHINE GARDENS SINGAPORE 683488,488C,SUNSHINE GARDENS,1.37659678332207,103.73994960705,103.73994960705,683488,CHOA CHU KANG AVENUE 5,SUNSHINE GARDENS,17609.1887046741,39842.7972358353
489C CHOA CHU KANG AVENUE 5 SUNSHINE GARDENS SINGAPORE 683489,489C,SUNSHINE GARDENS,1.37605683547385,103.739806181184,103.739806181184,683489,CHOA CHU KANG AVENUE 5,SUNSHINE GARDENS,17593.2248252379,39783.0930931289
490C CHOA CHU KANG AVENUE 5 SUNSHINE GARDENS SINGAPORE 683490,490C,SUNSHINE GARDENS,1.37575014356152,103.741751767068,103.741751767068,683490,CHOA CHU KANG AVENUE 5,SUNSHINE GARDENS,17809.7433962096,39749.1722177956
683C CHOA CHU KANG CRESCENT SINGAPORE 683683,683C,NIL,1.40467861884756,103.746314893319,103.746314893319,683683,CHOA CHU KANG CRESCENT,683C CHOA CHU KANG CRESCENT SINGAPORE 683683,18317.6813274426,42947.9210376032
684C CHOA CHU KANG CRESCENT SINGAPORE 683684,684C,NIL,1.40454365827993,103.747282690567,103.747282690567,683684,CHOA CHU KANG CRESCENT,684C CHOA CHU KANG CRESCENT SINGAPORE 683684,18425.3834398845,42932.9937760737
685C CHOA CHU KANG CRESCENT SINGAPORE 683685,685C,NIL,1.40349428170579,103.748677231954,103.748677231954,683685,CHOA CHU KANG CRESCENT,685C CHOA CHU KANG CRESCENT SINGAPORE 683685,18580.5727195684,42816.9532276019
686C CHOA CHU KANG CRESCENT SINGAPORE 683686,686C,NIL,1.40468369607815,103.74900201661,103.74900201661,683686,CHOA CHU KANG CRESCENT,686C CHOA CHU KANG CRESCENT SINGAPORE 683686,18616.7215909138,42948.4714911561
687C CHOA CHU KANG DRIVE SINGAPORE 683687,687C,NIL,1.40368559369126,103.751204967067,103.751204967067,683687,CHOA CHU KANG DRIVE,687C CHOA CHU KANG DRIVE SINGAPORE 683687,18861.8760959208,42838.0975329876
688C CHOA CHU KANG CRESCENT SINGAPORE 683688,688C,NIL,1.40318701316163,103.750993347138,103.750993347138,683688,CHOA CHU KANG CRESCENT,688C CHOA CHU KANG CRESCENT SINGAPORE 683688,18838.3237302862,42782.9677906614
690C CHOA CHU KANG CRESCENT SINGAPORE 683690,690C,NIL,1.4026489125138,103.751931750242,103.751931750242,683690,CHOA CHU KANG CRESCENT,690C CHOA CHU KANG CRESCENT SINGAPORE 683690,18942.7532077925,42723.4636285231
801C KEAT HONG CLOSE KEAT HONG CREST SINGAPORE 683801,801C,KEAT HONG CREST,1.3752348327006,103.742766625066,103.742766625066,683801,KEAT HONG CLOSE,KEAT HONG CREST,17922.6825054614,39692.1873810161
802C KEAT HONG CLOSE KEAT HONG CREST SINGAPORE 683802,802C,KEAT HONG CREST,1.37479380170162,103.742607118184,103.742607118184,683802,KEAT HONG CLOSE,KEAT HONG CREST,17904.9294855073,39643.4210282452
803C KEAT HONG CLOSE KEAT HONG PRIDE SINGAPORE 683803,803C,KEAT HONG PRIDE,1.37338731917488,103.744026034489,103.744026034489,683803,KEAT HONG CLOSE,KEAT HONG PRIDE,18062.8317451077,39487.893201163
804C KEAT HONG CLOSE SINGAPORE 683804,804C,NIL,1.37395762185285,103.742294139695,103.742294139695,683804,KEAT HONG CLOSE,804C KEAT HONG CLOSE SINGAPORE 683804,17870.0952737667,39550.9617210645
805C KEAT HONG CLOSE KEAT HONG PRIDE SINGAPORE 683805,805C,KEAT HONG PRIDE,1.37268736243732,103.743618216079,103.743618216079,683805,KEAT HONG CLOSE,KEAT HONG PRIDE,18017.4436020004,39410.4971495625
807C CHOA CHU KANG AVENUE 1 KEAT HONG AXIS SINGAPORE 683807,807C,KEAT HONG AXIS,1.37615600248366,103.745821319559,103.745821319559,683807,CHOA CHU KANG AVENUE 1,KEAT HONG AXIS,18262.6363960067,39794.0330926273
808C CHOA CHU KANG AVENUE 1 KEAT HONG AXIS SINGAPORE 683808,808C,KEAT HONG AXIS,1.37503135118645,103.746186610645,103.746186610645,683808,CHOA CHU KANG AVENUE 1,KEAT HONG AXIS,18303.2842701841,39669.6732374914
809C CHOA CHU KANG AVENUE 1 KEAT HONG AXIS SINGAPORE 683809,809C,KEAT HONG AXIS,1.37565973646025,103.744191224641,103.744191224641,683809,CHOA CHU KANG AVENUE 1,KEAT HONG AXIS,18081.2247815775,39739.1651683599
812C CHOA CHU KANG AVENUE 7 KEAT HONG COLOURS SINGAPORE 683812,812C,KEAT HONG COLOURS,1.3727609833656,103.745917783867,103.745917783867,683812,CHOA CHU KANG AVENUE 7,KEAT HONG COLOURS,18273.3579514669,39418.6283104401
815C CHOA CHU KANG AVENUE 7 KEAT HONG QUAD SINGAPORE 683815,815C,KEAT HONG QUAD,1.37630418227263,103.747457565703,103.747457565703,683815,CHOA CHU KANG AVENUE 7,KEAT HONG QUAD,18444.7310982924,39810.411461832
817C KEAT HONG LINK KEAT HONG MIRAGE SINGAPORE 683817,817C,KEAT HONG MIRAGE,1.37756652387037,103.748989532974,103.748989532974,683817,KEAT HONG LINK,KEAT HONG MIRAGE,18615.2251720671,39949.9888484627
818C CHOA CHU KANG AVENUE 1 KEAT HONG MIRAGE SINGAPORE 683818,818C,KEAT HONG MIRAGE,1.37672184041416,103.748150083183,103.748150083183,683818,CHOA CHU KANG AVENUE 1,KEAT HONG MIRAGE,18521.8014361206,39856.5912640542
296D CHOA CHU KANG AVENUE 2 SINGAPORE 684296,296D,NIL,1.37662308147899,103.74306824591,103.74306824591,684296,CHOA CHU KANG AVENUE 2,296D CHOA CHU KANG AVENUE 2 SINGAPORE 684296,17956.2550265687,39845.6917933859
297D CHOA CHU KANG AVENUE 2 SINGAPORE 684297,297D,NIL,1.37810720091878,103.743046311747,103.743046311747,684297,CHOA CHU KANG AVENUE 2,297D CHOA CHU KANG AVENUE 2 SINGAPORE 684297,17953.8202396911,40009.7984750923
476D CHOA CHU KANG AVENUE 5 SUNSHINE COURT SINGAPORE 684476,476D,SUNSHINE COURT,1.37727907968964,103.738418034791,103.738418034791,684476,CHOA CHU KANG AVENUE 5,SUNSHINE COURT,17438.7465102235,39918.2489326969
484D CHOA CHU KANG AVENUE 5 SINGAPORE 684484,484D,NIL,1.37534797754277,103.737317097286,103.737317097286,684484,CHOA CHU KANG AVENUE 5,484D CHOA CHU KANG AVENUE 5 SINGAPORE 684484,17316.2171114022,39704.7220795043
485D CHOA CHU KANG AVENUE 5 SINGAPORE 684485,485D,NIL,1.37519914641013,103.738966077649,103.738966077649,684485,CHOA CHU KANG AVENUE 5,485D CHOA CHU KANG AVENUE 5 SINGAPORE 684485,17499.72784077,39688.2577492259
488D CHOA CHU KANG AVENUE 5 SUNSHINE GARDENS SINGAPORE 684488,488D,SUNSHINE GARDENS,1.37642221610651,103.740504704448,103.740504704448,684488,CHOA CHU KANG AVENUE 5,SUNSHINE GARDENS,17670.9634801457,39823.4920434076
489D CHOA CHU KANG AVENUE 5 SUNSHINE GARDENS SINGAPORE 684489,489D,SUNSHINE GARDENS,1.3758879374176,103.740225214266,103.740225214266,684489,CHOA CHU KANG AVENUE 5,SUNSHINE GARDENS,17639.8573456919,39764.4153560046
490D CHOA CHU KANG AVENUE 5 SUNSHINE GARDENS SINGAPORE 684490,490D,SUNSHINE GARDENS,1.37602869228672,103.741368197927,103.741368197927,684490,CHOA CHU KANG AVENUE 5,SUNSHINE GARDENS,17767.0580327073,39779.9744011573
684D CHOA CHU KANG CRESCENT SINGAPORE 684684,684D,NIL,1.40467820311031,103.746800063318,103.746800063318,684684,CHOA CHU KANG CRESCENT,684D CHOA CHU KANG CRESCENT SINGAPORE 684684,18371.6741437651,42947.873062849
686D CHOA CHU KANG CRESCENT SINGAPORE 684686,686D,NIL,1.40411744569373,103.748355036188,103.748355036188,684686,CHOA CHU KANG CRESCENT,686D CHOA CHU KANG CRESCENT SINGAPORE 684686,18544.7192032076,42885.8609258495
687D CHOA CHU KANG DRIVE SINGAPORE 684687,687D,NIL,1.40368580815325,103.751581291592,103.751581291592,684687,CHOA CHU KANG DRIVE,687D CHOA CHU KANG DRIVE SINGAPORE 684687,18903.7559073037,42838.1197799556
690D CHOA CHU KANG CRESCENT SINGAPORE 684690,690D,NIL,1.40214978725236,103.752101604265,103.752101604265,684690,CHOA CHU KANG CRESCENT,690D CHOA CHU KANG CRESCENT SINGAPORE 684690,18961.6537475446,42668.2721697781
801D KEAT HONG CLOSE KEAT HONG CREST SINGAPORE 684801,801D,KEAT HONG CREST,1.37513575657307,103.743031630831,103.743031630831,684801,KEAT HONG CLOSE,KEAT HONG CREST,17952.1739943242,39681.2309157327
803D KEAT HONG CLOSE KEAT HONG PRIDE SINGAPORE 684803,803D,KEAT HONG PRIDE,1.37289698327409,103.744347570659,103.744347570659,684803,KEAT HONG CLOSE,KEAT HONG PRIDE,18098.6127999155,39433.6729512122
805D KEAT HONG CLOSE KEAT HONG PRIDE SINGAPORE 684805,805D,KEAT HONG PRIDE,1.37241665311801,103.744743989242,103.744743989242,684805,KEAT HONG CLOSE,KEAT HONG PRIDE,18142.7274176078,39380.5587841887
808D CHOA CHU KANG AVENUE 1 KEAT HONG AXIS SINGAPORE 684808,808D,KEAT HONG AXIS,1.37488445323866,103.745409019573,103.745409019573,684808,CHOA CHU KANG AVENUE 1,KEAT HONG AXIS,18216.7472875007,39653.4331627041
