ADDRESS,BLK_NO,BUILDING,LATITUDE,LONGITUDE,LONGTITUDE,POSTAL,ROAD_NAME,SEARCHVAL,X,Y
2B BOON TIONG ROAD BOON TIONG ARCADIA SINGAPORE 165002,2B,BOON TIONG ARCADIA,1.28683011386416,103.833287124373,103.833287124373,165002,BOON TIONG ROAD,BOON TIONG ARCADIA,27996.4993307348,29916.6554514114
4B BOON TIONG ROAD BOON TIONG ARCADIA SINGAPORE 165004,4B,BOON TIONG ARCADIA,1.28658878251864,103.831950295943,103.831950295943,165004,BOON TIONG ROAD,BOON TIONG ARCADIA,27847.7215364333,29889.9703191947
6B BOON TIONG ROAD BOON TIONG ARCADIA SINGAPORE 165006,6B,BOON TIONG ARCADIA,1.28654599608856,103.83082447985,103.83082447985,165006,BOON TIONG ROAD,BOON TIONG ARCADIA,27722.4276415883,29885.2393122669
8B BOON TIONG ROAD BOON TIONG ARCADIA SINGAPORE 165008,8B,BOON TIONG ARCADIA,1.2870169493471,103.830303346649,103.830303346649,165008,BOON TIONG ROAD,BOON TIONG ARCADIA,27664.4299472682,29937.3149545025
18A JALAN MEMBINA MULTI STOREY CAR PARK SINGAPORE 165018,18A,MULTI STOREY CAR PARK,1.28525463304241,103.826764422959,103.826764422959,165018,JALAN MEMBINA,MULTI STOREY CAR PARK,27270.5769803459,29742.44785925
20A JALAN MEMBINA SINGAPORE 165020,20A,NIL,1.28538060734624,103.825748372188,103.825748372188,165020,JALAN MEMBINA,20A JALAN MEMBINA SINGAPORE 165020,27157.499031852,29756.3777604494
22 TIONG BAHRU ROAD SINGAPORE 165022,22,NIL,1.28569948373915,103.83171175159,103.83171175159,165022,TIONG BAHRU ROAD,22 TIONG BAHRU ROAD SINGAPORE 165022,27821.1734879157,29791.6362687852
26B JALAN MEMBINA MEMBINA COURT SINGAPORE 165026,26B,MEMBINA COURT,1.28309207069724,103.825592376594,103.825592376594,165026,JALAN MEMBINA,MEMBINA COURT,27140.1372558558,29503.3232511561
2C BOON TIONG ROAD BOON TIONG ARCADIA SINGAPORE 166002,2C,BOON TIONG ARCADIA,1.2868576787328,103.832845909249,103.832845909249,166002,BOON TIONG ROAD,BOON TIONG ARCADIA,27947.3957926258,29919.7034373712
6C BOON TIONG ROAD BOON TIONG ARCADIA SINGAPORE 166006,6C,BOON TIONG ARCADIA,1.28696754183017,103.830727744036,103.830727744036,166006,BOON TIONG ROAD,BOON TIONG ARCADIA,27711.661804067,29931.8516742438
8C BOON TIONG ROAD BOON TIONG ARCADIA SINGAPORE 166008,8C,BOON TIONG ARCADIA,1.2869868682052,103.829630154394,103.829630154394,166008,BOON TIONG ROAD,BOON TIONG ARCADIA,27589.5093021793,29933.9888360389
22 JALAN MEMBINA SINGAPORE 166022,22,NIL,1.2848879468295,103.826444566955,103.826444566955,166022,JALAN MEMBINA,22 JALAN MEMBINA SINGAPORE 166022,27234.979561395,29701.9016854987
26C JALAN MEMBINA MEMBINA COURT SINGAPORE 166026,26C,MEMBINA COURT,1.28275797395281,103.825205576961,103.825205576961,166026,JALAN MEMBINA,MEMBINA COURT,27097.089524054,29466.3806927409
2D BOON TIONG ROAD BOON TIONG ARCADIA SINGAPORE 167002,2D,BOON TIONG ARCADIA,1.28661252726688,103.832818041614,103.832818041614,167002,BOON TIONG ROAD,BOON TIONG ARCADIA,27944.2943534059,29892.5958549064
8A JALAN KUKOH MULTI STOREY CAR PARK SINGAPORE 167008,8A,MULTI STOREY CAR PARK,1.28731262587884,103.83894413686,103.83894413686,167008,JALAN KUKOH,MULTI STOREY CAR PARK,28626.07720582,29970.0098251533
26D JALAN MEMBINA MEMBINA COURT SINGAPORE 167026,26D,MEMBINA COURT,1.28209883987158,103.825202810934,103.825202810934,167026,JALAN MEMBINA,MEMBINA COURT,27096.7814565152,29393.49705269
1 HOSPITAL BOULEVARD SINGAPORE 168581,1,NIL,1.27761679655854,103.833808547746,103.833808547746,168581,HOSPITAL BOULEVARD,1 HOSPITAL BOULEVARD SINGAPORE 168581,28054.5295631373,28897.8944447357
10 HOSPITAL BOULEVARD OUTRAM COMMUNITY HOSPITAL SINGAPORE 168582,10,OUTRAM COMMUNITY HOSPITAL,1.27764256606376,103.835431639678,103.835431639678,168582,HOSPITAL BOULEVARD,OUTRAM COMMUNITY HOSPITAL,28235.1667106673,28900.7439937945
30 HOSPITAL BOULEVARD SINGAPORE 168583,30,NIL,1.28112632880812,103.837831661153,103.837831661153,168583,HOSPITAL BOULEVARD,30 HOSPITAL BOULEVARD SINGAPORE 168583,28502.2692268305,29285.9608087987
5 KIM TIAN ROAD HIGHLINE RESIDENCES SINGAPORE 168591,5,HIGHLINE RESIDENCES,1.28401388688187,103.829756642565,103.829756642565,168591,KIM TIAN ROAD,HIGHLINE RESIDENCES,27603.5859122947,29605.2518970426
7 KIM TIAN ROAD HIGHLINE RESIDENCES SINGAPORE 168592,7,HIGHLINE RESIDENCES,1.28543518050294,103.829787748778,103.829787748778,168592,KIM TIAN ROAD,HIGHLINE RESIDENCES,27607.0479945401,29762.4111987147
9 KIM TIAN ROAD HIGHLINE RESIDENCES SINGAPORE 168593,9,HIGHLINE RESIDENCES,1.28491570888524,103.829805974467,103.829805974467,168593,KIM TIAN ROAD,HIGHLINE RESIDENCES,27609.0762823978,29704.9707077071
11 KIM TIAN ROAD HIGHLINE RESIDENCES SINGAPORE 168594,11,HIGHLINE RESIDENCES,1.28416577731538,103.829816710958,103.829816710958,168594,KIM TIAN ROAD,HIGHLINE RESIDENCES,27610.2710505184,29622.0471471883
13 KIM TIAN ROAD HIGHLINE RESIDENCES SINGAPORE 168595,13,HIGHLINE RESIDENCES,1.28401388688187,103.829756642565,103.829756642565,168595,KIM TIAN ROAD,HIGHLINE RESIDENCES,27603.5859122947,29605.2518970426
110 ZION ROAD SINGAPORE 168604,110,NIL,1.28750958189827,103.833482491383,103.833482491383,168604,ZION ROAD,110 ZION ROAD SINGAPORE 168604,28018.2420341577,29991.7875183653
3 YORK HILL OUTRAM SECONDARY SCHOOL SINGAPORE 168622,3,OUTRAM SECONDARY SCHOOL,1.28638748563468,103.83707282942,103.83707282942,168622,YORK HILL,OUTRAM SECONDARY SCHOOL,28417.8165883105,29867.7122125439
1 YONG SIAK STREET TIONG BAHRU ESTATE SINGAPORE 168641,1,TIONG BAHRU ESTATE,1.2822425556884,103.830533720291,103.830533720291,168641,YONG SIAK STREET,TIONG BAHRU ESTATE,27690.0680191237,29409.3871387821
3 YONG SIAK STREET TIONG BAHRU ESTATE SINGAPORE 168642,3,TIONG BAHRU ESTATE,1.28238780920064,103.830372680413,103.830372680413,168642,YONG SIAK STREET,TIONG BAHRU ESTATE,27672.145619533,29425.4485416617
5 YONG SIAK STREET TIONG BAHRU ESTATE SINGAPORE 168643,5,TIONG BAHRU ESTATE,1.28242294361819,103.830340294234,103.830340294234,168643,YONG SIAK STREET,TIONG BAHRU ESTATE,27668.5413080323,29429.333528176
7 YONG SIAK STREET TIONG BAHRU ESTATE SINGAPORE 168644,7,TIONG BAHRU ESTATE,1.28247299347353,103.830307238448,103.830307238448,168644,YONG SIAK STREET,TIONG BAHRU ESTATE,27664.8624767549,29434.8677868545
9 YONG SIAK STREET TIONG BAHRU ESTATE SINGAPORE 168645,9,TIONG BAHRU ESTATE,1.2825061550932,103.830272290315,103.830272290315,168645,YONG SIAK STREET,TIONG BAHRU ESTATE,27660.9730408471,29438.5346320085
11 YONG SIAK STREET YONG SIAK COURT SINGAPORE 168646,11,YONG SIAK COURT,1.28263588582996,103.83018632791,103.83018632791,168646,YONG SIAK STREET,YONG SIAK COURT,27651.40614843,29452.8795980681
13 YONG SIAK STREET YONG SIAK COURT SINGAPORE 168647,13,YONG SIAK COURT,1.28263588582996,103.830186327366,103.830186327366,168647,YONG SIAK STREET,YONG SIAK COURT,27651.406087894,29452.8795980681
15 YONG SIAK STREET YONG SIAK COURT SINGAPORE 168649,15,YONG SIAK COURT,1.28263588582996,103.830186327366,103.830186327366,168649,YONG SIAK STREET,YONG SIAK COURT,27651.406087894,29452.8795980681
19 YONG SIAK STREET YONG SIAK VIEW SINGAPORE 168650,19,YONG SIAK VIEW,1.28273291506553,103.830114614569,103.830114614569,168650,YONG SIAK STREET,YONG SIAK VIEW,27643.4250562154,29463.6085994523
21 YONG SIAK STREET YONG SIAK VIEW SINGAPORE 168651,21,YONG SIAK VIEW,1.28276649495118,103.830083298585,103.830083298585,168651,YONG SIAK STREET,YONG SIAK VIEW,27639.9398492305,29467.3216940872
23 YONG SIAK STREET YONG SIAK VIEW SINGAPORE 168652,23,YONG SIAK VIEW,1.28283447654066,103.830077008385,103.830077008385,168652,YONG SIAK STREET,YONG SIAK VIEW,27639.2398113031,29474.8387478441
25 YONG SIAK STREET TIONG BAHRU ESTATE SINGAPORE 168653,25,TIONG BAHRU ESTATE,1.28283709332215,103.829995070187,103.829995070187,168653,YONG SIAK STREET,TIONG BAHRU ESTATE,27630.1207639724,29475.128109768
27 YONG SIAK STREET TIONG BAHRU ESTATE SINGAPORE 168654,27,TIONG BAHRU ESTATE,1.28288890602224,103.829968611553,103.829968611553,168654,YONG SIAK STREET,TIONG BAHRU ESTATE,27627.1761431769,29480.8572942615
61 TIONG BAHRU ROAD SINGAPORE 168719,61,NIL,1.28480253144016,103.833835651681,103.833835651681,168719,TIONG BAHRU ROAD,61 TIONG BAHRU ROAD SINGAPORE 168719,28057.5458585182,29692.4558650162
65 TIONG BAHRU ROAD TIONG BAHRU ESTATE SINGAPORE 168721,65,TIONG BAHRU ESTATE,1.28488443127014,103.833814355097,103.833814355097,168721,TIONG BAHRU ROAD,TIONG BAHRU ESTATE,28055.1757240538,29701.5119246729
67 TIONG BAHRU ROAD TIONG BAHRU ESTATE SINGAPORE 168722,67,TIONG BAHRU ESTATE,1.28492061604382,103.833785775152,103.833785775152,168722,TIONG BAHRU ROAD,TIONG BAHRU ESTATE,28051.9950129846,29705.5130494405
69 TIONG BAHRU ROAD TIONG BAHRU ESTATE SINGAPORE 168723,69,TIONG BAHRU ESTATE,1.28493471604134,103.833729192098,103.833729192098,168723,TIONG BAHRU ROAD,TIONG BAHRU ESTATE,28045.6977892397,29707.0721532814
71 TIONG BAHRU ROAD TIONG BAHRU ESTATE SINGAPORE 168724,71,TIONG BAHRU ESTATE,1.28497056220628,103.833700810961,103.833700810961,168724,TIONG BAHRU ROAD,TIONG BAHRU ESTATE,28042.5392040676,29711.0358365532
73 TIONG BAHRU ROAD TIONG BAHRU ESTATE SINGAPORE 168725,73,TIONG BAHRU ESTATE,1.28500666650111,103.833672673236,103.833672673236,168725,TIONG BAHRU ROAD,TIONG BAHRU ESTATE,28039.4077087399,29715.0280625336
77 TIONG BAHRU ROAD NOSTALGIA HOTEL SINGAPORE 168727,77,NOSTALGIA HOTEL,1.28509462596807,103.833551410856,103.833551410856,168727,TIONG BAHRU ROAD,NOSTALGIA HOTEL,28025.912213644,29724.7541645449
298 TIONG BAHRU ROAD CENTRAL PLAZA SINGAPORE 168730,298,CENTRAL PLAZA,1.2863085351796,103.828004844701,103.828004844701,168730,TIONG BAHRU ROAD,CENTRAL PLAZA,27408.6258337982,29858.9825930931
300 TIONG BAHRU ROAD CITIBANK TIONG BAHRU SMRT STATION SINGAPORE 168731,300,CITIBANK TIONG BAHRU SMRT STATION,1.28609651428968,103.827321876853,103.827321876853,168731,TIONG BAHRU ROAD,CITIBANK TIONG BAHRU SMRT STATION,27332.6171757672,29835.53858684
302 TIONG BAHRU ROAD DBS NTUC TIONG BAHRU PLAZA SINGAPORE 168732,302,DBS NTUC TIONG BAHRU PLAZA,1.28633177192832,103.827550771424,103.827550771424,168732,TIONG BAHRU ROAD,DBS NTUC TIONG BAHRU PLAZA,27358.0912859552,29861.5521027669
50 TIONG BAHRU ROAD LINK HOTEL SINGAPORE 168733,50,LINK HOTEL,1.28487239482043,103.834290651541,103.834290651541,168733,TIONG BAHRU ROAD,LINK HOTEL,28108.1835596496,29700.1810111608
51 TIONG BAHRU ROAD LINK HOTEL SINGAPORE 168734,51,LINK HOTEL,1.28384826456824,103.834885670366,103.834885670366,168734,TIONG BAHRU ROAD,LINK HOTEL,28174.4042781787,29586.938011352
11 THIRD HOSPITAL AVENUE SINGAPORE 168751,11,NIL,1.28108025745121,103.835736510976,103.835736510976,168751,THIRD HOSPITAL AVENUE,11 THIRD HOSPITAL AVENUE SINGAPORE 168751,28269.096091303,29280.866162315
17 THIRD HOSPITAL AVENUE MISTRI WING SINGAPORE 168752,17,MISTRI WING,1.28146830278783,103.836685147987,103.836685147987,168752,THIRD HOSPITAL AVENUE,MISTRI WING,28374.6716054762,29323.7743284442
31 THIRD HOSPITAL AVENUE BOWYER BLOCK SINGAPORE 168753,31,BOWYER BLOCK,1.28006203540064,103.835781297667,103.835781297667,168753,THIRD HOSPITAL AVENUE,BOWYER BLOCK,28274.0805925932,29168.2764363997
1 SPOONER ROAD SINGAPORE 168789,1,NIL,1.27536052880973,103.830499581786,103.830499581786,168789,SPOONER ROAD,1 SPOONER ROAD SINGAPORE 168789,27686.2678434998,28648.4081977755
2 SPOONER ROAD SINGAPORE 168790,2,NIL,1.27564948453352,103.830357021096,103.830357021096,168790,SPOONER ROAD,2 SPOONER ROAD SINGAPORE 168790,27670.4020020626,28680.3594446033
3 SPOONER ROAD SINGAPORE 168794,3,NIL,1.27581229774815,103.831278366668,103.831278366668,168794,SPOONER ROAD,3 SPOONER ROAD SINGAPORE 168794,27772.9404872861,28698.3623872977
11A SPOONER ROAD KAMPONG BAHRU BUS TERMINAL SINGAPORE 168795,11A,KAMPONG BAHRU BUS TERMINAL,1.27596766231773,103.833605844934,103.833605844934,168795,SPOONER ROAD,KAMPONG BAHRU BUS TERMINAL,28031.9703808529,28715.5417078882
9A SPOONER ROAD TEMPORARY SITE OFFICE SINGAPORE 168796,9A,TEMPORARY SITE OFFICE,1.27559570518716,103.831776917602,103.831776917602,168796,SPOONER ROAD,TEMPORARY SITE OFFICE,27828.4252427947,28674.4126635734
3A SIT WAH ROAD TEMPORARY SITE OFFICE SINGAPORE 168813,3A,TEMPORARY SITE OFFICE,1.28279875892066,103.833540798951,103.833540798951,168813,SIT WAH ROAD,TEMPORARY SITE OFFICE,28024.7312174551,29470.8890483808
85A SILAT ROAD TAI YEONG KONG TEMPLE SINGAPORE 168851,85A,TAI YEONG KONG TEMPLE,1.27756170827982,103.828854426187,103.828854426187,168851,SILAT ROAD,TAI YEONG KONG TEMPLE,27503.1754479352,28891.8034972996
148A SILAT AVENUE LEE AH MOOI OLD AGE HOME (SILAT) SINGAPORE 168871,148A,LEE AH MOOI OLD AGE HOME (SILAT),1.27644202347158,103.831097280532,103.831097280532,168871,SILAT AVENUE,LEE AH MOOI OLD AGE HOME (SILAT),27752.7870951518,28767.9942167886
1 SILAT AVENUE AVENUE SOUTH RESIDENCE SINGAPORE 168872,1,AVENUE SOUTH RESIDENCE,1.27639011927215,103.830271330171,103.830271330171,168872,SILAT AVENUE,AVENUE SOUTH RESIDENCE,27660.8653776292,28762.2550135907
3 SILAT AVENUE AVENUE SOUTH RESIDENCE SINGAPORE 168873,3,AVENUE SOUTH RESIDENCE,1.27628087754897,103.829795380026,103.829795380026,168873,SILAT AVENUE,AVENUE SOUTH RESIDENCE,27607.8958915686,28750.1756969169
5 SILAT AVENUE AVENUE SOUTH RESIDENCE SINGAPORE 168874,5,AVENUE SOUTH RESIDENCE,1.27604839626377,103.82936381544,103.82936381544,168874,SILAT AVENUE,AVENUE SOUTH RESIDENCE,27559.8661404504,28724.4691891503
7 SILAT AVENUE AVENUE SOUTH RESIDENCE SINGAPORE 168875,7,AVENUE SOUTH RESIDENCE,1.27636860278109,103.829477800672,103.829477800672,168875,SILAT AVENUE,AVENUE SOUTH RESIDENCE,27572.55184591,28759.8759500701
9 SILAT AVENUE AVENUE SOUTH RESIDENCE SINGAPORE 168876,9,AVENUE SOUTH RESIDENCE,1.27655676812293,103.829974916974,103.829974916974,168876,SILAT AVENUE,AVENUE SOUTH RESIDENCE,27627.8769680718,28780.6822226141
11 SILAT AVENUE AVENUE SOUTH RESIDENCE SINGAPORE 168877,11,AVENUE SOUTH RESIDENCE,1.27662953410733,103.829105212029,103.829105212029,168877,SILAT AVENUE,AVENUE SOUTH RESIDENCE,27531.085737329,28788.7284515295
13 SILAT AVENUE AVENUE SOUTH RESIDENCE SINGAPORE 168878,13,AVENUE SOUTH RESIDENCE,1.27674860205667,103.829703394306,103.829703394306,168878,SILAT AVENUE,AVENUE SOUTH RESIDENCE,27597.6586843831,28801.8942677472
3 SENG POH ROAD GREEN WORLD SINGAPORE 168891,3,GREEN WORLD,1.28556034617751,103.834152079042,103.834152079042,168891,SENG POH ROAD,GREEN WORLD,28092.761567926,29776.2511131987
10 SENG POH ROAD ZION SPORTS CORNER SINGAPORE 168895,10,ZION SPORTS CORNER,1.2858554884641,103.833949313297,103.833949313297,168895,SENG POH ROAD,ZION SPORTS CORNER,28070.1954240054,29808.8864164576
30 SENG POH ROAD DBS TIONG BAHRU MARKET SINGAPORE 168898,30,DBS TIONG BAHRU MARKET,1.28468599168094,103.832421566287,103.832421566287,168898,SENG POH ROAD,DBS TIONG BAHRU MARKET,27900.1698986189,29679.5695130918
1 SECOND HOSPITAL AVENUE HEALTH SCIENCES AUTHORITY BUILDING SINGAPORE 168935,1,HEALTH SCIENCES AUTHORITY BUILDING,1.28040565804382,103.838476070665,103.838476070665,168935,SECOND HOSPITAL AVENUE,HEALTH SCIENCES AUTHORITY BUILDING,28573.9869138822,29206.2728957385
2 SECOND HOSPITAL AVENUE HEALTH SCIENCES AUTHORITY BUILDING SINGAPORE 168936,2,HEALTH SCIENCES AUTHORITY BUILDING,1.28040565804382,103.838476070665,103.838476070665,168936,SECOND HOSPITAL AVENUE,HEALTH SCIENCES AUTHORITY BUILDING,28573.9869138822,29206.2728957385
3 SECOND HOSPITAL AVENUE HEALTH PROMOTION BOARD SINGAPORE 168937,3,HEALTH PROMOTION BOARD,1.27960538581892,103.838346361748,103.838346361748,168937,SECOND HOSPITAL AVENUE,HEALTH PROMOTION BOARD,28559.5515373554,29117.7829016745
5 SECOND HOSPITAL AVENUE HEALTH PROMOTION BOARD SINGAPORE 168938,5,HEALTH PROMOTION BOARD,1.27960538581892,103.838346361476,103.838346361476,168938,SECOND HOSPITAL AVENUE,HEALTH PROMOTION BOARD,28559.5515070874,29117.7829016745
2 PENG NGUAN STREET SPD ABILITY CENTRE SINGAPORE 168955,2,SPD ABILITY CENTRE,1.28195997729211,103.831134285098,103.831134285098,168955,PENG NGUAN STREET,SPD ABILITY CENTRE,27756.9059321079,29378.1410149019
18 PEARL'S HILL TERRACE SINGAPORE 168975,18,NIL,1.28293572907084,103.840927188247,103.840927188247,168975,PEARL'S HILL TERRACE,18 PEARL'S HILL TERRACE SINGAPORE 168975,28846.7755734669,29486.0357527919
195 PEARL'S HILL TERRACE SINGAPORE 168976,195,NIL,1.28401889471841,103.841554531024,103.841554531024,168976,PEARL'S HILL TERRACE,195 PEARL'S HILL TERRACE SINGAPORE 168976,28916.5932786446,29605.8068302572
201 PEARL'S HILL TERRACE YO:HA @ PEARL'S HILL SINGAPORE 168977,201,YO:HA @ PEARL'S HILL,1.28509031470895,103.840964137904,103.840964137904,168977,PEARL'S HILL TERRACE,YO:HA @ PEARL'S HILL,28850.887055303,29724.2787150573
5 PEARL'S HILL ROAD PEARL'S HILL CARE HOME SINGAPORE 168996,5,PEARL'S HILL CARE HOME,1.28582182187,103.841822828341,103.841822828341,168996,PEARL'S HILL ROAD,PEARL'S HILL CARE HOME,28946.4518878823,29805.165300807
10 PEARL'S HILL ROAD SINGAPORE 168997,10,NIL,1.28682256800557,103.841191048207,103.841191048207,168997,PEARL'S HILL ROAD,10 PEARL'S HILL ROAD SINGAPORE 168997,28876.1396946544,29915.8224159628
1 PEARL BANK ONE PEARL BANK SINGAPORE 169016,1,ONE PEARL BANK,1.28296148659589,103.839814598308,103.839814598308,169016,PEARL BANK,ONE PEARL BANK,28722.953459329,29488.8835463077
10 OUTRAM ROAD OUTRAM PARK MRT STATION (EW16) SINGAPORE 169037,10,OUTRAM PARK MRT STATION (EW16),1.28140504772213,103.839130979249,103.839130979249,169037,OUTRAM ROAD,OUTRAM PARK MRT STATION (EW16),28646.8726726929,29316.780396251
225 OUTRAM ROAD SINGAPORE 169038,225,NIL,1.2834507756763,103.835371238027,103.835371238027,169038,OUTRAM ROAD,225 OUTRAM ROAD SINGAPORE 169038,28228.4439796079,29542.9857813921
226 OUTRAM ROAD BESTWAY HOUSE SINGAPORE 169039,226,BESTWAY HOUSE,1.28419578446145,103.835956983734,103.835956983734,169039,OUTRAM ROAD,BESTWAY HOUSE,28293.6325598909,29625.3650630284
231 OUTRAM ROAD SINGAPORE 169040,231,NIL,1.28432210840071,103.83501003183,103.83501003183,169040,OUTRAM ROAD,231 OUTRAM ROAD SINGAPORE 169040,28188.2446466805,29639.3332229573
237 OUTRAM ROAD SINGAPORE 169041,237,NIL,1.28450029576093,103.83496940564,103.83496940564,169041,OUTRAM ROAD,237 OUTRAM ROAD SINGAPORE 169041,28183.7232758086,29659.0362577625
239 OUTRAM ROAD SINGAPORE 169042,239,NIL,1.28456106858096,103.834996252907,103.834996252907,169042,OUTRAM ROAD,239 OUTRAM ROAD SINGAPORE 169042,28186.7111495538,29665.7562041674
240 OUTRAM ROAD SINGAPORE 169043,240,NIL,1.28485505596343,103.835333283572,103.835333283572,169043,OUTRAM ROAD,240 OUTRAM ROAD SINGAPORE 169043,28224.2198403357,29698.2638370711
241 OUTRAM ROAD SINGAPORE 169044,241,NIL,1.28458716113229,103.834924943798,103.834924943798,169044,OUTRAM ROAD,241 OUTRAM ROAD SINGAPORE 169044,28178.7750355629,29668.641378643
243 OUTRAM ROAD SINGAPORE 169045,243,NIL,1.28463641610333,103.83492797194,103.83492797194,169045,OUTRAM ROAD,243 OUTRAM ROAD SINGAPORE 169045,28179.1120392941,29674.087739097
245 OUTRAM ROAD SINGAPORE 169046,245,NIL,1.2846870799954,103.8349034868,103.8349034868,169046,OUTRAM ROAD,245 OUTRAM ROAD SINGAPORE 169046,28176.3870429872,29679.6898888629
247 OUTRAM ROAD SINGAPORE 169047,247,NIL,1.28472748080998,103.83488713491,103.83488713491,169047,OUTRAM ROAD,247 OUTRAM ROAD SINGAPORE 169047,28174.5672107348,29684.1572011169
249 OUTRAM ROAD SINGAPORE 169048,249,NIL,1.28477766347969,103.834861411217,103.834861411217,169048,OUTRAM ROAD,249 OUTRAM ROAD SINGAPORE 169048,28171.7043740302,29689.7061397675
251 OUTRAM ROAD SINGAPORE 169049,251,NIL,1.28481922464564,103.834849449464,103.834849449464,169049,OUTRAM ROAD,251 OUTRAM ROAD SINGAPORE 169049,28170.3731275704,29694.3017580025
253 OUTRAM ROAD SINGAPORE 169050,253,NIL,1.28486969993579,103.834823315367,103.834823315367,169050,OUTRAM ROAD,253 OUTRAM ROAD SINGAPORE 169050,28167.4646164794,29699.8830531277
254 OUTRAM ROAD YWCA CHILD DEVELOPMENT CENTRE (OUTRAM) SINGAPORE 169051,254,YWCA CHILD DEVELOPMENT CENTRE (OUTRAM),1.28526148842899,103.835373176431,103.835373176431,169051,OUTRAM ROAD,YWCA CHILD DEVELOPMENT CENTRE (OUTRAM),28228.6595481876,29743.2050431315
255 OUTRAM ROAD SINGAPORE 169052,255,NIL,1.28490741460955,103.834803665023,103.834803665023,169052,OUTRAM ROAD,255 OUTRAM ROAD SINGAPORE 169052,28165.2776941201,29704.0533456579
256 OUTRAM ROAD CHINESE KINDERGARTEN SINGAPORE 169053,256,CHINESE KINDERGARTEN,1.2857514128117,103.835938248496,103.835938248496,169053,OUTRAM ROAD,CHINESE KINDERGARTEN,28291.5473076887,29797.3784079775
257 OUTRAM ROAD SINGAPORE 169055,257,NIL,1.28494943401947,103.834764981959,103.834764981959,169055,OUTRAM ROAD,257 OUTRAM ROAD SINGAPORE 169055,28160.9725879915,29708.6996324975
259 OUTRAM ROAD COLLER BOUTIQUE HOSTEL SINGAPORE 169056,259,COLLER BOUTIQUE HOSTEL,1.28500520303837,103.834726676666,103.834726676666,169056,OUTRAM ROAD,COLLER BOUTIQUE HOSTEL,28156.7095240932,29714.8662801608
261 OUTRAM ROAD SINGAPORE 169057,261,NIL,1.28513051939678,103.834705367894,103.834705367894,169057,OUTRAM ROAD,261 OUTRAM ROAD SINGAPORE 169057,28154.3380275685,29728.7231144458
263 OUTRAM ROAD SINGAPORE 169058,263,NIL,1.28519555674234,103.834664752219,103.834664752219,169058,OUTRAM ROAD,263 OUTRAM ROAD SINGAPORE 169058,28149.8178371489,29735.9146057684
265 OUTRAM ROAD SINGAPORE 169059,265,NIL,1.28527936366491,103.834666635926,103.834666635926,169059,OUTRAM ROAD,265 OUTRAM ROAD SINGAPORE 169059,28150.0274732038,29745.1815424673
267 OUTRAM ROAD SINGAPORE 169060,267,NIL,1.2853310195617,103.834644101886,103.834644101886,169060,OUTRAM ROAD,267 OUTRAM ROAD SINGAPORE 169060,28147.5196194127,29750.893383408
269 OUTRAM ROAD SINGAPORE 169061,269,NIL,1.285372605364,103.834628995339,103.834628995339,169061,OUTRAM ROAD,269 OUTRAM ROAD SINGAPORE 169061,28145.8383842576,29755.4917257614
271 OUTRAM ROAD SINGAPORE 169062,271,NIL,1.28542437266949,103.834606953564,103.834606953564,169062,OUTRAM ROAD,271 OUTRAM ROAD SINGAPORE 169062,28143.385315517,29761.2158857696
273 OUTRAM ROAD SINGAPORE 169063,273,NIL,1.28546635921475,103.834595810706,103.834595810706,169063,OUTRAM ROAD,273 OUTRAM ROAD SINGAPORE 169063,28142.145205956,29765.858540453
275 OUTRAM ROAD SINGAPORE 169064,275,NIL,1.28551967639378,103.83457886755,103.83457886755,169064,OUTRAM ROAD,275 OUTRAM ROAD SINGAPORE 169064,28140.2595711062,29771.7540777847
277 OUTRAM ROAD SINGAPORE 169065,277,NIL,1.28555872195505,103.834560032564,103.834560032564,169065,OUTRAM ROAD,277 OUTRAM ROAD SINGAPORE 169065,28138.163392162,29776.0715332516
279 OUTRAM ROAD OUTRAM LOFT SINGAPORE 169066,279,OUTRAM LOFT,1.28559658640197,103.83444531186,103.83444531186,169066,OUTRAM ROAD,OUTRAM LOFT,28125.3959328784,29780.258382367
281 OUTRAM ROAD OUTRAM LOFT SINGAPORE 169067,281,OUTRAM LOFT,1.28566331014973,103.834543835989,103.834543835989,169067,OUTRAM ROAD,OUTRAM LOFT,28136.3608429274,29787.636354737
283 OUTRAM ROAD SINGAPORE 169068,283,NIL,1.28568884509235,103.834476130989,103.834476130989,169068,OUTRAM ROAD,283 OUTRAM ROAD SINGAPORE 169068,28128.8258402571,29790.4598733298
285 OUTRAM ROAD SINGAPORE 169069,285,NIL,1.28573462749129,103.834468284949,103.834468284949,169069,OUTRAM ROAD,285 OUTRAM ROAD SINGAPORE 169069,28127.9526391951,29795.5222541429
287 OUTRAM ROAD SINGAPORE 169070,287,NIL,1.2857858640292,103.834441035758,103.834441035758,169070,OUTRAM ROAD,287 OUTRAM ROAD SINGAPORE 169070,28124.9200293701,29801.1877245307
289 OUTRAM ROAD SINGAPORE 169071,289,NIL,1.28584063308768,103.834422577453,103.834422577453,169071,OUTRAM ROAD,289 OUTRAM ROAD SINGAPORE 169071,28122.8657715833,29807.2438032497
305 OUTRAM ROAD SHELL OUTRAM 305 SINGAPORE 169072,305,SHELL OUTRAM 305,1.28679797626503,103.834454808214,103.834454808214,169072,OUTRAM ROAD,SHELL OUTRAM 305,28126.4527395302,29913.1018690504
313 OUTRAM ROAD TAN BOON LIAT BUILDING SINGAPORE 169073,313,TAN BOON LIAT BUILDING,1.2871567528867,103.834554214527,103.834554214527,169073,OUTRAM ROAD,TAN BOON LIAT BUILDING,28137.5158086503,29952.7735402174
315 OUTRAM ROAD CONSULATE OF THE REPUBLIC OF UGANDA SINGAPORE 169074,315,CONSULATE OF THE REPUBLIC OF UGANDA,1.28730201855326,103.833998056127,103.833998056127,169074,OUTRAM ROAD,CONSULATE OF THE REPUBLIC OF UGANDA,28075.6200520471,29968.8362446204
317 OUTRAM ROAD CONCORDE SHOPPING CENTRE SINGAPORE 169075,317,CONCORDE SHOPPING CENTRE,1.28888605616528,103.834206802698,103.834206802698,169075,OUTRAM ROAD,CONCORDE SHOPPING CENTRE,28098.8517283937,30143.9909522608
11 OUTRAM ROAD APPLIED SCIENCES GROUP SINGAPORE 169078,11,APPLIED SCIENCES GROUP,1.2805099226554,103.838352225532,103.838352225532,169078,OUTRAM ROAD,APPLIED SCIENCES GROUP,28560.2039334765,29217.8019102011
13 OUTRAM ROAD SINGAPORE 169080,13,NIL,1.28107274959391,103.839670115774,103.839670115774,169080,OUTRAM ROAD,13 OUTRAM ROAD SINGAPORE 169080,28706.8742588749,29280.0367287584
20 OUTRAM HILL HO LIM KONG TEMPLE SINGAPORE 169115,20,HO LIM KONG TEMPLE,1.28424910602368,103.836432846598,103.836432846598,169115,OUTRAM HILL,HO LIM KONG TEMPLE,28346.5921483217,29631.2611451838
8 LOWER DELTA ROAD SINGAPORE 169198,8,NIL,1.28897410982684,103.82523124027,103.82523124027,169198,LOWER DELTA ROAD,8 LOWER DELTA ROAD SINGAPORE 169198,27099.9478205601,30153.7288890537
1090 LOWER DELTA ROAD SINGAPORE 169201,1090,NIL,1.28002464375284,103.821389337729,103.821389337729,169201,LOWER DELTA ROAD,1090 LOWER DELTA ROAD SINGAPORE 169201,26672.3720519906,29164.1448263545
1091 LOWER DELTA ROAD SINGAPORE 169202,1091,NIL,1.28121414222601,103.823039462033,103.823039462033,169202,LOWER DELTA ROAD,1091 LOWER DELTA ROAD SINGAPORE 169202,26856.0180489784,29295.6726243217
1092 LOWER DELTA ROAD SINGAPORE 169203,1092,NIL,1.28099054750831,103.822193897171,103.822193897171,169203,LOWER DELTA ROAD,1092 LOWER DELTA ROAD SINGAPORE 169203,26761.9134650063,29270.9490693267
1093 LOWER DELTA ROAD SINGAPORE 169204,1093,NIL,1.28165107228552,103.822479989917,103.822479989917,169204,LOWER DELTA ROAD,1093 LOWER DELTA ROAD SINGAPORE 169204,26793.7535677981,29343.9863496646
1094 LOWER DELTA ROAD MOTORWAY BUILDING SINGAPORE 169205,1094,MOTORWAY BUILDING,1.2810351656403,103.821391601005,103.821391601005,169205,LOWER DELTA ROAD,MOTORWAY BUILDING,26672.6244567074,29275.8831138872
1100 LOWER DELTA ROAD EPL BUILDING SINGAPORE 169206,1100,EPL BUILDING,1.28008937312273,103.821987102919,103.821987102919,169206,LOWER DELTA ROAD,EPL BUILDING,26738.8985074228,29171.3019635156
1091A LOWER DELTA ROAD TIONG BAHRU FOOD CENTRE SINGAPORE 169207,1091A,TIONG BAHRU FOOD CENTRE,1.28144932958301,103.823256206086,103.823256206086,169207,LOWER DELTA ROAD,TIONG BAHRU FOOD CENTRE,26880.1399975298,29321.6783311088
120 LOWER DELTA ROAD CENDEX CENTRE SINGAPORE 169208,120,CENDEX CENTRE,1.28020510727238,103.822907194308,103.822907194308,169208,LOWER DELTA ROAD,CENDEX CENTRE,26841.2972756336,29184.0988130122
2 KIM TIAN ROAD KAI FOOK MANSION SINGAPORE 169244,2,KAI FOOK MANSION,1.285250390473,103.829252148941,103.829252148941,169244,KIM TIAN ROAD,KAI FOOK MANSION,27547.4401645586,29741.9781606793
4 KIM TIAN ROAD KAI FOOK MANSION SINGAPORE 169245,4,KAI FOOK MANSION,1.28519539015512,103.829275317055,103.829275317055,169245,KIM TIAN ROAD,KAI FOOK MANSION,27550.0185730197,29735.8965055142
6 KIM TIAN ROAD KAI FOOK MANSION SINGAPORE 169246,6,KAI FOOK MANSION,1.28514430857013,103.829280379311,103.829280379311,169246,KIM TIAN ROAD,KAI FOOK MANSION,27550.5819510007,29730.2481668051
8 KIM TIAN ROAD KAI FOOK MANSION SINGAPORE 169247,8,KAI FOOK MANSION,1.28508532760398,103.82928949121,103.82928949121,169247,KIM TIAN ROAD,KAI FOOK MANSION,27551.5960192587,29723.7263546214
10 KIM TIAN ROAD KAI FOOK MANSION SINGAPORE 169248,10,KAI FOOK MANSION,1.28503456956969,103.829293518076,103.829293518076,169248,KIM TIAN ROAD,KAI FOOK MANSION,27552.0441670259,29718.113792669
12 KIM TIAN ROAD KAI FOOK MANSION SINGAPORE 169249,12,KAI FOOK MANSION,1.2849778986052,103.829283016321,103.829283016321,169249,KIM TIAN ROAD,KAI FOOK MANSION,27550.8753991025,29711.8474119995
14 KIM TIAN ROAD KAI FOOK MANSION SINGAPORE 169250,14,KAI FOOK MANSION,1.28492193829998,103.82930288707,103.82930288707,169250,KIM TIAN ROAD,KAI FOOK MANSION,27553.0868385294,29705.6596070174
16 KIM TIAN ROAD KAI FOOK MANSION SINGAPORE 169251,16,KAI FOOK MANSION,1.28486079073322,103.829309763652,103.829309763652,169251,KIM TIAN ROAD,KAI FOOK MANSION,27553.8521342296,29698.8982237428
18 KIM TIAN ROAD KAI FOOK MANSION SINGAPORE 169252,18,KAI FOOK MANSION,1.28481163867942,103.829306826998,103.829306826998,169252,KIM TIAN ROAD,KAI FOOK MANSION,27553.525300541,29693.4632440507
20 KIM TIAN ROAD DBS NTUC KIM TIAN ROAD SINGAPORE 169253,20,DBS NTUC KIM TIAN ROAD,1.28474840501032,103.829324523902,103.829324523902,169253,KIM TIAN ROAD,DBS NTUC KIM TIAN ROAD,27555.4948079735,29686.4711884707
38 KIM TIAN ROAD REGENCY SUITES SINGAPORE 169262,38,REGENCY SUITES,1.28434128785856,103.82912604887,103.82912604887,169262,KIM TIAN ROAD,REGENCY SUITES,27533.4061112283,29641.454312453
119A KIM TIAN ROAD KIM LAN BEO TEMPLE SINGAPORE 169263,119A,KIM LAN BEO TEMPLE,1.28241539148387,103.82733374088,103.82733374088,169263,KIM TIAN ROAD,KIM LAN BEO TEMPLE,27333.9365874454,29428.4990398642
26 KIM TIAN ROAD TWIN REGENCY SINGAPORE 169277,26,TWIN REGENCY,1.28499003747026,103.82889598252,103.82889598252,169277,KIM TIAN ROAD,TWIN REGENCY,27507.8017579066,29713.1897365414
28 KIM TIAN ROAD TWIN REGENCY SINGAPORE 169278,28,TWIN REGENCY,1.28477665520778,103.828458976585,103.828458976585,169278,KIM TIAN ROAD,TWIN REGENCY,27459.1665865779,29689.5951168034
36 KIM TIAN ROAD REGENCY SUITES SINGAPORE 169279,36,REGENCY SUITES,1.28434104617281,103.829138450421,103.829138450421,169279,KIM TIAN ROAD,REGENCY SUITES,27534.7863010177,29641.4275858235
1 KIM TIAN ROAD HIGHLINE RESIDENCES SINGAPORE 169280,1,HIGHLINE RESIDENCES,1.28401388660814,103.829756642021,103.829756642021,169280,KIM TIAN ROAD,HIGHLINE RESIDENCES,27603.5858517587,29605.2518667746
3 KIM TIAN ROAD HIGHLINE RESIDENCES SINGAPORE 169281,3,HIGHLINE RESIDENCES,1.28401388688187,103.829756642565,103.829756642565,169281,KIM TIAN ROAD,HIGHLINE RESIDENCES,27603.5859122947,29605.2518970426
1080 LOWER DELTA ROAD SINGAPORE 169311,1080,NIL,1.28083419778829,103.823318065486,103.823318065486,169311,LOWER DELTA ROAD,1080 LOWER DELTA ROAD SINGAPORE 169311,26887.0241780141,29253.6602089033
1 KAMPONG BAHRU ROAD BLAIR PLAIN CONSERVATION AREA SINGAPORE 169339,1,BLAIR PLAIN CONSERVATION AREA,1.27715399003502,103.836948399168,103.836948399168,169339,KAMPONG BAHRU ROAD,BLAIR PLAIN CONSERVATION AREA,28403.9699846031,28846.7199711818
3 KAMPONG BAHRU ROAD BLAIR PLAIN CONSERVATION AREA SINGAPORE 169340,3,BLAIR PLAIN CONSERVATION AREA,1.27715129107902,103.836911634118,103.836911634118,169340,KAMPONG BAHRU ROAD,BLAIR PLAIN CONSERVATION AREA,28399.8783282964,28846.4215288609
5 KAMPONG BAHRU ROAD BLAIR PLAIN CONSERVATION AREA SINGAPORE 169341,5,BLAIR PLAIN CONSERVATION AREA,1.27715226123586,103.836877974144,103.836877974144,169341,KAMPONG BAHRU ROAD,BLAIR PLAIN CONSERVATION AREA,28396.1322415592,28846.5287985951
7 KAMPONG BAHRU ROAD BLAIR PLAIN CONSERVATION AREA SINGAPORE 169342,7,BLAIR PLAIN CONSERVATION AREA,1.27714545764624,103.836845340842,103.836845340842,169342,KAMPONG BAHRU ROAD,BLAIR PLAIN CONSERVATION AREA,28392.5004164614,28845.7764878608
9 KAMPONG BAHRU ROAD BLAIR PLAIN CONSERVATION AREA SINGAPORE 169343,9,BLAIR PLAIN CONSERVATION AREA,1.27714160189336,103.836808253779,103.836808253779,169343,KAMPONG BAHRU ROAD,BLAIR PLAIN CONSERVATION AREA,28388.372922861,28845.3501330428
11 KAMPONG BAHRU ROAD BLAIR PLAIN CONSERVATION AREA SINGAPORE 169344,11,BLAIR PLAIN CONSERVATION AREA,1.27713837956172,103.836768546568,103.836768546568,169344,KAMPONG BAHRU ROAD,BLAIR PLAIN CONSERVATION AREA,28383.9538275069,28844.9938183371
13 KAMPONG BAHRU ROAD BLAIR PLAIN CONSERVATION AREA SINGAPORE 169345,13,BLAIR PLAIN CONSERVATION AREA,1.27713464808293,103.836731168227,103.836731168227,169345,KAMPONG BAHRU ROAD,BLAIR PLAIN CONSERVATION AREA,28379.7939168969,28844.5812051836
15 KAMPONG BAHRU ROAD BLAIR PLAIN CONSERVATION AREA SINGAPORE 169346,15,BLAIR PLAIN CONSERVATION AREA,1.27713201454034,103.83669868805,103.83669868805,169346,KAMPONG BAHRU ROAD,BLAIR PLAIN CONSERVATION AREA,28376.179132673,28844.2899969127
17 KAMPONG BAHRU ROAD BLAIR PLAIN CONSERVATION AREA SINGAPORE 169347,17,BLAIR PLAIN CONSERVATION AREA,1.27712600696467,103.836665617968,103.836665617968,169347,KAMPONG BAHRU ROAD,BLAIR PLAIN CONSERVATION AREA,28372.4986971933,28843.6257054731
19 KAMPONG BAHRU ROAD BLAIR PLAIN CONSERVATION AREA SINGAPORE 169348,19,BLAIR PLAIN CONSERVATION AREA,1.27711288370174,103.836629796366,103.836629796366,169348,KAMPONG BAHRU ROAD,BLAIR PLAIN CONSERVATION AREA,28368.512040522,28842.1745977979
23 KAMPONG BAHRU ROAD DIMENSIONS BUILDING SINGAPORE 169349,23,DIMENSIONS BUILDING,1.27706508785632,103.836524870111,103.836524870111,169349,KAMPONG BAHRU ROAD,DIMENSIONS BUILDING,28356.8345918674,28836.8895656969
27 KAMPONG BAHRU ROAD BLAIR PLAIN CONSERVATION AREA SINGAPORE 169351,27,BLAIR PLAIN CONSERVATION AREA,1.27700164616071,103.836490685431,103.836490685431,169351,KAMPONG BAHRU ROAD,BLAIR PLAIN CONSERVATION AREA,28353.0301181898,28829.8745064512
29 KAMPONG BAHRU ROAD BLAIR PLAIN CONSERVATION AREA SINGAPORE 169352,29,BLAIR PLAIN CONSERVATION AREA,1.27697788507433,103.836461040779,103.836461040779,169352,KAMPONG BAHRU ROAD,BLAIR PLAIN CONSERVATION AREA,28349.7309079645,28827.2471243925
31 KAMPONG BAHRU ROAD BLAIR PLAIN CONSERVATION AREA SINGAPORE 169353,31,BLAIR PLAIN CONSERVATION AREA,1.27695708440754,103.836433780212,103.836433780212,169353,KAMPONG BAHRU ROAD,BLAIR PLAIN CONSERVATION AREA,28346.6970268851,28824.9470905773
33 KAMPONG BAHRU ROAD BLAIR PLAIN CONSERVATION AREA SINGAPORE 169354,33,BLAIR PLAIN CONSERVATION AREA,1.27692727244486,103.836409763409,103.836409763409,169354,KAMPONG BAHRU ROAD,BLAIR PLAIN CONSERVATION AREA,28344.024152047,28821.6506347395
35 KAMPONG BAHRU ROAD BLAIR PLAIN CONSERVATION AREA SINGAPORE 169355,35,BLAIR PLAIN CONSERVATION AREA,1.27690750074272,103.836380243869,103.836380243869,169355,KAMPONG BAHRU ROAD,BLAIR PLAIN CONSERVATION AREA,28340.7388650943,28819.464378275
37 KAMPONG BAHRU ROAD BLAIR PLAIN CONSERVATION AREA SINGAPORE 169356,37,BLAIR PLAIN CONSERVATION AREA,1.2768817953225,103.836356319541,103.836356319541,169356,KAMPONG BAHRU ROAD,BLAIR PLAIN CONSERVATION AREA,28338.0762813706,28816.6220027283
39 KAMPONG BAHRU ROAD BLAIR PLAIN CONSERVATION AREA SINGAPORE 169357,39,BLAIR PLAIN CONSERVATION AREA,1.27685803341365,103.836326412986,103.836326412986,169357,KAMPONG BAHRU ROAD,BLAIR PLAIN CONSERVATION AREA,28334.7479230771,28813.9945298657
41 KAMPONG BAHRU ROAD BLAIR PLAIN CONSERVATION AREA SINGAPORE 169358,41,BLAIR PLAIN CONSERVATION AREA,1.27683074499951,103.836298371862,103.836298371862,169358,KAMPONG BAHRU ROAD,BLAIR PLAIN CONSERVATION AREA,28331.6271728836,28810.9771145694
43 KAMPONG BAHRU ROAD BLAIR PLAIN CONSERVATION AREA SINGAPORE 169359,43,BLAIR PLAIN CONSERVATION AREA,1.27680898160932,103.836273298199,103.836273298199,169359,KAMPONG BAHRU ROAD,BLAIR PLAIN CONSERVATION AREA,28328.8366766609,28808.5706282556
45 KAMPONG BAHRU ROAD BLAIR PLAIN CONSERVATION AREA SINGAPORE 169360,45,BLAIR PLAIN CONSERVATION AREA,1.27678242652266,103.836247684401,103.836247684401,169360,KAMPONG BAHRU ROAD,BLAIR PLAIN CONSERVATION AREA,28325.9860682227,28805.6343008876
47 KAMPONG BAHRU ROAD BLAIR PLAIN CONSERVATION AREA SINGAPORE 169361,47,BLAIR PLAIN CONSERVATION AREA,1.27675420797043,103.836212828551,103.836212828551,169361,KAMPONG BAHRU ROAD,BLAIR PLAIN CONSERVATION AREA,28322.1068931613,28802.5140349809
49 KAMPONG BAHRU ROAD BLAIR PLAIN CONSERVATION AREA SINGAPORE 169362,49,BLAIR PLAIN CONSERVATION AREA,1.27672364078496,103.836180925195,103.836180925195,169362,KAMPONG BAHRU ROAD,BLAIR PLAIN CONSERVATION AREA,28318.5563073317,28799.1340697762
51 KAMPONG BAHRU ROAD BLAIR PLAIN CONSERVATION AREA SINGAPORE 169363,51,BLAIR PLAIN CONSERVATION AREA,1.27669320663686,103.836145813965,103.836145813965,169363,KAMPONG BAHRU ROAD,BLAIR PLAIN CONSERVATION AREA,28314.6487106336,28795.7688148096
53 KAMPONG BAHRU ROAD BLAIR PLAIN CONSERVATION AREA SINGAPORE 169364,53,BLAIR PLAIN CONSERVATION AREA,1.27665933302861,103.836114411302,103.836114411302,169364,KAMPONG BAHRU ROAD,BLAIR PLAIN CONSERVATION AREA,28311.1538481619,28792.0232426301
55 KAMPONG BAHRU ROAD BLAIR PLAIN CONSERVATION AREA SINGAPORE 169365,55,BLAIR PLAIN CONSERVATION AREA,1.27663179524795,103.836080153787,103.836080153787,169365,KAMPONG BAHRU ROAD,BLAIR PLAIN CONSERVATION AREA,28307.3412626646,28788.9782531988
57 KAMPONG BAHRU ROAD BLAIR PLAIN CONSERVATION AREA SINGAPORE 169366,57,BLAIR PLAIN CONSERVATION AREA,1.27660031570921,103.836047659173,103.836047659173,169366,KAMPONG BAHRU ROAD,BLAIR PLAIN CONSERVATION AREA,28303.7248742376,28785.4974048045
59 KAMPONG BAHRU ROAD BLAIR PLAIN CONSERVATION AREA SINGAPORE 169367,59,BLAIR PLAIN CONSERVATION AREA,1.27657021085856,103.836014006516,103.836014006516,169367,KAMPONG BAHRU ROAD,BLAIR PLAIN CONSERVATION AREA,28299.9796047369,28782.1685622223
61 KAMPONG BAHRU ROAD BLAIR PLAIN CONSERVATION AREA SINGAPORE 169368,61,BLAIR PLAIN CONSERVATION AREA,1.27653978929987,103.835978884956,103.835978884956,169368,KAMPONG BAHRU ROAD,BLAIR PLAIN CONSERVATION AREA,28296.0708578555,28778.8046995848
63 KAMPONG BAHRU ROAD BLAIR PLAIN CONSERVATION AREA SINGAPORE 169369,63,BLAIR PLAIN CONSERVATION AREA,1.27650804533683,103.835943285545,103.835943285545,169369,KAMPONG BAHRU ROAD,BLAIR PLAIN CONSERVATION AREA,28292.1089301268,28775.2946123164
65 KAMPONG BAHRU ROAD BLAIR PLAIN CONSERVATION AREA SINGAPORE 169370,65,BLAIR PLAIN CONSERVATION AREA,1.27647585108119,103.835908933929,103.835908933929,169370,KAMPONG BAHRU ROAD,BLAIR PLAIN CONSERVATION AREA,28288.2858719071,28771.7347342148
67 KAMPONG BAHRU ROAD BLAIR PLAIN CONSERVATION AREA SINGAPORE 169371,67,BLAIR PLAIN CONSERVATION AREA,1.27644425027621,103.835876700136,103.835876700136,169371,KAMPONG BAHRU ROAD,BLAIR PLAIN CONSERVATION AREA,28284.6985104773,28768.2404771037
69 KAMPONG BAHRU ROAD BLAIR PLAIN CONSERVATION AREA SINGAPORE 169372,69,BLAIR PLAIN CONSERVATION AREA,1.27641458476417,103.835843698034,103.835843698034,169372,KAMPONG BAHRU ROAD,BLAIR PLAIN CONSERVATION AREA,28281.0256419927,28764.9602146354
71 KAMPONG BAHRU ROAD BLAIR PLAIN CONSERVATION AREA SINGAPORE 169373,71,BLAIR PLAIN CONSERVATION AREA,1.27638714744254,103.835806698535,103.835806698535,169373,KAMPONG BAHRU ROAD,BLAIR PLAIN CONSERVATION AREA,28276.907894684,28761.926333556
73 KAMPONG BAHRU ROAD BLAIR PLAIN CONSERVATION AREA SINGAPORE 169374,73,BLAIR PLAIN CONSERVATION AREA,1.27635449906224,103.8357719765,103.8357719765,169374,KAMPONG BAHRU ROAD,BLAIR PLAIN CONSERVATION AREA,28273.0436114706,28758.3162408695
75 KAMPONG BAHRU ROAD BLAIR PLAIN CONSERVATION AREA SINGAPORE 169375,75,BLAIR PLAIN CONSERVATION AREA,1.27632365321461,103.835736150001,103.835736150001,169375,KAMPONG BAHRU ROAD,BLAIR PLAIN CONSERVATION AREA,28269.0564099755,28754.9054628573
77 KAMPONG BAHRU ROAD SINGAPORE 169376,77,NIL,1.27629316185026,103.835700854931,103.835700854931,169376,KAMPONG BAHRU ROAD,77 KAMPONG BAHRU ROAD SINGAPORE 169376,28265.1283521215,28751.5338818822
79 KAMPONG BAHRU ROAD BLAIR PLAIN CONSERVATION AREA SINGAPORE 169377,79,BLAIR PLAIN CONSERVATION AREA,1.27626290288488,103.835665438292,103.835665438292,169377,KAMPONG BAHRU ROAD,BLAIR PLAIN CONSERVATION AREA,28261.1867644778,28748.1879984271
81 KAMPONG BAHRU ROAD BLAIR PLAIN CONSERVATION AREA SINGAPORE 169378,81,BLAIR PLAIN CONSERVATION AREA,1.27623152161312,103.835630454355,103.835630454355,169378,KAMPONG BAHRU ROAD,BLAIR PLAIN CONSERVATION AREA,28257.2933331961,28744.718016237
83 KAMPONG BAHRU ROAD BLAIR PLAIN CONSERVATION AREA SINGAPORE 169379,83,BLAIR PLAIN CONSERVATION AREA,1.27620182352447,103.835596472082,103.835596472082,169379,KAMPONG BAHRU ROAD,BLAIR PLAIN CONSERVATION AREA,28253.5113788983,28741.4341518804
85 KAMPONG BAHRU ROAD BLAIR PLAIN CONSERVATION AREA SINGAPORE 169380,85,BLAIR PLAIN CONSERVATION AREA,1.27616978802684,103.835564864641,103.835564864641,169380,KAMPONG BAHRU ROAD,BLAIR PLAIN CONSERVATION AREA,28249.9937246349,28737.8918292094
87 KAMPONG BAHRU ROAD BLAIR PLAIN CONSERVATION AREA SINGAPORE 169381,87,BLAIR PLAIN CONSERVATION AREA,1.27613938671834,103.835529468675,103.835529468675,169381,KAMPONG BAHRU ROAD,BLAIR PLAIN CONSERVATION AREA,28246.0544373579,28734.5302064009
89 KAMPONG BAHRU ROAD BLAIR PLAIN CONSERVATION AREA SINGAPORE 169382,89,BLAIR PLAIN CONSERVATION AREA,1.27610846696017,103.835492646232,103.835492646232,169382,KAMPONG BAHRU ROAD,BLAIR PLAIN CONSERVATION AREA,28241.9563945066,28731.1112560332
1 JIAK KIM STREET RIVIÈRE SINGAPORE 169423,1,RIVIÈRE,1.2917119457322,103.834846179285,103.834846179285,169423,JIAK KIM STREET,RIVIÈRE,28170.0087313149,30456.4632691331
3 JIAK KIM STREET RIVIÈRE SINGAPORE 169424,3,RIVIÈRE,1.29170159750468,103.835281832078,103.835281832078,169424,JIAK KIM STREET,RIVIÈRE,28218.4931378169,30455.3190485444
"5 JIAK KIM STREET FRASER RESIDENCE PROMENADE, SINGAPORE SINGAPORE 169425",5,"FRASER RESIDENCE PROMENADE, SINGAPORE",1.29160160729186,103.835523522993,103.835523522993,169425,JIAK KIM STREET,"FRASER RESIDENCE PROMENADE, SINGAPORE",28245.3912658347,30444.2626686487
1 JALAN MEMBINA CENTRAL GREEN CONDOMINIUM SINGAPORE 169479,1,CENTRAL GREEN CONDOMINIUM,1.28519576156367,103.827677219577,103.827677219577,169479,JALAN MEMBINA,CENTRAL GREEN CONDOMINIUM,27372.1636282848,29735.9379121158
3 JALAN MEMBINA SINGAPORE 169480,3,NIL,1.28532736402595,103.828385533878,103.828385533878,169480,JALAN MEMBINA,3 JALAN MEMBINA SINGAPORE 169480,27450.9931413261,29750.4896690398
5 JALAN MEMBINA SINGAPORE 169481,5,NIL,1.28532185262201,103.8286404442,103.8286404442,169481,JALAN MEMBINA,5 JALAN MEMBINA SINGAPORE 169481,27479.3625354972,29749.8801929206
7 JALAN MEMBINA CENTRAL GREEN CONDOMINIUM SINGAPORE 169482,7,CENTRAL GREEN CONDOMINIUM,1.28489625922396,103.827886075947,103.827886075947,169482,JALAN MEMBINA,CENTRAL GREEN CONDOMINIUM,27395.4075328968,29702.820439877
9 JALAN MEMBINA SINGAPORE 169483,9,NIL,1.28448851802573,103.827893640019,103.827893640019,169483,JALAN MEMBINA,9 JALAN MEMBINA SINGAPORE 169483,27396.2492552558,29657.7345225867
51 JALAN MEMBINA YMCA STUDENT CARE CENTRE @ ZHANGDE SINGAPORE 169485,51,YMCA STUDENT CARE CENTRE @ ZHANGDE,1.28421153855474,103.825951884637,103.825951884637,169485,JALAN MEMBINA,YMCA STUDENT CARE CENTRE @ ZHANGDE,27180.147898172,29627.1081054062
8 JALAN BUKIT MERAH GURDWARA SAHIB SILAT ROAD SINGAPORE 169541,8,GURDWARA SAHIB SILAT ROAD,1.27695349910205,103.832349872004,103.832349872004,169541,JALAN BUKIT MERAH,GURDWARA SAHIB SILAT ROAD,27892.1905922154,28824.5504589193
50B JALAN BUKIT MERAH THAI BUDDHIST TEMPLE SINGAPORE 169545,50B,THAI BUDDHIST TEMPLE,1.27846606726383,103.829207119139,103.829207119139,169545,JALAN BUKIT MERAH,THAI BUDDHIST TEMPLE,27542.4275140436,28991.8027711008
1300 JALAN BUKIT MERAH KAI SAN TEMPLE SINGAPORE 169546,1300,KAI SAN TEMPLE,1.27926355534022,103.828022272649,103.828022272649,169546,JALAN BUKIT MERAH,KAI SAN TEMPLE,27410.5638019918,29079.9851213805
51A JALAN BUKIT MERAH VIADUCT@JBM SINGAPORE 169548,51A,VIADUCT@JBM,1.27939014307374,103.829308704713,103.829308704713,169548,JALAN BUKIT MERAH,VIADUCT@JBM,27553.7333323928,29093.9822780378
298 JALAN BUKIT HO SWEE SINGAPORE EXAMINATIONS AND ASSESSMENT BOARD SINGAPORE 169565,298,SINGAPORE EXAMINATIONS AND ASSESSMENT BOARD,1.28791896949747,103.830348932408,103.830348932408,169565,JALAN BUKIT HO SWEE,SINGAPORE EXAMINATIONS AND ASSESSMENT BOARD,27669.5033758944,30037.0556791853
300 JALAN BUKIT HO SWEE SINGAPORE 169566,300,NIL,1.28757615073911,103.829412797188,103.829412797188,169566,JALAN BUKIT HO SWEE,300 JALAN BUKIT HO SWEE SINGAPORE 169566,27565.3193717366,29999.1486920062
355 JALAN BUKIT HO SWEE PSB ACADEMY CAMPUS @ DELTA SINGAPORE 169567,355,PSB ACADEMY CAMPUS @ DELTA,1.28694372725931,103.826550461693,103.826550461693,169567,JALAN BUKIT HO SWEE,PSB ACADEMY CAMPUS @ DELTA,27246.7653694311,29929.2192374319
301 JALAN BUKIT HO SWEE MERAPRIME SINGAPORE 169568,301,MERAPRIME,1.28705859767551,103.82778753198,103.82778753198,169568,JALAN BUKIT HO SWEE,MERAPRIME,27384.4409278408,29941.920682244
2 INDUS ROAD EMERALD PARK TOWER 2 SINGAPORE 169586,2,EMERALD PARK TOWER 2,1.28948198551176,103.830085402755,103.830085402755,169586,INDUS ROAD,EMERALD PARK TOWER 2,27640.1749709276,30209.8859570157
4 INDUS ROAD EMERALD PARK SINGAPORE 169587,4,EMERALD PARK,1.28975290405411,103.83034971382,103.83034971382,169587,INDUS ROAD,EMERALD PARK,27669.5905779554,30239.8426950555
6 INDUS ROAD EMERALD PARK TOWER 1 SINGAPORE 169588,6,EMERALD PARK TOWER 1,1.2900946744589,103.830092244754,103.830092244754,169588,INDUS ROAD,EMERALD PARK TOWER 1,27640.9365133978,30277.6339374669
1 HOSPITAL CRESCENT DBS SINGAPORE GENERAL HOSPITAL SINGAPORE 169608,1,DBS SINGAPORE GENERAL HOSPITAL,1.27854225616614,103.833999393042,103.833999393042,169608,HOSPITAL CRESCENT,DBS SINGAPORE GENERAL HOSPITAL,28075.7690915996,29000.2269865982
5 HOSPITAL DRIVE DBS NATIONAL HEART CENTRE SINGAPORE 169609,5,DBS NATIONAL HEART CENTRE,1.2785805962446,103.836119450237,103.836119450237,169609,HOSPITAL DRIVE,DBS NATIONAL HEART CENTRE,28311.7144112196,29004.4665928092
11 HOSPITAL CRESCENT NATIONAL CANCER CENTRE SINGAPORE SINGAPORE 169610,11,NATIONAL CANCER CENTRE SINGAPORE,1.27923347099607,103.836495897999,103.836495897999,169610,HOSPITAL CRESCENT,NATIONAL CANCER CENTRE SINGAPORE,28353.609931686,29076.6581554133
320 HAVELOCK ROAD THE WAREHOUSE SINGAPORE 169628,320,THE WAREHOUSE,1.28919933129457,103.837495828392,103.837495828392,169628,HAVELOCK ROAD,THE WAREHOUSE,28464.8923228495,30178.6316607799
"382 HAVELOCK ROAD FOUR POINTS BY SHERATON SINGAPORE, RIVERVIEW SINGAPORE 169629",382,"FOUR POINTS BY SHERATON SINGAPORE, RIVERVIEW",1.28943172837066,103.836607264164,103.836607264164,169629,HAVELOCK ROAD,"FOUR POINTS BY SHERATON SINGAPORE, RIVERVIEW",28366.0026430637,30204.3287854735
397 HAVELOCK ROAD SPC HAVELOCK SINGAPORE 169630,397,SPC HAVELOCK,1.28843185621229,103.838102078967,103.838102078967,169630,HAVELOCK ROAD,SPC HAVELOCK,28532.3630183013,30093.7683462575
401 HAVELOCK ROAD HOTEL MIRAMAR SINGAPORE SINGAPORE 169631,401,HOTEL MIRAMAR SINGAPORE,1.28819906006116,103.837423559119,103.837423559119,169631,HAVELOCK ROAD,HOTEL MIRAMAR SINGAPORE,28456.8495444842,30068.0268184338
403 HAVELOCK ROAD COPTHORNE KING'S HOTEL SINGAPORE SINGAPORE 169632,403,COPTHORNE KING'S HOTEL SINGAPORE,1.28825960218612,103.83664249124,103.83664249124,169632,HAVELOCK ROAD,COPTHORNE KING'S HOTEL SINGAPORE,28369.9232852627,30074.7211278565
405 HAVELOCK ROAD FURAMA RIVERFRONT SINGAPORE SINGAPORE 169633,405,FURAMA RIVERFRONT SINGAPORE,1.28763454089118,103.836092835243,103.836092835243,169633,HAVELOCK ROAD,FURAMA RIVERFRONT SINGAPORE,28308.751296686,30005.6050042734
407 HAVELOCK ROAD FURAMA RIVERFRONT SINGAPORE SINGAPORE 169634,407,FURAMA RIVERFRONT SINGAPORE,1.28751197109177,103.836410580532,103.836410580532,169634,HAVELOCK ROAD,FURAMA RIVERFRONT SINGAPORE,28344.1136847427,29992.0519092046
495 HAVELOCK ROAD GIOK HONG TIAN TEMPLE SINGAPORE 169635,495,GIOK HONG TIAN TEMPLE,1.28919463280395,103.83322018999,103.83322018999,169635,HAVELOCK ROAD,GIOK HONG TIAN TEMPLE,27989.0501075294,30178.1117476244
534 HAVELOCK ROAD HOCK TECK TONG TEMPLE SINGAPORE 169636,534,HOCK TECK TONG TEMPLE,1.28972321993338,103.832686209067,103.832686209067,169636,HAVELOCK ROAD,HOCK TECK TONG TEMPLE,27929.6225839267,30236.5601927582
548 HAVELOCK ROAD SHELL HAVELOCK SINGAPORE 169637,548,SHELL HAVELOCK,1.28997826540496,103.83247591089,103.83247591089,169637,HAVELOCK ROAD,SHELL HAVELOCK,27906.2181984652,30264.7618114948
550 HAVELOCK ROAD HARVEST MANSIONS SINGAPORE 169638,550,HARVEST MANSIONS,1.28983034198102,103.831843416909,103.831843416909,169638,HAVELOCK ROAD,HARVEST MANSIONS,27835.8270058008,30248.4052352384
554 HAVELOCK ROAD LOUIS KIENNE SERVICED RESIDENCES - HAVELOCK SINGAPORE 169639,554,LOUIS KIENNE SERVICED RESIDENCES - HAVELOCK,1.2899042767199,103.831434171881,103.831434171881,169639,HAVELOCK ROAD,LOUIS KIENNE SERVICED RESIDENCES - HAVELOCK,27790.2815297134,30256.5805873722
570 HAVELOCK ROAD KIM SENG COMMUNITY CENTRE SINGAPORE 169640,570,KIM SENG COMMUNITY CENTRE,1.28949681763257,103.830982115868,103.830982115868,169640,HAVELOCK ROAD,KIM SENG COMMUNITY CENTRE,27739.9715097742,30211.525906641
593 HAVELOCK ROAD ISETAN OFFICE BUILDING SINGAPORE 169641,593,ISETAN OFFICE BUILDING,1.28926415217216,103.832032722992,103.832032722992,169641,HAVELOCK ROAD,ISETAN OFFICE BUILDING,27856.8951266706,30185.7988771815
715 HAVELOCK ROAD SINGAPORE 169642,715,NIL,1.28916368689043,103.828010036396,103.828010036396,169642,HAVELOCK ROAD,715 HAVELOCK ROAD SINGAPORE 169642,27409.2042852351,30174.6905271579
717 HAVELOCK ROAD SINGAPORE 169643,717,NIL,1.28917048385007,103.827960444773,103.827960444773,169643,HAVELOCK ROAD,717 HAVELOCK ROAD SINGAPORE 169643,27403.6851605475,30175.4421114605
719 HAVELOCK ROAD SINGAPORE 169644,719,NIL,1.28919080185805,103.82791418095,103.82791418095,169644,HAVELOCK ROAD,719 HAVELOCK ROAD SINGAPORE 169644,27398.53639491,30177.6887828205
721 HAVELOCK ROAD SINGAPORE 169645,721,NIL,1.28921145327178,103.827867813504,103.827867813504,169645,HAVELOCK ROAD,721 HAVELOCK ROAD SINGAPORE 169645,27393.3760971697,30179.9723205827
723 HAVELOCK ROAD SINGAPORE 169646,723,NIL,1.28923189254164,103.827821478695,103.827821478695,169646,HAVELOCK ROAD,723 HAVELOCK ROAD SINGAPORE 169646,27388.2194315875,30182.2324006595
725 HAVELOCK ROAD SINGAPORE 169647,725,NIL,1.28925238382033,103.82777533236,103.82777533236,169647,HAVELOCK ROAD,725 HAVELOCK ROAD SINGAPORE 169647,27383.0837417189,30184.4982316531
727 HAVELOCK ROAD SINGAPORE 169648,727,NIL,1.28927284854565,103.827728994286,103.827728994286,169648,HAVELOCK ROAD,727 HAVELOCK ROAD SINGAPORE 169648,27377.9267129209,30186.7611266524
729 HAVELOCK ROAD SINGAPORE 169649,729,NIL,1.28929340551818,103.82768267688,103.82768267688,169649,HAVELOCK ROAD,729 HAVELOCK ROAD SINGAPORE 169649,27372.7719844896,30189.0342219602
731 HAVELOCK ROAD SINGAPORE 169650,731,NIL,1.28931369368395,103.827636321942,103.827636321942,169650,HAVELOCK ROAD,731 HAVELOCK ROAD SINGAPORE 169650,27367.6130790766,30191.27759411
733 HAVELOCK ROAD SINGAPORE 169651,733,NIL,1.28933450823794,103.827590181043,103.827590181043,169651,HAVELOCK ROAD,733 HAVELOCK ROAD SINGAPORE 169651,27362.4779945677,30193.5791715924
735 HAVELOCK ROAD SINGAPORE 169652,735,NIL,1.28935494421781,103.827543816041,103.827543816041,169652,HAVELOCK ROAD,735 HAVELOCK ROAD SINGAPORE 169652,27357.3179692393,30195.8388884515
737 HAVELOCK ROAD SINGAPORE 169653,737,NIL,1.28937548941651,103.827497543507,103.827497543507,169653,HAVELOCK ROAD,737 HAVELOCK ROAD SINGAPORE 169653,27352.1682350254,30198.1106822379
739 HAVELOCK ROAD SINGAPORE 169654,739,NIL,1.28939597138178,103.827451161097,103.827451161097,169654,HAVELOCK ROAD,739 HAVELOCK ROAD SINGAPORE 169654,27347.006272546,30200.3754841201
741 HAVELOCK ROAD SINGAPORE 169655,741,NIL,1.28941659076044,103.827404896993,103.827404896993,169655,HAVELOCK ROAD,741 HAVELOCK ROAD SINGAPORE 169655,27341.8574766405,30202.6554805301
743 HAVELOCK ROAD SINGAPORE 169656,743,NIL,1.28943721944511,103.82735861793,103.82735861793,169656,HAVELOCK ROAD,743 HAVELOCK ROAD SINGAPORE 169656,27336.7070159949,30204.9365060497
745 HAVELOCK ROAD SINGAPORE 169657,745,NIL,1.2894602977546,103.827307677016,103.827307677016,169657,HAVELOCK ROAD,745 HAVELOCK ROAD SINGAPORE 169657,27331.0377318403,30207.4883997571
60 HAVELOCK ROAD RIVER PLACE SINGAPORE 169658,60,RIVER PLACE,1.2896097164683,103.841276389346,103.841276389346,169658,HAVELOCK ROAD,RIVER PLACE,28885.6364864213,30224.0109353699
62 HAVELOCK ROAD RIVER PLACE SINGAPORE 169659,62,RIVER PLACE,1.28950631877802,103.840535689506,103.840535689506,169659,HAVELOCK ROAD,RIVER PLACE,28803.2029342912,30212.5775071997
64 HAVELOCK ROAD RIVER PLACE SINGAPORE 169660,64,RIVER PLACE,1.28984504265761,103.840311300485,103.840311300485,169660,HAVELOCK ROAD,RIVER PLACE,28778.2302435208,30250.031776147
66 HAVELOCK ROAD RIVER PLACE SINGAPORE 169661,66,RIVER PLACE,1.29024259615149,103.841385089725,103.841385089725,169661,HAVELOCK ROAD,RIVER PLACE,28897.7336914735,30293.9915428348
390 HAVELOCK ROAD EMBASSY OF THE REPUBLIC OF CUBA SINGAPORE 169662,390,EMBASSY OF THE REPUBLIC OF CUBA,1.28963064680041,103.8356818105,103.8356818105,169662,HAVELOCK ROAD,EMBASSY OF THE REPUBLIC OF CUBA,28263.0075047696,30226.3240449522
392 HAVELOCK ROAD GRAND COPTHORNE WATERFRONT HOTEL SINGAPORE SINGAPORE 169663,392,GRAND COPTHORNE WATERFRONT HOTEL SINGAPORE,1.29028193417518,103.835147954372,103.835147954372,169663,HAVELOCK ROAD,GRAND COPTHORNE WATERFRONT HOTEL SINGAPORE,28203.5938136354,30298.339992715
390A HAVELOCK ROAD GRAND COPTHORNE WATERFRONT HOTEL SINGAPORE SINGAPORE 169664,390A,GRAND COPTHORNE WATERFRONT HOTEL SINGAPORE,1.29028193417518,103.835147954644,103.835147954644,169664,HAVELOCK ROAD,GRAND COPTHORNE WATERFRONT HOTEL SINGAPORE,28203.5938439034,30298.339992715
9 SECOND HOSPITAL AVENUE SINGAPORE 169690,9,NIL,1.27862059022877,103.837209673587,103.837209673587,169690,SECOND HOSPITAL AVENUE,9 SECOND HOSPITAL AVENUE SINGAPORE 169690,28433.0474982522,29008.8890781775
105 GANGES AVENUE BOY'S BRIGADE HEADQUARTER SINGAPORE 169695,105,BOY'S BRIGADE HEADQUARTER,1.29150982886512,103.831696193376,103.831696193376,169695,GANGES AVENUE,BOY'S BRIGADE HEADQUARTER,27819.4424013905,30434.1142374594
67A EU CHIN STREET ARTSKIDZ PRESCHOOL SINGAPORE 169715,67A,ARTSKIDZ PRESCHOOL,1.28345252523339,103.83188270636,103.83188270636,169715,EU CHIN STREET,ARTSKIDZ PRESCHOOL,27840.1991857803,29543.1791938078
1 ENG HOON STREET HOTEL 81 - OSAKA SINGAPORE 169753,1,HOTEL 81 - OSAKA,1.28336023656216,103.834994094596,103.834994094596,169753,ENG HOON STREET,HOTEL 81 - OSAKA,28186.4710336393,29532.9744036328
8 ENG HOON STREET TIONG BAHRU ESTATE SINGAPORE 169758,8,TIONG BAHRU ESTATE,1.28353845168951,103.835180275382,103.835180275382,169758,ENG HOON STREET,TIONG BAHRU ESTATE,28207.1914056446,29552.6805257723
10 ENG HOON STREET TIONG BAHRU ESTATE SINGAPORE 169760,10,TIONG BAHRU ESTATE,1.28355443745815,103.835133443297,103.835133443297,169760,ENG HOON STREET,TIONG BAHRU ESTATE,28201.9793799203,29554.4481457528
11 ENG HOON STREET SINGAPORE 169761,11,NIL,1.28343380738817,103.834749994225,103.834749994225,169761,ENG HOON STREET,11 ENG HOON STREET SINGAPORE 169761,28159.3046707492,29541.1094690803
12 ENG HOON STREET TIONG BAHRU ESTATE SINGAPORE 169762,12,TIONG BAHRU ESTATE,1.28356935320504,103.835084423215,103.835084423215,169762,ENG HOON STREET,TIONG BAHRU ESTATE,28196.5238482673,29556.0974481869
14 ENG HOON STREET TIONG BAHRU ESTATE SINGAPORE 169764,14,TIONG BAHRU ESTATE,1.28358589903117,103.835035320455,103.835035320455,169764,ENG HOON STREET,TIONG BAHRU ESTATE,28191.0591151463,29557.926996462
16 ENG HOON STREET TIONG BAHRU ESTATE SINGAPORE 169766,16,TIONG BAHRU ESTATE,1.28360182950325,103.834988206336,103.834988206336,169766,ENG HOON STREET,TIONG BAHRU ESTATE,28185.8157015238,29559.6885023098
17 ENG HOON STREET ENG HOON MANSIONS SINGAPORE 169767,17,ENG HOON MANSIONS,1.28350589483745,103.834492752536,103.834492752536,169767,ENG HOON STREET,ENG HOON MANSIONS,28130.6757891541,29549.0805123243
18 ENG HOON STREET TIONG BAHRU ESTATE SINGAPORE 169768,18,TIONG BAHRU ESTATE,1.28361735320696,103.834941422659,103.834941422659,169768,ENG HOON STREET,TIONG BAHRU ESTATE,28180.6090635005,29561.4050299358
20 ENG HOON STREET TIONG BAHRU ESTATE SINGAPORE 169770,20,TIONG BAHRU ESTATE,1.28363289990282,103.834895552528,103.834895552528,169770,ENG HOON STREET,TIONG BAHRU ESTATE,28175.5040956344,29563.1241000704
22 ENG HOON STREET TIONG BAHRU ESTATE SINGAPORE 169772,22,TIONG BAHRU ESTATE,1.28364865983583,103.834849748213,103.834849748213,169772,ENG HOON STREET,TIONG BAHRU ESTATE,28170.4064526213,29564.8667489644
24 ENG HOON STREET TIONG BAHRU ESTATE SINGAPORE 169774,24,TIONG BAHRU ESTATE,1.28366517308199,103.834802777148,103.834802777148,169774,ENG HOON STREET,TIONG BAHRU ESTATE,28165.1789599573,29566.6926953513
26 ENG HOON STREET TIONG BAHRU ESTATE SINGAPORE 169776,26,TIONG BAHRU ESTATE,1.28368019886183,103.83475608893,103.83475608893,169776,ENG HOON STREET,TIONG BAHRU ESTATE,28159.9829459963,29568.3541655131
28 ENG HOON STREET TIONG BAHRU ESTATE SINGAPORE 169778,28,TIONG BAHRU ESTATE,1.28369557282904,103.834709771135,103.834709771135,169778,ENG HOON STREET,TIONG BAHRU ESTATE,28154.8281570291,29570.0541365501
30 ENG HOON STREET TIONG BAHRU ESTATE SINGAPORE 169779,30,TIONG BAHRU ESTATE,1.28371149261903,103.834663504741,103.834663504741,169779,ENG HOON STREET,TIONG BAHRU ESTATE,28149.6790887108,29571.8144619465
32 ENG HOON STREET SINGAPORE 169780,32,NIL,1.28372729689301,103.83461694462,103.83461694462,169780,ENG HOON STREET,32 ENG HOON STREET SINGAPORE 169780,28144.4973309711,29573.5620142557
34 ENG HOON STREET TIONG BAHRU ESTATE SINGAPORE 169781,34,TIONG BAHRU ESTATE,1.28374301220328,103.834569521266,103.834569521266,169781,ENG HOON STREET,TIONG BAHRU ESTATE,28139.2195026502,29575.2997294683
36 ENG HOON STREET TIONG BAHRU ESTATE SINGAPORE 169782,36,TIONG BAHRU ESTATE,1.28376051471486,103.834523707973,103.834523707973,169782,ENG HOON STREET,TIONG BAHRU ESTATE,28134.1208607927,29577.2350643463
38 ENG HOON STREET TIONG BAHRU ESTATE SINGAPORE 169783,38,TIONG BAHRU ESTATE,1.28377601486859,103.834477788883,103.834477788883,169783,ENG HOON STREET,TIONG BAHRU ESTATE,28129.0104446895,29578.9489889257
40 ENG HOON STREET TIONG BAHRU ESTATE SINGAPORE 169784,40,TIONG BAHRU ESTATE,1.28379175672804,103.834431115891,103.834431115891,169784,ENG HOON STREET,TIONG BAHRU ESTATE,28123.8161257366,29580.6896401327
42 ENG HOON STREET TIONG BAHRU ESTATE SINGAPORE 169785,42,TIONG BAHRU ESTATE,1.28380732339754,103.834384384426,103.834384384426,169785,ENG HOON STREET,TIONG BAHRU ESTATE,28118.6152991662,29582.4109198302
44 ENG HOON STREET TIONG BAHRU QUI TIAN GONG TEMPLE SINGAPORE 169786,44,TIONG BAHRU QUI TIAN GONG TEMPLE,1.28382383170841,103.834336106541,103.834336106541,169786,ENG HOON STREET,TIONG BAHRU QUI TIAN GONG TEMPLE,28113.2423688406,29584.2363213934
4 ENG HOON STREET TIONG BAHRU ESTATE SINGAPORE 169794,4,TIONG BAHRU ESTATE,1.2835062967485,103.835273988232,103.835273988232,169794,ENG HOON STREET,TIONG BAHRU ESTATE,28217.6208750615,29549.1250062604
6 ENG HOON STREET TIONG BAHRU ESTATE SINGAPORE 169795,6,TIONG BAHRU ESTATE,1.28352219355561,103.835227188241,103.835227188241,169795,ENG HOON STREET,TIONG BAHRU ESTATE,28212.4124209601,29550.882789148
1K ENG HOON STREET SAINT MATTHEW'S CHURCH SINGAPORE 169796,1K,SAINT MATTHEW'S CHURCH,1.28328277809121,103.834417749724,103.834417749724,169796,ENG HOON STREET,SAINT MATTHEW'S CHURCH,28122.3286056761,29524.4094117451
1J ENG HOON STREET SINGAPORE 169797,1J,NIL,1.28333398621937,103.834821292383,103.834821292383,169797,ENG HOON STREET,1J ENG HOON STREET SINGAPORE 169797,28167.2395740207,29530.0717645306
21 DELTA ROAD DOMAIN 21 SINGAPORE 169813,21,DOMAIN 21,1.29181865625912,103.82516074139,103.82516074139,169813,DELTA ROAD,DOMAIN 21,27092.102904004,30468.2641808931
23 DELTA ROAD DOMAIN 21 SINGAPORE 169814,23,DOMAIN 21,1.29184034222828,103.825512539081,103.825512539081,169814,DELTA ROAD,DOMAIN 21,27131.2549646944,30470.6619802956
10 DELTA AVENUE MASJID KAMPONG DELTA SINGAPORE 169831,10,MASJID KAMPONG DELTA,1.29165232609053,103.828369851275,103.828369851275,169831,DELTA AVENUE,MASJID KAMPONG DELTA,27449.2491606409,30449.8713260312
2 COLLEGE ROAD ALUMNI MEDICAL CENTRE SINGAPORE 169850,2,ALUMNI MEDICAL CENTRE,1.28221075470327,103.835922108142,103.835922108142,169850,COLLEGE ROAD,ALUMNI MEDICAL CENTRE,28289.7514174115,29405.8707255051
10 COLLEGE ROAD HOUSEMEN'S CANTEEN SINGAPORE 169851,10,HOUSEMEN'S CANTEEN,1.28178341340379,103.834870633831,103.834870633831,169851,COLLEGE ROAD,HOUSEMEN'S CANTEEN,28172.7309732344,29358.617438972
12 COLLEGE ROAD KING EDWARD VII HALL (MOH) SINGAPORE 169852,12,KING EDWARD VII HALL (MOH),1.28193367649955,103.83406290778,103.83406290778,169852,COLLEGE ROAD,KING EDWARD VII HALL (MOH),28082.8376646405,29375.2327156868
14 COLLEGE ROAD HARROWER HALL (MOH) SINGAPORE 169853,14,HARROWER HALL (MOH),1.28137464942775,103.833315119378,103.833315119378,169853,COLLEGE ROAD,HARROWER HALL (MOH),27999.6149353702,29313.4183799606
16 COLLEGE ROAD SINGAPORE 169854,16,NIL,1.28092336218661,103.833053862281,103.833053862281,169854,COLLEGE ROAD,16 COLLEGE ROAD SINGAPORE 169854,27970.5391469961,29263.5173712838
16A COLLEGE ROAD TAN TECK GUAN BUILDING SINGAPORE 169855,16A,TAN TECK GUAN BUILDING,1.28056078856581,103.833323771002,103.833323771002,169855,COLLEGE ROAD,TAN TECK GUAN BUILDING,28000.5777902007,29223.4258529153
20 COLLEGE ROAD ACADEMIA SINGAPORE 169856,20,ACADEMIA,1.28171521227658,103.835597272967,103.835597272967,169856,COLLEGE ROAD,ACADEMIA,28253.5999732865,29351.0761708301
8 COLLEGE ROAD DUKE-NUS GRADUATE MEDICAL SCHOOL SINGAPORE SINGAPORE 169857,8,DUKE-NUS GRADUATE MEDICAL SCHOOL SINGAPORE,1.28120712003755,103.83411960532,103.83411960532,169857,COLLEGE ROAD,DUKE-NUS GRADUATE MEDICAL SCHOOL SINGAPORE,28089.1476614745,29294.8938593697
8A COLLEGE ROAD MACALISTER HALL (MOH) SINGAPORE 169858,8A,MACALISTER HALL (MOH),1.28151868114461,103.833753527947,103.833753527947,169858,COLLEGE ROAD,MACALISTER HALL (MOH),28048.4062289596,29329.3446665611
50 CHIN SWEE ROAD SINGAPORE THONG CHAI MEDICAL INSTITUTION SINGAPORE 169874,50,SINGAPORE THONG CHAI MEDICAL INSTITUTION,1.28764537765146,103.840270100813,103.840270100813,169874,CHIN SWEE ROAD,SINGAPORE THONG CHAI MEDICAL INSTITUTION,28773.6457336349,30006.8041612525
52 CHIN SWEE ROAD SEACARE BUILDING SINGAPORE 169875,52,SEACARE BUILDING,1.28771627755195,103.839843120654,103.839843120654,169875,CHIN SWEE ROAD,SEACARE BUILDING,28726.1264217943,30014.6437809095
151 CHIN SWEE ROAD MANHATTAN HOUSE SINGAPORE 169876,151,MANHATTAN HOUSE,1.28705272991925,103.840803848104,103.840803848104,169876,CHIN SWEE ROAD,MANHATTAN HOUSE,28833.0474991836,29941.2724025678
171 CHIN SWEE ROAD CES CENTRE SINGAPORE 169877,171,CES CENTRE,1.28677800263517,103.840249197027,103.840249197027,169877,CHIN SWEE ROAD,CES CENTRE,28771.3195785508,29910.8943039272
173 CHIN SWEE ROAD THE LANDMARK SINGAPORE 169878,173,THE LANDMARK,1.28617084485828,103.839567626644,103.839567626644,169878,CHIN SWEE ROAD,THE LANDMARK,28695.4666795637,29843.7577367462
175A CHIN SWEE ROAD HOTEL RE! @ PEARL'S HILL SINGAPORE 169879,175A,HOTEL RE! @ PEARL'S HILL,1.28541003333934,103.838407275806,103.838407275806,169879,CHIN SWEE ROAD,HOTEL RE! @ PEARL'S HILL,28566.329507485,29759.6308422666
36 CHAY YAN STREET THE REGENCY AT TIONG BAHRU SINGAPORE 169905,36,THE REGENCY AT TIONG BAHRU,1.28186096037926,103.830562111061,103.830562111061,169905,CHAY YAN STREET,THE REGENCY AT TIONG BAHRU,27693.2276334083,29367.1922982242
38 CHAY YAN STREET THE REGENCY AT TIONG BAHRU SINGAPORE 169907,38,THE REGENCY AT TIONG BAHRU,1.28215154469235,103.830101642619,103.830101642619,169907,CHAY YAN STREET,THE REGENCY AT TIONG BAHRU,27641.9813036602,29399.3236698229
5 BEO CRESCENT KIM SENG NEIGHBOURHOOD POLICE POST SINGAPORE 169981,5,KIM SENG NEIGHBOURHOOD POLICE POST,1.28885709906163,103.828136972901,103.828136972901,169981,BEO CRESCENT,KIM SENG NEIGHBOURHOOD POLICE POST,27423.3311704714,30140.7895984259
38A BEO CRESCENT BEO CRESCENT MARKET SINGAPORE 169982,38A,BEO CRESCENT MARKET,1.2888400791879,103.827400817412,103.827400817412,169982,BEO CRESCENT,BEO CRESCENT MARKET,27341.4033055445,30138.9078076109
