ADDRESS,BLK_NO,BUILDING,LATITUDE,LONGITUDE,LONGTITUDE,POSTAL,ROAD_NAME,SEARCHVAL,X,Y
53C STRATHMORE AVENUE FORFAR HEIGHTS SINGAPORE 145053,53C,FORFAR HEIGHTS,1.29299460255264,103.808585758367,103.808585758367,145053,STRATHMORE AVENUE,FORFAR HEIGHTS,25247.4512372855,30598.3062143438
53D STRATHMORE AVENUE SINGAPORE 146053,53D,NIL,1.29310697473713,103.808994282288,103.808994282288,146053,STRATHMORE AVENUE,53D STRATHMORE AVENUE SINGAPORE 146053,25292.9165334832,30610.7313124649
8 STRATHMORE ROAD SINGAPORE 148795,8,NIL,1.29292342521139,103.813418920953,103.813418920953,148795,STRATHMORE ROAD,8 STRATHMORE ROAD SINGAPORE 148795,25785.3403372513,30590.431060072
1 STRATHMORE ROAD QUEENSTOWN SECONDARY SCHOOL SINGAPORE 148800,1,QUEENSTOWN SECONDARY SCHOOL,1.2935332938077,103.81317546974,103.81317546974,148800,STRATHMORE ROAD,QUEENSTOWN SECONDARY SCHOOL,25758.246859666,30657.8674013633
300 TANGLIN HALT ROAD NEW TOWN CAREHUT SINGAPORE 148812,300,NEW TOWN CAREHUT,1.29981138884057,103.799964819895,103.799964819895,148812,TANGLIN HALT ROAD,NEW TOWN CAREHUT,24288.0252855225,31352.0824043378
48A TANGLIN HALT ROAD TANGLIN HALT MARKET SINGAPORE 148813,48A,TANGLIN HALT MARKET,1.30055807077531,103.797719379651,103.797719379651,148813,TANGLIN HALT ROAD,TANGLIN HALT MARKET,24038.1290284544,31434.6500739045
1 STIRLING ROAD SHEPHERD'S HILL ESTATE SINGAPORE 148942,1,SHEPHERD'S HILL ESTATE,1.29179365425395,103.807399514928,103.807399514928,148942,STIRLING ROAD,SHEPHERD'S HILL ESTATE,25115.4312516339,30465.5128514413
2 STIRLING ROAD QUEENSTOWN TELEPHONE EXCHANGE SINGAPORE 148943,2,QUEENSTOWN TELEPHONE EXCHANGE,1.29222112261358,103.807595929393,103.807595929393,148943,STIRLING ROAD,QUEENSTOWN TELEPHONE EXCHANGE,25137.2909710826,30512.7798796371
3 STIRLING ROAD SHEPHERD'S HILL ESTATE SINGAPORE 148944,3,SHEPHERD'S HILL ESTATE,1.29184183515708,103.80724650489,103.80724650489,148944,STIRLING ROAD,SHEPHERD'S HILL ESTATE,25098.4026050661,30470.8406219352
7 STIRLING ROAD SHEPHERD'S HILL ESTATE SINGAPORE 148945,7,SHEPHERD'S HILL ESTATE,1.29198636867824,103.806778101006,103.806778101006,148945,STIRLING ROAD,SHEPHERD'S HILL ESTATE,25046.2734490372,30486.8229345735
9 STIRLING ROAD SHEPHERD'S HILL ESTATE SINGAPORE 148946,9,SHEPHERD'S HILL ESTATE,1.29204676048068,103.806597631308,103.806597631308,148946,STIRLING ROAD,SHEPHERD'S HILL ESTATE,25026.1887954939,30493.500959821
156B STIRLING ROAD TRUE WAY PRESBYTERIAN CHURCH SINGAPORE 148947,156B,TRUE WAY PRESBYTERIAN CHURCH,1.29374022280816,103.805996894914,103.805996894914,148947,STIRLING ROAD,TRUE WAY PRESBYTERIAN CHURCH,24959.3340232428,30680.756020382
473 STIRLING ROAD QUEENSTOWN SPORTS CENTRE SINGAPORE 148948,473,QUEENSTOWN SPORTS CENTRE,1.29672719982417,103.802435206972,103.802435206972,148948,STIRLING ROAD,QUEENSTOWN SPORTS CENTRE,24562.9531045882,31011.045131851
473A STIRLING ROAD QUEENSTOWN STADIUM SINGAPORE 148949,473A,QUEENSTOWN STADIUM,1.29621485930966,103.802234396585,103.802234396585,148949,STIRLING ROAD,QUEENSTOWN STADIUM,24540.6039821114,30954.3934244979
501 STIRLING ROAD BLK A (MDIS UNICAMPUS) SINGAPORE 148951,501,BLK A (MDIS UNICAMPUS),1.29748867796585,103.801137183337,103.801137183337,148951,STIRLING ROAD,BLK A (MDIS UNICAMPUS),24418.495580676,31095.247272538
590 STIRLING ROAD MASJID MUJAHIDIN SINGAPORE 148952,590,MASJID MUJAHIDIN,1.29814971848511,103.800866437422,103.800866437422,148952,STIRLING ROAD,MASJID MUJAHIDIN,24388.3648925321,31168.3421225809
1085 STIRLING ROAD TIONG GHEE TEMPLE SINGAPORE 148953,1085,TIONG GHEE TEMPLE,1.29095169285268,103.804106669107,103.804106669107,148953,STIRLING ROAD,TIONG GHEE TEMPLE,24748.9647563789,30372.417069098
10 STIRLING ROAD QUEENS SINGAPORE 148954,10,QUEENS,1.29299604681606,103.805665563173,103.805665563173,148954,STIRLING ROAD,QUEENS,24922.4587808242,30598.4692679718
12 STIRLING ROAD QUEENS SINGAPORE 148955,12,QUEENS,1.29304766521763,103.806248213029,103.806248213029,148955,STIRLING ROAD,QUEENS,24987.302729845,30604.1762660351
14 STIRLING ROAD QUEENS SINGAPORE 148956,14,QUEENS,1.29261703400921,103.806073497398,103.806073497398,148956,STIRLING ROAD,QUEENS,24967.8578809416,30556.5594912861
16 STIRLING ROAD QUEENS SINGAPORE 148957,16,QUEENS,1.29267425406171,103.806663243377,103.806663243377,148957,STIRLING ROAD,QUEENS,25033.4915821934,30562.8858933672
580 STIRLING ROAD NATIONAL UNIVERSITY POLYCLINICS (QUEENSTOWN POLYCLINIC) SINGAPORE 148958,580,NATIONAL UNIVERSITY POLYCLINICS (QUEENSTOWN POLYCLINIC),1.29847547391978,103.800957796297,103.800957796297,148958,STIRLING ROAD,NATIONAL UNIVERSITY POLYCLINICS (QUEENSTOWN POLYCLINIC),24398.532786035,31204.3623549957
503 STIRLING ROAD MDIS AUDITORIUM SINGAPORE 148959,503,MDIS AUDITORIUM,1.29675041361959,103.800860376435,103.800860376435,148959,STIRLING ROAD,MDIS AUDITORIUM,24387.6883728281,31013.6141875051
21 STIRLING ROAD STIRLING RESIDENCES SINGAPORE 148960,21,STIRLING RESIDENCES,1.29205481713546,103.805546433928,103.805546433928,148960,STIRLING ROAD,STIRLING RESIDENCES,24909.1995878769,30494.3930783719
23 STIRLING ROAD STIRLING RESIDENCES SINGAPORE 148961,23,STIRLING RESIDENCES,1.29161477521886,103.805052653091,103.805052653091,148961,STIRLING ROAD,STIRLING RESIDENCES,24854.245490659,30445.7361140959
25 STIRLING ROAD STIRLING RESIDENCES SINGAPORE 148962,25,STIRLING RESIDENCES,1.29114950641845,103.804573610517,103.804573610517,148962,STIRLING ROAD,STIRLING RESIDENCES,24800.9315852113,30394.2896827068
1 SHEPHERDS DRIVE SHEPHERD'S HILL ESTATE SINGAPORE 148994,1,SHEPHERD'S HILL ESTATE,1.29190158107128,103.807074456517,103.807074456517,148994,SHEPHERDS DRIVE,SHEPHERD'S HILL ESTATE,25079.2551693711,30477.4472147413
2 SHEPHERDS DRIVE SHEPHERD'S HILL ESTATE SINGAPORE 148995,2,SHEPHERD'S HILL ESTATE,1.29187214550475,103.806530773523,103.806530773523,148995,SHEPHERDS DRIVE,SHEPHERD'S HILL ESTATE,25018.7478959849,30474.1930130068
3 SHEPHERDS DRIVE SHEPHERD'S HILL ESTATE SINGAPORE 148996,3,SHEPHERD'S HILL ESTATE,1.29154818633352,103.806580266306,103.806580266306,148996,SHEPHERDS DRIVE,SHEPHERD'S HILL ESTATE,25024.2556399098,30438.371217493
4 SHEPHERDS DRIVE SHEPHERD'S HILL ESTATE SINGAPORE 148997,4,SHEPHERD'S HILL ESTATE,1.29177216127686,103.806353420126,103.806353420126,148997,SHEPHERDS DRIVE,SHEPHERD'S HILL ESTATE,24999.0098713906,30463.1374806147
5 SHEPHERDS DRIVE SHEPHERD'S HILL ESTATE SINGAPORE 148998,5,SHEPHERD'S HILL ESTATE,1.29142337572427,103.806438109983,103.806438109983,148998,SHEPHERDS DRIVE,SHEPHERD'S HILL ESTATE,25008.4347161613,30424.5704697818
6 SHEPHERDS DRIVE SHEPHERD'S HILL ESTATE SINGAPORE 148999,6,SHEPHERD'S HILL ESTATE,1.29164905082589,103.806212689182,103.806212689182,148999,SHEPHERDS DRIVE,SHEPHERD'S HILL ESTATE,24983.3475821447,30449.5247273501
7 SHEPHERDS DRIVE SHEPHERD'S HILL ESTATE SINGAPORE 149000,7,SHEPHERD'S HILL ESTATE,1.29125474296735,103.806300305121,103.806300305121,149000,SHEPHERDS DRIVE,SHEPHERD'S HILL ESTATE,24993.0980196157,30405.9240902886
8 SHEPHERDS DRIVE SHEPHERD'S HILL ESTATE SINGAPORE 149001,8,SHEPHERD'S HILL ESTATE,1.29150968134839,103.80606259312,103.80606259312,149001,SHEPHERDS DRIVE,SHEPHERD'S HILL ESTATE,24966.643014879,30434.1141466554
9 SHEPHERDS DRIVE SHEPHERD'S HILL ESTATE SINGAPORE 149002,9,SHEPHERD'S HILL ESTATE,1.29114675739363,103.806137668729,103.806137668729,149002,SHEPHERDS DRIVE,SHEPHERD'S HILL ESTATE,24974.997856156,30393.9837944638
10 SHEPHERDS DRIVE SHEPHERD'S HILL ESTATE SINGAPORE 149003,10,SHEPHERD'S HILL ESTATE,1.29137663520764,103.80589775267,103.80589775267,149003,SHEPHERDS DRIVE,SHEPHERD'S HILL ESTATE,24948.2975294115,30419.4027866535
11 SHEPHERDS DRIVE SHEPHERD'S HILL ESTATE SINGAPORE 149004,11,SHEPHERD'S HILL ESTATE,1.29103676496081,103.806015243206,103.806015243206,149004,SHEPHERDS DRIVE,SHEPHERD'S HILL ESTATE,24961.37281409,30381.8215435147
12 SHEPHERDS DRIVE SHEPHERD'S HILL ESTATE SINGAPORE 149005,12,SHEPHERD'S HILL ESTATE,1.29125641878479,103.805770577836,103.805770577836,149005,SHEPHERDS DRIVE,SHEPHERD'S HILL ESTATE,24934.1439175457,30406.1100265123
13 SHEPHERDS DRIVE SINGAPORE 149006,13,NIL,1.29092468961127,103.805860570178,103.805860570178,149006,SHEPHERDS DRIVE,13 SHEPHERDS DRIVE SINGAPORE 149006,24944.1588971941,30369.4290137459
14 SHEPHERDS DRIVE SHEPHERD'S HILL ESTATE SINGAPORE 149007,14,SHEPHERD'S HILL ESTATE,1.29113273135576,103.805612442748,103.805612442748,149007,SHEPHERDS DRIVE,SHEPHERD'S HILL ESTATE,24916.5446892176,30392.4334986061
15 SHEPHERDS DRIVE SHEPHERD'S HILL ESTATE SINGAPORE 149008,15,SHEPHERD'S HILL ESTATE,1.29082502289391,103.805710635299,103.805710635299,149008,SHEPHERDS DRIVE,SHEPHERD'S HILL ESTATE,24927.4723091107,30358.408561945
16 SHEPHERDS DRIVE SHEPHERD'S HILL ESTATE SINGAPORE 149009,16,SHEPHERD'S HILL ESTATE,1.29100331084947,103.80547875761,103.80547875761,149009,SHEPHERDS DRIVE,SHEPHERD'S HILL ESTATE,24901.6665223567,30378.1230077799
18 SHEPHERDS DRIVE SHEPHERD'S HILL ESTATE SINGAPORE 149010,18,SHEPHERD'S HILL ESTATE,1.29088720780241,103.805327859875,103.805327859875,149010,SHEPHERDS DRIVE,SHEPHERD'S HILL ESTATE,24884.8727553431,30365.2851148974
QUEENSWAY SPECIAL OPERATIONS COMMAND SINGAPORE 149051,,SPECIAL OPERATIONS COMMAND,1.29571220907117,103.800771718154,103.800771718154,149051,QUEENSWAY,SPECIAL OPERATIONS COMMAND,24377.8200112935,30898.8149895817
1 QUEENSWAY DBS QUEENSWAY SHOPPING CENTRE SINGAPORE 149053,1,DBS QUEENSWAY SHOPPING CENTRE,1.28761792586115,103.803391140455,103.803391140455,149053,QUEENSWAY,DBS QUEENSWAY SHOPPING CENTRE,24669.3282080879,30003.7871999741
22A QUEENSWAY SPECIAL OPERATIONS COMMAND SINGAPORE 149055,22A,SPECIAL OPERATIONS COMMAND,1.2941743738704,103.801035922862,103.801035922862,149055,QUEENSWAY,SPECIAL OPERATIONS COMMAND,24407.2215134408,30728.7687003575
22B QUEENSWAY SPECIAL OPERATIONS COMMAND SINGAPORE 149056,22B,SPECIAL OPERATIONS COMMAND,1.29398666005359,103.801266250485,103.801266250485,149056,QUEENSWAY,SPECIAL OPERATIONS COMMAND,24432.854712151,30708.0119462367
55 QUEENSWAY UNITED MEDICARE CENTRE (QUEENSWAY) SINGAPORE 149058,55,UNITED MEDICARE CENTRE (QUEENSWAY),1.29716995971747,103.7996518234,103.7996518234,149058,QUEENSWAY,UNITED MEDICARE CENTRE (QUEENSWAY),24253.1876837676,31060.0071974043
121 QUEENSWAY SINGAPORE 149059,121,NIL,1.30205082145355,103.800264607379,103.800264607379,149059,QUEENSWAY,121 QUEENSWAY SINGAPORE 149059,24321.3921962166,31599.7069281545
260 QUEENSWAY SHELL QUEENSWAY ANCHORAGE SINGAPORE 149060,260,SHELL QUEENSWAY ANCHORAGE,1.28935663543439,103.803010662553,103.803010662553,149060,QUEENSWAY,SHELL QUEENSWAY ANCHORAGE,24626.9865072733,30196.045255566
262 QUEENSWAY DBS EXXONMOBIL QUEENWAY SINGAPORE 149061,262,DBS EXXONMOBIL QUEENWAY,1.29125205759792,103.801092969423,103.801092969423,149061,QUEENSWAY,DBS EXXONMOBIL QUEENWAY,24413.5661973832,30405.6339111291
264 QUEENSWAY SPC QUEENSWAY SINGAPORE 149062,264,SPC QUEENSWAY,1.29143164737586,103.800848168688,103.800848168688,149062,QUEENSWAY,SPC QUEENSWAY,24386.322227383,30425.4923720304
580 QUEENSWAY SINGAPORE 149066,580,NIL,1.30406164409198,103.802110370883,103.802110370883,149066,QUEENSWAY,580 QUEENSWAY SINGAPORE 149066,24526.8117397027,31822.0507542007
622 QUEENSWAY DBS EXXONMOBIL QUEENWAY SINGAPORE 149067,622,DBS EXXONMOBIL QUEENWAY,1.30715135073408,103.80259774228,103.80259774228,149067,QUEENSWAY,DBS EXXONMOBIL QUEENWAY,24581.0559013616,32163.6939917207
590 QUEENSWAY SINGAPORE 149072,590,NIL,1.30419984920577,103.802760159746,103.802760159746,149072,QUEENSWAY,590 QUEENSWAY SINGAPORE 149072,24599.1274918448,31837.3318787292
3 QUEENSWAY 1ST SCDF DIVISION HQ SINGAPORE 149073,3,1ST SCDF DIVISION HQ,1.28835180478639,103.802862217611,103.802862217611,149073,QUEENSWAY,1ST SCDF DIVISION HQ,24610.464516486,30084.9364512879
1 MERINO CRESCENT SHEPHERD'S HILL ESTATE SINGAPORE 149149,1,SHEPHERD'S HILL ESTATE,1.29178256323639,103.806959431601,103.806959431601,149149,MERINO CRESCENT,SHEPHERD'S HILL ESTATE,25066.4537494099,30464.2869678326
2 MERINO CRESCENT SHEPHERD'S HILL ESTATE SINGAPORE 149150,2,SHEPHERD'S HILL ESTATE,1.29131714833594,103.806582927777,103.806582927777,149150,MERINO CRESCENT,SHEPHERD'S HILL ESTATE,25024.5515699871,30412.8242220003
3 MERINO CRESCENT SHEPHERD'S HILL ESTATE SINGAPORE 149151,3,SHEPHERD'S HILL ESTATE,1.29172986969147,103.807148721197,103.807148721197,149151,MERINO CRESCENT,SHEPHERD'S HILL ESTATE,25087.5199936647,30458.46016909
4 MERINO CRESCENT SHEPHERD'S HILL ESTATE SINGAPORE 149152,4,SHEPHERD'S HILL ESTATE,1.29116582092764,103.806516921578,103.806516921578,149152,MERINO CRESCENT,SHEPHERD'S HILL ESTATE,25017.205469803,30396.0912936348
5 MERINO CRESCENT SHEPHERD'S HILL ESTATE SINGAPORE 149153,5,SHEPHERD'S HILL ESTATE,1.29162359170065,103.80730118788,103.80730118788,149153,MERINO CRESCENT,SHEPHERD'S HILL ESTATE,25104.4881042652,30446.7083217334
6 MERINO CRESCENT SHEPHERD'S HILL ESTATE SINGAPORE 149154,6,SHEPHERD'S HILL ESTATE,1.29101577377096,103.806399906223,103.806399906223,149154,MERINO CRESCENT,SHEPHERD'S HILL ESTATE,25004.1824882003,30379.4999891631
7 MERINO CRESCENT SHEPHERD'S HILL ESTATE SINGAPORE 149155,7,SHEPHERD'S HILL ESTATE,1.29135833760265,103.807063627059,103.807063627059,149155,MERINO CRESCENT,SHEPHERD'S HILL ESTATE,25078.0493231677,30417.3781612236
8 MERINO CRESCENT SHEPHERD'S HILL ESTATE SINGAPORE 149156,8,SHEPHERD'S HILL ESTATE,1.2909541485557,103.806222311247,103.806222311247,149156,MERINO CRESCENT,SHEPHERD'S HILL ESTATE,24984.4176159054,30372.6860001329
9 MERINO CRESCENT SHEPHERD'S HILL ESTATE SINGAPORE 149157,9,SHEPHERD'S HILL ESTATE,1.29143010904349,103.80688212272,103.80688212272,149157,MERINO CRESCENT,SHEPHERD'S HILL ESTATE,25057.8495302144,30425.3144870903
10 MERINO CRESCENT SHEPHERD'S HILL ESTATE SINGAPORE 149158,10,SHEPHERD'S HILL ESTATE,1.29085113547844,103.806072804197,103.806072804197,149158,MERINO CRESCENT,SHEPHERD'S HILL ESTATE,24967.7786393603,30361.2955222316
11 MERINO CRESCENT SHEPHERD'S HILL ESTATE SINGAPORE 149159,11,SHEPHERD'S HILL ESTATE,1.29121914944693,103.806893188388,103.806893188388,149159,MERINO CRESCENT,SHEPHERD'S HILL ESTATE,25059.0808015242,30401.9876482021
12 MERINO CRESCENT SHEPHERD'S HILL ESTATE SINGAPORE 149160,12,SHEPHERD'S HILL ESTATE,1.2907724002894,103.805920667761,103.805920667761,149160,MERINO CRESCENT,SHEPHERD'S HILL ESTATE,24950.8470622161,30352.589572344
13 MERINO CRESCENT SHEPHERD'S HILL ESTATE SINGAPORE 149161,13,SHEPHERD'S HILL ESTATE,1.29109450273226,103.806820729125,103.806820729125,149161,MERINO CRESCENT,SHEPHERD'S HILL ESTATE,25051.0165631576,30388.2049402092
14 MERINO CRESCENT SINGAPORE 149162,14,NIL,1.2906692234447,103.805765876351,103.805765876351,149162,MERINO CRESCENT,14 MERINO CRESCENT SINGAPORE 149162,24933.6199787473,30341.1809941884
15 MERINO CRESCENT SHEPHERD'S HILL ESTATE SINGAPORE 149163,15,SHEPHERD'S HILL ESTATE,1.29075234361394,103.806508648489,103.806508648489,149163,MERINO CRESCENT,SHEPHERD'S HILL ESTATE,25016.2842637179,30350.3711107448
17 MERINO CRESCENT SHEPHERD'S HILL ESTATE SINGAPORE 149164,17,SHEPHERD'S HILL ESTATE,1.29063853298772,103.806394689992,103.806394689992,149164,MERINO CRESCENT,SHEPHERD'S HILL ESTATE,25003.6015245207,30337.7866516914
17A MERINO CRESCENT SHEPHERD'S HILL ESTATE SINGAPORE 149165,17A,SHEPHERD'S HILL ESTATE,1.2905936741526,103.806341347273,103.806341347273,149165,MERINO CRESCENT,SHEPHERD'S HILL ESTATE,24997.6648832662,30332.8264555912
19 MERINO CRESCENT SHEPHERD'S HILL ESTATE SINGAPORE 149166,19,SHEPHERD'S HILL ESTATE,1.29057401154844,103.806179575121,103.806179575121,149166,MERINO CRESCENT,SHEPHERD'S HILL ESTATE,24979.6610022634,30330.6524576619
21 MERINO CRESCENT SINGAPORE 149167,21,NIL,1.29046891491619,103.806268704747,103.806268704747,149167,MERINO CRESCENT,21 MERINO CRESCENT SINGAPORE 149167,24989.5802442795,30319.031307457
21A MERINO CRESCENT SINGAPORE 149168,21A,NIL,1.29038791232528,103.806210670383,103.806210670383,149168,MERINO CRESCENT,21A MERINO CRESCENT SINGAPORE 149168,24983.1214197706,30310.0745267868
23 MERINO CRESCENT SHEPHERD'S HILL ESTATE SINGAPORE 149169,23,SHEPHERD'S HILL ESTATE,1.29027839039817,103.806058696664,103.806058696664,149169,MERINO CRESCENT,SHEPHERD'S HILL ESTATE,24966.2079126127,30297.9643367697
25 MERINO CRESCENT SHEPHERD'S HILL ESTATE SINGAPORE 149170,25,SHEPHERD'S HILL ESTATE,1.29041325312927,103.805929010219,103.805929010219,149170,MERINO CRESCENT,SHEPHERD'S HILL ESTATE,24951.7750785975,30312.8769183271
27 MERINO CRESCENT SHEPHERD'S HILL ESTATE SINGAPORE 149171,27,SHEPHERD'S HILL ESTATE,1.29036079032758,103.805756502404,103.805756502404,149171,MERINO CRESCENT,SHEPHERD'S HILL ESTATE,24932.5763689373,30307.0760592483
1 MEI CHIN ROAD SINGAPORE 149253,1,NIL,1.29190124459205,103.801219963874,103.801219963874,149253,MEI CHIN ROAD,1 MEI CHIN ROAD SINGAPORE 149253,24427.7004982755,30477.4174915813
3 MEI CHIN ROAD SINGAPORE 149254,3,NIL,1.29354249202591,103.801971419316,103.801971419316,149254,MEI CHIN ROAD,3 MEI CHIN ROAD SINGAPORE 149254,24511.3332679216,30658.8971484378
2A MARGARET DRIVE QUEENSWAY SECONDARY SCHOOL SINGAPORE 149295,2A,QUEENSWAY SECONDARY SCHOOL,1.30047516692949,103.80172361393,103.80172361393,149295,MARGARET DRIVE,QUEENSWAY SECONDARY SCHOOL,24483.7642500447,31425.477058759
51 MARGARET DRIVE MARGARET DRIVE DORMITORY SINGAPORE 149296,51,MARGARET DRIVE DORMITORY,1.29904213273578,103.804781716686,103.804781716686,149296,MARGARET DRIVE,MARGARET DRIVE DORMITORY,24824.1018478191,31267.0154468194
53 MARGARET DRIVE QUEENSTOWN PUBLIC LIBRARY SINGAPORE 149297,53,QUEENSTOWN PUBLIC LIBRARY,1.29864022011527,103.805430801325,103.805430801325,149297,MARGARET DRIVE,QUEENSTOWN PUBLIC LIBRARY,24896.3386913268,31222.5732084699
130 MARGARET DRIVE CHURCH OF OUR SAVIOUR SINGAPORE 149300,130,CHURCH OF OUR SAVIOUR,1.29894197667875,103.803083088906,103.803083088906,149300,MARGARET DRIVE,CHURCH OF OUR SAVIOUR,24635.0595838903,31255.9429038186
132 MARGARET DRIVE THE FISHERMAN OF CHRIST FELLOWSHIP SINGAPORE 149301,132,THE FISHERMAN OF CHRIST FELLOWSHIP,1.29906645780481,103.803677188107,103.803677188107,149301,MARGARET DRIVE,THE FISHERMAN OF CHRIST FELLOWSHIP,24701.1776939547,31269.7066035196
310 MARGARET DRIVE QUEENSTOWN CAREHUT SINGAPORE 149303,310,QUEENSTOWN CAREHUT,1.29552905587752,103.807648475656,103.807648475656,149303,MARGARET DRIVE,QUEENSTOWN CAREHUT,25143.1426198389,30878.5540552996
495 MARGARET DRIVE QUEENSTOWN BAPTIST CHURCH SINGAPORE 149305,495,QUEENSTOWN BAPTIST CHURCH,1.29711842265222,103.808526495841,103.808526495841,149305,MARGARET DRIVE,QUEENSTOWN BAPTIST CHURCH,25240.860293027,31054.2970817387
501 MARGARET DRIVE OOSH - MARGARET DRIVE SINGAPORE 149306,501,OOSH - MARGARET DRIVE,1.29760369578325,103.808791846593,103.808791846593,149306,MARGARET DRIVE,OOSH - MARGARET DRIVE,25270.3920080401,31107.9558000565
946 MARGARET DRIVE MASJID JAMEK QUEENSTOWN SINGAPORE 149309,946,MASJID JAMEK QUEENSTOWN,1.29301045552152,103.815415725873,103.815415725873,149309,MARGARET DRIVE,MASJID JAMEK QUEENSTOWN,26007.5675104875,30600.0527678095
800 MARGARET DRIVE SINGAPORE 149310,800,NIL,1.29539368450255,103.812976182751,103.812976182751,149310,MARGARET DRIVE,800 MARGARET DRIVE SINGAPORE 149310,25736.0695988005,30863.5799994674
802 MARGARET DRIVE LEE KONG CHIAN GARDENS SCHOOL SINGAPORE 149311,802,LEE KONG CHIAN GARDENS SCHOOL,1.29474665495782,103.813004416043,103.813004416043,149311,MARGARET DRIVE,LEE KONG CHIAN GARDENS SCHOOL,25739.2111430988,30792.0347793885
20 MARGARET DRIVE MARGARET VILLE SINGAPORE 149312,20,MARGARET VILLE,1.2995172080842,103.802806930224,103.802806930224,149312,MARGARET DRIVE,MARGARET VILLE,24604.3263509953,31319.5494068619
60 JALAN PENJARA SINGAPORE 149375,60,NIL,1.29967493754684,103.80653586332,103.80653586332,149375,JALAN PENJARA,60 JALAN PENJARA SINGAPORE 149375,25019.3234719634,31336.9856118299
11 JALAN PENJARA SAINT ANDREW'S NURSING HOME (QUEENSTOWN) SINGAPORE 149380,11,SAINT ANDREW'S NURSING HOME (QUEENSTOWN),1.29817033626619,103.808001487821,103.808001487821,149380,JALAN PENJARA,SAINT ANDREW'S NURSING HOME (QUEENSTOWN),25182.4327025348,31170.612856986
56 JALAN PENJARA SINGAPORE 149381,56,NIL,1.30016999342577,103.808280738797,103.808280738797,149381,JALAN PENJARA,56 JALAN PENJARA SINGAPORE 149381,25213.5130486665,31391.724352343
58 JALAN PENJARA SINGAPORE 149382,58,NIL,1.29933286640747,103.807166049854,103.807166049854,149382,JALAN PENJARA,58 JALAN PENJARA SINGAPORE 149382,25089.4572051587,31299.1604087427
2 DUNDEE ROAD CHURCH OF THE GOOD SHEPHERD SINGAPORE 149454,2,CHURCH OF THE GOOD SHEPHERD,1.2950234280113,103.80772053155,103.80772053155,149454,DUNDEE ROAD,CHURCH OF THE GOOD SHEPHERD,25151.1612443533,30822.6442464963
1 DUNDEE ROAD QUEENS PEAK SINGAPORE 149456,1,QUEENS PEAK,1.29474611826682,103.806830290183,103.806830290183,149456,DUNDEE ROAD,QUEENS PEAK,25052.0848413752,30791.981780149
3 DUNDEE ROAD QUEENS PEAK SINGAPORE 149457,3,QUEENS PEAK,1.294336667463,103.807020127351,103.807020127351,149457,DUNDEE ROAD,QUEENS PEAK,25073.2115913304,30746.7065971568
1 COMMONWEALTH LANE CONSULATE OF THE REPUBLIC OF BENIN SINGAPORE 149544,1,CONSULATE OF THE REPUBLIC OF BENIN,1.30475068275648,103.796389550292,103.796389550292,149544,COMMONWEALTH LANE,CONSULATE OF THE REPUBLIC OF BENIN,23890.1377477106,31898.249737313
5 COMMONWEALTH LANE SINGAPORE 149546,5,NIL,1.30499096620305,103.795792590689,103.795792590689,149546,COMMONWEALTH LANE,5 COMMONWEALTH LANE SINGAPORE 149546,23823.7020054255,31924.8200327996
6 COMMONWEALTH LANE CERTIS COMMONWEALTH SINGAPORE 149547,6,CERTIS COMMONWEALTH,1.30494480879329,103.797127520182,103.797127520182,149547,COMMONWEALTH LANE,CERTIS COMMONWEALTH,23972.2673487486,31919.7140055541
9 COMMONWEALTH LANE SINGAPORE 149551,9,NIL,1.30572840925339,103.795938135367,103.795938135367,149551,COMMONWEALTH LANE,9 COMMONWEALTH LANE SINGAPORE 149551,23839.9010065598,32006.3624652214
15 COMMONWEALTH LANE COMMONWEALTH CAR MALL SINGAPORE 149554,15,COMMONWEALTH CAR MALL,1.30597652494934,103.797056630869,103.797056630869,149554,COMMONWEALTH LANE,COMMONWEALTH CAR MALL,23964.3796635317,32033.7960036043
8 COMMONWEALTH LANE SINGAPORE 149555,8,NIL,1.30532573681313,103.797673513706,103.797673513706,149555,COMMONWEALTH LANE,8 COMMONWEALTH LANE SINGAPORE 149555,24033.032021068,31961.8342052642
3 COMMONWEALTH DRIVE SRI MUNEESWARAN TEMPLE SINGAPORE 149594,3,SRI MUNEESWARAN TEMPLE,1.29570258506635,103.798454789034,103.798454789034,149594,COMMONWEALTH DRIVE,SRI MUNEESWARAN TEMPLE,24119.9660894303,30897.754248092
115A COMMONWEALTH DRIVE TANGLIN HALT INDUSTRIAL ESTATE SINGAPORE 149596,115A,TANGLIN HALT INDUSTRIAL ESTATE,1.30491206456155,103.798063939865,103.798063939865,149596,COMMONWEALTH DRIVE,TANGLIN HALT INDUSTRIAL ESTATE,24076.4822262507,31916.091835944
115B COMMONWEALTH DRIVE TANGLIN HALT INDUSTRIAL ESTATE SINGAPORE 149597,115B,TANGLIN HALT INDUSTRIAL ESTATE,1.3046115164699,103.798218709389,103.798218709389,149597,COMMONWEALTH DRIVE,TANGLIN HALT INDUSTRIAL ESTATE,24093.7061921163,31882.8585281298
401 COMMONWEALTH DRIVE AGAPE LITTLE UNI. PTE. LTD. SINGAPORE 149598,401,AGAPE LITTLE UNI. PTE. LTD.,1.30305551306548,103.796483196648,103.796483196648,149598,COMMONWEALTH DRIVE,AGAPE LITTLE UNI. PTE. LTD.,23900.5569865499,31710.8064098936
402 COMMONWEALTH DRIVE SINGAPORE 149599,402,NIL,1.30351957388228,103.798255715947,103.798255715947,149599,COMMONWEALTH DRIVE,402 COMMONWEALTH DRIVE SINGAPORE 149599,24097.8230011184,31762.117059106
709 COMMONWEALTH DRIVE QUEENSTOWN LUTHERAN CHURCH SINGAPORE 149601,709,QUEENSTOWN LUTHERAN CHURCH,1.30621825271115,103.799209838741,103.799209838741,149601,COMMONWEALTH DRIVE,QUEENSTOWN LUTHERAN CHURCH,24204.0122289294,32060.5216646511
1 COMMONWEALTH DRIVE SINGAPORE 149603,1,NIL,1.29580364549346,103.798802361643,103.798802361643,149603,COMMONWEALTH DRIVE,1 COMMONWEALTH DRIVE SINGAPORE 149603,24158.6480277972,30908.9284612481
400 COMMONWEALTH DRIVE FAITH KINDERGARTEN SINGAPORE 149604,400,FAITH KINDERGARTEN,1.30258842546827,103.797301915704,103.797301915704,149604,COMMONWEALTH DRIVE,FAITH KINDERGARTEN,23991.6722439136,31659.15694087
31 COMMONWEALTH CRESCENT COMMONWEALTH CRESCENT MARKET SINGAPORE 149644,31,COMMONWEALTH CRESCENT MARKET,1.30699534116093,103.800356458268,103.800356458268,149644,COMMONWEALTH CRESCENT,COMMONWEALTH CRESCENT MARKET,24331.6215337254,32146.4464168269
301 COMMONWEALTH AVENUE DBS QUEENSTOWN MRT STATION SINGAPORE 149729,301,DBS QUEENSTOWN MRT STATION,1.29419362236417,103.806100814457,103.806100814457,149729,COMMONWEALTH AVENUE,DBS QUEENSTOWN MRT STATION,24970.8999041086,30730.8904860169
355 COMMONWEALTH AVENUE SHELL COMMONWEALTH/STIRLING ROAD SINGAPORE 149731,355,SHELL COMMONWEALTH/STIRLING ROAD,1.29758913988348,103.803259539477,103.803259539477,149731,COMMONWEALTH AVENUE,SHELL COMMONWEALTH/STIRLING ROAD,24654.6951816278,31106.3529287111
365 COMMONWEALTH AVENUE PCF SPARKLETOTS PRESCHOOL @ QUEENSTOWN 365 (CC) SINGAPORE 149732,365,PCF SPARKLETOTS PRESCHOOL @ QUEENSTOWN 365 (CC),1.29915024159231,103.801305105971,103.801305105971,149732,COMMONWEALTH AVENUE,PCF SPARKLETOTS PRESCHOOL @ QUEENSTOWN 365 (CC),24437.1862119613,31278.9742061142
375 COMMONWEALTH AVENUE CITIBANK COMMONWEALTH SMRT STATION SINGAPORE 149735,375,CITIBANK COMMONWEALTH SMRT STATION,1.30242952850833,103.798330556414,103.798330556414,149735,COMMONWEALTH AVENUE,CITIBANK COMMONWEALTH SMRT STATION,24106.1503893342,31641.585316943
490 COMMONWEALTH AVENUE SPC COMMONWEALTH SINGAPORE 149736,490,SPC COMMONWEALTH,1.30571897940287,103.795158245698,103.795158245698,149736,COMMONWEALTH AVENUE,SPC COMMONWEALTH,23753.1064433353,32005.3210649751
230 COMMONWEALTH AVENUE COMMONWEALTH TOWERS SINGAPORE 149739,230,COMMONWEALTH TOWERS,1.29573433474414,103.806030198974,103.806030198974,149739,COMMONWEALTH AVENUE,COMMONWEALTH TOWERS,24963.0428500911,30901.2546193358
232 COMMONWEALTH AVENUE COMMONWEALTH TOWERS SINGAPORE 149740,232,COMMONWEALTH TOWERS,1.29546342917997,103.806515780156,103.806515780156,149740,COMMONWEALTH AVENUE,COMMONWEALTH TOWERS,25017.0834595608,30871.2986985315
1 BARBARY WALK SHEPHERD'S HILL ESTATE SINGAPORE 149860,1,SHEPHERD'S HILL ESTATE,1.29025396483741,103.805847898387,103.805847898387,149860,BARBARY WALK,SHEPHERD'S HILL ESTATE,24942.7478340613,30295.2637364585
2 BARBARY WALK SHEPHERD'S HILL ESTATE SINGAPORE 149861,2,SHEPHERD'S HILL ESTATE,1.29003004686963,103.805947924147,103.805947924147,149861,BARBARY WALK,SHEPHERD'S HILL ESTATE,24953.8795812372,30270.5039204173
3 BARBARY WALK SINGAPORE 149862,3,NIL,1.28988191384503,103.805750293854,103.805750293854,149862,BARBARY WALK,3 BARBARY WALK SINGAPORE 149862,24931.8848363133,30254.1243707612
4 BARBARY WALK SHEPHERD'S HILL ESTATE SINGAPORE 149863,4,SHEPHERD'S HILL ESTATE,1.29000611666841,103.805653910844,103.805653910844,149863,BARBARY WALK,SHEPHERD'S HILL ESTATE,24921.1583774397,30267.8581959605
5 BARBARY WALK SHEPHERD'S HILL ESTATE SINGAPORE 149864,5,SHEPHERD'S HILL ESTATE,1.29015047183256,103.80554378875,103.80554378875,149864,BARBARY WALK,SHEPHERD'S HILL ESTATE,24908.9029011,30283.8203803897
6 BARBARY WALK SHEPHERD'S HILL ESTATE SINGAPORE 149865,6,SHEPHERD'S HILL ESTATE,1.29028281700836,103.805438319916,103.805438319916,149865,BARBARY WALK,SHEPHERD'S HILL ESTATE,24897.1652796948,30298.4545570333
7 BARBARY WALK SHEPHERD'S HILL ESTATE SINGAPORE 149866,7,SHEPHERD'S HILL ESTATE,1.29042137332864,103.805321498687,103.805321498687,149866,BARBARY WALK,SHEPHERD'S HILL ESTATE,24884.1642423803,30313.7755444963
8 BARBARY WALK SHEPHERD'S HILL ESTATE SINGAPORE 149867,8,SHEPHERD'S HILL ESTATE,1.29056496474008,103.805209403692,103.805209403692,149867,BARBARY WALK,SHEPHERD'S HILL ESTATE,24871.689202087,30329.653281251
9 BARBARY WALK SHEPHERD'S HILL ESTATE SINGAPORE 149868,9,SHEPHERD'S HILL ESTATE,1.29071028830006,103.805094773085,103.805094773085,149868,BARBARY WALK,SHEPHERD'S HILL ESTATE,24858.9319733819,30345.7225538064
10 BARBARY WALK SHEPHERD'S HILL ESTATE SINGAPORE 149869,10,SHEPHERD'S HILL ESTATE,1.29087894504556,103.805021696299,103.805021696299,149869,BARBARY WALK,SHEPHERD'S HILL ESTATE,24850.799359641,30364.371839026
11 BARBARY WALK SHEPHERD'S HILL ESTATE SINGAPORE 149870,11,SHEPHERD'S HILL ESTATE,1.29062543972699,103.805554220189,103.805554220189,149870,BARBARY WALK,SHEPHERD'S HILL ESTATE,24910.0644047074,30336.3398723379
1 ANGORA CLOSE SHEPHERD'S HILL ESTATE SINGAPORE 149952,1,SHEPHERD'S HILL ESTATE,1.29203573198246,103.806385054052,103.806385054052,149952,ANGORA CLOSE,SHEPHERD'S HILL ESTATE,25002.5307643292,30492.2817351688
3 ANGORA CLOSE SHEPHERD'S HILL ESTATE SINGAPORE 149953,3,SHEPHERD'S HILL ESTATE,1.29189013698996,103.806258993694,103.806258993694,149953,ANGORA CLOSE,SHEPHERD'S HILL ESTATE,24988.5011603925,30476.1827394534
5 ANGORA CLOSE SHEPHERD'S HILL ESTATE SINGAPORE 149954,5,SHEPHERD'S HILL ESTATE,1.29175423289342,103.806101365627,103.806101365627,149954,ANGORA CLOSE,SHEPHERD'S HILL ESTATE,24970.9583515851,30461.155351432
7 ANGORA CLOSE SHEPHERD'S HILL ESTATE SINGAPORE 149955,7,SHEPHERD'S HILL ESTATE,1.29162734680142,103.805958023275,103.805958023275,149955,ANGORA CLOSE,SHEPHERD'S HILL ESTATE,24955.0054291589,30447.1251118686
9 ANGORA CLOSE SHEPHERD'S HILL ESTATE SINGAPORE 149956,9,SHEPHERD'S HILL ESTATE,1.29148604262859,103.805788704917,103.805788704917,149956,ANGORA CLOSE,SHEPHERD'S HILL ESTATE,24936.1615813402,30431.5006273333
11 ANGORA CLOSE SHEPHERD'S HILL ESTATE SINGAPORE 149957,11,SHEPHERD'S HILL ESTATE,1.29135873777843,103.805626845489,103.805626845489,149957,ANGORA CLOSE,SHEPHERD'S HILL ESTATE,24918.1478632428,30417.4241080228
13 ANGORA CLOSE SHEPHERD'S HILL ESTATE SINGAPORE 149958,13,SHEPHERD'S HILL ESTATE,1.29117736183156,103.805434385907,103.805434385907,149958,ANGORA CLOSE,SHEPHERD'S HILL ESTATE,24896.7285429575,30397.3687236197
15 ANGORA CLOSE SHEPHERD'S HILL ESTATE SINGAPORE 149959,15,SHEPHERD'S HILL ESTATE,1.29102673168427,103.805179456846,103.805179456846,149959,ANGORA CLOSE,SHEPHERD'S HILL ESTATE,24868.3569392236,30380.7131299507
