ADDRESS,BLK_NO,BUILDING,LATITUDE,LONGITUDE,LONGTITUDE,POSTAL,ROAD_NAME,SEARCHVAL,X,Y
10 MARTIN PLACE MARTIN MODERN SINGAPORE 237963,10,MARTIN MODERN,1.29303736708345,103.837772811242,103.837772811242,237963,MARTIN PLACE,MARTIN MODERN,28495.7174190748,30603.0219056718
4A RIVER VALLEY GREEN TEMPORARY SITE OFFICE SINGAPORE 237968,4A,TEMPORARY SITE OFFICE,1.29400986737292,103.83544792832,103.83544792832,237968,RIVER VALLEY GREEN,TEMPORARY SITE OFFICE,28236.9780073483,30710.5556373186
238 ORCHARD BOULEVARD THE ORCHARD RESIDENCES SINGAPORE 237973,238,THE ORCHARD RESIDENCES,1.30383691559687,103.831707804361,103.831707804361,237973,ORCHARD BOULEVARD,THE ORCHARD RESIDENCES,27820.735479923,31797.1799454633
301 ORCHARD BOULEVARD SINGAPORE 237974,301,NIL,1.30284071160081,103.830587212529,103.830587212529,237974,ORCHARD BOULEVARD,301 ORCHARD BOULEVARD SINGAPORE 237974,27696.0237292079,31687.0249458905
2 ORCHARD LINK DBS DBS *SCAPE BRANCH SINGAPORE 237978,2,DBS DBS *SCAPE BRANCH,1.30106463675593,103.835784682851,103.835784682851,237978,ORCHARD LINK,DBS DBS *SCAPE BRANCH,28274.4550983561,31490.6357040051
1 UNITY STREET RIVERSIDE HOTEL ROBERTSON QUAY SINGAPORE 237983,1,RIVERSIDE HOTEL ROBERTSON QUAY,1.2914777438984,103.842332757301,103.842332757301,237983,UNITY STREET,RIVERSIDE HOTEL ROBERTSON QUAY,29003.2005133182,30430.5681615584
2 MARTIN PLACE MARTIN PLACE RESIDENCES SINGAPORE 237988,2,MARTIN PLACE RESIDENCES,1.29416191303506,103.838428107883,103.838428107883,237988,MARTIN PLACE,MARTIN PLACE RESIDENCES,28568.6460070834,30727.3685336988
4 MARTIN PLACE MARTIN PLACE RESIDENCES SINGAPORE 237989,4,MARTIN PLACE RESIDENCES,1.29437722137868,103.838517275046,103.838517275046,237989,MARTIN PLACE,MARTIN PLACE RESIDENCES,28578.5694866171,30751.1762400437
6 MARTIN PLACE MARTIN PLACE RESIDENCES SINGAPORE 237990,6,MARTIN PLACE RESIDENCES,1.29416113033167,103.838058251753,103.838058251753,237990,MARTIN PLACE,MARTIN PLACE RESIDENCES,28527.4842430782,30727.2819067296
8 MARTIN PLACE MARTIN MODERN SINGAPORE 237992,8,MARTIN MODERN,1.2934966639073,103.8381049101,103.8381049101,237992,MARTIN PLACE,MARTIN MODERN,28532.6770486329,30653.8086463548
2 RIVER VALLEY GREEN AFTERSCHOOL @ RIVER VALLEY PRIMARY SCHOOL SINGAPORE 237993,2,AFTERSCHOOL @ RIVER VALLEY PRIMARY SCHOOL,1.29418347842837,103.836018941571,103.836018941571,237993,RIVER VALLEY GREEN,AFTERSCHOOL @ RIVER VALLEY PRIMARY SCHOOL,28300.5267893467,30729.7527125087
1 KIM SENG PROMENADE BRIGHTON MONTESSORI CENTRES PTE. LTD. SINGAPORE 237994,1,BRIGHTON MONTESSORI CENTRES PTE. LTD.,1.29380235105066,103.831757911057,103.831757911057,237994,KIM SENG PROMENADE,BRIGHTON MONTESSORI CENTRES PTE. LTD.,27826.3112057392,30687.6095091309
11 UNITY STREET CAMBRIDGE CDC @ TANGLIN PTE. LTD. SINGAPORE 237995,11,CAMBRIDGE CDC @ TANGLIN PTE. LTD.,1.2919705093805,103.841157123421,103.841157123421,237995,UNITY STREET,CAMBRIDGE CDC @ TANGLIN PTE. LTD.,28872.3624016261,30485.0551935192
7 TONG WATT ROAD THE WHARF RESIDENCE SINGAPORE 238002,7,THE WHARF RESIDENCE,1.29332852822898,103.840372139235,103.840372139235,238002,TONG WATT ROAD,THE WHARF RESIDENCE,28785.0000110269,30635.2176572718
9 TONG WATT ROAD THE WHARF RESIDENCE SINGAPORE 238004,9,THE WHARF RESIDENCE,1.29320479919131,103.840201681782,103.840201681782,238004,TONG WATT ROAD,THE WHARF RESIDENCE,28766.0296127684,30621.5362864882
11 TONG WATT ROAD THE WHARF RESIDENCE SINGAPORE 238008,11,THE WHARF RESIDENCE,1.29320479919131,103.840201681782,103.840201681782,238008,TONG WATT ROAD,THE WHARF RESIDENCE,28766.0296127684,30621.5362864882
18 TONG WATT ROAD ROBERTSON EDGE SINGAPORE 238010,18,ROBERTSON EDGE,1.29309229152325,103.840538564538,103.840538564538,238010,TONG WATT ROAD,ROBERTSON EDGE,28803.5217772312,30609.0958727673
19 TONG WATT ROAD VIVACE SINGAPORE 238011,19,VIVACE,1.29294488391215,103.840702054687,103.840702054687,238011,TONG WATT ROAD,VIVACE,28821.7168610869,30592.79635166
7A TONG WATT ROAD THE WHARF RESIDENCE SINGAPORE 238012,7A,THE WHARF RESIDENCE,1.29372401821426,103.839758988169,103.839758988169,238012,TONG WATT ROAD,THE WHARF RESIDENCE,28716.7615076322,30678.948719075
7B TONG WATT ROAD THE WHARF RESIDENCE SINGAPORE 238013,7B,THE WHARF RESIDENCE,1.29368732311052,103.839798000654,103.839798000654,238013,TONG WATT ROAD,THE WHARF RESIDENCE,28721.103268289,30674.8911747858
7C TONG WATT ROAD THE WHARF RESIDENCE SINGAPORE 238014,7C,THE WHARF RESIDENCE,1.29364642594913,103.839829919585,103.839829919585,238014,TONG WATT ROAD,THE WHARF RESIDENCE,28724.6555793937,30670.3689866774
7D TONG WATT ROAD THE WHARF RESIDENCE SINGAPORE 238015,7D,THE WHARF RESIDENCE,1.2936042017221,103.839864789938,103.839864789938,238015,TONG WATT ROAD,THE WHARF RESIDENCE,28728.5363586582,30665.700059386
7E TONG WATT ROAD THE WHARF RESIDENCE SINGAPORE 238016,7E,THE WHARF RESIDENCE,1.29356980050064,103.839903278338,103.839903278338,238016,TONG WATT ROAD,THE WHARF RESIDENCE,28732.8197929095,30661.8961608
7F TONG WATT ROAD THE WHARF RESIDENCE SINGAPORE 238017,7F,THE WHARF RESIDENCE,1.29353384255985,103.839941455598,103.839941455598,238017,TONG WATT ROAD,THE WHARF RESIDENCE,28737.0686005875,30657.9201281909
7G TONG WATT ROAD THE WHARF RESIDENCE SINGAPORE 238018,7G,THE WHARF RESIDENCE,1.29349760377068,103.839978749495,103.839978749495,238018,TONG WATT ROAD,THE WHARF RESIDENCE,28741.2190978555,30653.9130406305
7H TONG WATT ROAD THE WHARF RESIDENCE SINGAPORE 238019,7H,THE WHARF RESIDENCE,1.29346592838753,103.840014672942,103.840014672942,238019,TONG WATT ROAD,THE WHARF RESIDENCE,28745.2170747528,30650.410550626
7J TONG WATT ROAD THE WHARF RESIDENCE SINGAPORE 238020,7J,THE WHARF RESIDENCE,1.29343150801436,103.840048687691,103.840048687691,238020,TONG WATT ROAD,THE WHARF RESIDENCE,28749.0026309397,30646.6045332812
7K TONG WATT ROAD THE WHARF RESIDENCE SINGAPORE 238021,7K,THE WHARF RESIDENCE,1.2933821013219,103.840076864546,103.840076864546,238021,TONG WATT ROAD,THE WHARF RESIDENCE,28752.138484857,30641.1414043643
7L TONG WATT ROAD THE WHARF RESIDENCE SINGAPORE 238022,7L,THE WHARF RESIDENCE,1.29335190134046,103.840119401507,103.840119401507,238022,TONG WATT ROAD,THE WHARF RESIDENCE,28756.8724883143,30637.8020587936
7M TONG WATT ROAD THE WHARF RESIDENCE SINGAPORE 238023,7M,THE WHARF RESIDENCE,1.29332166195355,103.840157187682,103.840157187682,238023,TONG WATT ROAD,THE WHARF RESIDENCE,28761.0777706327,30634.4583546314
7N TONG WATT ROAD THE WHARF RESIDENCE SINGAPORE 238024,7N,THE WHARF RESIDENCE,1.29328788237915,103.840194251765,103.840194251765,238024,TONG WATT ROAD,THE WHARF RESIDENCE,28765.2026914535,30630.7231946383
13 TONG WATT ROAD THE WHARF RESIDENCE SINGAPORE 238025,13,THE WHARF RESIDENCE,1.29320479919131,103.840201681782,103.840201681782,238025,TONG WATT ROAD,THE WHARF RESIDENCE,28766.0296127684,30621.5362864882
15 TONG WATT ROAD THE WHARF RESIDENCE SINGAPORE 238026,15,THE WHARF RESIDENCE,1.29320479919131,103.840201681782,103.840201681782,238026,TONG WATT ROAD,THE WHARF RESIDENCE,28766.0296127684,30621.5362864882
1 TANK ROAD SINGAPORE 238058,1,NIL,1.29392936545181,103.842690719494,103.842690719494,238058,TANK ROAD,1 TANK ROAD SINGAPORE 238058,29043.037629283,30701.6559723355
1A TANK ROAD SINGAPORE 238059,1A,NIL,1.29392936572554,103.842690719222,103.842690719222,238059,TANK ROAD,1A TANK ROAD SINGAPORE 238059,29043.0375990151,30701.6560026035
3 TANK ROAD SINGAPORE 238060,3,NIL,1.29390209702888,103.842754170454,103.842754170454,238060,TANK ROAD,3 TANK ROAD SINGAPORE 238060,29050.0991801526,30698.6407968681
5 TANK ROAD SINGAPORE 238061,5,NIL,1.29392264332038,103.842855648277,103.842855648277,238061,TANK ROAD,5 TANK ROAD SINGAPORE 238061,29061.3927702373,30700.9127419945
15 TANK ROAD SRI THENDAYUTHAPANI TEMPLE SINGAPORE 238065,15,SRI THENDAYUTHAPANI TEMPLE,1.29434705864519,103.842935031624,103.842935031624,238065,TANK ROAD,SRI THENDAYUTHAPANI TEMPLE,29070.2272682525,30747.8424335122
97 TANK ROAD NGEE ANN CULTURAL CENTRE SINGAPORE 238066,97,NGEE ANN CULTURAL CENTRE,1.29523343897498,103.843417105907,103.843417105907,238066,TANK ROAD,NGEE ANN CULTURAL CENTRE,29123.8775418038,30845.8540088236
107 TANK ROAD SINGAPORE 238067,107,NIL,1.29571607688356,103.84366236854,103.84366236854,238067,TANK ROAD,107 TANK ROAD SINGAPORE 238067,29151.1729068402,30899.2217307463
109 TANK ROAD SINGAPORE 238068,109,NIL,1.29575864287079,103.843672385948,103.843672385948,238068,TANK ROAD,109 TANK ROAD SINGAPORE 238068,29152.2877372159,30903.9284627493
111 TANK ROAD CHURCH OF THE SACRED HEART SINGAPORE 238069,111,CHURCH OF THE SACRED HEART,1.29598936972846,103.84345736088,103.84345736088,238069,TANK ROAD,CHURCH OF THE SACRED HEART,29128.3572336612,30929.4409527425
113 TANK ROAD CHURCH OF THE SACRED HEART SINGAPORE 238074,113,CHURCH OF THE SACRED HEART,1.29580014447352,103.843440125598,103.843440125598,238074,TANK ROAD,CHURCH OF THE SACRED HEART,29126.4391818019,30908.5173917618
1 SAINT THOMAS WALK WILMER HOUSE SINGAPORE 238096,1,WILMER HOUSE,1.2964863297695,103.835526128586,103.835526128586,238096,SAINT THOMAS WALK,WILMER HOUSE,28245.6807790985,30984.3900860101
3 SAINT THOMAS WALK SINGAPORE 238098,3,NIL,1.29711770275743,103.835329807027,103.835329807027,238098,SAINT THOMAS WALK,3 SAINT THOMAS WALK SINGAPORE 238098,28223.8318653209,31054.2040379569
3A SAINT THOMAS WALK SINGAPORE 238099,3A,NIL,1.2971177024837,103.835329807299,103.835329807299,238099,SAINT THOMAS WALK,3A SAINT THOMAS WALK SINGAPORE 238099,28223.8318955889,31054.2040076889
3B SAINT THOMAS WALK SINGAPORE 238100,3B,NIL,1.2971177024837,103.835329807299,103.835329807299,238100,SAINT THOMAS WALK,3B SAINT THOMAS WALK SINGAPORE 238100,28223.8318955889,31054.2040076889
9 SAINT THOMAS WALK SINGAPORE 238101,9,NIL,1.297348448319,103.835142428315,103.835142428315,238101,SAINT THOMAS WALK,9 SAINT THOMAS WALK SINGAPORE 238101,28202.9782536505,31079.718676975
10 SAINT THOMAS WALK 8 SAINT THOMAS SINGAPORE 238102,10,8 SAINT THOMAS,1.29677239073419,103.836214457259,103.836214457259,238102,SAINT THOMAS WALK,8 SAINT THOMAS,28322.2856558729,31016.0213094465
11 SAINT THOMAS WALK SINGAPORE 238103,11,NIL,1.29734844859274,103.835142428859,103.835142428859,238103,SAINT THOMAS WALK,11 SAINT THOMAS WALK SINGAPORE 238103,28202.9783141864,31079.718707243
22 SAINT THOMAS WALK SKYPARK SINGAPORE 238107,22,SKYPARK,1.29717525117902,103.836032712174,103.836032712174,238107,SAINT THOMAS WALK,SKYPARK,28302.0589849502,31060.5675183181
23 SAINT THOMAS WALK SAM KIANG MANSIONS SINGAPORE 238108,23,SAM KIANG MANSIONS,1.29840164434192,103.835357288285,103.835357288285,238108,SAINT THOMAS WALK,SAM KIANG MANSIONS,28226.8901726631,31196.175682636
30 SAINT THOMAS WALK SINGAPORE 238111,30,NIL,1.29753752251529,103.835816374703,103.835816374703,238111,SAINT THOMAS WALK,30 SAINT THOMAS WALK SINGAPORE 238111,28277.9824989103,31100.6255905647
32 SAINT THOMAS WALK SAINT THOMAS LODGE SINGAPORE 238112,32,SAINT THOMAS LODGE,1.29779591042764,103.835697823243,103.835697823243,238112,SAINT THOMAS WALK,SAINT THOMAS LODGE,28264.7887453437,31129.196781382
33 SAINT THOMAS WALK SAINT THOMAS SUITES SINGAPORE 238113,33,SAINT THOMAS SUITES,1.29793589010719,103.836437562021,103.836437562021,238113,SAINT THOMAS WALK,SAINT THOMAS SUITES,28347.1150882766,31144.6751018241
35 SAINT THOMAS WALK SAINT THOMAS SUITES SINGAPORE 238115,35,SAINT THOMAS SUITES,1.29864512140797,103.836153560922,103.836153560922,238115,SAINT THOMAS WALK,SAINT THOMAS SUITES,28315.508200299,31223.0982066486
38 SAINT THOMAS WALK SAINT THOMAS VILLE SINGAPORE 238118,38,SAINT THOMAS VILLE,1.29753598393434,103.836012639178,103.836012639178,238118,SAINT THOMAS WALK,SAINT THOMAS VILLE,28299.8249958763,31100.4554844964
40 SAINT THOMAS WALK SAINT THOMAS COURT SINGAPORE 238120,40,SAINT THOMAS COURT,1.29750880469903,103.836268849611,103.836268849611,238120,SAINT THOMAS WALK,SAINT THOMAS COURT,28328.3389499364,31097.4501763936
48 SAINT THOMAS WALK ESPADA SINGAPORE 238126,48,ESPADA,1.29734197095829,103.8367416335,103.8367416335,238126,SAINT THOMAS WALK,ESPADA,28380.9556323793,31079.0026272852
70 SAINT THOMAS WALK SKYLINE 360° @ SAINT THOMAS WALK SINGAPORE 238139,70,SKYLINE 360° @ SAINT THOMAS WALK,1.29698675340218,103.836737477578,103.836737477578,238139,SAINT THOMAS WALK,SKYLINE 360° @ SAINT THOMAS WALK,28380.4931678567,31039.7245004419
49 SAINT THOMAS WALK THE BAYRON SINGAPORE 238140,49,THE BAYRON,1.29788642472463,103.837168505588,103.837168505588,238140,SAINT THOMAS WALK,THE BAYRON,28428.4626251515,31139.2055863626
31 SAINT THOMAS WALK SAINT THOMAS SUITES SINGAPORE 238141,31,SAINT THOMAS SUITES,1.29841036087496,103.835898341989,103.835898341989,238141,SAINT THOMAS WALK,SAINT THOMAS SUITES,28287.1046335753,31197.1395665761
68 SAINT THOMAS WALK SKYLINE 360° @ SAINT THOMAS WALK SINGAPORE 238142,68,SKYLINE 360° @ SAINT THOMAS WALK,1.29674185934241,103.836883724004,103.836883724004,238142,SAINT THOMAS WALK,SKYLINE 360° @ SAINT THOMAS WALK,28396.7691404726,31012.6454001497
15 SAINT THOMAS WALK GRANGE HEIGHTS SINGAPORE 238143,15,GRANGE HEIGHTS,1.29787108350456,103.835056333202,103.835056333202,238143,SAINT THOMAS WALK,GRANGE HEIGHTS,28193.3965904573,31137.5089750718
19 SAINT THOMAS WALK GRANGE HEIGHTS SINGAPORE 238144,19,GRANGE HEIGHTS,1.29778010548426,103.835225689892,103.835225689892,238144,SAINT THOMAS WALK,GRANGE HEIGHTS,28212.2444941858,31127.4491080027
21 SAINT THOMAS WALK GRANGE HEIGHTS SINGAPORE 238145,21,GRANGE HEIGHTS,1.29778010548426,103.835225689892,103.835225689892,238145,SAINT THOMAS WALK,GRANGE HEIGHTS,28212.2444941858,31127.4491080027
8 SAINT THOMAS WALK 8 SAINT THOMAS SINGAPORE 238146,8,8 SAINT THOMAS,1.29614347977247,103.836292454037,103.836292454037,238146,SAINT THOMAS WALK,8 SAINT THOMAS,28330.9660898512,30946.4795877431
12 SAINT THOMAS WALK 8 SAINT THOMAS SINGAPORE 238147,12,8 SAINT THOMAS,1.29643170333554,103.836547888519,103.836547888519,238147,SAINT THOMAS WALK,8 SAINT THOMAS,28359.3936590869,30978.3498979826
1 SOMERSET ROAD CITIBANK SOMERSET SMRT STATION SINGAPORE 238162,1,CITIBANK SOMERSET SMRT STATION,1.30012190987404,103.839594787931,103.839594787931,238162,SOMERSET ROAD,CITIBANK SOMERSET SMRT STATION,28698.4856990641,31386.3945538942
96 SOMERSET ROAD PAN PACIFIC SERVICED SUITES ORCHARD SINGAPORE 238163,96,PAN PACIFIC SERVICED SUITES ORCHARD,1.30093196520892,103.83793360588,103.83793360588,238163,SOMERSET ROAD,PAN PACIFIC SERVICED SUITES ORCHARD,28513.6108824732,31475.9659019448
111 SOMERSET ROAD 111 SOMERSET SINGAPORE 238164,111,111 SOMERSET,1.30019272342804,103.837362540861,103.837362540861,238164,SOMERSET ROAD,111 SOMERSET,28450.0566219706,31394.2242456544
113 SOMERSET ROAD THE RED BOX SINGAPORE 238165,113,THE RED BOX,1.30051329505861,103.836874641066,103.836874641066,238165,SOMERSET ROAD,THE RED BOX,28395.7577055292,31429.6713235304
121 SOMERSET ROAD SINGAPORE 238166,121,NIL,1.30049575711342,103.836578046046,103.836578046046,238166,SOMERSET ROAD,121 SOMERSET ROAD SINGAPORE 238166,28362.7493493697,31427.7320235446
1 RODYK STREET WATERMARK ROBERTSON QUAY SINGAPORE 238212,1,WATERMARK ROBERTSON QUAY,1.29093691491922,103.838346278046,103.838346278046,238212,RODYK STREET,WATERMARK ROBERTSON QUAY,28559.5397631098,30370.7648609392
3 RODYK STREET WATERMARK ROBERTSON QUAY SINGAPORE 238213,3,WATERMARK ROBERTSON QUAY,1.29037299435445,103.838011167759,103.838011167759,238213,RODYK STREET,WATERMARK ROBERTSON QUAY,28522.2449761685,30308.409363931
5 RODYK STREET WATERMARK ROBERTSON QUAY SINGAPORE 238214,5,WATERMARK ROBERTSON QUAY,1.28984726949554,103.837905119838,103.837905119838,238214,RODYK STREET,WATERMARK ROBERTSON QUAY,28510.4428536901,30250.2774008345
7 RODYK STREET WATERMARK ROBERTSON QUAY SINGAPORE 238215,7,WATERMARK ROBERTSON QUAY,1.28984726949554,103.837905120382,103.837905120382,238215,RODYK STREET,WATERMARK ROBERTSON QUAY,28510.4429142261,30250.2774008345
8 RODYK STREET 8 RODYK SINGAPORE 238216,8,8 RODYK,1.29021050421929,103.83756182148,103.83756182148,238216,RODYK STREET,8 RODYK,28472.2366069546,30290.4419558477
41 ROBERTSON QUAY SINGAPORE TYLER PRINT INSTITUTE SINGAPORE 238236,41,SINGAPORE TYLER PRINT INSTITUTE,1.29104679338906,103.840262965083,103.840262965083,238236,ROBERTSON QUAY,SINGAPORE TYLER PRINT INSTITUTE,28772.8505634349,30382.9151560348
48 ROBERTSON QUAY RIVERSIDE 48 SINGAPORE 238237,48,RIVERSIDE 48,1.29092553991444,103.839804752138,103.839804752138,238237,ROBERTSON QUAY,RIVERSIDE 48,28721.8554276843,30369.5074380916
84 ROBERTSON QUAY SINGAPORE 238243,84,NIL,1.29003701697736,103.837339944753,103.837339944753,238243,ROBERTSON QUAY,84 ROBERTSON QUAY SINGAPORE 238243,28447.5436528903,30271.2585920561
86 ROBERTSON QUAY ROBERTSON BLUE SINGAPORE 238245,86,ROBERTSON BLUE,1.29026307473852,103.837158903917,103.837158903917,238245,ROBERTSON QUAY,ROBERTSON BLUE,28427.3953155093,30296.2548615858
88 ROBERTSON QUAY ROBERTSON BLUE SINGAPORE 238247,88,ROBERTSON BLUE,1.29027127193592,103.837342880224,103.837342880224,238247,ROBERTSON QUAY,ROBERTSON BLUE,28447.870304971,30297.1612968929
100 ROBERTSON QUAY ROBERTSON 100 SINGAPORE 238250,100,ROBERTSON 100,1.29111208915593,103.837821344301,103.837821344301,238250,ROBERTSON QUAY,ROBERTSON 100,28501.1191039858,30390.1346149743
30 ROBERTSON QUAY VILLAGE RESIDENCE ROBERTSON QUAY SINGAPORE 238251,30,VILLAGE RESIDENCE ROBERTSON QUAY,1.29123942384695,103.841234226732,103.841234226732,238251,ROBERTSON QUAY,VILLAGE RESIDENCE ROBERTSON QUAY,28880.9435868859,30404.2155534122
60 ROBERTSON QUAY THE QUAYSIDE SINGAPORE 238252,60,THE QUAYSIDE,1.29008949076604,103.839172115869,103.839172115869,238252,ROBERTSON QUAY,THE QUAYSIDE,28651.4486470073,30277.0612672139
93 ROBERTSON QUAY RIVERGATE SINGAPORE 238255,93,RIVERGATE,1.29173359502464,103.836971346231,103.836971346231,238255,ROBERTSON QUAY,RIVERGATE,28406.5215150947,30458.8573758416
95 ROBERTSON QUAY RIVERGATE SINGAPORE 238256,95,RIVERGATE,1.29034400130683,103.836459262286,103.836459262286,238256,ROBERTSON QUAY,RIVERGATE,28349.5311695402,30305.2031974867
97 ROBERTSON QUAY RIVERGATE SINGAPORE 238257,97,RIVERGATE,1.29096178974375,103.836573040809,103.836573040809,238257,ROBERTSON QUAY,RIVERGATE,28362.1936594564,30373.5150704756
99 ROBERTSON QUAY RIVERGATE SINGAPORE 238258,99,RIVERGATE,1.29204842022797,103.836395174222,103.836395174222,238258,ROBERTSON QUAY,RIVERGATE,28342.398488909,30493.6690379344
90 ROBERTSON QUAY SINGAPORE 238259,90,NIL,1.29083412595769,103.837280353189,103.837280353189,238259,ROBERTSON QUAY,90 ROBERTSON QUAY SINGAPORE 238259,28440.911483638,30359.3987790328
92 ROBERTSON QUAY SINGAPORE 238260,92,NIL,1.29083412623143,103.837280353461,103.837280353461,238260,ROBERTSON QUAY,92 ROBERTSON QUAY SINGAPORE 238260,28440.911513906,30359.3988093007
205 RIVER VALLEY ROAD UE SQUARE SINGAPORE 238274,205,UE SQUARE,1.2927319871783,103.842250095411,103.842250095411,238274,RIVER VALLEY ROAD,UE SQUARE,28994.0004688632,30569.255881343
207 RIVER VALLEY ROAD UE SQUARE SINGAPORE 238275,207,UE SQUARE,1.29310526554177,103.841805509441,103.841805509441,238275,RIVER VALLEY ROAD,UE SQUARE,28944.5217590965,30610.5309081431
218 RIVER VALLEY ROAD SINGAPORE 238276,218,NIL,1.29381833997065,103.842670079767,103.842670079767,238276,RIVER VALLEY ROAD,218 RIVER VALLEY ROAD SINGAPORE 238276,29040.7406525351,30689.3793386761
219 RIVER VALLEY ROAD SINGAPORE 238277,219,NIL,1.29361971594421,103.842390701687,103.842390701687,238277,RIVER VALLEY ROAD,219 RIVER VALLEY ROAD SINGAPORE 238277,29009.6483808169,30667.4164054021
220 RIVER VALLEY ROAD SINGAPORE 238278,220,NIL,1.29383335842869,103.842643866461,103.842643866461,238278,RIVER VALLEY ROAD,220 RIVER VALLEY ROAD SINGAPORE 238278,29037.8233334608,30691.0399916023
221 RIVER VALLEY ROAD SINGAPORE 238279,221,NIL,1.29365957052988,103.842347284957,103.842347284957,238279,RIVER VALLEY ROAD,221 RIVER VALLEY ROAD SINGAPORE 238279,29004.8164604325,30671.8233027589
222 RIVER VALLEY ROAD SINGAPORE 238280,222,NIL,1.29387168683593,103.842633375871,103.842633375871,238280,RIVER VALLEY ROAD,222 RIVER VALLEY ROAD SINGAPORE 238280,29036.6558065247,30695.27814495
223 RIVER VALLEY ROAD SINGAPORE 238281,223,NIL,1.29369115397883,103.842309381861,103.842309381861,238281,RIVER VALLEY ROAD,223 RIVER VALLEY ROAD SINGAPORE 238281,29000.598162882,30675.3156227209
224 RIVER VALLEY ROAD SINGAPORE 238282,224,NIL,1.29390634151298,103.842611900094,103.842611900094,238282,RIVER VALLEY ROAD,224 RIVER VALLEY ROAD SINGAPORE 238282,29034.265725458,30699.1100716889
225 RIVER VALLEY ROAD SINGAPORE 238283,225,NIL,1.29373983732216,103.842252250489,103.842252250489,238283,RIVER VALLEY ROAD,225 RIVER VALLEY ROAD SINGAPORE 238283,28994.239918882,30680.6987533569
226 RIVER VALLEY ROAD SINGAPORE 238284,226,NIL,1.29394274507713,103.842588472933,103.842588472933,238284,RIVER VALLEY ROAD,226 RIVER VALLEY ROAD SINGAPORE 238284,29031.6584716085,30703.1353805754
227 RIVER VALLEY ROAD SINGAPORE 238285,227,NIL,1.29373983786964,103.842252250217,103.842252250217,238285,RIVER VALLEY ROAD,227 RIVER VALLEY ROAD SINGAPORE 238285,28994.239888614,30680.6988138929
228 RIVER VALLEY ROAD SINGAPORE 238286,228,NIL,1.29397116991548,103.842553048022,103.842553048022,238286,RIVER VALLEY ROAD,228 RIVER VALLEY ROAD SINGAPORE 238286,29027.7159759253,30706.278438272
230 RIVER VALLEY ROAD SINGAPORE 238288,230,NIL,1.29400110656829,103.842521026831,103.842521026831,238288,RIVER VALLEY ROAD,230 RIVER VALLEY ROAD SINGAPORE 238288,29024.1522840587,30709.5886660442
232 RIVER VALLEY ROAD SINGAPORE 238290,232,NIL,1.2940545102682,103.842511728612,103.842511728612,238290,RIVER VALLEY ROAD,232 RIVER VALLEY ROAD SINGAPORE 238290,29023.1174519639,30715.4937680587
233 RIVER VALLEY ROAD RV POINT SINGAPORE 238291,233,RV POINT,1.29380093107283,103.842145033288,103.842145033288,238291,RIVER VALLEY ROAD,RV POINT,28982.307553269,30687.4541435707
234 RIVER VALLEY ROAD SINGAPORE 238292,234,NIL,1.29409147170769,103.842485980451,103.842485980451,238292,RIVER VALLEY ROAD,234 RIVER VALLEY ROAD SINGAPORE 238292,29020.2518911408,30719.580763096
236 RIVER VALLEY ROAD SINGAPORE 238294,236,NIL,1.29412988558335,103.842457708406,103.842457708406,238294,RIVER VALLEY ROAD,236 RIVER VALLEY ROAD SINGAPORE 238294,29017.1054434301,30723.8283600546
238 RIVER VALLEY ROAD SINGAPORE 238296,238,NIL,1.29416820256202,103.842428103158,103.842428103158,238296,RIVER VALLEY ROAD,238 RIVER VALLEY ROAD SINGAPORE 238296,29013.8106220625,30728.0652421489
240 RIVER VALLEY ROAD SINGAPORE 238297,240,NIL,1.29420531511261,103.842399200677,103.842399200677,238297,RIVER VALLEY ROAD,240 RIVER VALLEY ROAD SINGAPORE 238297,29010.5940131648,30732.1689451132
241 RIVER VALLEY ROAD GIANURN BUILDING SINGAPORE 238298,241,GIANURN BUILDING,1.29424595814899,103.841855282257,103.841855282257,238298,RIVER VALLEY ROAD,GIANURN BUILDING,28950.0606185086,30736.662832655
242 RIVER VALLEY ROAD SINGAPORE 238299,242,NIL,1.29418568486818,103.842331118692,103.842331118692,238299,RIVER VALLEY ROAD,242 RIVER VALLEY ROAD SINGAPORE 238299,29003.0170893362,30729.9983069282
244 RIVER VALLEY ROAD SINGAPORE 238300,244,NIL,1.29426093458809,103.84233933982,103.84233933982,238300,RIVER VALLEY ROAD,244 RIVER VALLEY ROAD SINGAPORE 238300,29003.9319996806,30738.3190361876
246 RIVER VALLEY ROAD SINGAPORE 238301,246,NIL,1.29426093431437,103.84233933982,103.84233933982,238301,RIVER VALLEY ROAD,246 RIVER VALLEY ROAD SINGAPORE 238301,29003.9319996806,30738.3190059196
248 RIVER VALLEY ROAD SINGAPORE 238302,248,NIL,1.29430847253745,103.842309102541,103.842309102541,238302,RIVER VALLEY ROAD,248 RIVER VALLEY ROAD SINGAPORE 238302,29000.5668355189,30743.57552558
251 RIVER VALLEY ROAD SINGAPORE 238303,251,NIL,1.29441844815441,103.841641562148,103.841641562148,238303,RIVER VALLEY ROAD,251 RIVER VALLEY ROAD SINGAPORE 238303,28926.2753710076,30755.7358091101
253 RIVER VALLEY ROAD SINGAPORE 238304,253,NIL,1.29448257919764,103.84154134898,103.84154134898,238304,RIVER VALLEY ROAD,253 RIVER VALLEY ROAD SINGAPORE 238304,28915.12249678,30762.8270528726
255 RIVER VALLEY ROAD SINGAPORE 238305,255,NIL,1.29459903952326,103.841518842948,103.841518842948,238305,RIVER VALLEY ROAD,255 RIVER VALLEY ROAD SINGAPORE 238305,28912.6177303232,30775.7046270799
257 RIVER VALLEY ROAD VALLEY LODGE SINGAPORE 238306,257,VALLEY LODGE,1.29468505172309,103.84140602426,103.84140602426,238306,RIVER VALLEY ROAD,VALLEY LODGE,28900.0619653175,30785.2153723873
261 RIVER VALLEY ROAD ASPEN HEIGHTS SINGAPORE 238307,261,ASPEN HEIGHTS,1.29425888278719,103.840800556526,103.840800556526,238307,RIVER VALLEY ROAD,ASPEN HEIGHTS,28832.6788351424,30738.0916025583
262 RIVER VALLEY ROAD SINGAPORE 238308,262,NIL,1.29457187247184,103.842052025989,103.842052025989,238308,RIVER VALLEY ROAD,262 RIVER VALLEY ROAD SINGAPORE 238308,28971.9563568579,30772.7008323763
263 RIVER VALLEY ROAD ASPEN HEIGHTS SINGAPORE 238309,263,ASPEN HEIGHTS,1.2947159593345,103.840051167364,103.840051167364,238309,RIVER VALLEY ROAD,ASPEN HEIGHTS,28749.278220932,30788.6325369459
264 RIVER VALLEY ROAD SINGAPORE 238310,264,NIL,1.29462133718216,103.842033991769,103.842033991769,238310,RIVER VALLEY ROAD,264 RIVER VALLEY ROAD SINGAPORE 238310,28969.9492868576,30778.1703781057
266 RIVER VALLEY ROAD SINGAPORE 238312,266,NIL,1.29467028179898,103.842016159076,103.842016159076,238312,RIVER VALLEY ROAD,266 RIVER VALLEY ROAD SINGAPORE 238312,28967.9646454332,30783.5824146662
268 RIVER VALLEY ROAD SINGAPORE 238313,268,NIL,1.29474848356473,103.841992908279,103.841992908279,238313,RIVER VALLEY ROAD,268 RIVER VALLEY ROAD SINGAPORE 238313,28965.3770052372,30792.2295538634
272 RIVER VALLEY ROAD SINGAPORE 238315,272,NIL,1.29482419930076,103.841965670378,103.841965670378,238315,RIVER VALLEY ROAD,272 RIVER VALLEY ROAD SINGAPORE 238315,28962.3456363995,30800.601799231
274 RIVER VALLEY ROAD SINGAPORE 238316,274,NIL,1.29486766519858,103.841933930976,103.841933930976,238316,RIVER VALLEY ROAD,274 RIVER VALLEY ROAD SINGAPORE 238316,28958.813302164,30805.4080220982
276 RIVER VALLEY ROAD SINGAPORE 238317,276,NIL,1.29493048610572,103.84193245221,103.84193245221,238317,RIVER VALLEY ROAD,276 RIVER VALLEY ROAD SINGAPORE 238317,28958.6487048687,30812.354433557
277 RIVER VALLEY ROAD DIMENSIONS INTERNATIONAL COLLEGE (CITY CAMPUS) SINGAPORE 238318,277,DIMENSIONS INTERNATIONAL COLLEGE (CITY CAMPUS),1.29542007377368,103.840614564963,103.840614564963,238318,RIVER VALLEY ROAD,DIMENSIONS INTERNATIONAL COLLEGE (CITY CAMPUS),28811.9792269738,30866.4900542255
278 RIVER VALLEY ROAD SINGAPORE 238319,278,NIL,1.29498182863079,103.841912272413,103.841912272413,238319,RIVER VALLEY ROAD,278 RIVER VALLEY ROAD SINGAPORE 238319,28956.4028507452,30818.0316176545
279 RIVER VALLEY ROAD SINGAPORE 238320,279,NIL,1.29566730333692,103.839941350157,103.839941350157,238320,RIVER VALLEY ROAD,279 RIVER VALLEY ROAD SINGAPORE 238320,28737.0562512502,30893.8272193484
280 RIVER VALLEY ROAD SINGAPORE 238321,280,NIL,1.29502888179083,103.84188288856,103.84188288856,238321,RIVER VALLEY ROAD,280 RIVER VALLEY ROAD SINGAPORE 238321,28953.1326675164,30823.2345024478
281 RIVER VALLEY ROAD TWO8ONE STUDIO SINGAPORE 238322,281,TWO8ONE STUDIO,1.29571705287656,103.839861034802,103.839861034802,238322,RIVER VALLEY ROAD,TWO8ONE STUDIO,28728.117843247,30899.3282437809
282 RIVER VALLEY ROAD SINGAPORE 238323,282,NIL,1.29508265203528,103.841868061973,103.841868061973,238323,RIVER VALLEY ROAD,282 RIVER VALLEY ROAD SINGAPORE 238323,28951.4825781155,30829.1801332925
283 RIVER VALLEY ROAD 283 STUDIO SINGAPORE 238324,283,283 STUDIO,1.29570410515931,103.839811752808,103.839811752808,238324,RIVER VALLEY ROAD,283 STUDIO,28722.6331937937,30897.8965378832
284 RIVER VALLEY ROAD SINGAPORE 238325,284,NIL,1.2951340898201,103.841847521812,103.841847521812,238325,RIVER VALLEY ROAD,284 RIVER VALLEY ROAD SINGAPORE 238325,28949.1966189137,30834.8678506501
285 RIVER VALLEY ROAD TEOCHEW SAIHO RESIDENCE SINGAPORE 238326,285,TEOCHEW SAIHO RESIDENCE,1.29563875562813,103.839766396312,103.839766396312,238326,RIVER VALLEY ROAD,TEOCHEW SAIHO RESIDENCE,28717.5854324168,30890.6705107912
286 RIVER VALLEY ROAD SINGAPORE 238327,286,NIL,1.29518772292515,103.841832366682,103.841832366682,238327,RIVER VALLEY ROAD,286 RIVER VALLEY ROAD SINGAPORE 238327,28947.5099657886,30840.798317235
287 RIVER VALLEY ROAD RIVER VALLEY CONSERVATION AREA SINGAPORE 238328,287,RIVER VALLEY CONSERVATION AREA,1.29563943352575,103.839713451449,103.839713451449,238328,RIVER VALLEY ROAD,RIVER VALLEY CONSERVATION AREA,28711.6931337584,30890.7454543188
288 RIVER VALLEY ROAD SINGAPORE 238329,288,NIL,1.29523697140748,103.841807558745,103.841807558745,238329,RIVER VALLEY ROAD,288 RIVER VALLEY ROAD SINGAPORE 238329,28944.7490413859,30846.2439512573
289 RIVER VALLEY ROAD RIVER VALLEY CONSERVATION AREA SINGAPORE 238330,289,RIVER VALLEY CONSERVATION AREA,1.29563640452648,103.839661904236,103.839661904236,238330,RIVER VALLEY ROAD,RIVER VALLEY CONSERVATION AREA,28705.956382269,30890.4105088096
290 RIVER VALLEY ROAD TONG FONG BUILDING SINGAPORE 238331,290,TONG FONG BUILDING,1.29528123305545,103.841772708806,103.841772708806,238331,RIVER VALLEY ROAD,TONG FONG BUILDING,28940.8705322202,30851.1381631531
291 RIVER VALLEY ROAD RIVER VALLEY CONSERVATION AREA SINGAPORE 238332,291,RIVER VALLEY CONSERVATION AREA,1.29563335253295,103.839610203631,103.839610203631,238332,RIVER VALLEY ROAD,RIVER VALLEY CONSERVATION AREA,28700.202559636,30890.0730207916
292 RIVER VALLEY ROAD SINGAPORE 238333,292,NIL,1.29533612504936,103.841760166231,103.841760166231,238333,RIVER VALLEY ROAD,292 RIVER VALLEY ROAD SINGAPORE 238333,28939.4746333472,30857.2078321949
293 RIVER VALLEY ROAD RIVER VALLEY CONSERVATION AREA SINGAPORE 238334,293,RIVER VALLEY CONSERVATION AREA,1.29559231213858,103.839561710559,103.839561710559,238334,RIVER VALLEY ROAD,RIVER VALLEY CONSERVATION AREA,28694.8057176033,30885.5349722616
294 RIVER VALLEY ROAD SINGAPORE 238335,294,NIL,1.29538766466317,103.841739237964,103.841739237964,238335,RIVER VALLEY ROAD,294 RIVER VALLEY ROAD SINGAPORE 238335,28937.1454817327,30862.9068092424
295 RIVER VALLEY ROAD RIVER VALLEY CONSERVATION AREA SINGAPORE 238336,295,RIVER VALLEY CONSERVATION AREA,1.29561533431516,103.83950632182,103.83950632182,238336,RIVER VALLEY ROAD,RIVER VALLEY CONSERVATION AREA,28688.6414308436,30888.0806307644
296 RIVER VALLEY ROAD SINGAPORE 238337,296,NIL,1.29543849968978,103.841717792132,103.841717792132,238337,RIVER VALLEY ROAD,296 RIVER VALLEY ROAD SINGAPORE 238337,28934.7587301442,30868.5278764982
297 RIVER VALLEY ROAD RIVER VALLEY CONSERVATION AREA SINGAPORE 238338,297,RIVER VALLEY CONSERVATION AREA,1.29565226292113,103.839348508293,103.839348508293,238338,RIVER VALLEY ROAD,RIVER VALLEY CONSERVATION AREA,28671.0781608801,30892.1639633756
298 RIVER VALLEY ROAD SINGAPORE 238339,298,NIL,1.29548876152839,103.841693604015,103.841693604015,238339,RIVER VALLEY ROAD,298 RIVER VALLEY ROAD SINGAPORE 238339,28932.0667864764,30874.0855625961
299 RIVER VALLEY ROAD SINGAPORE 238340,299,NIL,1.29536696300516,103.839256167223,103.839256167223,238340,RIVER VALLEY ROAD,299 RIVER VALLEY ROAD SINGAPORE 238340,28660.8014842439,30860.6169454698
301 RIVER VALLEY ROAD SINGAPORE 238342,301,NIL,1.29559690677956,103.839087894412,103.839087894412,238342,RIVER VALLEY ROAD,301 RIVER VALLEY ROAD SINGAPORE 238342,28642.0741378944,30886.0428992957
303 RIVER VALLEY ROAD RE CHARGE @ 303 SINGAPORE 238344,303,RE CHARGE @ 303,1.29559063266131,103.839037000196,103.839037000196,238344,RIVER VALLEY ROAD,RE CHARGE @ 303,28636.4100598339,30885.3491268419
305 RIVER VALLEY ROAD RIVER VALLEY CONSERVATION AREA SINGAPORE 238346,305,RIVER VALLEY CONSERVATION AREA,1.29551883969289,103.839001445269,103.839001445269,238346,RIVER VALLEY ROAD,RIVER VALLEY CONSERVATION AREA,28632.4531263225,30877.4106216803
308 RIVER VALLEY ROAD OXLEY EDGE SINGAPORE 238349,308,OXLEY EDGE,1.29563102657533,103.841615089993,103.841615089993,238349,RIVER VALLEY ROAD,OXLEY EDGE,28923.3288130611,30889.816469362
310 RIVER VALLEY ROAD VILLE ROYALE SINGAPORE 238351,310,VILLE ROYALE,1.29598965078724,103.841261930523,103.841261930523,238351,RIVER VALLEY ROAD,VILLE ROYALE,28884.0251400406,30929.4711601902
312 RIVER VALLEY ROAD VILLE ROYALE SINGAPORE 238352,312,VILLE ROYALE,1.29632425592325,103.841451613702,103.841451613702,238352,RIVER VALLEY ROAD,VILLE ROYALE,28905.1350912647,30966.4701381251
325 RIVER VALLEY ROAD YONG AN PARK SINGAPORE 238357,325,YONG AN PARK,1.29549744673762,103.834969393898,103.834969393898,238357,RIVER VALLEY ROAD,YONG AN PARK,28183.7211873177,30875.0444523208
327 RIVER VALLEY ROAD YONG AN PARK SINGAPORE 238359,327,YONG AN PARK,1.29456792871308,103.835162204065,103.835162204065,238359,RIVER VALLEY ROAD,YONG AN PARK,28205.1793414271,30772.2631573323
328 RIVER VALLEY ROAD OXLEY THANKSGIVING RESIDENCE SINGAPORE 238360,328,OXLEY THANKSGIVING RESIDENCE,1.29619653746501,103.840873204577,103.840873204577,238360,RIVER VALLEY ROAD,OXLEY THANKSGIVING RESIDENCE,28840.7632925212,30952.3474904075
329 RIVER VALLEY ROAD YONG AN PARK SINGAPORE 238361,329,YONG AN PARK,1.29447970550355,103.834507971277,103.834507971277,238361,RIVER VALLEY ROAD,YONG AN PARK,28132.3689498948,30762.5078467149
331 RIVER VALLEY ROAD YONG AN PARK SINGAPORE 238363,331,YONG AN PARK,1.29471787222773,103.83420206342,103.83420206342,238363,RIVER VALLEY ROAD,YONG AN PARK,28098.3240666334,30788.8430810403
333 RIVER VALLEY ROAD YONG AN PARK SINGAPORE 238365,333,YONG AN PARK,1.29556297139714,103.834235479423,103.834235479423,238365,RIVER VALLEY ROAD,YONG AN PARK,28102.0429424532,30882.2897903863
336 RIVER VALLEY ROAD 336 RIVER VALLEY SINGAPORE 238366,336,336 RIVER VALLEY,1.29612147733533,103.838522905672,103.838522905672,238366,RIVER VALLEY ROAD,336 RIVER VALLEY,28579.1957312003,30944.0470709652
338 RIVER VALLEY ROAD VALLEY HOUSE SINGAPORE 238367,338,VALLEY HOUSE,1.2960203318048,103.838156606177,103.838156606177,238367,RIVER VALLEY ROAD,VALLEY HOUSE,28538.4298421545,30932.8628391046
338E RIVER VALLEY ROAD RIVER VALLEY COURT SINGAPORE 238370,338E,RIVER VALLEY COURT,1.29594902473004,103.83780724675,103.83780724675,238370,RIVER VALLEY ROAD,RIVER VALLEY COURT,28499.5492247418,30924.9779990781
346 RIVER VALLEY ROAD RIVERDALE RESIDENCE SINGAPORE 238373,346,RIVERDALE RESIDENCE,1.29679493077611,103.834934144283,103.834934144283,238373,RIVER VALLEY ROAD,RIVERDALE RESIDENCE,28179.798123681,31018.5135449562
348 RIVER VALLEY ROAD THE VERV @ RV SINGAPORE 238374,348,THE VERV @ RV,1.29639111945043,103.834694192111,103.834694192111,238374,RIVER VALLEY ROAD,THE VERV @ RV,28153.0935896868,30973.8621548414
338A RIVER VALLEY ROAD RESIDENCES AT 338A SINGAPORE 238381,338A,RESIDENCES AT 338A,1.29635617157406,103.837991072981,103.837991072981,238381,RIVER VALLEY ROAD,RESIDENCES AT 338A,28520.0073852045,30969.9982348438
351 RIVER VALLEY ROAD SINGAPORE 238384,351,NIL,1.29350096049326,103.833891425342,103.833891425342,238384,RIVER VALLEY ROAD,351 RIVER VALLEY ROAD SINGAPORE 238384,28063.7527928678,30654.2832483388
344 RIVER VALLEY ROAD RV ALTITUDE SINGAPORE 238385,344,RV ALTITUDE,1.29653566001892,103.83517945905,103.83517945905,238385,RIVER VALLEY ROAD,RV ALTITUDE,28207.0995120462,30989.8447398916
6 RIVER VALLEY GROVE LUMA SINGAPORE 238403,6,LUMA,1.29679910840731,103.83459713454,103.83459713454,238403,RIVER VALLEY GROVE,LUMA,28142.2919148728,31018.9754646569
2 RIVER VALLEY GROVE SINGAPORE 238405,2,NIL,1.29654740365131,103.834312625459,103.834312625459,238405,RIVER VALLEY GROVE,2 RIVER VALLEY GROVE SINGAPORE 238405,28110.6285771066,30991.1432363931
8 RIVER VALLEY GROVE RIVERIA GARDENS SINGAPORE 238406,8,RIVERIA GARDENS,1.29728166021583,103.834690606647,103.834690606647,238406,RIVER VALLEY GROVE,RIVERIA GARDENS,28152.6945063211,31072.3335613608
1 RIVER VALLEY CLOSE URBANA SINGAPORE 238427,1,URBANA,1.29510639772836,103.837908586809,103.837908586809,238427,RIVER VALLEY CLOSE,URBANA,28510.8276505666,30831.8046701606
2 RIVER VALLEY CLOSE THE REGALIA SINGAPORE 238428,2,THE REGALIA,1.29520286174263,103.836921549212,103.836921549212,238428,RIVER VALLEY CLOSE,THE REGALIA,28400.9789932556,30842.4709865507
3 RIVER VALLEY CLOSE EURO-ASIA COURT SINGAPORE 238429,3,EURO-ASIA COURT,1.29477172447814,103.83769330846,103.83769330846,238429,RIVER VALLEY CLOSE,EURO-ASIA COURT,28486.8691188591,30794.7981857657
5 RIVER VALLEY CLOSE EURO-ASIA COURT SINGAPORE 238430,5,EURO-ASIA COURT,1.2944473452924,103.837593797574,103.837593797574,238430,RIVER VALLEY CLOSE,EURO-ASIA COURT,28475.7944873692,30758.9299894329
7 RIVER VALLEY CLOSE EURO-ASIA COURT SINGAPORE 238431,7,EURO-ASIA COURT,1.29411562456538,103.837504735821,103.837504735821,238431,RIVER VALLEY CLOSE,EURO-ASIA COURT,28465.8827518132,30722.2500057761
8 RIVER VALLEY CLOSE THE AVENIR SINGAPORE 238432,8,THE AVENIR,1.29474075956073,103.836583709306,103.836583709306,238432,RIVER VALLEY CLOSE,THE AVENIR,28363.3804368302,30791.374059571
11 RIVER VALLEY CLOSE STARLIGHT SUITES SINGAPORE 238437,11,STARLIGHT SUITES,1.29371532764206,103.837276710508,103.837276710508,238437,RIVER VALLEY CLOSE,STARLIGHT SUITES,28440.5055899769,30677.9871960357
10 RIVER VALLEY CLOSE THE AVENIR SINGAPORE 238438,10,THE AVENIR,1.2942408571583,103.836767303675,103.836767303675,238438,RIVER VALLEY CLOSE,THE AVENIR,28383.8129603108,30736.0974569879
9 PENANG ROAD SINGAPORE 238459,9,NIL,1.29783948334728,103.845278202782,103.845278202782,238459,PENANG ROAD,9 PENANG ROAD SINGAPORE 238459,29330.9999620533,31134.0178658292
165 PENANG ROAD SINGAPORE 238461,165,NIL,1.299712468555,103.84097760959,103.84097760959,238461,PENANG ROAD,165 PENANG ROAD SINGAPORE 238461,28852.3814764628,31341.121065909
167 PENANG ROAD WINSLAND HOUSE II SINGAPORE 238462,167,WINSLAND HOUSE II,1.2995421111902,103.840858049903,103.840858049903,238462,PENANG ROAD,WINSLAND HOUSE II,28839.0756102856,31322.2837862428
163 PENANG ROAD ROYAL EMBASSY OF SAUDI ARABIA SINGAPORE 238463,163,ROYAL EMBASSY OF SAUDI ARABIA,1.29950716184252,103.841019180074,103.841019180074,238463,PENANG ROAD,ROYAL EMBASSY OF SAUDI ARABIA,28857.007968042,31318.4193214215
121 PENANG ROAD REGENCY HOUSE SINGAPORE 238464,121,REGENCY HOUSE,1.29943817315113,103.842116115295,103.842116115295,238464,PENANG ROAD,REGENCY HOUSE,28979.0870700702,31310.7913052384
123 PENANG ROAD REGENCY HOUSE SINGAPORE 238465,123,REGENCY HOUSE,1.29946643468013,103.842047171187,103.842047171187,238465,PENANG ROAD,REGENCY HOUSE,28971.4141967334,31313.9162929486
101 PENANG ROAD FORMER HOUSE OF TAN YEOK NEE SINGAPORE 238466,101,FORMER HOUSE OF TAN YEOK NEE,1.29862750131162,103.843313529277,103.843313529277,238466,PENANG ROAD,FORMER HOUSE OF TAN YEOK NEE,29112.348890557,31221.1518844906
103 PENANG ROAD VISIONCREST SINGAPORE 238467,103,VISIONCREST,1.29910790069205,103.842700035576,103.842700035576,238467,PENANG ROAD,VISIONCREST,29044.0723100388,31274.271711627
5 PENANG ROAD SINGAPORE 238468,5,NIL,1.29765131829912,103.846775399007,103.846775399007,238468,PENANG ROAD,5 PENANG ROAD SINGAPORE 238468,29497.6247281292,31113.2123802528
10 PENANG ROAD SINGAPORE 238469,10,NIL,1.2984518938474,103.846112389731,103.846112389731,238469,PENANG ROAD,10 PENANG ROAD SINGAPORE 238469,29423.837225548,31201.7355177607
11 PENANG LANE JI HOTEL ORCHARD SINGAPORE SINGAPORE 238485,11,JI HOTEL ORCHARD SINGAPORE,1.29772284867566,103.844455110199,103.844455110199,238485,PENANG LANE,JI HOTEL ORCHARD SINGAPORE,29239.3971177395,31121.1205871627
15 PENANG LANE RED CROSS HOUSE SINGAPORE 238486,15,RED CROSS HOUSE,1.29726917718327,103.844481965914,103.844481965914,238486,PENANG LANE,RED CROSS HOUSE,29242.3861416671,31070.95594435
20 PATERSON ROAD PATERSON LINC SINGAPORE 238509,20,PATERSON LINC,1.30319452443647,103.829984906389,103.829984906389,238509,PATERSON ROAD,PATERSON LINC,27628.992585415,31726.1478282437
25 PATERSON ROAD ISS INTERNATIONAL SCHOOL (ELEMENTARY & MIDDLE SCHOOL CAMPUS) SINGAPORE 238510,25,ISS INTERNATIONAL SCHOOL (ELEMENTARY & MIDDLE SCHOOL CAMPUS),1.30207561223781,103.830784226107,103.830784226107,238510,PATERSON ROAD,ISS INTERNATIONAL SCHOOL (ELEMENTARY & MIDDLE SCHOOL CAMPUS),27717.949463129,31602.4241758566
25A PATERSON ROAD ISS INTERNATIONAL SCHOOL (ELEMENTARY & MIDDLE SCHOOL CAMPUS) SINGAPORE 238511,25A,ISS INTERNATIONAL SCHOOL (ELEMENTARY & MIDDLE SCHOOL CAMPUS),1.30195098153413,103.83001849354,103.83001849354,238511,PATERSON ROAD,ISS INTERNATIONAL SCHOOL (ELEMENTARY & MIDDLE SCHOOL CAMPUS),27632.7303484567,31588.6432536747
25B PATERSON ROAD SINGAPORE 238512,25B,NIL,1.30136574427898,103.831350801058,103.831350801058,238512,PATERSON ROAD,25B PATERSON ROAD SINGAPORE 238512,27781.0040597562,31523.9305768982
25C PATERSON ROAD SINGAPORE 238513,25C,NIL,1.30136507997042,103.831403834977,103.831403834977,238513,PATERSON ROAD,25C PATERSON ROAD SINGAPORE 238513,27786.9062560452,31523.8571165018
25D PATERSON ROAD SINGAPORE 238514,25D,NIL,1.30115614697517,103.831409017283,103.831409017283,238514,PATERSON ROAD,25D PATERSON ROAD SINGAPORE 238514,27787.4829822071,31500.7543817665
25F PATERSON ROAD SINGAPORE 238515,25F,NIL,1.30149677256678,103.831689013709,103.831689013709,238515,PATERSON ROAD,25F PATERSON ROAD SINGAPORE 238515,27818.6440833202,31538.4189829323
26 PATERSON ROAD THE PATERSON EDGE SINGAPORE 238518,26,THE PATERSON EDGE,1.30259284877615,103.829675836055,103.829675836055,238518,PATERSON ROAD,THE PATERSON EDGE,27594.5957763074,31659.6176801175
28 PATERSON ROAD SINGAPORE 238520,28,NIL,1.30207662265514,103.829364274746,103.829364274746,238520,PATERSON ROAD,28 PATERSON ROAD SINGAPORE 238520,27559.9217427364,31602.5361068603
31 PATERSON ROAD FRASER RESIDENCE ORCHARD SINGAPORE SINGAPORE 238522,31,FRASER RESIDENCE ORCHARD SINGAPORE,1.30144527961978,103.829868247018,103.829868247018,238522,PATERSON ROAD,FRASER RESIDENCE ORCHARD SINGAPORE,27616.0091943359,31532.7253633197
33 PATERSON ROAD FRASER RESIDENCE ORCHARD SINGAPORE SINGAPORE 238524,33,FRASER RESIDENCE ORCHARD SINGAPORE,1.30167305606637,103.830028721668,103.830028721668,238524,PATERSON ROAD,FRASER RESIDENCE ORCHARD SINGAPORE,27633.8686062526,31557.9116855189
63 PATERSON ROAD THE PATERSON SINGAPORE 238539,63,THE PATERSON,1.30046722214033,103.830587889586,103.830587889586,238539,PATERSON ROAD,THE PATERSON,27696.0987938074,31424.5767073147
71 PATERSON ROAD PATERSON RESIDENCE SINGAPORE 238543,71,PATERSON RESIDENCE,1.30067912020138,103.829713340423,103.829713340423,238543,PATERSON ROAD,PATERSON RESIDENCE,27598.769368046,31448.0074259229
73 PATERSON ROAD PATERSON RESIDENCE SINGAPORE 238544,73,PATERSON RESIDENCE,1.30067968518698,103.829713825891,103.829713825891,238544,PATERSON ROAD,PATERSON RESIDENCE,27598.8233963968,31448.0698990412
75 PATERSON ROAD PATERSON RESIDENCE SINGAPORE 238545,75,PATERSON RESIDENCE,1.30045416929672,103.829803686142,103.829803686142,238545,PATERSON ROAD,PATERSON RESIDENCE,27608.823998753,31423.1334995832
77 PATERSON ROAD PATERSON RESIDENCE SINGAPORE 238546,77,PATERSON RESIDENCE,1.30043394864276,103.82980509879,103.82980509879,238546,PATERSON ROAD,PATERSON RESIDENCE,27608.9812106602,31420.8976036254
79 PATERSON ROAD PATERSON RESIDENCE SINGAPORE 238547,79,PATERSON RESIDENCE,1.30043394864276,103.82980509879,103.82980509879,238547,PATERSON ROAD,PATERSON RESIDENCE,27608.9812106602,31420.8976036254
81 PATERSON ROAD PATERSON RESIDENCE SINGAPORE 238548,81,PATERSON RESIDENCE,1.30043394864276,103.82980509879,103.82980509879,238548,PATERSON ROAD,PATERSON RESIDENCE,27608.9812106602,31420.8976036254
83 PATERSON ROAD PATERSON RESIDENCE SINGAPORE 238549,83,PATERSON RESIDENCE,1.30008754264075,103.830070920648,103.830070920648,238549,PATERSON ROAD,PATERSON RESIDENCE,27638.5647444623,31382.5937729105
55 PATERSON ROAD PATERSON SUITES SINGAPORE 238550,55,PATERSON SUITES,1.30147833178138,103.830778554467,103.830778554467,238550,PATERSON ROAD,PATERSON SUITES,27717.3181940606,31536.3799802102
57 PATERSON ROAD PATERSON SUITES SINGAPORE 238551,57,PATERSON SUITES,1.30109788047428,103.830563219179,103.830563219179,238551,PATERSON ROAD,PATERSON SUITES,27693.3532758085,31494.3116598241
2A PATERSON HILL SINGAPORE 238565,2A,NIL,1.30152875822479,103.829090061847,103.829090061847,238565,PATERSON HILL,2A PATERSON HILL SINGAPORE 238565,27529.4042297611,31541.9561297782
2B PATERSON HILL SINGAPORE 238566,2B,NIL,1.30133624326792,103.828979700445,103.828979700445,238566,PATERSON HILL,2B PATERSON HILL SINGAPORE 238566,27517.1219662568,31520.6688384376
8 PATERSON HILL THE MARQ ON PATERSON HILL SINGAPORE 238567,8,THE MARQ ON PATERSON HILL,1.30048444727684,103.828543729671,103.828543729671,238567,PATERSON HILL,THE MARQ ON PATERSON HILL,27468.6021764819,31426.4817136731
8A PATERSON HILL THE MARQ ON PATERSON HILL SINGAPORE 238568,8A,THE MARQ ON PATERSON HILL,1.30030548057432,103.828952498263,103.828952498263,238568,PATERSON HILL,THE MARQ ON PATERSON HILL,27514.094411185,31406.6924151164
15 OXLEY WALK BELLE VUE RESIDENCES SINGAPORE 238590,15,BELLE VUE RESIDENCES,1.29659578899507,103.842393872828,103.842393872828,238590,OXLEY WALK,BELLE VUE RESIDENCES,29010.0001250561,30996.495221274
17 OXLEY WALK BELLE VUE RESIDENCES SINGAPORE 238591,17,BELLE VUE RESIDENCES,1.29632695093311,103.842533696547,103.842533696547,238591,OXLEY WALK,BELLE VUE RESIDENCES,29025.5613797726,30966.768550178
19 OXLEY WALK BELLE VUE RESIDENCES SINGAPORE 238592,19,BELLE VUE RESIDENCES,1.29601131816674,103.842830661118,103.842830661118,238592,OXLEY WALK,BELLE VUE RESIDENCES,29058.6110517299,30931.8676277995
21 OXLEY WALK BELLE VUE RESIDENCES SINGAPORE 238593,21,BELLE VUE RESIDENCES,1.29577106313498,103.842570885216,103.842570885216,238593,OXLEY WALK,BELLE VUE RESIDENCES,29029.7003752058,30905.3013579547
23 OXLEY WALK BELLE VUE RESIDENCES SINGAPORE 238594,23,BELLE VUE RESIDENCES,1.29546294164581,103.842257005939,103.842257005939,238594,OXLEY WALK,BELLE VUE RESIDENCES,28994.7684886819,30871.2307469081
25 OXLEY WALK BELLE VUE RESIDENCES SINGAPORE 238595,25,BELLE VUE RESIDENCES,1.29578523158362,103.842103667366,103.842103667366,238595,OXLEY WALK,BELLE VUE RESIDENCES,28977.7031270498,30906.8678471856
27 OXLEY WALK BELLE VUE RESIDENCES SINGAPORE 238596,27,BELLE VUE RESIDENCES,1.29613793598232,103.842030611446,103.842030611446,238596,OXLEY WALK,BELLE VUE RESIDENCES,28969.5725109959,30945.8680534009
29 OXLEY WALK BELLE VUE RESIDENCES SINGAPORE 238597,29,BELLE VUE RESIDENCES,1.29602933378777,103.842341015693,103.842341015693,238597,OXLEY WALK,BELLE VUE RESIDENCES,29004.1178148324,30933.8595032729
31 OXLEY WALK BELLE VUE RESIDENCES SINGAPORE 238598,31,BELLE VUE RESIDENCES,1.29650352019969,103.841836970371,103.841836970371,238598,OXLEY WALK,BELLE VUE RESIDENCES,28948.0218276614,30986.292398518
33 OXLEY WALK BELLE VUE RESIDENCES SINGAPORE 238599,33,BELLE VUE RESIDENCES,1.2967052650271,103.841902571018,103.841902571018,238599,OXLEY WALK,BELLE VUE RESIDENCES,28955.3225258701,31008.6003262699
19 OXLEY ROAD ORCHARD COURT SINGAPORE 238619,19,ORCHARD COURT,1.2986681768518,103.841687375699,103.841687375699,238619,OXLEY ROAD,ORCHARD COURT,28931.372469198,31225.6489199046
26 OXLEY ROAD OXLEY MANSION SINGAPORE 238620,26,OXLEY MANSION,1.29869950223877,103.840750277416,103.840750277416,238620,OXLEY ROAD,OXLEY MANSION,28827.0817703977,31229.1123944763
27 OXLEY ROAD ORCHARD COURT SINGAPORE 238621,27,ORCHARD COURT,1.29841733789337,103.841405411908,103.841405411908,238621,OXLEY ROAD,ORCHARD COURT,28899.9925002949,31197.9123384692
28 OXLEY ROAD OXLEY MANSION SINGAPORE 238622,28,OXLEY MANSION,1.29864666968469,103.840899241933,103.840899241933,238622,OXLEY ROAD,OXLEY MANSION,28843.6602109745,31223.2704920117
30 OXLEY ROAD VILLA MADELEINE SINGAPORE 238623,30,VILLA MADELEINE,1.2984743395063,103.840784531816,103.840784531816,238623,OXLEY ROAD,VILLA MADELEINE,28830.8940532142,31204.2150709871
30A OXLEY ROAD VILLA MADELEINE SINGAPORE 238624,30A,VILLA MADELEINE,1.29847189699409,103.840782071013,103.840782071013,238624,OXLEY ROAD,VILLA MADELEINE,28830.6201884979,31203.9449897669
32 OXLEY ROAD VILLA MADELEINE SINGAPORE 238625,32,VILLA MADELEINE,1.29847189699409,103.840782071013,103.840782071013,238625,OXLEY ROAD,VILLA MADELEINE,28830.6201884979,31203.9449897669
32A OXLEY ROAD VILLA MADELEINE SINGAPORE 238626,32A,VILLA MADELEINE,1.29847189699409,103.840782071013,103.840782071013,238626,OXLEY ROAD,VILLA MADELEINE,28830.6201884979,31203.9449897669
35 OXLEY ROAD OXLEY NEO RESIDENCES SINGAPORE 238627,35,OXLEY NEO RESIDENCES,1.29772055923481,103.841172832701,103.841172832701,238627,OXLEY ROAD,OXLEY NEO RESIDENCES,28874.108743215,31120.866063688
36 OXLEY ROAD SINGAPORE 238628,36,NIL,1.29816113093419,103.840875347814,103.840875347814,238628,OXLEY ROAD,36 OXLEY ROAD SINGAPORE 238628,28841.0011686049,31169.5821110699
38 OXLEY ROAD SINGAPORE 238629,38,NIL,1.29795796774357,103.84076054217,103.84076054217,238629,OXLEY ROAD,38 OXLEY ROAD SINGAPORE 238629,28828.2243867824,31147.1173346266
40 OXLEY ROAD SINGAPORE 238630,40,NIL,1.29776839623262,103.840732096963,103.840732096963,238630,OXLEY ROAD,40 OXLEY ROAD SINGAPORE 238630,28825.0587491691,31126.1554846466
41 OXLEY ROAD OXLEY NEO RESIDENCES SINGAPORE 238631,41,OXLEY NEO RESIDENCES,1.29736549720706,103.841068356329,103.841068356329,238631,OXLEY ROAD,OXLEY NEO RESIDENCES,28862.4815696822,31081.6050987933
43 OXLEY ROAD OXLEY RESIDENCE SINGAPORE 238632,43,OXLEY RESIDENCE,1.2969868735353,103.841165047173,103.841165047173,238632,OXLEY ROAD,OXLEY RESIDENCE,28873.2425340572,31039.7388777342
45 OXLEY ROAD OXLEY RESIDENCE SINGAPORE 238633,45,OXLEY RESIDENCE,1.2970866463211,103.841037537072,103.841037537072,238633,OXLEY ROAD,OXLEY RESIDENCE,28859.0517531065,31050.7711945847
47 OXLEY ROAD OXLEY RESIDENCE SINGAPORE 238634,47,OXLEY RESIDENCE,1.29685635122477,103.841027340178,103.841027340178,238634,OXLEY ROAD,OXLEY RESIDENCE,28857.9170063976,31025.3063463978
49 OXLEY ROAD OXLEY RESIDENCE SINGAPORE 238635,49,OXLEY RESIDENCE,1.29681261311377,103.841190866215,103.841190866215,238635,OXLEY ROAD,OXLEY RESIDENCE,28876.1160250911,31020.4700674247
50 OXLEY ROAD VALLEY MANSION SINGAPORE 238636,50,VALLEY MANSION,1.29658018008284,103.840472332291,103.840472332291,238636,OXLEY ROAD,VALLEY MANSION,28796.1496163132,30994.7685841434
52 OXLEY ROAD VALLEY MANSION SINGAPORE 238637,52,VALLEY MANSION,1.29649951261244,103.840471864547,103.840471864547,238637,OXLEY ROAD,VALLEY MANSION,28796.0975856492,30985.8487909492
54 OXLEY ROAD VALLEY MANSION SINGAPORE 238639,54,VALLEY MANSION,1.29654817347077,103.840315633068,103.840315633068,238639,OXLEY ROAD,VALLEY MANSION,28778.7103845468,30991.2294093426
56 OXLEY ROAD VALLEY MANSION SINGAPORE 238641,56,VALLEY MANSION,1.29655521197066,103.840314431791,103.840314431791,238641,OXLEY ROAD,VALLEY MANSION,28778.5766908629,30992.0076900087
58 OXLEY ROAD VALLEY MANSION SINGAPORE 238643,58,VALLEY MANSION,1.29645332233903,103.840183677881,103.840183677881,238643,OXLEY ROAD,VALLEY MANSION,28764.0249642069,30980.7412200365
60 OXLEY ROAD VALLEY MANSION SINGAPORE 238645,60,VALLEY MANSION,1.29645647848909,103.840180514321,103.840180514321,238645,OXLEY ROAD,VALLEY MANSION,28763.6728870198,30981.0902098883
62 OXLEY ROAD VALLEY MANSION SINGAPORE 238647,62,VALLEY MANSION,1.29632245359379,103.840086255046,103.840086255046,238647,OXLEY ROAD,VALLEY MANSION,28753.1827000277,30966.2703997009
64 OXLEY ROAD VALLEY MANSION SINGAPORE 238649,64,VALLEY MANSION,1.29631783322939,103.840095611654,103.840095611654,238649,OXLEY ROAD,VALLEY MANSION,28754.224009471,30965.7595064044
66 OXLEY ROAD VALLEY MANSION SINGAPORE 238651,66,VALLEY MANSION,1.29616204888244,103.840053429076,103.840053429076,238651,OXLEY ROAD,VALLEY MANSION,28749.5295057325,30948.5336639229
68 OXLEY ROAD VALLEY MANSION SINGAPORE 238653,68,VALLEY MANSION,1.29616281774494,103.840073430644,103.840073430644,238653,OXLEY ROAD,VALLEY MANSION,28751.7555040596,30948.6186866891
36A OXLEY ROAD SINGAPORE 238664,36A,NIL,1.29820656913382,103.840727658849,103.840727658849,238664,OXLEY ROAD,36A OXLEY ROAD SINGAPORE 238664,28824.5646848716,31174.6063844897
36B OXLEY ROAD SINGAPORE 238665,36B,NIL,1.29825352738657,103.840572171923,103.840572171923,238665,OXLEY ROAD,36B OXLEY ROAD SINGAPORE 238665,28807.2603575084,31179.7987360246
42 OXLEY ROAD SINGAPORE 238666,42,NIL,1.29766805560819,103.840719597147,103.840719597147,238666,OXLEY ROAD,42 OXLEY ROAD SINGAPORE 238666,28823.6676629055,31115.0603314638
44 OXLEY ROAD SINGAPORE 238667,44,NIL,1.29761062948604,103.840702917802,103.840702917802,238667,OXLEY ROAD,44 OXLEY ROAD SINGAPORE 238667,28821.8114182688,31108.7104414273
29 OXLEY ROAD OXLEY NEO RESIDENCES SINGAPORE 238668,29,OXLEY NEO RESIDENCES,1.29811059928247,103.841316386857,103.841316386857,238668,OXLEY ROAD,OXLEY NEO RESIDENCES,28890.0849114526,31163.99473208
31 OXLEY ROAD OXLEY NEO RESIDENCES SINGAPORE 238669,31,OXLEY NEO RESIDENCES,1.29796926460297,103.84124228921,103.84124228921,238669,OXLEY ROAD,OXLEY NEO RESIDENCES,28881.8385506291,31148.3666456547
33 OXLEY ROAD OXLEY NEO RESIDENCES SINGAPORE 238670,33,OXLEY NEO RESIDENCES,1.29784532963617,103.841207422657,103.841207422657,238670,OXLEY ROAD,OXLEY NEO RESIDENCES,28877.9582556523,31134.6625436153
37 OXLEY ROAD OXLEY NEO RESIDENCES SINGAPORE 238671,37,OXLEY NEO RESIDENCES,1.29759411742087,103.841137689281,103.841137689281,238671,OXLEY ROAD,OXLEY NEO RESIDENCES,28870.1976354308,31106.8847674541
39 OXLEY ROAD OXLEY NEO RESIDENCES SINGAPORE 238672,39,OXLEY NEO RESIDENCES,1.29747018245133,103.841103099606,103.841103099606,238672,OXLEY ROAD,OXLEY NEO RESIDENCES,28866.3481532615,31093.1806654129
41A OXLEY ROAD OXLEY NEO RESIDENCES SINGAPORE 238673,41A,OXLEY NEO RESIDENCES,1.29730290410814,103.841050045408,103.841050045408,238673,OXLEY ROAD,OXLEY NEO RESIDENCES,28860.4437474106,31074.6838702969
51 OXLEY ROAD OXLEY RESIDENCE SINGAPORE 238674,51,OXLEY RESIDENCE,1.29705282896221,103.841249539562,103.841249539562,238674,OXLEY ROAD,OXLEY RESIDENCE,28882.6457674867,31047.0319181439
51A OXLEY ROAD OXLEY RESIDENCE SINGAPORE 238675,51A,OXLEY RESIDENCE,1.29674836398452,103.841499833899,103.841499833899,238675,OXLEY ROAD,OXLEY RESIDENCE,28910.5014231699,31013.365838699
2 OXLEY RISE CHESED-EL SYNAGOGUE SINGAPORE 238693,2,CHESED-EL SYNAGOGUE,1.29725880579894,103.842570192458,103.842570192458,238693,OXLEY RISE,CHESED-EL SYNAGOGUE,29029.6226772917,31069.8082732111
5 OXLEY RISE SINGAPORE 238694,5,NIL,1.29762173371066,103.841675400908,103.841675400908,238694,OXLEY RISE,5 OXLEY RISE SINGAPORE 238694,28930.0401633587,31109.9386254027
9 OXLEY RISE CONSULATE OF THE GRAND DUCHY OF LUXEMBOURG SINGAPORE 238697,9,CONSULATE OF THE GRAND DUCHY OF LUXEMBOURG,1.29908214123072,103.842119698376,103.842119698376,238697,OXLEY RISE,CONSULATE OF THE GRAND DUCHY OF LUXEMBOURG,28979.4859718271,31271.4231311437
71 OXLEY RISE THE RISE @ OXLEY SINGAPORE 238698,71,THE RISE @ OXLEY,1.29731102645565,103.843201274544,103.843201274544,238698,OXLEY RISE,THE RISE @ OXLEY,29099.8565067099,31075.5828294121
73 OXLEY RISE THE RISE @ OXLEY SINGAPORE 238699,73,THE RISE @ OXLEY,1.29741708567291,103.84320115012,103.84320115012,238699,OXLEY RISE,THE RISE @ OXLEY,29099.8426137054,31087.3103110436
100 OXLEY RISE HOLLYWOOD APARTMENTS SINGAPORE 238701,100,HOLLYWOOD APARTMENTS,1.29673926775369,103.842701828398,103.842701828398,238701,OXLEY RISE,HOLLYWOOD APARTMENTS,29044.2728051627,31012.3604876194
102 OXLEY RISE HOLLYWOOD APARTMENTS SINGAPORE 238702,102,HOLLYWOOD APARTMENTS,1.29666728815684,103.842738597266,103.842738597266,238702,OXLEY RISE,HOLLYWOOD APARTMENTS,29048.3648852212,31004.401369961
104 OXLEY RISE HOLLYWOOD APARTMENTS SINGAPORE 238703,104,HOLLYWOOD APARTMENTS,1.29659346606055,103.842775926657,103.842775926657,238703,OXLEY RISE,HOLLYWOOD APARTMENTS,29052.5193475951,30996.2385185044
106 OXLEY RISE HOLLYWOOD APARTMENTS SINGAPORE 238704,106,HOLLYWOOD APARTMENTS,1.29652115332863,103.842812941654,103.842812941654,238704,OXLEY RISE,HOLLYWOOD APARTMENTS,29056.6388201788,30988.2425647099
108 OXLEY RISE HOLLYWOOD APARTMENTS SINGAPORE 238705,108,HOLLYWOOD APARTMENTS,1.29638791949487,103.842897627238,103.842897627238,238705,OXLEY RISE,HOLLYWOOD APARTMENTS,29066.0636346806,30973.5102895312
110 OXLEY RISE HOLLYWOOD APARTMENTS SINGAPORE 238706,110,HOLLYWOOD APARTMENTS,1.29633487473683,103.842958138968,103.842958138968,238706,OXLEY RISE,HOLLYWOOD APARTMENTS,29072.7980794497,30967.6448991094
112 OXLEY RISE HOLLYWOOD APARTMENTS SINGAPORE 238707,112,HOLLYWOOD APARTMENTS,1.29628069370641,103.843020020882,103.843020020882,238707,OXLEY RISE,HOLLYWOOD APARTMENTS,29079.6850143205,30961.6538662892
114 OXLEY RISE HOLLYWOOD APARTMENTS SINGAPORE 238708,114,HOLLYWOOD APARTMENTS,1.29622866614097,103.843079565483,103.843079565483,238708,OXLEY RISE,HOLLYWOOD APARTMENTS,29086.3118261397,30955.9009516947
120 OXLEY RISE SHRM COLLEGE SINGAPORE 238709,120,SHRM COLLEGE,1.296211512343,103.843573692211,103.843573692211,238709,OXLEY RISE,SHRM COLLEGE,29141.3037886051,30954.0043901037
33 OXLEY RISE VISIONCREST SINGAPORE 238710,33,VISIONCREST,1.29828159353819,103.842786822646,103.842786822646,238710,OXLEY RISE,VISIONCREST,29053.7312776623,31182.9029599
35 OXLEY RISE VISIONCREST SINGAPORE 238711,35,VISIONCREST,1.29820850754805,103.842814069272,103.842814069272,238711,OXLEY RISE,VISIONCREST,29056.7636150755,31174.8214990515
37 OXLEY RISE VISIONCREST SINGAPORE 238712,37,VISIONCREST,1.29820850754805,103.842814069272,103.842814069272,238712,OXLEY RISE,VISIONCREST,29056.7636150755,31174.8214990515
39 OXLEY RISE VISIONCREST SINGAPORE 238713,39,VISIONCREST,1.29825086698077,103.843081001885,103.843081001885,238713,OXLEY RISE,VISIONCREST,29086.4708238589,31179.5054997988
1 OXLEY RISE ONE OXLEY RISE SINGAPORE 238714,1,ONE OXLEY RISE,1.29924811981195,103.841708895435,103.841708895435,238714,OXLEY RISE,ONE OXLEY RISE,28933.7672115341,31289.7760322671
4 OXLEY RISE CHURCH OF THE SACRED HEART SINGAPORE 238715,4,CHURCH OF THE SACRED HEART,1.29616863666124,103.843316502348,103.843316502348,238715,OXLEY RISE,CHURCH OF THE SACRED HEART,29112.6808395348,30949.2633039374
1 OXLEY GARDEN OXLEY GARDEN SINGAPORE 238732,1,OXLEY GARDEN,1.29779192429972,103.842507527872,103.842507527872,238732,OXLEY GARDEN,OXLEY GARDEN,29022.648449556,31128.7577442788
2 OXLEY GARDEN OXLEY GARDEN SINGAPORE 238733,2,OXLEY GARDEN,1.29779390804256,103.842507571394,103.842507571394,238733,OXLEY GARDEN,OXLEY GARDEN,29022.6532924334,31128.9770963565
3 OXLEY GARDEN OXLEY GARDEN SINGAPORE 238734,3,OXLEY GARDEN,1.29779390804256,103.842507571394,103.842507571394,238734,OXLEY GARDEN,OXLEY GARDEN,29022.6532924334,31128.9770963565
4 OXLEY GARDEN OXLEY GARDEN SINGAPORE 238735,4,OXLEY GARDEN,1.29779390804256,103.842507571394,103.842507571394,238735,OXLEY GARDEN,OXLEY GARDEN,29022.6532924334,31128.9770963565
5 OXLEY GARDEN OXLEY GARDEN SINGAPORE 238736,5,OXLEY GARDEN,1.297884515835,103.842437223099,103.842437223099,238736,OXLEY GARDEN,OXLEY GARDEN,29014.8241152288,31138.9960108437
6 OXLEY GARDEN OXLEY GARDEN SINGAPORE 238737,6,OXLEY GARDEN,1.29788187951654,103.842436121334,103.842436121334,238737,OXLEY GARDEN,OXLEY GARDEN,29014.701499627,31138.7044998929
7 OXLEY GARDEN OXLEY GARDEN SINGAPORE 238738,7,OXLEY GARDEN,1.29788187951654,103.842436121334,103.842436121334,238738,OXLEY GARDEN,OXLEY GARDEN,29014.701499627,31138.7044998929
8 OXLEY GARDEN OXLEY GARDEN SINGAPORE 238739,8,OXLEY GARDEN,1.29788187951654,103.842436121334,103.842436121334,238739,OXLEY GARDEN,OXLEY GARDEN,29014.701499627,31138.7044998929
9 OXLEY GARDEN OXLEY GARDEN SINGAPORE 238740,9,OXLEY GARDEN,1.29801315018123,103.842334547343,103.842334547343,238740,OXLEY GARDEN,OXLEY GARDEN,29003.3971644081,31153.2196930908
10 OXLEY GARDEN OXLEY GARDEN SINGAPORE 238741,10,OXLEY GARDEN,1.29801513365033,103.842334591682,103.842334591682,238741,OXLEY GARDEN,OXLEY GARDEN,29003.4020980895,31153.4390149023
11 OXLEY GARDEN OXLEY GARDEN SINGAPORE 238742,11,OXLEY GARDEN,1.29801513365033,103.842334591682,103.842334591682,238742,OXLEY GARDEN,OXLEY GARDEN,29003.4020980895,31153.4390149023
12 OXLEY GARDEN OXLEY GARDEN SINGAPORE 238743,12,OXLEY GARDEN,1.29801513365033,103.842334591682,103.842334591682,238743,OXLEY GARDEN,OXLEY GARDEN,29003.4020980895,31153.4390149023
13 OXLEY GARDEN OXLEY GARDEN SINGAPORE 238744,13,OXLEY GARDEN,1.29810574143784,103.842264242286,103.842264242286,238744,OXLEY GARDEN,OXLEY GARDEN,28995.572799813,31163.4579293877
14 OXLEY GARDEN OXLEY GARDEN SINGAPORE 238745,14,OXLEY GARDEN,1.29810310484559,103.842263139705,103.842263139705,238745,OXLEY GARDEN,OXLEY GARDEN,28995.4500934072,31163.1663881689
15 OXLEY GARDEN OXLEY GARDEN SINGAPORE 238746,15,OXLEY GARDEN,1.29810310484559,103.842263139705,103.842263139705,238746,OXLEY GARDEN,OXLEY GARDEN,28995.4500934072,31163.1663881689
16 OXLEY GARDEN OXLEY GARDEN SINGAPORE 238747,16,OXLEY GARDEN,1.29810310484559,103.842263139705,103.842263139705,238747,OXLEY GARDEN,OXLEY GARDEN,28995.4500934072,31163.1663881689
17 OXLEY GARDEN OXLEY GARDEN SINGAPORE 238748,17,OXLEY GARDEN,1.29823105071511,103.842169287766,103.842169287766,238748,OXLEY GARDEN,OXLEY GARDEN,28985.0051570497,31177.3139464371
18 OXLEY GARDEN OXLEY GARDEN SINGAPORE 238749,18,OXLEY GARDEN,1.29823337279119,103.842169550498,103.842169550498,238749,OXLEY GARDEN,OXLEY GARDEN,28985.034395922,31177.5707097445
19 OXLEY GARDEN OXLEY GARDEN SINGAPORE 238750,19,OXLEY GARDEN,1.29823337279119,103.842169550498,103.842169550498,238750,OXLEY GARDEN,OXLEY GARDEN,28985.034395922,31177.5707097445
20 OXLEY GARDEN OXLEY GARDEN SINGAPORE 238751,20,OXLEY GARDEN,1.29823337279119,103.842169550498,103.842169550498,238751,OXLEY GARDEN,OXLEY GARDEN,28985.034395922,31177.5707097445
21 OXLEY GARDEN OXLEY GARDEN SINGAPORE 238752,21,OXLEY GARDEN,1.29832316868843,103.842097339445,103.842097339445,238752,OXLEY GARDEN,OXLEY GARDEN,28976.9979132973,31187.4998493902
22 OXLEY GARDEN OXLEY GARDEN SINGAPORE 238753,22,OXLEY GARDEN,1.298320633377,103.842096324983,103.842096324983,238753,OXLEY GARDEN,OXLEY GARDEN,28976.8850137182,31187.2195073254
23 OXLEY GARDEN OXLEY GARDEN SINGAPORE 238754,23,OXLEY GARDEN,1.298320633377,103.842096324983,103.842096324983,238754,OXLEY GARDEN,OXLEY GARDEN,28976.8850137182,31187.2195073254
24 OXLEY GARDEN OXLEY GARDEN SINGAPORE 238755,24,OXLEY GARDEN,1.298320633377,103.842096324983,103.842096324983,238755,OXLEY GARDEN,OXLEY GARDEN,28976.8850137182,31187.2195073254
25 OXLEY GARDEN OXLEY GARDEN SINGAPORE 238756,25,OXLEY GARDEN,1.29753494867382,103.842285135559,103.842285135559,238756,OXLEY GARDEN,OXLEY GARDEN,28997.8982587345,31100.3426151853
26 OXLEY GARDEN OXLEY GARDEN SINGAPORE 238757,26,OXLEY GARDEN,1.29753202300164,103.842289051662,103.842289051662,238757,OXLEY GARDEN,OXLEY GARDEN,28998.3340874314,31100.0191109758
27 OXLEY GARDEN OXLEY GARDEN SINGAPORE 238758,27,OXLEY GARDEN,1.29753202300164,103.842289051662,103.842289051662,238758,OXLEY GARDEN,OXLEY GARDEN,28998.3340874314,31100.0191109758
28 OXLEY GARDEN OXLEY GARDEN SINGAPORE 238759,28,OXLEY GARDEN,1.29753202300164,103.842289051662,103.842289051662,238759,OXLEY GARDEN,OXLEY GARDEN,28998.3340874314,31100.0191109758
29 OXLEY GARDEN OXLEY GARDEN SINGAPORE 238760,29,OXLEY GARDEN,1.29742332292815,103.842255475621,103.842255475621,238760,OXLEY GARDEN,OXLEY GARDEN,28994.5974140381,31087.9996038377
30 OXLEY GARDEN OXLEY GARDEN SINGAPORE 238761,30,OXLEY GARDEN,1.29742569784441,103.842252990901,103.842252990901,238761,OXLEY GARDEN,OXLEY GARDEN,28994.3208857384,31088.2622088641
31 OXLEY GARDEN OXLEY GARDEN SINGAPORE 238762,31,OXLEY GARDEN,1.29742569784441,103.842252990901,103.842252990901,238762,OXLEY GARDEN,OXLEY GARDEN,28994.3208857384,31088.2622088641
32 OXLEY GARDEN OXLEY GARDEN SINGAPORE 238763,32,OXLEY GARDEN,1.29742569784441,103.842252990901,103.842252990901,238763,OXLEY GARDEN,OXLEY GARDEN,28994.3208857384,31088.2622088641
33 OXLEY GARDEN OXLEY GARDEN SINGAPORE 238764,33,OXLEY GARDEN,1.29726199333997,103.84221237361,103.84221237361,238764,OXLEY GARDEN,OXLEY GARDEN,28989.8006045148,31070.1605925411
34 OXLEY GARDEN OXLEY GARDEN SINGAPORE 238765,34,OXLEY GARDEN,1.29725906684671,103.842216290257,103.842216290257,238765,OXLEY GARDEN,OXLEY GARDEN,28990.2364937477,31069.8369975276
35 OXLEY GARDEN OXLEY GARDEN SINGAPORE 238766,35,OXLEY GARDEN,1.29725906684671,103.842216290257,103.842216290257,238766,OXLEY GARDEN,OXLEY GARDEN,28990.2364937477,31069.8369975276
36 OXLEY GARDEN OXLEY GARDEN SINGAPORE 238767,36,OXLEY GARDEN,1.29725906684671,103.842216290257,103.842216290257,238767,OXLEY GARDEN,OXLEY GARDEN,28990.2364937477,31069.8369975276
37 OXLEY GARDEN OXLEY GARDEN SINGAPORE 238768,37,OXLEY GARDEN,1.29715036814062,103.842182713407,103.842182713407,238768,OXLEY GARDEN,OXLEY GARDEN,28986.4997295504,31057.8176417295
38 OXLEY GARDEN OXLEY GARDEN SINGAPORE 238769,38,OXLEY GARDEN,1.29715274250934,103.842180228687,103.842180228687,238769,OXLEY GARDEN,OXLEY GARDEN,28986.2232012507,31058.0801862199
39 OXLEY GARDEN OXLEY GARDEN SINGAPORE 238770,39,OXLEY GARDEN,1.29715274250934,103.842180228687,103.842180228687,238770,OXLEY GARDEN,OXLEY GARDEN,28986.2232012507,31058.0801862199
40 OXLEY GARDEN OXLEY GARDEN SINGAPORE 238771,40,OXLEY GARDEN,1.29715274250934,103.842180228687,103.842180228687,238771,OXLEY GARDEN,OXLEY GARDEN,28986.2232012507,31058.0801862199
41 OXLEY GARDEN OXLEY GARDEN SINGAPORE 238772,41,OXLEY GARDEN,1.29708298360742,103.841933244922,103.841933244922,238772,OXLEY GARDEN,OXLEY GARDEN,28958.7361188056,31050.3665116411
42 OXLEY GARDEN OXLEY GARDEN SINGAPORE 238773,42,OXLEY GARDEN,1.29708025586306,103.841931804282,103.841931804282,238773,OXLEY GARDEN,OXLEY GARDEN,28958.5757892961,31050.0648911837
43 OXLEY GARDEN OXLEY GARDEN SINGAPORE 238774,43,OXLEY GARDEN,1.29708025586306,103.841931804282,103.841931804282,238774,OXLEY GARDEN,OXLEY GARDEN,28958.5757892961,31050.0648911837
44 OXLEY GARDEN OXLEY GARDEN SINGAPORE 238775,44,OXLEY GARDEN,1.29708196707925,103.841818461673,103.841818461673,238775,OXLEY GARDEN,OXLEY GARDEN,28945.9617584217,31050.2540660817
45 OXLEY GARDEN OXLEY GARDEN SINGAPORE 238776,45,OXLEY GARDEN,1.29707965841044,103.841819866397,103.841819866397,238776,OXLEY GARDEN,OXLEY GARDEN,28946.1180925574,31049.9987859074
46 OXLEY GARDEN OXLEY GARDEN SINGAPORE 238777,46,OXLEY GARDEN,1.29707965841044,103.841819866397,103.841819866397,238777,OXLEY GARDEN,OXLEY GARDEN,28946.1180925574,31049.9987859074
11 ORCHARD TURN ORCHARD PARKSUITES SINGAPORE 238800,11,ORCHARD PARKSUITES,1.30300219195609,103.832738122117,103.832738122117,238800,ORCHARD TURN,ORCHARD PARKSUITES,27935.4004090708,31704.8804532364
2 ORCHARD TURN CITIBANK ION ORCHARD SINGAPORE 238801,2,CITIBANK ION ORCHARD,1.30419142102398,103.831510144742,103.831510144742,238801,ORCHARD TURN,CITIBANK ION ORCHARD,27798.7377990047,31836.3793452811
ORCHARD ROAD ISTANA SINGAPORE 238823,,ISTANA,1.30707827396098,103.842914241232,103.842914241232,238823,ORCHARD ROAD,ISTANA,29067.9081353405,32155.5946424939
1 ORCHARD ROAD YMCA SINGAPORE 238824,1,YMCA,1.29761037133319,103.848104792087,103.848104792087,238824,ORCHARD ROAD,YMCA,29645.5744206635,31108.6855006088
3 ORCHARD ROAD ORCHARD ROAD PRESBYTERIAN CHURCH SINGAPORE 238825,3,ORCHARD ROAD PRESBYTERIAN CHURCH,1.29781912198404,103.847347150569,103.847347150569,238825,ORCHARD ROAD,ORCHARD ROAD PRESBYTERIAN CHURCH,29561.2555060955,31131.7675925791
11 ORCHARD ROAD DBS DHOBY GHAUT MRT STATION SINGAPORE 238826,11,DBS DHOBY GHAUT MRT STATION,1.29868872290409,103.846179896647,103.846179896647,238826,ORCHARD ROAD,DBS DHOBY GHAUT MRT STATION,29431.3500115182,31227.922892984
14 ORCHARD ROAD SMA HOUSE SINGAPORE 238827,14,SMA HOUSE,1.29901721670558,103.846809817124,103.846809817124,238827,ORCHARD ROAD,SMA HOUSE,29501.4543545013,31264.2464105971
16 ORCHARD ROAD SMA HOUSE SINGAPORE 238828,16,SMA HOUSE,1.29901788762645,103.846809568546,103.846809568546,238828,ORCHARD ROAD,SMA HOUSE,29501.4266895643,31264.3205974251
18 ORCHARD ROAD SMA HOUSE SINGAPORE 238829,18,SMA HOUSE,1.29901788762645,103.846809568546,103.846809568546,238829,ORCHARD ROAD,SMA HOUSE,29501.4266895643,31264.3205974251
20 ORCHARD ROAD MDIS DHOBY GHAUT SINGAPORE 238830,20,MDIS DHOBY GHAUT,1.29902232591852,103.84676118949,103.84676118949,238830,ORCHARD ROAD,MDIS DHOBY GHAUT,29496.0425298167,31264.8113322444
28 ORCHARD ROAD TEMASEK SHOPHOUSE SINGAPORE 238832,28,TEMASEK SHOPHOUSE,1.29908859216223,103.846579981854,103.846579981854,238832,ORCHARD ROAD,TEMASEK SHOPHOUSE,29475.8756986978,31272.1386057436
38 ORCHARD ROAD SINGAPORE 238836,38,NIL,1.29915810813949,103.846348263705,103.846348263705,238836,ORCHARD ROAD,38 ORCHARD ROAD SINGAPORE 238836,29450.0874976423,31279.8251904752
40 ORCHARD ROAD MACDONALD HSE SINGAPORE 238837,40,MACDONALD HSE,1.29922058109912,103.846140168396,103.846140168396,238837,ORCHARD ROAD,MACDONALD HSE,29426.9283131165,31286.7330102567
40A ORCHARD ROAD MACDONALD HOUSE SINGAPORE 238838,40A,MACDONALD HOUSE,1.2992237352005,103.846002711906,103.846002711906,238838,ORCHARD ROAD,MACDONALD HOUSE,29411.6306320019,31287.0816974286
68 ORCHARD ROAD CITIBANK PLAZA SINGAPURA SINGAPORE 238839,68,CITIBANK PLAZA SINGAPURA,1.30083413030923,103.845072743164,103.845072743164,238839,ORCHARD ROAD,CITIBANK PLAZA SINGAPURA,29308.1325911591,31465.1503946632
100 ORCHARD ROAD CONCORDE HOTEL AND SHOPPING MALL SINGAPORE 238840,100,CONCORDE HOTEL AND SHOPPING MALL,1.30061922274709,103.842228547508,103.842228547508,238840,ORCHARD ROAD,CONCORDE HOTEL AND SHOPPING MALL,28991.5993097145,31441.385729393
150 ORCHARD ROAD ORCHARD PLAZA SINGAPORE 238841,150,ORCHARD PLAZA,1.30126533034758,103.841151770727,103.841151770727,238841,ORCHARD ROAD,ORCHARD PLAZA,28871.7635193011,31512.8285831511
160 ORCHARD ROAD OG ORCHARD POINT SINGAPORE 238842,160,OG ORCHARD POINT,1.30137337509656,103.84055444853,103.84055444853,238842,ORCHARD ROAD,OG ORCHARD POINT,28805.286915238,31524.7754168604
176 ORCHARD ROAD DBS CENTERPOINT SINGAPORE 238843,176,DBS CENTERPOINT,1.30151446722773,103.840054426935,103.840054426935,238843,ORCHARD ROAD,DBS CENTERPOINT,28749.6389850294,31540.3765042443
176A ORCHARD ROAD THE CENTREPOINT SINGAPORE 238844,176A,THE CENTREPOINT,1.3019783690418,103.839759023416,103.839759023416,238844,ORCHARD ROAD,THE CENTREPOINT,28716.7631118353,31591.6722918767
178 ORCHARD ROAD PERANAKAN PLACE SINGAPORE 238845,178,PERANAKAN PLACE,1.30143766277242,103.839257819709,103.839257819709,238845,ORCHARD ROAD,PERANAKAN PLACE,28660.9838185776,31531.8836409599
180 ORCHARD ROAD PERANAKAN PLACE SINGAPORE 238846,180,PERANAKAN PLACE,1.3014233056155,103.839314877415,103.839314877415,238846,ORCHARD ROAD,PERANAKAN PLACE,28667.333829686,31530.2961154822
182 ORCHARD ROAD PERANAKAN PLACE SINGAPORE 238847,182,PERANAKAN PLACE,1.30140119930026,103.839278294734,103.839278294734,238847,ORCHARD ROAD,PERANAKAN PLACE,28663.2625134643,31527.8517033849
184 ORCHARD ROAD PERANAKAN PLACE SINGAPORE 238848,184,PERANAKAN PLACE,1.30140119930026,103.839278294734,103.839278294734,238848,ORCHARD ROAD,PERANAKAN PLACE,28663.2625134643,31527.8517033849
186 ORCHARD ROAD PERANAKAN PLACE SINGAPORE 238849,186,PERANAKAN PLACE,1.30140119930026,103.839278294734,103.839278294734,238849,ORCHARD ROAD,PERANAKAN PLACE,28663.2625134643,31527.8517033849
218 ORCHARD ROAD ORCHARD GATEWAY @ EMERALD SINGAPORE 238851,218,ORCHARD GATEWAY @ EMERALD,1.30156308609768,103.838914998409,103.838914998409,238851,ORCHARD ROAD,ORCHARD GATEWAY @ EMERALD,28622.8308737623,31545.7522192243
220 ORCHARD ROAD HSBC MIDPOINT ORCHARD SINGAPORE 238852,220,HSBC MIDPOINT ORCHARD,1.30177313264942,103.838659652851,103.838659652851,238852,ORCHARD ROAD,HSBC MIDPOINT ORCHARD,28594.4131718902,31568.9780235812
228 ORCHARD ROAD ORCHARD OG SINGAPORE 238853,228,ORCHARD OG,1.30185487953532,103.838486620031,103.838486620031,238853,ORCHARD ROAD,ORCHARD OG,28575.1561660934,31578.017133167
230 ORCHARD ROAD FABER HOUSE SINGAPORE 238854,230,FABER HOUSE,1.30195106174847,103.83829837123,103.83829837123,238854,ORCHARD ROAD,FABER HOUSE,28554.2057574112,31588.6524248738
260 ORCHARD ROAD THE HEEREN SINGAPORE 238855,260,THE HEEREN,1.30265057391112,103.837317277241,103.837317277241,238855,ORCHARD ROAD,THE HEEREN,28445.0187582243,31666.0006833281
268 ORCHARD ROAD SINGAPORE 238856,268,NIL,1.30289565860158,103.83692040228,103.83692040228,238856,ORCHARD ROAD,268 ORCHARD ROAD SINGAPORE 238856,28400.8501424491,31693.100819869
270 ORCHARD ROAD CIMB BANK BERHAD KNIGHTSBRIDGE SINGAPORE 238857,270,CIMB BANK BERHAD KNIGHTSBRIDGE,1.30310526043246,103.836202006497,103.836202006497,238857,ORCHARD ROAD,CIMB BANK BERHAD KNIGHTSBRIDGE,28320.8992006108,31716.2774084862
277 ORCHARD ROAD JEN SINGAPORE ORCHARDGATEWAY BY SHANGRI-LA SINGAPORE 238858,277,JEN SINGAPORE ORCHARDGATEWAY BY SHANGRI-LA,1.30050954843742,103.839224069687,103.839224069687,238858,ORCHARD ROAD,JEN SINGAPORE ORCHARDGATEWAY BY SHANGRI-LA,28657.2279855506,31429.2575299237
290 ORCHARD ROAD CITIBANK PARAGON SINGAPORE 238859,290,CITIBANK PARAGON,1.30371084737898,103.83526664484,103.83526664484,238859,ORCHARD ROAD,CITIBANK PARAGON,28216.8019142263,31783.2399952952
302 ORCHARD ROAD TONG BUILDING SINGAPORE 238862,302,TONG BUILDING,1.30394637273942,103.834826945904,103.834826945904,238862,ORCHARD ROAD,TONG BUILDING,28167.867422807,31809.2831435762
304 ORCHARD ROAD DBS LUCKY PLAZA SINGAPORE 238863,304,DBS LUCKY PLAZA,1.30448579105197,103.833941935117,103.833941935117,238863,ORCHARD ROAD,DBS LUCKY PLAZA,28069.3737995876,31868.929202022
310 ORCHARD ROAD TANG PLAZA SINGAPORE 238864,310,TANG PLAZA,1.30505783063001,103.83306065595,103.83306065595,238864,ORCHARD ROAD,TANG PLAZA,27971.2955136411,31932.1823868919
320 ORCHARD ROAD CITIBANK TANG PLAZA SINGAPORE 238865,320,CITIBANK TANG PLAZA,1.30502230772638,103.832874073917,103.832874073917,238865,ORCHARD ROAD,CITIBANK TANG PLAZA,27950.5306476997,31928.2544501089
321 ORCHARD ROAD MAYBANK MSPACE AT MAYBANK SINGAPORE 238866,321,MAYBANK MSPACE AT MAYBANK,1.30146560603949,103.83792633759,103.83792633759,238866,ORCHARD ROAD,MAYBANK MSPACE AT MAYBANK,28512.8018798046,31534.9731545951
333 ORCHARD ROAD HILTON SINGAPORE ORCHARD SINGAPORE 238867,333,HILTON SINGAPORE ORCHARD,1.30209033438659,103.836167402937,103.836167402937,238867,ORCHARD ROAD,HILTON SINGAPORE ORCHARD,28317.0482655782,31604.0521090943
350 ORCHARD ROAD SHAW HOUSE SINGAPORE 238868,350,SHAW HOUSE,1.30573060708011,103.831531920982,103.831531920982,238868,ORCHARD ROAD,SHAW HOUSE,27801.1614169972,32006.574613519
360 ORCHARD ROAD INTERNATIONAL BUILDING SINGAPORE 238869,360,INTERNATIONAL BUILDING,1.30607855712798,103.831014834847,103.831014834847,238869,ORCHARD ROAD,INTERNATIONAL BUILDING,27743.614534026,32045.0491859298
370 ORCHARD ROAD ROYAL THAI EMBASSY SINGAPORE 238870,370,ROYAL THAI EMBASSY,1.30680253052303,103.830519139034,103.830519139034,238870,ORCHARD ROAD,ROYAL THAI EMBASSY,27688.4482582435,32125.1024940889
390 ORCHARD ROAD EMBASSY OF THE REPUBLIC OF PERU SINGAPORE 238871,390,EMBASSY OF THE REPUBLIC OF PERU,1.30665484543191,103.829588045188,103.829588045188,238871,ORCHARD ROAD,EMBASSY OF THE REPUBLIC OF PERU,27584.8261186667,32108.7723720502
391 ORCHARD ROAD CITIBANK TAKASHIMAYA SINGAPORE 238872,391,CITIBANK TAKASHIMAYA,1.30236932766648,103.834980235031,103.834980235031,238872,ORCHARD ROAD,CITIBANK TAKASHIMAYA,28184.9272151291,31634.9016315825
391A ORCHARD ROAD NGEE ANN CITY SINGAPORE 238873,391A,NGEE ANN CITY,1.30242417189411,103.834676124723,103.834676124723,238873,ORCHARD ROAD,NGEE ANN CITY,28151.0824940447,31640.9660037272
391B ORCHARD ROAD NGEE ANN CITY SINGAPORE 238874,391B,NGEE ANN CITY,1.30242417189411,103.834676124723,103.834676124723,238874,ORCHARD ROAD,NGEE ANN CITY,28151.0824940447,31640.9660037272
400 ORCHARD ROAD BETHANY CHURCH SINGAPORE SINGAPORE 238875,400,BETHANY CHURCH SINGAPORE,1.30694456840806,103.829339596247,103.829339596247,238875,ORCHARD ROAD,BETHANY CHURCH SINGAPORE,27557.1761036655,32140.8084903043
402 ORCHARD ROAD DELFI ORCHARD SINGAPORE 238876,402,DELFI ORCHARD,1.30717805424682,103.82846871252,103.82846871252,238876,ORCHARD ROAD,DELFI ORCHARD,27460.2548719319,32166.6263237149
435 ORCHARD ROAD CITIBANK WISMA ATRIA SINGAPORE 238877,435,CITIBANK WISMA ATRIA,1.30370452023703,103.833200970183,103.833200970183,238877,ORCHARD ROAD,CITIBANK WISMA ATRIA,27986.9111901922,31782.5402903147
437 ORCHARD ROAD CITIBANK ORCHARD SMRT STATION SINGAPORE 238878,437,CITIBANK ORCHARD SMRT STATION,1.30323261037273,103.832269574478,103.832269574478,238878,ORCHARD ROAD,CITIBANK ORCHARD SMRT STATION,27883.2553320825,31730.358952282
442 ORCHARD ROAD CLAYMORE CONNECT SINGAPORE 238879,442,CLAYMORE CONNECT,1.30766860940267,103.828164396352,103.828164396352,238879,ORCHARD ROAD,CLAYMORE CONNECT,27426.3874195907,32220.8694562633
501 ORCHARD ROAD WHEELOCK PLACE SINGAPORE 238880,501,WHEELOCK PLACE,1.3045363597328,103.830714231109,103.830714231109,238880,ORCHARD ROAD,WHEELOCK PLACE,27710.1599369831,31874.5209698696
541 ORCHARD ROAD EMBASSY OF IRELAND SINGAPORE 238881,541,EMBASSY OF IRELAND,1.30510759038418,103.830727915062,103.830727915062,238881,ORCHARD ROAD,EMBASSY OF IRELAND,27711.6829008516,31937.6847128477
545 ORCHARD ROAD FAR EAST SHOPPING CENTRE SINGAPORE 238882,545,FAR EAST SHOPPING CENTRE,1.30550628596328,103.829984995532,103.829984995532,238882,ORCHARD ROAD,FAR EAST SHOPPING CENTRE,27629.0028462615,31981.7705154195
581 ORCHARD ROAD HILTON SHOPPING GALLERY (HILTON HOTEL) SINGAPORE 238883,581,HILTON SHOPPING GALLERY (HILTON HOTEL),1.30600944831127,103.829648763915,103.829648763915,238883,ORCHARD ROAD,HILTON SHOPPING GALLERY (HILTON HOTEL),27591.5834460314,32037.4076702259
583 ORCHARD ROAD CHILTERN HOUSE FORUM SINGAPORE 238884,583,CHILTERN HOUSE FORUM,1.30619579912712,103.828509016327,103.828509016327,238884,ORCHARD ROAD,CHILTERN HOUSE FORUM,27464.7401028313,32058.0135989841
22 ORCHARD ROAD ORCHARD 22 SINGAPORE 238885,22,ORCHARD 22,1.29902761375205,103.846633248485,103.846633248485,238885,ORCHARD ROAD,ORCHARD 22,29481.8038346488,31265.395958351
362 ORCHARD ROAD SINGAPORE 238887,362,NIL,1.30611192172808,103.830843347424,103.830843347424,238887,ORCHARD ROAD,362 ORCHARD ROAD SINGAPORE 238887,27724.5295714494,32048.7384899296
31 ORCHARD ROAD SINGAPORE 238888,31,NIL,1.29924132080946,103.844021975499,103.844021975499,238888,ORCHARD ROAD,31 ORCHARD ROAD SINGAPORE 238888,29191.1923571397,31289.0252046622
60 ORCHARD ROAD DHOBY GHAUT CARPARK SINGAPORE 238889,60,DHOBY GHAUT CARPARK,1.29940239409636,103.845516022173,103.845516022173,238889,ORCHARD ROAD,DHOBY GHAUT CARPARK,29357.4663172839,31306.8366115578
60A ORCHARD ROAD SINGAPORE 238890,60A,NIL,1.29947530530804,103.845466275418,103.845466275418,238890,ORCHARD ROAD,60A ORCHARD ROAD SINGAPORE 238890,29351.9299095785,31314.8987311646
60B ORCHARD ROAD SINGAPORE 238891,60B,NIL,1.29956309805197,103.845855270283,103.845855270283,238891,ORCHARD ROAD,60B ORCHARD ROAD SINGAPORE 238891,29395.2215105258,31324.6066118497
13 ORCHARD ROAD DHOBY XCHANGE SINGAPORE 238893,13,DHOBY XCHANGE,1.29878588238318,103.846521581508,103.846521581508,238893,ORCHARD ROAD,DHOBY XCHANGE,29469.3764361618,31238.6664835382
313 ORCHARD ROAD 313 @ SOMERSET SINGAPORE 238895,313,313 @ SOMERSET,1.30097808212211,103.838350465208,103.838350465208,238895,ORCHARD ROAD,313 @ SOMERSET,28560.0035594245,31481.0653610379
181 ORCHARD ROAD ORCHARD CENTRAL SINGAPORE 238896,181,ORCHARD CENTRAL,1.30072350356704,103.839692368177,103.839692368177,238896,ORCHARD ROAD,ORCHARD CENTRAL,28709.3453370659,31452.9157124292
333A ORCHARD ROAD HILTON SINGAPORE ORCHARD SINGAPORE 238897,333A,HILTON SINGAPORE ORCHARD,1.30206450556085,103.836340953748,103.836340953748,238897,ORCHARD ROAD,HILTON SINGAPORE ORCHARD,28336.3629016159,31601.1961129531
216 ORCHARD ROAD EMERALD HILL CONSERVATION AREA SINGAPORE 238898,216,EMERALD HILL CONSERVATION AREA,1.30151466985026,103.839036215781,103.839036215781,238898,ORCHARD ROAD,EMERALD HILL CONSERVATION AREA,28636.3212838368,31540.3986301403
372 ORCHARD ROAD ROYAL THAI EMBASSY SINGAPORE 238899,372,ROYAL THAI EMBASSY,1.30727504865704,103.830517245037,103.830517245037,238899,ORCHARD ROAD,ROYAL THAI EMBASSY,27688.2375325402,32177.3511178512
374 ORCHARD ROAD ROYAL THAI EMBASSY SINGAPORE 238900,374,ROYAL THAI EMBASSY,1.30706116506101,103.830898962088,103.830898962088,238900,ORCHARD ROAD,ROYAL THAI EMBASSY,27730.7190714395,32153.7009260934
376 ORCHARD ROAD ROYAL THAI EMBASSY SINGAPORE 238901,376,ROYAL THAI EMBASSY,1.30664315361959,103.830789096612,103.830789096612,238901,ORCHARD ROAD,ROYAL THAI EMBASSY,27718.4920167373,32107.4793843217
35 ORCHARD ROAD ISTANA HERITAGE GALLERY SINGAPORE 238902,35,ISTANA HERITAGE GALLERY,1.29943009788995,103.843392819158,103.843392819158,238902,ORCHARD ROAD,ISTANA HERITAGE GALLERY,29121.1727947788,31309.8989142738
364 ORCHARD ROAD SINGAPORE 238903,364,NIL,1.30611192172808,103.830843347696,103.830843347696,238903,ORCHARD ROAD,364 ORCHARD ROAD SINGAPORE 238903,27724.5296017174,32048.7384899296
366 ORCHARD ROAD YOTEL SINGAPORE ORCHARD ROAD SINGAPORE 238904,366,YOTEL SINGAPORE ORCHARD ROAD,1.30631297689507,103.831389553761,103.831389553761,238904,ORCHARD ROAD,YOTEL SINGAPORE ORCHARD ROAD,27785.3173079723,32070.9700818267
250 ORCHARD ROAD DESIGN ORCHARD SINGAPORE 238905,250,DESIGN ORCHARD,1.3020667125124,103.83789483375,103.83789483375,238905,ORCHARD ROAD,DESIGN ORCHARD,28509.295666839,31601.4404058512
1 NANSON ROAD INTERCONTINENTAL SINGAPORE ROBERTSON QUAY SINGAPORE 238909,1,INTERCONTINENTAL SINGAPORE ROBERTSON QUAY,1.28984102685759,103.83855170682,103.83855170682,238909,NANSON ROAD,INTERCONTINENTAL SINGAPORE ROBERTSON QUAY,28582.4024727345,30249.5872605387
3 NANSON ROAD STUDIO M HOTEL SINGAPORE 238910,3,STUDIO M HOTEL,1.29077754491254,103.839076188828,103.839076188828,238910,NANSON ROAD,STUDIO M HOTEL,28640.7726145945,30353.1427197456
9 MUTHURAMAN CHETTY ROAD APS BUILDING SINGAPORE 238931,9,APS BUILDING,1.29251859015363,103.83764538148,103.83764538148,238931,MUTHURAMAN CHETTY ROAD,APS BUILDING,28481.5356882522,30545.6582045387
4 MOHAMED SULTAN ROAD SINGAPORE 238955,4,NIL,1.29416597128704,103.84182246055,103.84182246055,238955,MOHAMED SULTAN ROAD,4 MOHAMED SULTAN ROAD SINGAPORE 238955,28946.4078782341,30727.8182856683
6 MOHAMED SULTAN ROAD SINGAPORE 238956,6,NIL,1.29406801283451,103.841766856606,103.841766856606,238956,MOHAMED SULTAN ROAD,6 MOHAMED SULTAN ROAD SINGAPORE 238956,28940.2196797663,30716.9865244795
7 MOHAMED SULTAN ROAD RIVER VALLEY CONSERVATION AREA SINGAPORE 238957,7,RIVER VALLEY CONSERVATION AREA,1.29402205261951,103.841735899648,103.841735899648,238957,MOHAMED SULTAN ROAD,RIVER VALLEY CONSERVATION AREA,28936.7744567879,30711.904469477
8 MOHAMED SULTAN ROAD RIVER VALLEY CONSERVATION AREA SINGAPORE 238958,8,RIVER VALLEY CONSERVATION AREA,1.29392477735066,103.84177804338,103.84177804338,238958,MOHAMED SULTAN ROAD,RIVER VALLEY CONSERVATION AREA,28941.4647230087,30701.1482874434
9 MOHAMED SULTAN ROAD RIVER VALLEY CONSERVATION AREA SINGAPORE 238959,9,RIVER VALLEY CONSERVATION AREA,1.29392942211187,103.841677930941,103.841677930941,238959,MOHAMED SULTAN ROAD,RIVER VALLEY CONSERVATION AREA,28930.3230782021,30701.6618443243
10 MOHAMED SULTAN ROAD SINGAPORE 238960,10,NIL,1.29384926399793,103.841695393108,103.841695393108,238960,MOHAMED SULTAN ROAD,10 MOHAMED SULTAN ROAD SINGAPORE 238960,28932.2664946327,30692.7983798478
12 MOHAMED SULTAN ROAD ACORN SINGAPORE 238961,12,ACORN,1.29380295970772,103.841578696,103.841578696,238961,MOHAMED SULTAN ROAD,ACORN,28919.2791384477,30687.6782477219
13 MOHAMED SULTAN ROAD ACORN SINGAPORE 238962,13,ACORN,1.29375215139791,103.841549940637,103.841549940637,238962,MOHAMED SULTAN ROAD,ACORN,28916.0789347971,30682.0601164605
14 MOHAMED SULTAN ROAD ACORN SINGAPORE 238963,14,ACORN,1.29369140567082,103.841548162024,103.841548162024,238963,MOHAMED SULTAN ROAD,ACORN,28915.8810124518,30675.343166586
15 MOHAMED SULTAN ROAD RIVER VALLEY CONSERVATION AREA SINGAPORE 238964,15,RIVER VALLEY CONSERVATION AREA,1.29361729548254,103.841544791796,103.841544791796,238964,MOHAMED SULTAN ROAD,RIVER VALLEY CONSERVATION AREA,28915.5059618652,30667.1484429426
16 MOHAMED SULTAN ROAD RIVER VALLEY CONSERVATION AREA SINGAPORE 238965,16,RIVER VALLEY CONSERVATION AREA,1.29361036593429,103.8414594536,103.8414594536,238965,MOHAMED SULTAN ROAD,RIVER VALLEY CONSERVATION AREA,28906.0085647386,30666.3821786661
17 MOHAMED SULTAN ROAD RIVER VALLEY CONSERVATION AREA SINGAPORE 238966,17,RIVER VALLEY CONSERVATION AREA,1.29352631861118,103.841480624897,103.841480624897,238966,MOHAMED SULTAN ROAD,RIVER VALLEY CONSERVATION AREA,28908.3647759305,30657.0886666775
18 MOHAMED SULTAN ROAD SINGAPORE 238967,18,NIL,1.29349212700127,103.841447839257,103.841447839257,238967,MOHAMED SULTAN ROAD,18 MOHAMED SULTAN ROAD SINGAPORE 238967,28904.7160310298,30653.307923099
19 MOHAMED SULTAN ROAD SINGAPORE 238968,19,NIL,1.29341848970892,103.841479961217,103.841479961217,238968,MOHAMED SULTAN ROAD,19 MOHAMED SULTAN ROAD SINGAPORE 238968,28908.2909523183,30645.1655025315
25 MOHAMED SULTAN ROAD RIVER VALLEY CONSERVATION AREA SINGAPORE 238969,25,RIVER VALLEY CONSERVATION AREA,1.29346055535323,103.841222024284,103.841222024284,238969,MOHAMED SULTAN ROAD,RIVER VALLEY CONSERVATION AREA,28879.5847965609,30649.8168138582
26 MOHAMED SULTAN ROAD RIVER VALLEY CONSERVATION AREA SINGAPORE 238970,26,RIVER VALLEY CONSERVATION AREA,1.2934315556592,103.841181070566,103.841181070566,238970,MOHAMED SULTAN ROAD,RIVER VALLEY CONSERVATION AREA,28875.0270133046,30646.6101631261
27 MOHAMED SULTAN ROAD RIVER VALLEY CONSERVATION AREA SINGAPORE 238971,27,RIVER VALLEY CONSERVATION AREA,1.29339846310149,103.841142429404,103.841142429404,238971,MOHAMED SULTAN ROAD,RIVER VALLEY CONSERVATION AREA,28870.7265987145,30642.950945504
28 MOHAMED SULTAN ROAD RIVER VALLEY CONSERVATION AREA SINGAPORE 238972,28,RIVER VALLEY CONSERVATION AREA,1.2933835010158,103.841090499536,103.841090499536,238972,MOHAMED SULTAN ROAD,RIVER VALLEY CONSERVATION AREA,28864.9472601712,30641.2964975126
29 MOHAMED SULTAN ROAD RIVER VALLEY CONSERVATION AREA SINGAPORE 238973,29,RIVER VALLEY CONSERVATION AREA,1.29335276804429,103.841048877311,103.841048877311,238973,MOHAMED SULTAN ROAD,RIVER VALLEY CONSERVATION AREA,28860.315078211,30637.8981899098
30 MOHAMED SULTAN ROAD HONG SAN SEE TEMPLE SINGAPORE 238974,30,HONG SAN SEE TEMPLE,1.2932353743415,103.840874305742,103.840874305742,238974,MOHAMED SULTAN ROAD,HONG SAN SEE TEMPLE,28840.8868161626,30624.9173413403
31 MOHAMED SULTAN ROAD HONG SAN SEE TEMPLE SINGAPORE 238975,31,HONG SAN SEE TEMPLE,1.29330355964325,103.840856567195,103.840856567195,238975,MOHAMED SULTAN ROAD,HONG SAN SEE TEMPLE,28838.9126474606,30632.4569144771
33 MOHAMED SULTAN ROAD SINGAPORE 238977,33,NIL,1.29243208470079,103.840742388632,103.840742388632,238977,MOHAMED SULTAN ROAD,33 MOHAMED SULTAN ROAD SINGAPORE 238977,28826.2058452163,30536.0936730243
53 MOHAMED SULTAN ROAD SULTAN-LINK SINGAPORE 238993,53,SULTAN-LINK,1.29199712667875,103.840199650996,103.840199650996,238993,MOHAMED SULTAN ROAD,SULTAN-LINK,28765.8039649501,30487.9980890416
55 MOHAMED SULTAN ROAD SULTAN-LINK SINGAPORE 238995,55,SULTAN-LINK,1.29165615342613,103.839753888147,103.839753888147,238995,MOHAMED SULTAN ROAD,SULTAN-LINK,28716.1944974931,30450.2948961947
57 MOHAMED SULTAN ROAD SULTAN-LINK SINGAPORE 238997,57,SULTAN-LINK,1.29199114593061,103.839658793106,103.839658793106,238997,MOHAMED SULTAN ROAD,SULTAN-LINK,28705.6111456463,30487.3366125245
59 MOHAMED SULTAN ROAD SULTAN-LINK SINGAPORE 238999,59,SULTAN-LINK,1.29195461064061,103.839607417498,103.839607417498,238999,MOHAMED SULTAN ROAD,SULTAN-LINK,28699.8934932547,30483.2967144698
61 MOHAMED SULTAN ROAD SULTAN-LINK SINGAPORE 239001,61,SULTAN-LINK,1.29195461064061,103.839607417498,103.839607417498,239001,MOHAMED SULTAN ROAD,SULTAN-LINK,28699.8934932547,30483.2967144698
63 MOHAMED SULTAN ROAD SULTAN-LINK SINGAPORE 239002,63,SULTAN-LINK,1.29181896368228,103.840009177008,103.840009177008,239002,MOHAMED SULTAN ROAD,SULTAN-LINK,28744.6059036255,30468.297687551
65 MOHAMED SULTAN ROAD HOMESTOLIFE BUILDING SINGAPORE 239003,65,HOMESTOLIFE BUILDING,1.29144150026704,103.839399964724,103.839399964724,239003,MOHAMED SULTAN ROAD,HOMESTOLIFE BUILDING,28676.8059227783,30426.5595605988
70 MOHAMED SULTAN ROAD SINGAPORE 239006,70,NIL,1.29136135925557,103.83913495454,103.83913495454,239006,MOHAMED SULTAN ROAD,70 MOHAMED SULTAN ROAD SINGAPORE 239006,28647.3125875685,30417.6979122031
72-13 MOHAMED SULTAN ROAD 72-13 SINGAPORE 239007,72-13,72-13,1.29140089335786,103.840146080719,103.840146080719,239007,MOHAMED SULTAN ROAD,72-13,28759.8422315372,30422.0696684308
11 MOHAMED SULTAN ROAD SINGAPORE 239010,11,NIL,1.29384101121362,103.841614903867,103.841614903867,239010,MOHAMED SULTAN ROAD,11 MOHAMED SULTAN ROAD SINGAPORE 239010,28923.3087453879,30691.8858001381
24 MOHAMED SULTAN ROAD RIVER VALLEY CONSERVATION AREA SINGAPORE 239012,24,RIVER VALLEY CONSERVATION AREA,1.29349212924304,103.84125937875,103.84125937875,239012,MOHAMED SULTAN ROAD,RIVER VALLEY CONSERVATION AREA,28883.7420133213,30653.3081047069
80 MOHAMED SULTAN ROAD THE PIER AT ROBERTSON SINGAPORE 239013,80,THE PIER AT ROBERTSON,1.29141779825148,103.840553123026,103.840553123026,239013,MOHAMED SULTAN ROAD,THE PIER AT ROBERTSON,28805.1425369559,30423.9390493725
5 MOHAMED SULTAN ROAD SINGAPORE 239014,5,NIL,1.29411517254371,103.841798819317,103.841798819317,239014,MOHAMED SULTAN ROAD,5 MOHAMED SULTAN ROAD SINGAPORE 239014,28943.7768337494,30722.2012137864
69 MOHAMED SULTAN ROAD SINGAPORE 239015,69,NIL,1.29136135925556,103.839134955084,103.839134955084,239015,MOHAMED SULTAN ROAD,69 MOHAMED SULTAN ROAD SINGAPORE 239015,28647.3126481045,30417.6979122031
22 MOHAMED SULTAN ROAD SINGAPORE 239016,22,NIL,1.29372720328029,103.841148307698,103.841148307698,239016,MOHAMED SULTAN ROAD,22 MOHAMED SULTAN ROAD SINGAPORE 239016,28871.3806898426,30679.3013410848
23 MOHAMED SULTAN ROAD SINGAPORE 239017,23,NIL,1.29344837137616,103.841347259981,103.841347259981,239017,MOHAMED SULTAN ROAD,23 MOHAMED SULTAN ROAD SINGAPORE 239017,28893.5224463632,30648.469616171
15 MERBAU ROAD ROBERTSON QUAY HOTEL SINGAPORE 239032,15,ROBERTSON QUAY HOTEL,1.29120352835619,103.842003739459,103.842003739459,239032,MERBAU ROAD,ROBERTSON QUAY HOTEL,28966.5837594802,30400.2466943152
20 MERBAU ROAD SINGAPORE REPERTORY THEATRE SINGAPORE 239035,20,SINGAPORE REPERTORY THEATRE,1.29141653807769,103.841677937152,103.841677937152,239035,MERBAU ROAD,SINGAPORE REPERTORY THEATRE,28930.3246824052,30423.8000890594
22 MARTIN ROAD SINGAPORE 239058,22,NIL,1.29188466066369,103.838507741772,103.838507741772,239058,MARTIN ROAD,22 MARTIN ROAD SINGAPORE 239058,28577.5090780752,30475.5617312305
38 MARTIN ROAD MARTIN NO 38 SINGAPORE 239059,38,MARTIN NO 38,1.29213320015397,103.838064913731,103.838064913731,239059,MARTIN ROAD,MARTIN NO 38,28528.226081091,30503.0438497271
20 MARTIN ROAD SENG KEE BUILDING SINGAPORE 239070,20,SENG KEE BUILDING,1.29141482643714,103.838887877583,103.838887877583,239070,MARTIN ROAD,SENG KEE BUILDING,28619.8150324011,30423.6099758539
50 MARTIN ROAD SINGAPORE 239071,50,NIL,1.29233561786734,103.837549215345,103.837549215345,239071,MARTIN ROAD,50 MARTIN ROAD SINGAPORE 239071,28470.8332621576,30525.426055111
38A MARTIN ROAD MARTIN NO 38 SINGAPORE 239072,38A,MARTIN NO 38,1.29213320070144,103.838064914003,103.838064914003,239072,MARTIN ROAD,MARTIN NO 38,28528.226111359,30503.0439102631
2 LLOYD ROAD LLOYD'S INN SINGAPORE 239091,2,LLOYD'S INN,1.29726358929727,103.840365853144,103.840365853144,239091,LLOYD ROAD,LLOYD'S INN,28784.2992163999,31070.3364192583
3 LLOYD ROAD LLOYD MANSION SINGAPORE 239092,3,LLOYD MANSION,1.29697794978118,103.840638705491,103.840638705491,239092,LLOYD ROAD,LLOYD MANSION,28814.6653591888,31038.7519598585
5 LLOYD ROAD LLOYD MANSION SINGAPORE 239093,5,LLOYD MANSION,1.29689057373714,103.840612616954,103.840612616954,239093,LLOYD ROAD,LLOYD MANSION,28811.761963387,31029.0903589185
7 LLOYD ROAD LLOYD MANSION SINGAPORE 239094,7,LLOYD MANSION,1.29678156870593,103.840577554671,103.840577554671,239094,LLOYD ROAD,LLOYD MANSION,28807.859875462,31017.0371332467
9 LLOYD ROAD LLOYD MANSION SINGAPORE 239095,9,LLOYD MANSION,1.29676869172635,103.840493119299,103.840493119299,239095,LLOYD ROAD,LLOYD MANSION,28798.4629680412,31015.6132364888
11 LLOYD ROAD LLOYD MANSION SINGAPORE 239096,11,LLOYD MANSION,1.29675504064963,103.840400632493,103.840400632493,239096,LLOYD ROAD,LLOYD MANSION,28788.1700072298,31014.1037418731
13 LLOYD ROAD LLOYD MANSION SINGAPORE 239097,13,LLOYD MANSION,1.29674201228291,103.840318662269,103.840318662269,239097,LLOYD ROAD,LLOYD MANSION,28779.047448813,31012.6631069202
15 LLOYD ROAD LLOYD MANSION SINGAPORE 239098,15,LLOYD MANSION,1.29676038362578,103.840209677784,103.840209677784,239098,LLOYD ROAD,LLOYD MANSION,28766.91843211,31014.6944821123
17 LLOYD ROAD LLOYD MANSION SINGAPORE 239099,17,LLOYD MANSION,1.29686128288423,103.840243467205,103.840243467205,239099,LLOYD ROAD,LLOYD MANSION,28770.6788658714,31025.8514122497
19 LLOYD ROAD LLOYD MANSION SINGAPORE 239100,19,LLOYD MANSION,1.29694557324687,103.840230740816,103.840230740816,239100,LLOYD ROAD,LLOYD MANSION,28769.2625058414,31035.1718022078
25 LLOYD ROAD THE BOTANIC ON LLOYD SINGAPORE 239101,25,THE BOTANIC ON LLOYD,1.29687153029282,103.839855838487,103.839855838487,239101,LLOYD ROAD,THE BOTANIC ON LLOYD,28727.5392102022,31026.9844034165
27 LLOYD ROAD THE BOTANIC ON LLOYD SINGAPORE 239102,27,THE BOTANIC ON LLOYD,1.29687153029282,103.839855838487,103.839855838487,239102,LLOYD ROAD,THE BOTANIC ON LLOYD,28727.5392102022,31026.9844034165
29 LLOYD ROAD THE BOTANIC ON LLOYD SINGAPORE 239103,29,THE BOTANIC ON LLOYD,1.29687153029282,103.839855838487,103.839855838487,239103,LLOYD ROAD,THE BOTANIC ON LLOYD,28727.5392102022,31026.9844034165
31 LLOYD ROAD THE BOTANIC ON LLOYD SINGAPORE 239104,31,THE BOTANIC ON LLOYD,1.29687153029282,103.839855838487,103.839855838487,239104,LLOYD ROAD,THE BOTANIC ON LLOYD,28727.5392102022,31026.9844034165
32 LLOYD ROAD BRENTWOOD SINGAPORE 239105,32,BRENTWOOD,1.29727391210368,103.839834444633,103.839834444633,239105,LLOYD ROAD,BRENTWOOD,28725.1581489956,31071.4777038526
33 LLOYD ROAD THE BOTANIC ON LLOYD SINGAPORE 239106,33,THE BOTANIC ON LLOYD,1.29657340471345,103.839515432451,103.839515432451,239106,LLOYD ROAD,THE BOTANIC ON LLOYD,28689.6551056178,30994.0191185977
40 LLOYD ROAD LLOYD COURT SINGAPORE 239107,40,LLOYD COURT,1.29758995084157,103.839605280604,103.839605280604,239107,LLOYD ROAD,LLOYD COURT,28699.6541340388,31106.423574185
65 LLOYD ROAD LLOYD SIXTYFIVE SINGAPORE 239114,65,LLOYD SIXTYFIVE,1.29727294661043,103.838940257017,103.838940257017,239114,LLOYD ROAD,LLOYD SIXTYFIVE,28625.6429813253,31071.3707065303
14 LLOYD ROAD BRENTWOOD SINGAPORE 239115,14,BRENTWOOD,1.29726073225229,103.840100739453,103.840100739453,239115,LLOYD ROAD,BRENTWOOD,28754.7944096243,31070.0204215087
16 LLOYD ROAD BRENTWOOD SINGAPORE 239116,16,BRENTWOOD,1.29732850796008,103.840113493993,103.840113493993,239116,LLOYD ROAD,BRENTWOOD,28756.2138569886,31077.5147137418
18 LLOYD ROAD BRENTWOOD SINGAPORE 239117,18,BRENTWOOD,1.29740797069352,103.840127898343,103.840127898343,239117,LLOYD ROAD,BRENTWOOD,28757.8169099428,31086.301297538
20 LLOYD ROAD BRENTWOOD SINGAPORE 239118,20,BRENTWOOD,1.29748099030326,103.840140942547,103.840140942547,239118,LLOYD ROAD,BRENTWOOD,28759.2685927097,31094.3754335344
22 LLOYD ROAD BRENTWOOD SINGAPORE 239119,22,BRENTWOOD,1.29755358343125,103.840156076035,103.840156076035,239119,LLOYD ROAD,BRENTWOOD,28760.9527941272,31102.4024120122
24 LLOYD ROAD BRENTWOOD SINGAPORE 239120,24,BRENTWOOD,1.29760721451677,103.83986630827,103.83986630827,239120,LLOYD ROAD,BRENTWOOD,28728.7041946277,31108.3325759191
26 LLOYD ROAD BRENTWOOD SINGAPORE 239121,26,BRENTWOOD,1.29753260807285,103.83985426465,103.83985426465,239121,LLOYD ROAD,BRENTWOOD,28727.3638677727,31100.0829764213
28 LLOYD ROAD BRENTWOOD SINGAPORE 239122,28,BRENTWOOD,1.29745510280691,103.839838163486,103.839838163486,239122,LLOYD ROAD,BRENTWOOD,28725.5719728684,31091.5128389746
30 LLOYD ROAD BRENTWOOD SINGAPORE 239123,30,BRENTWOOD,1.29738399850485,103.839825284653,103.839825284653,239123,LLOYD ROAD,BRENTWOOD,28724.1386930356,31083.65048806
21 LLOYD ROAD THE BOTANIC ON LLOYD SINGAPORE 239124,21,THE BOTANIC ON LLOYD,1.29689177042354,103.839840675332,103.839840675332,239124,LLOYD ROAD,THE BOTANIC ON LLOYD,28725.8516793065,31029.2224483993
23 LLOYD ROAD THE BOTANIC ON LLOYD SINGAPORE 239125,23,THE BOTANIC ON LLOYD,1.29687153029282,103.839855838487,103.839855838487,239125,LLOYD ROAD,THE BOTANIC ON LLOYD,28727.5392102022,31026.9844034165
35 LLOYD ROAD THE BOTANIC ON LLOYD SINGAPORE 239126,35,THE BOTANIC ON LLOYD,1.29694633480527,103.839250671092,103.839250671092,239126,LLOYD ROAD,THE BOTANIC ON LLOYD,28660.1894050771,31035.2557353266
50A LLOYD ROAD TEMPORARY CHILD CARD CENTRE SINGAPORE 239128,50A,TEMPORARY CHILD CARD CENTRE,1.29778849920286,103.83916468554,103.83916468554,239128,LLOYD ROAD,TEMPORARY CHILD CARD CENTRE,28650.6197582735,31128.3779113516
1 LEONIE HILL ROAD LEONIE HILL RESIDENCES SINGAPORE 239191,1,LEONIE HILL RESIDENCES,1.29732760228353,103.83322191012,103.83322191012,239191,LEONIE HILL ROAD,LEONIE HILL RESIDENCES,27989.241582795,31077.4135581404
2 LEONIE HILL ROAD LEONIE CONDOTEL SINGAPORE 239192,2,LEONIE CONDOTEL,1.29702570945535,103.834037605434,103.834037605434,239192,LEONIE HILL ROAD,LEONIE CONDOTEL,28080.0212590238,31044.0318161342
14 LEONIE HILL ROAD NEW FUTURA SINGAPORE 239193,14,NEW FUTURA,1.29831388043611,103.834269820035,103.834269820035,239193,LEONIE HILL ROAD,NEW FUTURA,28105.8646386135,31186.4711314272
15 LEONIE HILL ROAD HORIZON TOWERS SINGAPORE 239194,15,HORIZON TOWERS,1.29829067681172,103.833377647901,103.833377647901,239194,LEONIE HILL ROAD,HORIZON TOWERS,28006.5738172391,31183.9053749833
22 LEONIE HILL ROAD LEONIE PARC VIEW SINGAPORE 239195,22,LEONIE PARC VIEW,1.29898398400724,103.834268439755,103.834268439755,239195,LEONIE HILL ROAD,LEONIE PARC VIEW,28105.7109983275,31260.5677306596
33 LEONIE HILL ROAD OUE TWIN PEAKS SINGAPORE 239197,33,OUE TWIN PEAKS,1.29916779999053,103.83342756799,103.83342756799,239197,LEONIE HILL ROAD,OUE TWIN PEAKS,28012.1294753822,31280.8931357451
16 LEONIE HILL ROAD NEW FUTURA SINGAPORE 239198,16,NEW FUTURA,1.29846320013129,103.834298988739,103.834298988739,239198,LEONIE HILL ROAD,NEW FUTURA,28109.1108495994,31202.9821349382
18 LEONIE HILL ROAD NEW FUTURA SINGAPORE 239199,18,NEW FUTURA,1.29812444550056,103.834066449377,103.834066449377,239199,LEONIE HILL ROAD,NEW FUTURA,28083.2312997691,31165.5243851729
1 LEONIE HILL ONE LEONIE RESIDENCES SINGAPORE 239219,1,ONE LEONIE RESIDENCES,1.29930788596273,103.832399949956,103.832399949956,239219,LEONIE HILL,ONE LEONIE RESIDENCES,27897.7647743654,31296.3831396289
9 LEONIE HILL THE LUMOS SINGAPORE 239220,9,THE LUMOS,1.29906600768056,103.832068608699,103.832068608699,239220,LEONIE HILL,THE LUMOS,27860.8894411419,31269.6375017129
20 LEONIE HILL LEONIE TOWERS SINGAPORE 239222,20,LEONIE TOWERS,1.29807866746858,103.831491221019,103.831491221019,239222,LEONIE HILL,LEONIE TOWERS,27796.63126841,31160.4625491835
21 LEONIE HILL LEONIE SUITES SINGAPORE 239223,21,LEONIE SUITES,1.29876714993881,103.831774344575,103.831774344575,239223,LEONIE HILL,LEONIE SUITES,27828.1404513353,31236.5913711097
23 LEONIE HILL LEONIE GARDENS SINGAPORE 239224,23,LEONIE GARDENS,1.29837994307162,103.832190331692,103.832190331692,239224,LEONIE HILL,LEONIE GARDENS,27874.4360891311,31193.7760066185
25 LEONIE HILL LEONIE GARDENS SINGAPORE 239225,25,LEONIE GARDENS,1.29847362864391,103.832703800401,103.832703800401,239225,LEONIE HILL,LEONIE GARDENS,27931.5805895254,31204.1352543142
27 LEONIE HILL LEONIE GARDENS SINGAPORE 239226,27,LEONIE GARDENS,1.29810416407006,103.832581916302,103.832581916302,239226,LEONIE HILL,LEONIE GARDENS,27918.0159623548,31163.2817697227
28 LEONIE HILL LEONIE TOWERS SINGAPORE 239227,28,LEONIE TOWERS,1.29715028260158,103.831958223359,103.831958223359,239227,LEONIE HILL,LEONIE TOWERS,27848.604423251,31057.8065031115
29 LEONIE HILL HORIZON TOWERS SINGAPORE 239228,29,HORIZON TOWERS,1.29759908182726,103.832677784668,103.832677784668,239228,LEONIE HILL,HORIZON TOWERS,27928.6852450073,31107.4323758148
31 LEONIE HILL RIVERSHIRE SINGAPORE 239229,31,RIVERSHIRE,1.29673744760827,103.833005715415,103.833005715415,239229,LEONIE HILL,RIVERSHIRE,27965.1810177146,31012.157298645
36 LEONIE HILL RIVA LODGE SINGAPORE 239230,36,RIVA LODGE,1.29662723124191,103.832190807613,103.832190807613,239230,LEONIE HILL,RIVA LODGE,27874.4889672985,30999.9701674115
12 LENGKOK ANGSA PATERSON GARDEN SINGAPORE 239264,12,PATERSON GARDEN,1.30106746482149,103.830255224189,103.830255224189,239264,LENGKOK ANGSA,PATERSON GARDEN,27659.0762068443,31490.9484933503
14 LENGKOK ANGSA PATERSON GARDEN SINGAPORE 239266,14,PATERSON GARDEN,1.30112284649626,103.830268723159,103.830268723159,239266,LENGKOK ANGSA,PATERSON GARDEN,27660.5785279479,31497.0723118149
16 LENGKOK ANGSA PATERSON GARDEN SINGAPORE 239268,16,PATERSON GARDEN,1.3013005995971,103.830213166491,103.830213166491,239268,LENGKOK ANGSA,PATERSON GARDEN,27654.3955961093,31516.7273415979
18 LENGKOK ANGSA PATERSON GARDEN SINGAPORE 239270,18,PATERSON GARDEN,1.30129205755498,103.830269525815,103.830269525815,239270,LENGKOK ANGSA,PATERSON GARDEN,27660.6678790357,31515.7827988975
1 KIM YAM ROAD ATTITUDE AT KIM YAM SINGAPORE 239319,1,ATTITUDE AT KIM YAM,1.29551395924241,103.838907866844,103.838907866844,239319,KIM YAM ROAD,ATTITUDE AT KIM YAM,28622.0386698246,30876.8709435295
2 KIM YAM ROAD THE IVERIA SINGAPORE 239320,2,THE IVERIA,1.29528564475237,103.838567440302,103.838567440302,239320,KIM YAM ROAD,THE IVERIA,28584.1522346055,30851.6250236705
3 KIM YAM ROAD RIVER VALLEY CONSERVATION AREA SINGAPORE 239321,3,RIVER VALLEY CONSERVATION AREA,1.29531542987989,103.838963880189,103.838963880189,239321,KIM YAM ROAD,RIVER VALLEY CONSERVATION AREA,28628.2725124108,30854.9186040517
5 KIM YAM ROAD RIVER VALLEY CONSERVATION AREA SINGAPORE 239322,5,RIVER VALLEY CONSERVATION AREA,1.29526342566135,103.838908001466,103.838908001466,239322,KIM YAM ROAD,RIVER VALLEY CONSERVATION AREA,28622.0537130125,30849.1682319678
7 KIM YAM ROAD RIVER VALLEY CONSERVATION AREA SINGAPORE 239323,7,RIVER VALLEY CONSERVATION AREA,1.2952185776341,103.83897980469,103.83897980469,239323,KIM YAM ROAD,RIVER VALLEY CONSERVATION AREA,28630.0447936617,30844.2091860529
9 KIM YAM ROAD RIVER VALLEY CONSERVATION AREA SINGAPORE 239324,9,RIVER VALLEY CONSERVATION AREA,1.29517389348363,103.838968863472,103.838968863472,239324,KIM YAM ROAD,RIVER VALLEY CONSERVATION AREA,28628.8271429446,30839.2682403903
11 KIM YAM ROAD RIVER VALLEY CONSERVATION AREA SINGAPORE 239326,11,RIVER VALLEY CONSERVATION AREA,1.29512610851354,103.838945418383,103.838945418383,239326,KIM YAM ROAD,RIVER VALLEY CONSERVATION AREA,28626.2179216761,30833.9844190087
15 KIM YAM ROAD LANGSTON VILLE SINGAPORE 239328,15,LANGSTON VILLE,1.2949260365119,103.838947184938,103.838947184938,239328,KIM YAM ROAD,LANGSTON VILLE,28626.414572767,30811.861489173
17 KIM YAM ROAD THE SINGAPORE BUDDHIST LODGE SINGAPORE 239329,17,THE SINGAPORE BUDDHIST LODGE,1.29455151160685,103.839004266178,103.839004266178,239329,KIM YAM ROAD,THE SINGAPORE BUDDHIST LODGE,28632.767307993,30770.4484706353
19 KIM YAM ROAD THE SINGAPORE BUDDHIST LODGE SINGAPORE 239331,19,THE SINGAPORE BUDDHIST LODGE,1.29429090529275,103.839201677814,103.839201677814,239331,KIM YAM ROAD,THE SINGAPORE BUDDHIST LODGE,28654.7375661181,30741.6320183463
21 KIM YAM ROAD WATERFORD RESIDENCE SINGAPORE 239332,21,WATERFORD RESIDENCE,1.29379977411151,103.839422092697,103.839422092697,239332,KIM YAM ROAD,WATERFORD RESIDENCE,28679.2679508422,30687.3253230322
23 KIM YAM ROAD WATERFORD RESIDENCE SINGAPORE 239333,23,WATERFORD RESIDENCE,1.2940511158378,103.839827515576,103.839827515576,239333,KIM YAM ROAD,WATERFORD RESIDENCE,28724.3879196132,30715.1175067537
25 KIM YAM ROAD WATERFORD RESIDENCE SINGAPORE 239334,25,WATERFORD RESIDENCE,1.29416411458082,103.839452436264,103.839452436264,239334,KIM YAM ROAD,WATERFORD RESIDENCE,28682.6448287135,30727.6122212354
35 KIM YAM ROAD SINGAPORE 239343,35,NIL,1.29348599907921,103.839571451764,103.839571451764,239343,KIM YAM ROAD,35 KIM YAM ROAD SINGAPORE 239343,28695.8904010681,30652.6297386568
37 KIM YAM ROAD SINGAPORE 239344,37,NIL,1.29341618498989,103.839623424661,103.839623424661,239344,KIM YAM ROAD,37 KIM YAM ROAD SINGAPORE 239344,28701.6745522199,30644.9100710172
39 KIM YAM ROAD SINGAPORE 239345,39,NIL,1.29337047967483,103.839669521414,103.839669521414,239345,KIM YAM ROAD,39 KIM YAM ROAD SINGAPORE 239345,28706.8047333164,30639.8562257756
41 KIM YAM ROAD SINGAPORE 239346,41,NIL,1.29332453210868,103.839714251785,103.839714251785,239346,KIM YAM ROAD,41 KIM YAM ROAD SINGAPORE 239346,28711.7828480629,30634.7755933702
42 KIM YAM ROAD OLEANAS RESIDENCE SINGAPORE 239347,42,OLEANAS RESIDENCE,1.29344961581056,103.838888915765,103.838888915765,239347,KIM YAM ROAD,OLEANAS RESIDENCE,28619.9300810071,30648.6064879932
43 KIM YAM ROAD SINGAPORE 239348,43,NIL,1.29326374578017,103.839746856029,103.839746856029,239348,KIM YAM ROAD,43 KIM YAM ROAD SINGAPORE 239348,28715.4114344865,30628.0541638341
45 KIM YAM ROAD SINGAPORE 239350,45,NIL,1.29321691268484,103.839792177658,103.839792177658,239350,KIM YAM ROAD,45 KIM YAM ROAD SINGAPORE 239350,28720.4553518295,30622.8756144997
46 KIM YAM ROAD THE HERENCIA SINGAPORE 239351,46,THE HERENCIA,1.29229888140882,103.839362055139,103.839362055139,239351,KIM YAM ROAD,THE HERENCIA,28672.5866869204,30521.3643338401
47 KIM YAM ROAD SINGAPORE 239352,47,NIL,1.29318793706886,103.839852919256,103.839852919256,239352,KIM YAM ROAD,47 KIM YAM ROAD SINGAPORE 239352,28727.2153730448,30619.6716576181
49 KIM YAM ROAD SINGAPORE 239353,49,NIL,1.29314201549938,103.839899440819,103.839899440819,239353,KIM YAM ROAD,49 KIM YAM ROAD SINGAPORE 239353,28732.3928327309,30614.5939006694
51 KIM YAM ROAD SINGAPORE 239354,51,NIL,1.29309597321397,103.839945525051,103.839945525051,239354,KIM YAM ROAD,51 KIM YAM ROAD SINGAPORE 239354,28737.5216215001,30609.5027955417
53 KIM YAM ROAD SINGAPORE 239355,53,NIL,1.29304992490466,103.839991941086,103.839991941086,239355,KIM YAM ROAD,53 KIM YAM ROAD SINGAPORE 239355,28742.6873372095,30604.4110245164
55 KIM YAM ROAD SINGAPORE 239356,55,NIL,1.29298051889498,103.840061737292,103.840061737292,239356,KIM YAM ROAD,55 KIM YAM ROAD SINGAPORE 239356,28750.4550704071,30596.7364864405
57 KIM YAM ROAD SINGAPORE 239358,57,NIL,1.29298051889498,103.840061737564,103.840061737564,239358,KIM YAM ROAD,57 KIM YAM ROAD SINGAPORE 239358,28750.4551006751,30596.7364864405
58 KIM YAM ROAD THE HERENCIA SINGAPORE 239359,58,THE HERENCIA,1.29299279368578,103.839724610049,103.839724610049,239359,KIM YAM ROAD,THE HERENCIA,28712.9357252941,30598.0936725624
59 KIM YAM ROAD SINGAPORE 239360,59,NIL,1.29289258930651,103.840155397785,103.840155397785,239360,KIM YAM ROAD,59 KIM YAM ROAD SINGAPORE 239360,28760.8786981031,30587.0137139075
60 KIM YAM ROAD GAMBIER COURT SINGAPORE 239361,60,GAMBIER COURT,1.29285140857469,103.83976315039,103.83976315039,239361,KIM YAM ROAD,GAMBIER COURT,28717.2249709992,30582.460047096
61 KIM YAM ROAD SINGAPORE 239362,61,NIL,1.29289258930651,103.840155397785,103.840155397785,239362,KIM YAM ROAD,61 KIM YAM ROAD SINGAPORE 239362,28760.8786981031,30587.0137139075
62 KIM YAM ROAD GAMBIER COURT SINGAPORE 239363,62,GAMBIER COURT,1.29282308778131,103.839803419387,103.839803419387,239363,KIM YAM ROAD,GAMBIER COURT,28721.7065697396,30579.3284912333
63 KIM YAM ROAD SINGAPORE 239364,63,NIL,1.29283188875142,103.840251349427,103.840251349427,239364,KIM YAM ROAD,63 KIM YAM ROAD SINGAPORE 239364,28771.5573032945,30580.3017885182
64 KIM YAM ROAD GAMBIER COURT SINGAPORE 239365,64,GAMBIER COURT,1.29278818043485,103.839839372736,103.839839372736,239365,KIM YAM ROAD,GAMBIER COURT,28725.7078761151,30575.4686271455
65 KIM YAM ROAD SINGAPORE 239366,65,NIL,1.29280187765259,103.8402902999,103.8402902999,239366,KIM YAM ROAD,65 KIM YAM ROAD SINGAPORE 239366,28775.8921628511,30576.9833278544
67 KIM YAM ROAD SINGAPORE 239367,67,NIL,1.29276957157883,103.840328115432,103.840328115432,239367,KIM YAM ROAD,67 KIM YAM ROAD SINGAPORE 239367,28780.1007141108,30573.4111004174
69 KIM YAM ROAD SINGAPORE 239368,69,NIL,1.29273869849394,103.840366940522,103.840366940522,239368,KIM YAM ROAD,69 KIM YAM ROAD SINGAPORE 239368,28784.4216201268,30569.997325873
71 KIM YAM ROAD SINGAPORE 239369,71,NIL,1.29270733077364,103.840405502886,103.840405502886,239369,KIM YAM ROAD,71 KIM YAM ROAD SINGAPORE 239369,28788.7132872697,30566.5288570821
73 KIM YAM ROAD SINGAPORE 239370,73,NIL,1.29267649436737,103.840444474023,103.840444474023,239370,KIM YAM ROAD,73 KIM YAM ROAD SINGAPORE 239370,28793.050447192,30563.1191384494
75 KIM YAM ROAD SINGAPORE 239371,75,NIL,1.29264507846895,103.840483010276,103.840483010276,239371,KIM YAM ROAD,75 KIM YAM ROAD SINGAPORE 239371,28797.3392086094,30559.6453424934
77 KIM YAM ROAD SINGAPORE 239372,77,NIL,1.29261374277353,103.840521616425,103.840521616425,239372,KIM YAM ROAD,77 KIM YAM ROAD SINGAPORE 239372,28801.6357488977,30556.1804150585
79 KIM YAM ROAD SINGAPORE 239374,79,NIL,1.29257698115408,103.840555963769,103.840555963769,239374,KIM YAM ROAD,79 KIM YAM ROAD SINGAPORE 239374,28805.4583228296,30552.1155156493
80 KIM YAM ROAD PARK AVENUE ROBERTSON SINGAPORE 239375,80,PARK AVENUE ROBERTSON,1.29222729808911,103.840397732174,103.840397732174,239375,KIM YAM ROAD,PARK AVENUE ROBERTSON,28787.8486217791,30513.4493166339
81 KIM YAM ROAD SINGAPORE 239376,81,NIL,1.29255135250728,103.840597922514,103.840597922514,239376,KIM YAM ROAD,81 KIM YAM ROAD SINGAPORE 239376,28810.1279765535,30549.2816454042
83 KIM YAM ROAD SINGAPORE 239378,83,NIL,1.29251906093591,103.840636020344,103.840636020344,239378,KIM YAM ROAD,83 KIM YAM ROAD SINGAPORE 239378,28814.3679459803,30545.7110221703
66 KIM YAM ROAD GAMBIER COURT SINGAPORE 239381,66,GAMBIER COURT,1.29269059280575,103.839691417176,103.839691417176,239381,KIM YAM ROAD,GAMBIER COURT,28709.2417297577,30564.6778488066
1 KIM SENG WALK TIARA SINGAPORE 239403,1,TIARA,1.29523854569476,103.831012386123,103.831012386123,239403,KIM SENG WALK,TIARA,27743.3409114536,30846.4165695682
2 KIM SENG WALK GREAT WORLD SERVICED APARTMENTS SINGAPORE 239404,2,GREAT WORLD SERVICED APARTMENTS,1.29438876572241,103.831388702094,103.831388702094,239404,KIM SENG WALK,GREAT WORLD SERVICED APARTMENTS,27785.221509804,30752.4522474334
80 KIM SENG ROAD MIRAGE TOWER SINGAPORE 239426,80,MIRAGE TOWER,1.29198111835787,103.834261909893,103.834261909893,239426,KIM SENG ROAD,MIRAGE TOWER,28104.9845667183,30486.2269579731
100 KIM SENG ROAD CENTENNIA SUITES SINGAPORE 239427,100,CENTENNIA SUITES,1.29293391960903,103.833590038162,103.833590038162,239427,KIM SENG ROAD,CENTENNIA SUITES,28030.211024031,30591.5827871207
112 KIM SENG ROAD THE TRILLIUM SINGAPORE 239432,112,THE TRILLIUM,1.29369535258683,103.833117155291,103.833117155291,239432,KIM SENG ROAD,THE TRILLIUM,27977.5832635062,30675.7781175114
114 KIM SENG ROAD THE TRILLIUM SINGAPORE 239433,114,THE TRILLIUM,1.29406390614941,103.833044599971,103.833044599971,239433,KIM SENG ROAD,THE TRILLIUM,27969.5084918821,30716.5308702532
116 KIM SENG ROAD THE TRILLIUM SINGAPORE 239434,116,THE TRILLIUM,1.29427155750165,103.832795156446,103.832795156446,239434,KIM SENG ROAD,THE TRILLIUM,27941.7476052567,30739.4918902889
118 KIM SENG ROAD THE TRILLIUM SINGAPORE 239435,118,THE TRILLIUM,1.29474727585558,103.832623925917,103.832623925917,239435,KIM SENG ROAD,THE TRILLIUM,27922.6911551198,30792.0943770483
200 KIM SENG ROAD THE COSMOPOLITAN SINGAPORE 239471,200,THE COSMOPOLITAN,1.29578197832221,103.832416192541,103.832416192541,239471,KIM SENG ROAD,THE COSMOPOLITAN,27899.5722875483,30906.5064474586
202 KIM SENG ROAD THE COSMOPOLITAN SINGAPORE 239496,202,THE COSMOPOLITAN,1.29565131891975,103.832236848932,103.832236848932,239496,KIM SENG ROAD,THE COSMOPOLITAN,27879.6129131895,30892.0588124003
60 KIM SENG ROAD TRIBECA SINGAPORE 239497,60,TRIBECA,1.29106611229714,103.834498891605,103.834498891605,239497,KIM SENG ROAD,TRIBECA,28131.3586348668,30385.050320141
51A KIM SENG ROAD TEMPORARY SITE OFFICE SINGAPORE 239498,51A,TEMPORARY SITE OFFICE,1.29088439866203,103.833957058321,103.833957058321,239498,KIM SENG ROAD,TEMPORARY SITE OFFICE,28071.0572443055,30364.9573429022
1 KILLINEY ROAD KILLINEY ROAD POST OFFICE SINGAPORE 239518,1,KILLINEY ROAD POST OFFICE,1.3002154299416,103.840791374009,103.840791374009,239518,KILLINEY ROAD,KILLINEY ROAD POST OFFICE,28831.6549600568,31396.7358829435
3 KILLINEY ROAD EMBASSY OF PORTUGAL SINGAPORE 239519,3,EMBASSY OF PORTUGAL,1.29952903435202,103.84011256917,103.84011256917,239519,KILLINEY ROAD,EMBASSY OF PORTUGAL,28756.1102799485,31320.837581981
57 KILLINEY ROAD SINGAPORE 239520,57,NIL,1.29898962373654,103.839604346024,103.839604346024,239520,KILLINEY ROAD,57 KILLINEY ROAD SINGAPORE 239520,28699.5497397631,31261.1921894308
59 KILLINEY ROAD SINGAPORE 239521,59,NIL,1.29895423669617,103.839577904611,103.839577904611,239521,KILLINEY ROAD,59 KILLINEY ROAD SINGAPORE 239521,28696.6070561185,31257.2792655677
61 KILLINEY ROAD SINGAPORE 239522,61,NIL,1.29892034341773,103.839550952711,103.839550952711,239522,KILLINEY ROAD,61 KILLINEY ROAD SINGAPORE 239522,28693.6075594677,31253.5315140933
63 KILLINEY ROAD SINGAPORE 239523,63,NIL,1.2988865065268,103.839524477579,103.839524477579,239523,KILLINEY ROAD,63 KILLINEY ROAD SINGAPORE 239523,28690.6611225931,31249.7899978217
65 KILLINEY ROAD SINGAPORE 239524,65,NIL,1.29885077622939,103.839495995294,103.839495995294,239524,KILLINEY ROAD,65 KILLINEY ROAD SINGAPORE 239524,28687.4913079981,31245.839117907
67 KILLINEY ROAD SINGAPORE 239525,67,NIL,1.29881671350692,103.839470015966,103.839470015966,239525,KILLINEY ROAD,67 KILLINEY ROAD SINGAPORE 239525,28684.6000496577,31242.0726305489
69 KILLINEY ROAD SINGAPORE 239526,69,NIL,1.29878417958207,103.839444387757,103.839444387757,239526,KILLINEY ROAD,69 KILLINEY ROAD SINGAPORE 239526,28681.7478672843,31238.4751898795
71 KILLINEY ROAD SINGAPORE 239527,71,NIL,1.29875041249473,103.839416740703,103.839416740703,239527,KILLINEY ROAD,71 KILLINEY ROAD SINGAPORE 239527,28678.6710056672,31234.7413919456
73 KILLINEY ROAD SINGAPORE 239528,73,NIL,1.29871513823411,103.839388710983,103.839388710983,239528,KILLINEY ROAD,73 KILLINEY ROAD SINGAPORE 239528,28675.551556997,31230.8409384917
75 KILLINEY ROAD SINGAPORE 239529,75,NIL,1.29867826156437,103.839350612337,103.839350612337,239529,KILLINEY ROAD,75 KILLINEY ROAD SINGAPORE 239529,28671.3115270343,31226.7632962614
83 KILLINEY ROAD SINGAPORE 239531,83,NIL,1.2985273328805,103.839225084171,103.839225084171,239531,KILLINEY ROAD,83 KILLINEY ROAD SINGAPORE 239531,28657.3413996855,31210.0743472744
85 KILLINEY ROAD SINGAPORE 239532,85,NIL,1.29849387373943,103.839197795854,103.839197795854,239532,KILLINEY ROAD,85 KILLINEY ROAD SINGAPORE 239532,28654.3044615388,31206.3746008202
87 KILLINEY ROAD SINGAPORE 239533,87,NIL,1.29845997689267,103.839173212018,103.839173212018,239533,KILLINEY ROAD,87 KILLINEY ROAD SINGAPORE 239533,28651.5685082227,31202.6264558602
89 KILLINEY ROAD SINGAPORE 239534,89,NIL,1.29842633325052,103.839147844091,103.839147844091,239534,KILLINEY ROAD,89 KILLINEY ROAD SINGAPORE 239534,28648.7452923097,31198.9063087869
91 KILLINEY ROAD SINGAPORE 239535,91,NIL,1.29839414067286,103.839119808674,103.839119808674,239535,KILLINEY ROAD,91 KILLINEY ROAD SINGAPORE 239535,28645.6252080118,31195.3466122933
93 KILLINEY ROAD SINGAPORE 239536,93,NIL,1.29836970762358,103.83908322984,103.83908322984,239536,KILLINEY ROAD,93 KILLINEY ROAD SINGAPORE 239536,28641.5543155419,31192.6449223347
95 KILLINEY ROAD SINGAPORE 239537,95,NIL,1.2983389797829,103.839058483376,103.839058483376,239537,KILLINEY ROAD,95 KILLINEY ROAD SINGAPORE 239537,28638.8002619715,31189.2471898217
97 KILLINEY ROAD SINGAPORE 239538,97,NIL,1.29831136483289,103.839034049687,103.839034049687,239538,KILLINEY ROAD,97 KILLINEY ROAD SINGAPORE 239538,28636.0810165824,31186.1936648209
99 KILLINEY ROAD SINGAPORE 239539,99,NIL,1.29827763496627,103.83900740377,103.83900740377,239539,KILLINEY ROAD,99 KILLINEY ROAD SINGAPORE 239539,28633.1155714141,31182.4639833309
99A KILLINEY ROAD SINGAPORE 239540,99A,NIL,1.29827206360133,103.839160777877,103.839160777877,239540,KILLINEY ROAD,99A KILLINEY ROAD SINGAPORE 239540,28650.1847468112,31181.8479693271
99B KILLINEY ROAD SINGAPORE 239541,99B,NIL,1.29824810695597,103.839195690774,103.839195690774,239541,KILLINEY ROAD,99B KILLINEY ROAD SINGAPORE 239541,28654.0702478811,31179.1989759281
99C KILLINEY ROAD SINGAPORE 239542,99C,NIL,1.29822397786172,103.839229169837,103.839229169837,239542,KILLINEY ROAD,99C KILLINEY ROAD SINGAPORE 239542,28657.7961761411,31176.5309136994
99D KILLINEY ROAD SINGAPORE 239543,99D,NIL,1.29819872700883,103.83926281072,103.83926281072,239543,KILLINEY ROAD,99D KILLINEY ROAD SINGAPORE 239543,28661.5401138505,31173.7388132736
101 KILLINEY ROAD SINGAPORE 239544,101,NIL,1.2981857037597,103.838961499439,103.838961499439,239544,KILLINEY ROAD,101 KILLINEY ROAD SINGAPORE 239544,28628.0068503181,31172.2986928765
105 KILLINEY ROAD SINGAPORE 239546,105,NIL,1.29811022775759,103.83890649227,103.83890649227,239546,KILLINEY ROAD,105 KILLINEY ROAD SINGAPORE 239546,28621.8850598075,31163.9529319927
107 KILLINEY ROAD SINGAPORE 239547,107,NIL,1.29807288707982,103.838878850662,103.838878850662,239547,KILLINEY ROAD,107 KILLINEY ROAD SINGAPORE 239547,28618.80880355,31159.8239855301
109 KILLINEY ROAD SINGAPORE 239548,109,NIL,1.29803598382746,103.838851026835,103.838851026835,239548,KILLINEY ROAD,109 KILLINEY ROAD SINGAPORE 239548,28615.7122677434,31155.7434073053
110 KILLINEY ROAD JEWEL @ KILLINEY ORCHARD SINGAPORE 239549,110,JEWEL @ KILLINEY ORCHARD,1.29818973309181,103.838457981369,103.838457981369,239549,KILLINEY ROAD,JEWEL @ KILLINEY ORCHARD,28571.9697646433,31172.7441165242
111 KILLINEY ROAD SINGAPORE 239550,111,NIL,1.29796269385759,103.838794616306,103.838794616306,239550,KILLINEY ROAD,111 KILLINEY ROAD SINGAPORE 239550,28609.4342944371,31147.6393665411
115 KILLINEY ROAD SINGAPORE 239553,115,NIL,1.29792779050696,103.838762410213,103.838762410213,239553,KILLINEY ROAD,115 KILLINEY ROAD SINGAPORE 239553,28605.8500506096,31143.7799262051
117 KILLINEY ROAD SINGAPORE 239554,117,NIL,1.29786427743216,103.838717319695,103.838717319695,239554,KILLINEY ROAD,117 KILLINEY ROAD SINGAPORE 239554,28600.8318913206,31136.7569670156
118 KILLINEY ROAD KILLINEY 118 SINGAPORE 239555,118,KILLINEY 118,1.29796800700412,103.838408057882,103.838408057882,239555,KILLINEY ROAD,KILLINEY 118,28566.4137735525,31148.2267773021
132 KILLINEY ROAD SPC KILLINEY SINGAPORE 239562,132,SPC KILLINEY,1.29765062534096,103.838142836913,103.838142836913,239562,KILLINEY ROAD,SPC KILLINEY,28536.8971017264,31113.132291168
145 KILLINEY ROAD THE BOUTIQ SINGAPORE 239565,145,THE BOUTIQ,1.29661070295127,103.838583743882,103.838583743882,239565,KILLINEY ROAD,THE BOUTIQ,28585.9663764779,30998.143131379
147 KILLINEY ROAD RESIDENCES @ KILLINEY SINGAPORE 239566,147,RESIDENCES @ KILLINEY,1.29671864134885,103.838173259745,103.838173259745,239566,KILLINEY ROAD,RESIDENCES @ KILLINEY,28540.2830902608,31010.0783119146
160 KILLINEY ROAD LA CRYSTAL SINGAPORE 239568,160,LA CRYSTAL,1.29617714762777,103.836877654727,103.836877654727,239568,KILLINEY ROAD,LA CRYSTAL,28396.093770952,30950.2024892047
161 KILLINEY ROAD CLAREMONT SINGAPORE 239569,161,CLAREMONT,1.29612371629415,103.837596960133,103.837596960133,239569,KILLINEY ROAD,CLAREMONT,28476.1461408036,30944.2944511957
131 KILLINEY ROAD CGH BUILDING SINGAPORE 239571,131,CGH BUILDING,1.2972753144529,103.838533925029,103.838533925029,239571,KILLINEY ROAD,CGH BUILDING,28580.4218266848,31071.6324337851
51 KILLINEY ROAD ORCHARD NEIGHBOURHOOD POLICE CENTRE SINGAPORE 239572,51,ORCHARD NEIGHBOURHOOD POLICE CENTRE,1.29897844225137,103.839835303521,103.839835303521,239572,KILLINEY ROAD,ORCHARD NEIGHBOURHOOD POLICE CENTRE,28725.2532510003,31259.9558633678
143 KILLINEY ROAD THE BOUTIQ SINGAPORE 239573,143,THE BOUTIQ,1.29660443035383,103.838842474051,103.838842474051,239573,KILLINEY ROAD,THE BOUTIQ,28614.7607634077,30997.4496010691
2 IRWELL HILL IRWELL HILL RESIDENCES SINGAPORE 239588,2,IRWELL HILL RESIDENCES,1.29725907299061,103.831023686317,103.831023686317,239588,IRWELL HILL,IRWELL HILL RESIDENCES,27744.5987277851,31069.8360592201
4 IRWELL HILL IRWELL HILL RESIDENCES SINGAPORE 239589,4,IRWELL HILL RESIDENCES,1.29719576411521,103.831464012575,103.831464012575,239589,IRWELL HILL,IRWELL HILL RESIDENCES,27793.6031382466,31062.8356496785
6 IRWELL HILL IRWELL HILL RESIDENCES SINGAPORE 239590,6,IRWELL HILL RESIDENCES,1.29666872281334,103.831612635106,103.831612635106,239590,IRWELL HILL,IRWELL HILL RESIDENCES,27810.1434714329,31004.5581278484
94 SOMERSET ROAD LIVE!@313 SINGAPORE 239611,94,LIVE!@313,1.30097867059666,103.837310836234,103.837310836234,239611,SOMERSET ROAD,LIVE!@313,28444.3022242459,31481.1302253269
1 JALAN RUMBIA THE IMPERIAL SINGAPORE 239616,1,THE IMPERIAL,1.29530425710738,103.842749479779,103.842749479779,239616,JALAN RUMBIA,THE IMPERIAL,29049.5765731456,30853.6844270155
3 JALAN RUMBIA THE IMPERIAL SINGAPORE 239617,3,THE IMPERIAL,1.29521979271716,103.842740854725,103.842740854725,239617,JALAN RUMBIA,THE IMPERIAL,29048.6167148463,30844.3447866198
5 JALAN RUMBIA THE IMPERIAL SINGAPORE 239618,5,THE IMPERIAL,1.29485782539669,103.842380483509,103.842380483509,239618,JALAN RUMBIA,THE IMPERIAL,29008.5106981136,30804.3201604951
7 JALAN RUMBIA THE IMPERIAL SINGAPORE 239619,7,THE IMPERIAL,1.29458988601159,103.842365081664,103.842365081664,239619,JALAN RUMBIA,THE IMPERIAL,29006.7967129992,30774.6927986536
9 JALAN RUMBIA THE IMPERIAL SINGAPORE 239620,9,THE IMPERIAL,1.29458988601159,103.842365081664,103.842365081664,239620,JALAN RUMBIA,THE IMPERIAL,29006.7967129992,30774.6927986536
11 JALAN RUMBIA THE IMPERIAL SINGAPORE 239621,11,THE IMPERIAL,1.29474541840285,103.84272884954,103.84272884954,239621,JALAN RUMBIA,THE IMPERIAL,29047.280837385,30791.8909156602
1 JALAN KUALA THE MORNINGSIDE SINGAPORE 239639,1,THE MORNINGSIDE,1.29538639198638,103.835849138309,103.835849138309,239639,JALAN KUALA,THE MORNINGSIDE,28281.6290342482,30862.7646707911
10A INSTITUTION HILL SINGAPORE 239664,10A,NIL,1.29530879925749,103.839428986137,103.839428986137,239664,INSTITUTION HILL,10A INSTITUTION HILL SINGAPORE 239664,28680.0347296735,30854.1855437532
10B INSTITUTION HILL SINGAPORE 239665,10B,NIL,1.29534387868515,103.839542547423,103.839542547423,239665,INSTITUTION HILL,10B INSTITUTION HILL SINGAPORE 239665,28692.6730960067,30858.0644766707
11 INSTITUTION HILL INSTITUTION VILLE SINGAPORE 239666,11,INSTITUTION VILLE,1.29533743573279,103.839691824923,103.839691824923,239666,INSTITUTION HILL,INSTITUTION VILLE,28709.2863750337,30857.3520894069
15 INSTITUTION HILL ASPEN LINQ SINGAPORE 239669,15,ASPEN LINQ,1.2953415799343,103.839844385683,103.839844385683,239669,INSTITUTION HILL,ASPEN LINQ,28726.2650491595,30857.8103769477
17 INSTITUTION HILL PINE RESIDENCES SINGAPORE 239670,17,PINE RESIDENCES,1.29535258986575,103.839904928079,103.839904928079,239670,INSTITUTION HILL,PINE RESIDENCES,28733.0028839428,30859.027815789
19 INSTITUTION HILL SINGAPORE 239671,19,NIL,1.29538037416662,103.839960647385,103.839960647385,239671,INSTITUTION HILL,19 INSTITUTION HILL SINGAPORE 239671,28739.2039463036,30862.1000766717
1 GRANGE ROAD ORCHARD BUILDING SINGAPORE 239693,1,ORCHARD BUILDING,1.30140332186037,103.837328123415,103.837328123415,239693,GRANGE ROAD,ORCHARD BUILDING,28446.226057291,31528.0859775804
7 GRANGE ROAD SINGAPORE 239694,7,NIL,1.29972993349419,103.835588138963,103.835588138963,239694,GRANGE ROAD,7 GRANGE ROAD SINGAPORE 239694,28252.5816675108,31343.0510736238
8 GRANGE ROAD CATHAY CINELEISURE ORCHARD SINGAPORE 239695,8,CATHAY CINELEISURE ORCHARD,1.30153093362853,103.836421018025,103.836421018025,239695,GRANGE ROAD,CATHAY CINELEISURE ORCHARD,28345.2734025391,31542.1964878365
25 GRANGE ROAD SINGAPORE 239699,25,NIL,1.29889331585189,103.835393389335,103.835393389335,239699,GRANGE ROAD,25 GRANGE ROAD SINGAPORE 239699,28230.9078540178,31250.542187484
27 GRANGE ROAD GRANGE INFINITE SINGAPORE 239700,27,GRANGE INFINITE,1.29942281142325,103.834776774582,103.834776774582,239700,GRANGE ROAD,GRANGE INFINITE,28162.284099726,31309.0910315197
31 GRANGE ROAD HIGH COMMISSION OF INDIA SINGAPORE 239702,31,HIGH COMMISSION OF INDIA,1.29939916060231,103.834223766974,103.834223766974,239702,GRANGE ROAD,HIGH COMMISSION OF INDIA,28100.7393003944,31306.4758171905
39 GRANGE ROAD SINGAPORE 239703,39,NIL,1.29958675805314,103.83189436125,103.83189436125,239703,GRANGE ROAD,39 GRANGE ROAD SINGAPORE 239703,27841.497288798,31327.2194047403
41 GRANGE ROAD SINGAPORE 239704,41,NIL,1.29942800917592,103.83162962683,103.83162962683,239704,GRANGE ROAD,41 GRANGE ROAD SINGAPORE 239704,27812.0347058596,31309.6657902636
43 GRANGE ROAD SINGAPORE 239705,43,NIL,1.29948776973855,103.831261585568,103.831261585568,239705,GRANGE ROAD,43 GRANGE ROAD SINGAPORE 239705,27771.0750109144,31316.2738359328
45 GRANGE ROAD SINGAPORE 239706,45,NIL,1.29948013672968,103.830990775489,103.830990775489,239706,GRANGE ROAD,45 GRANGE ROAD SINGAPORE 239706,27740.9362714868,31315.4298434742
23 GRANGE ROAD SINGAPORE 239710,23,NIL,1.29938593452119,103.835686863457,103.835686863457,239710,GRANGE ROAD,23 GRANGE ROAD SINGAPORE 239710,28263.5688547958,31305.0134498253
30A GRANGE ROAD TEMPORARY SITE OFFICE SINGAPORE 239711,30A,TEMPORARY SITE OFFICE,1.30016190760832,103.833171009446,103.833171009446,239711,GRANGE ROAD,TEMPORARY SITE OFFICE,27983.57680857,31390.8164339047
20A GRANGE ROAD TEMPORARY SITE OFFICE SINGAPORE 239712,20A,TEMPORARY SITE OFFICE,1.30026713094357,103.834281336571,103.834281336571,239712,GRANGE ROAD,TEMPORARY SITE OFFICE,28107.1462455802,31402.4515073802
31 EXETER ROAD COMCENTRE SINGAPORE 239732,31,COMCENTRE,1.29897550181998,103.838406398962,103.838406398962,239732,EXETER ROAD,COMCENTRE,28566.2289269753,31259.6303614713
31B EXETER ROAD COMCENTRE SINGAPORE 239733,31B,COMCENTRE,1.29897550209371,103.83840639869,103.83840639869,239733,EXETER ROAD,COMCENTRE,28566.2288967073,31259.6303917393
31C EXETER ROAD CITIBANK SINGTEL COMCENTRE SINGAPORE 239734,31C,CITIBANK SINGTEL COMCENTRE,1.29859523339043,103.83823047574,103.83823047574,239734,EXETER ROAD,CITIBANK SINGTEL COMCENTRE,28546.650323852,31217.5821995642
1 EBER ROAD EBER GARDENS SINGAPORE 239756,1,EBER GARDENS,1.29874865744547,103.840315207211,103.840315207211,239756,EBER ROAD,EBER GARDENS,28778.6623189887,31234.5475860443
3 EBER ROAD EBER GARDENS SINGAPORE 239757,3,EBER GARDENS,1.29874865744547,103.840315206939,103.840315206939,239757,EBER ROAD,EBER GARDENS,28778.6622887207,31234.5475860443
5 EBER ROAD EBER GARDENS SINGAPORE 239758,5,EBER GARDENS,1.29874865744547,103.840315206939,103.840315206939,239758,EBER ROAD,EBER GARDENS,28778.6622887207,31234.5475860443
7 EBER ROAD EBER GARDENS SINGAPORE 239759,7,EBER GARDENS,1.29874865744547,103.840315206939,103.840315206939,239759,EBER ROAD,EBER GARDENS,28778.6622887207,31234.5475860443
9 EBER ROAD EBER GARDENS SINGAPORE 239760,9,EBER GARDENS,1.29874865744547,103.840315206939,103.840315206939,239760,EBER ROAD,EBER GARDENS,28778.6622887207,31234.5475860443
11 EBER ROAD EBER GARDENS SINGAPORE 239761,11,EBER GARDENS,1.29874865744547,103.840315206939,103.840315206939,239761,EBER ROAD,EBER GARDENS,28778.6622887207,31234.5475860443
13 EBER ROAD EBER GARDENS SINGAPORE 239762,13,EBER GARDENS,1.29874865744547,103.840315206939,103.840315206939,239762,EBER ROAD,EBER GARDENS,28778.6622887207,31234.5475860443
15 EBER ROAD EBER GARDENS SINGAPORE 239763,15,EBER GARDENS,1.29874865744547,103.840315206939,103.840315206939,239763,EBER ROAD,EBER GARDENS,28778.6622887207,31234.5475860443
2 DUBLIN ROAD SINGAPORE 239786,2,NIL,1.29842885147983,103.839313128121,103.839313128121,239786,DUBLIN ROAD,2 DUBLIN ROAD SINGAPORE 239786,28667.1399329826,31199.1848045047
5 DUBLIN ROAD SINGAPORE 239788,5,NIL,1.29856677078123,103.839637604896,103.839637604896,239788,DUBLIN ROAD,5 DUBLIN ROAD SINGAPORE 239788,28703.2512720283,31214.4352978319
5A DUBLIN ROAD SINGAPORE 239789,5A,NIL,1.29861538514398,103.839665147007,103.839665147007,239789,DUBLIN ROAD,5A DUBLIN ROAD SINGAPORE 239789,28706.3164502028,31219.8108312041
5B DUBLIN ROAD SINGAPORE 239790,5B,NIL,1.29866950837457,103.839695977538,103.839695977538,239790,DUBLIN ROAD,5B DUBLIN ROAD SINGAPORE 239790,28709.7475985698,31225.7955077495
6 DUBLIN ROAD SINGAPORE 239791,6,NIL,1.29838382749971,103.839356522393,103.839356522393,239791,DUBLIN ROAD,6 DUBLIN ROAD SINGAPORE 239791,28671.9693411244,31194.2062962744
7 DUBLIN ROAD SINGAPORE 239792,7,NIL,1.2987172123002,103.839723711933,103.839723711933,239792,DUBLIN ROAD,7 DUBLIN ROAD SINGAPORE 239792,28712.8341762088,31231.070369808
7A DUBLIN ROAD SINGAPORE 239793,7A,NIL,1.298772920997,103.839752386553,103.839752386553,239793,DUBLIN ROAD,7A DUBLIN ROAD SINGAPORE 239793,28716.0253902683,31237.2303585131
7B DUBLIN ROAD SINGAPORE 239794,7B,NIL,1.29881965915327,103.839795177281,103.839795177281,239794,DUBLIN ROAD,7B DUBLIN ROAD SINGAPORE 239794,28720.7876034863,31242.3984351251
8 DUBLIN ROAD SINGAPORE 239795,8,NIL,1.29837316877676,103.839401253757,103.839401253757,239795,DUBLIN ROAD,8 DUBLIN ROAD SINGAPORE 239795,28676.9475466739,31193.0277215242
9 DUBLIN ROAD SINGAPORE 239796,9,NIL,1.2986543836209,103.840081379888,103.840081379888,239796,DUBLIN ROAD,9 DUBLIN ROAD SINGAPORE 239796,28752.6394502558,31224.1232016496
9A DUBLIN ROAD SINGAPORE 239797,9A,NIL,1.29860442523536,103.840053243236,103.840053243236,239797,DUBLIN ROAD,9A DUBLIN ROAD SINGAPORE 239797,28749.508106268,31218.5990524758
9B DUBLIN ROAD SINGAPORE 239798,9B,NIL,1.29855114976047,103.840022331925,103.840022331925,239798,DUBLIN ROAD,9B DUBLIN ROAD SINGAPORE 239798,28746.0679683108,31212.7081158776
11 DUBLIN ROAD SINGAPORE 239799,11,NIL,1.29850269088254,103.839994579575,103.839994579575,239799,DUBLIN ROAD,11 DUBLIN ROAD SINGAPORE 239799,28742.979392984,31207.3497747201
11A DUBLIN ROAD SINGAPORE 239800,11A,NIL,1.2984491942294,103.839964129801,103.839964129801,239800,DUBLIN ROAD,11A DUBLIN ROAD SINGAPORE 239800,28739.590619795,31201.4343815912
11B DUBLIN ROAD SINGAPORE 239801,11B,NIL,1.2983958002208,103.839935558535,103.839935558535,239801,DUBLIN ROAD,11B DUBLIN ROAD SINGAPORE 239801,28736.4109075703,31195.5303389542
13 DUBLIN ROAD DUBLIN ROAD FLATS SINGAPORE 239802,13,DUBLIN ROAD FLATS,1.29835870412523,103.840267883954,103.840267883954,239802,DUBLIN ROAD,DUBLIN ROAD FLATS,28773.3957806258,31191.4285428729
14 DUBLIN ROAD SINGAPORE 239803,14,NIL,1.29816295364733,103.839385074773,103.839385074773,239803,DUBLIN ROAD,14 DUBLIN ROAD SINGAPORE 239803,28675.1470253952,31169.7832115535
15 DUBLIN ROAD DUBLIN ROAD FLATS SINGAPORE 239804,15,DUBLIN ROAD FLATS,1.29825045669159,103.84026619091,103.84026619091,239804,DUBLIN ROAD,DUBLIN ROAD FLATS,28773.2073926954,31179.4590989798
16 DUBLIN ROAD SINGAPORE 239805,16,NIL,1.29811648124509,103.839469364266,103.839469364266,239805,DUBLIN ROAD,16 DUBLIN ROAD SINGAPORE 239805,28684.5277091768,31164.6445554215
17 DUBLIN ROAD DUBLIN ROAD FLATS SINGAPORE 239806,17,DUBLIN ROAD FLATS,1.29825045669159,103.84026619091,103.84026619091,239806,DUBLIN ROAD,DUBLIN ROAD FLATS,28773.2073926954,31179.4590989798
18 DUBLIN ROAD SINGAPORE 239807,18,NIL,1.29817034980878,103.839649789043,103.839649789043,239807,DUBLIN ROAD,18 DUBLIN ROAD SINGAPORE 239807,28704.6073685028,31170.6011130083
19 DUBLIN ROAD DUBLIN ROAD FLATS SINGAPORE 239808,19,DUBLIN ROAD FLATS,1.29825045669159,103.84026619091,103.84026619091,239808,DUBLIN ROAD,DUBLIN ROAD FLATS,28773.2073926954,31179.4590989798
20 DUBLIN ROAD SINGAPORE 239809,20,NIL,1.29814197070886,103.839691642901,103.839691642901,239809,DUBLIN ROAD,20 DUBLIN ROAD SINGAPORE 239809,28709.265338785,31167.4631100651
22 DUBLIN ROAD SINGAPORE 239810,22,NIL,1.29812204061902,103.839745962038,103.839745962038,239810,DUBLIN ROAD,22 DUBLIN ROAD SINGAPORE 239810,28715.3105815649,31165.259358706
24 DUBLIN ROAD SINGAPORE 239811,24,NIL,1.29810478711673,103.83978958428,103.83978958428,239811,DUBLIN ROAD,24 DUBLIN ROAD SINGAPORE 239811,28720.165354277,31163.3515676931
26 DUBLIN ROAD SINGAPORE 239812,26,NIL,1.29807510775398,103.839842556862,103.839842556862,239812,DUBLIN ROAD,26 DUBLIN ROAD SINGAPORE 239812,28726.0607402697,31160.0697918274
28 DUBLIN ROAD DUBLIN LODGE SINGAPORE 239813,28,DUBLIN LODGE,1.29786642836796,103.839893726083,103.839893726083,239813,DUBLIN ROAD,DUBLIN LODGE,28731.7554797987,31136.9951155111
30 DUBLIN ROAD DUBLIN LODGE SINGAPORE 239814,30,DUBLIN LODGE,1.29785298247731,103.839941815457,103.839941815457,239814,DUBLIN ROAD,DUBLIN LODGE,28737.1074041436,31135.5083521511
32 DUBLIN ROAD DUBLIN LODGE SINGAPORE 239815,32,DUBLIN LODGE,1.29788257640788,103.840004136381,103.840004136381,239815,DUBLIN ROAD,DUBLIN LODGE,28744.0431612721,31138.7807146758
34 DUBLIN ROAD DUBLIN LODGE SINGAPORE 239816,34,DUBLIN LODGE,1.29786863532738,103.840053993838,103.840053993838,239816,DUBLIN ROAD,DUBLIN LODGE,28749.5918577788,31137.2391965315
36 DUBLIN ROAD DUBLIN LODGE SINGAPORE 239817,36,DUBLIN LODGE,1.29782900990397,103.840094609916,103.840094609916,239817,DUBLIN ROAD,DUBLIN LODGE,28754.1120784674,31132.8576334771
38 DUBLIN ROAD DUBLIN LODGE SINGAPORE 239818,38,DUBLIN LODGE,1.29781497274048,103.840144813863,103.840144813863,239818,DUBLIN ROAD,DUBLIN LODGE,28759.6993363854,31131.3054912724
40 DUBLIN ROAD DUBLIN LODGE SINGAPORE 239819,40,DUBLIN LODGE,1.2978002104502,103.840197613228,103.840197613228,239819,DUBLIN ROAD,DUBLIN LODGE,28765.5754416725,31129.6731691789
42 DUBLIN ROAD DUBLIN LODGE SINGAPORE 239820,42,DUBLIN LODGE,1.29778639884285,103.840247014859,103.840247014859,239820,DUBLIN ROAD,DUBLIN LODGE,28771.0734090395,31128.1459677927
8 DEVONSHIRE ROAD DEVONSHIRE 8 SINGAPORE 239845,8,DEVONSHIRE 8,1.29787282345008,103.838140877236,103.838140877236,239845,DEVONSHIRE ROAD,DEVONSHIRE 8,28536.678960368,31137.7018123958
12 DEVONSHIRE ROAD DEVONSHIRE 12 SINGAPORE 239847,12,DEVONSHIRE 12,1.29806237939926,103.838019065206,103.838019065206,239847,DEVONSHIRE ROAD,DEVONSHIRE 12,28523.1223239452,31158.6619068328
13 DEVONSHIRE ROAD THE BAYRON SINGAPORE 239848,13,THE BAYRON,1.29783032692465,103.837544778238,103.837544778238,239848,DEVONSHIRE ROAD,THE BAYRON,28470.3384411596,31133.0026473869
17 DEVONSHIRE ROAD DEVONSHIRE APARTMENTS SINGAPORE 239849,17,DEVONSHIRE APARTMENTS,1.29802835332125,103.837538960285,103.837538960285,239849,DEVONSHIRE ROAD,DEVONSHIRE APARTMENTS,28469.6909181839,31154.8993845806
20 DEVONSHIRE ROAD DEVONSHIRE BUILDING SINGAPORE 239850,20,DEVONSHIRE BUILDING,1.29819897297437,103.838024578859,103.838024578859,239850,DEVONSHIRE ROAD,DEVONSHIRE BUILDING,28523.7359165112,31173.7657215111
31 DEVONSHIRE ROAD TONG XIAN TNG TEMPLE SINGAPORE 239851,31,TONG XIAN TNG TEMPLE,1.29823646898508,103.837523035623,103.837523035623,239851,DEVONSHIRE ROAD,TONG XIAN TNG TEMPLE,28467.9186066659,31177.9117391165
33 DEVONSHIRE ROAD 33 DEVONSHIRE SINGAPORE 239852,33,33 DEVONSHIRE,1.29842642966366,103.837457300203,103.837457300203,239852,DEVONSHIRE ROAD,33 DEVONSHIRE,28460.6028047334,31198.9165999014
55 DEVONSHIRE ROAD DEVONSHIRE RESIDENCES SINGAPORE 239855,55,DEVONSHIRE RESIDENCES,1.29884647201804,103.837351959315,103.837351959315,239855,DEVONSHIRE ROAD,DEVONSHIRE RESIDENCES,28448.8792276718,31245.3626998439
83 DEVONSHIRE ROAD THE METZ SINGAPORE 239864,83,THE METZ,1.29938809850778,103.836959088792,103.836959088792,239864,DEVONSHIRE ROAD,THE METZ,28405.1561566172,31305.2528998442
111 DEVONSHIRE ROAD SINGAPORE 239877,111,NIL,1.29972188487555,103.836622472407,103.836622472407,239877,DEVONSHIRE ROAD,111 DEVONSHIRE ROAD SINGAPORE 239877,28367.6937153135,31342.1612251699
113 DEVONSHIRE ROAD SINGAPORE 239878,113,NIL,1.29971282930106,103.836576114321,103.836576114321,239878,DEVONSHIRE ROAD,113 DEVONSHIRE ROAD SINGAPORE 239878,28362.5344769536,31341.1598997321
115 DEVONSHIRE ROAD SINGAPORE 239879,115,NIL,1.29971747323692,103.836532750115,103.836532750115,239879,DEVONSHIRE ROAD,115 DEVONSHIRE ROAD SINGAPORE 239879,28357.708428557,31341.673396077
117 DEVONSHIRE ROAD SINGAPORE 239880,117,NIL,1.29972669481048,103.83648808861,103.83648808861,239880,DEVONSHIRE ROAD,117 DEVONSHIRE ROAD SINGAPORE 239880,28352.7380018793,31342.6930639129
119 DEVONSHIRE ROAD SINGAPORE 239881,119,NIL,1.29973757191738,103.836445815288,103.836445815288,239881,DEVONSHIRE ROAD,119 DEVONSHIRE ROAD SINGAPORE 239881,28348.0333583662,31343.8957925122
121 DEVONSHIRE ROAD SINGAPORE 239882,121,NIL,1.2997423639414,103.836401760274,103.836401760274,239882,DEVONSHIRE ROAD,121 DEVONSHIRE ROAD SINGAPORE 239882,28343.1304292921,31344.4256638363
123 DEVONSHIRE ROAD SINGAPORE 239883,123,NIL,1.29975363303232,103.836359651223,103.836359651223,239883,DEVONSHIRE ROAD,123 DEVONSHIRE ROAD SINGAPORE 239883,28338.4440676412,31345.6717361901
125 DEVONSHIRE ROAD SINGAPORE 239884,125,NIL,1.29976114541191,103.83631673414,103.83631673414,239884,DEVONSHIRE ROAD,125 DEVONSHIRE ROAD SINGAPORE 239884,28333.6677798098,31346.5024107341
127 DEVONSHIRE ROAD SINGAPORE 239885,127,NIL,1.29977034343978,103.836272759362,103.836272759362,239885,DEVONSHIRE ROAD,127 DEVONSHIRE ROAD SINGAPORE 239885,28328.7737797908,31347.5194755234
129 DEVONSHIRE ROAD SINGAPORE 239886,129,NIL,1.29977987925788,103.836224884513,103.836224884513,239886,DEVONSHIRE ROAD,129 DEVONSHIRE ROAD SINGAPORE 239886,28323.4457368851,31348.5738910045
131 DEVONSHIRE ROAD SINGAPORE 239887,131,NIL,1.29979018755243,103.836174498009,103.836174498009,239887,DEVONSHIRE ROAD,131 DEVONSHIRE ROAD SINGAPORE 239887,28317.8381691501,31349.7137227356
133 DEVONSHIRE ROAD SINGAPORE 239888,133,NIL,1.29980095079016,103.836124129183,103.836124129183,239888,DEVONSHIRE ROAD,133 DEVONSHIRE ROAD SINGAPORE 239888,28312.232568833,31350.9038598556
135 DEVONSHIRE ROAD SINGAPORE 239889,135,NIL,1.29981141018396,103.836073136997,103.836073136997,239889,DEVONSHIRE ROAD,135 DEVONSHIRE ROAD SINGAPORE 239889,28306.5575942984,31352.0603995137
137 DEVONSHIRE ROAD SINGAPORE 239890,137,NIL,1.29982224896685,103.83602566113,103.83602566113,239890,DEVONSHIRE ROAD,137 DEVONSHIRE ROAD SINGAPORE 239890,28301.2739545247,31353.2588905953
139 DEVONSHIRE ROAD SINGAPORE 239891,139,NIL,1.29983272641908,103.835980306912,103.835980306912,239891,DEVONSHIRE ROAD,139 DEVONSHIRE ROAD SINGAPORE 239891,28296.2264352916,31354.4174279403
141 DEVONSHIRE ROAD SINGAPORE 239892,141,NIL,1.29985673886894,103.835937888639,103.835937888639,239892,DEVONSHIRE ROAD,141 DEVONSHIRE ROAD SINGAPORE 239892,28291.5056589432,31357.072596008
145 DEVONSHIRE ROAD THE BEAUMONT SINGAPORE 239893,145,THE BEAUMONT,1.29941839079516,103.836188710546,103.836188710546,239893,DEVONSHIRE ROAD,THE BEAUMONT,28319.4199437108,31308.6023549233
147 DEVONSHIRE ROAD THE BEAUMONT SINGAPORE 239894,147,THE BEAUMONT,1.29902512071816,103.836255112727,103.836255112727,239894,DEVONSHIRE ROAD,THE BEAUMONT,28326.8099627392,31265.1165848598
9 DEVONSHIRE ROAD THE ABODE AT DEVONSHIRE SINGAPORE 239895,9,THE ABODE AT DEVONSHIRE,1.29763848883386,103.837696742648,103.837696742648,239895,DEVONSHIRE ROAD,THE ABODE AT DEVONSHIRE,28487.2507678662,31111.79020877
1 DEVONSHIRE ROAD ONE DEVONSHIRE SINGAPORE 239896,1,ONE DEVONSHIRE,1.29719285545648,103.837470929944,103.837470929944,239896,DEVONSHIRE ROAD,ONE DEVONSHIRE,28462.1198966131,31062.5143247619
57A DEVONSHIRE ROAD THE SUITES AT CENTRAL SINGAPORE 239897,57A,THE SUITES AT CENTRAL,1.29853287675519,103.836926078416,103.836926078416,239897,DEVONSHIRE ROAD,THE SUITES AT CENTRAL,28401.482531433,31210.6868804619
57B DEVONSHIRE ROAD THE SUITES AT CENTRAL SINGAPORE 239899,57B,THE SUITES AT CENTRAL,1.29849427996178,103.836649785169,103.836649785169,239899,DEVONSHIRE ROAD,THE SUITES AT CENTRAL,28370.7335591866,31206.4190039523
65 DEVONSHIRE ROAD ILLUMINAIRE ON DEVONSHIRE SINGAPORE 239900,65,ILLUMINAIRE ON DEVONSHIRE,1.29906764002132,103.836832037459,103.836832037459,239900,DEVONSHIRE ROAD,ILLUMINAIRE ON DEVONSHIRE,28391.0165285589,31269.8182318434
81 CLEMENCEAU AVENUE CITIBANK UE SQUARE SINGAPORE 239917,81,CITIBANK UE SQUARE,1.29225958503296,103.842561023913,103.842561023913,239917,CLEMENCEAU AVENUE,CITIBANK UE SQUARE,29028.6043109801,30517.0202122796
81A CLEMENCEAU AVENUE PARK AVENUE CLEMENCEAU SINGAPORE 239918,81A,PARK AVENUE CLEMENCEAU,1.29211031422764,103.842807535906,103.842807535906,239918,CLEMENCEAU AVENUE,PARK AVENUE CLEMENCEAU,29056.0390298134,30500.5147175435
81B CLEMENCEAU AVENUE UE SQUARE SINGAPORE 239919,81B,UE SQUARE,1.29216466132149,103.84269579861,103.84269579861,239919,CLEMENCEAU AVENUE,UE SQUARE,29043.6036103107,30506.5240927618
83 CLEMENCEAU AVENUE DBS UE SQUARE SINGAPORE 239920,83,DBS UE SQUARE,1.29256472835721,103.843069580234,103.843069580234,239920,CLEMENCEAU AVENUE,DBS UE SQUARE,29085.2021110533,30550.7615984697
180 CLEMENCEAU AVENUE HAW PAR CENTRE SINGAPORE 239922,180,HAW PAR CENTRE,1.29726877005182,103.84412627006,103.84412627006,239922,CLEMENCEAU AVENUE,HAW PAR CENTRE,29202.8003407707,31070.9107542504
182 CLEMENCEAU AVENUE SINGAPORE 239923,182,NIL,1.29775077017794,103.844097151873,103.844097151873,239923,CLEMENCEAU AVENUE,182 CLEMENCEAU AVENUE SINGAPORE 239923,29199.559517486,31124.2078306992
190 CLEMENCEAU AVENUE SINGAPORE SHOPPING CENTRE SINGAPORE 239924,190,SINGAPORE SHOPPING CENTRE,1.29813214766933,103.844138374809,103.844138374809,239924,CLEMENCEAU AVENUE,SINGAPORE SHOPPING CENTRE,29204.1470844382,31166.3786082082
178 CLEMENCEAU AVENUE HAW PAR GLASS TOWER SINGAPORE 239926,178,HAW PAR GLASS TOWER,1.29678833454463,103.844163937111,103.844163937111,239926,CLEMENCEAU AVENUE,HAW PAR GLASS TOWER,29206.9925775873,31017.7866895963
11 ARNASALAM CHETTY ROAD THE INSPIRA SINGAPORE 239949,11,THE INSPIRA,1.29188373587958,103.838945567915,103.838945567915,239949,ARNASALAM CHETTY ROAD,THE INSPIRA,28626.2353560347,30475.4595767856
21 ANGULLIA PARK TWENTYONE ANGULLIA PARK SINGAPORE 239974,21,TWENTYONE ANGULLIA PARK,1.30376655553905,103.830033474096,103.830033474096,239974,ANGULLIA PARK,TWENTYONE ANGULLIA PARK,27634.3978116792,31789.4000748061
23 ANGULLIA PARK SKYLINE @ ORCHARD BOULEVARD SINGAPORE 239975,23,SKYLINE @ ORCHARD BOULEVARD,1.30315428073007,103.829577548446,103.829577548446,239975,ANGULLIA PARK,SKYLINE @ ORCHARD BOULEVARD,27583.6573507432,31721.6979503501
29 ANGULLIA PARK ORCHARD VIEW SINGAPORE 239977,29,ORCHARD VIEW,1.30251716129553,103.829469250792,103.829469250792,239977,ANGULLIA PARK,ORCHARD VIEW,27571.604700163,31651.2485826202
