ADDRESS,BLK_NO,BUILDING,LATITUDE,LONGITUDE,LONGTITUDE,POSTAL,ROAD_NAME,SEARCHVAL,X,Y
1 DELTA AVENUE SINGAPORE 160001,1,NIL,1.2920752508431,103.828584077626,103.828584077626,160001,DELTA AVENUE,1 DELTA AVENUE SINGAPORE 160001,27473.0907973954,30496.6361175738
3 DELTA AVENUE SINGAPORE 160003,3,NIL,1.29169833480355,103.827334523132,103.827334523132,160003,DELTA AVENUE,3 DELTA AVENUE SINGAPORE 160003,27334.0260596052,30454.9589806106
5 DELTA AVENUE SINGAPORE 160005,5,NIL,1.29223145125728,103.827600712862,103.827600712862,160005,DELTA AVENUE,5 DELTA AVENUE SINGAPORE 160005,27363.6508184001,30513.9081792664
7 KIM TIAN PLACE SINGAPORE 160007,7,NIL,1.28348511207749,103.827043785507,103.827043785507,160007,KIM TIAN PLACE,7 KIM TIAN PLACE SINGAPORE 160007,27301.6672241082,29546.7832934335
9 JALAN KUKOH CHIN SWEE VIEW SINGAPORE 160009,9,CHIN SWEE VIEW,1.2876742577682,103.838857901085,103.838857901085,160009,JALAN KUKOH,CHIN SWEE VIEW,28616.4798032753,30009.99719139
10A BOON TIONG ROAD TIONG BAHRU VIEW SINGAPORE 160010,10A,TIONG BAHRU VIEW,1.28635847107695,103.82962615571,103.82962615571,160010,BOON TIONG ROAD,TIONG BAHRU VIEW,27589.0641812105,29864.5039273426
20 JALAN KLINIK SINGAPORE 160020,20,NIL,1.28811451810467,103.829040334276,103.829040334276,160020,JALAN KLINIK,20 JALAN KLINIK SINGAPORE 160020,27523.8674891079,30058.6786424667
22 HAVELOCK ROAD SINGAPORE 160022,22,NIL,1.28874603704088,103.828824191655,103.828824191655,160022,HAVELOCK ROAD,22 HAVELOCK ROAD SINGAPORE 160022,27499.8127657482,30128.5087877847
24 BEO CRESCENT SINGAPORE 160024,24,NIL,1.28852535171166,103.828458597142,103.828458597142,160024,BEO CRESCENT,24 BEO CRESCENT SINGAPORE 160024,27459.1251497082,30104.1066182405
25 JALAN MEMBINA MEMBINA COURT SINGAPORE 160025,25,MEMBINA COURT,1.28364454631901,103.825955152347,103.825955152347,160025,JALAN MEMBINA,MEMBINA COURT,27180.5113863889,29564.4130318891
26 JALAN KLINIK SINGAPORE 160026,26,NIL,1.2881713453856,103.828454024092,103.828454024092,160026,JALAN KLINIK,26 JALAN KLINIK SINGAPORE 160026,27458.6161330258,30064.962427225
27 LIM LIAK STREET SINGAPORE 160027,27,NIL,1.28543704177023,103.830839342729,103.830839342729,160027,LIM LIAK STREET,27 LIM LIAK STREET SINGAPORE 160027,27724.081635558,29762.6168696638
28 JALAN KLINIK SINGAPORE 160028,28,NIL,1.28789877031281,103.828203629292,103.828203629292,160028,JALAN KLINIK,28 JALAN KLINIK SINGAPORE 160028,27430.7492479207,30034.8225376159
30 JALAN KLINIK SINGAPORE 160030,30,NIL,1.28766976882827,103.828202949008,103.828202949008,160030,JALAN KLINIK,30 JALAN KLINIK SINGAPORE 160030,27430.6734871576,30009.5007359218
32 JALAN BUKIT HO SWEE SINGAPORE 160032,32,NIL,1.28742122514492,103.828415534676,103.828415534676,160032,JALAN BUKIT HO SWEE,32 JALAN BUKIT HO SWEE SINGAPORE 160032,27454.3324263617,29982.0180120654
33 LIM LIAK STREET SINGAPORE 160033,33,NIL,1.28511916772533,103.831577169295,103.831577169295,160033,LIM LIAK STREET,33 LIM LIAK STREET SINGAPORE 160033,27806.1955577806,29727.4679314289
34 JALAN BUKIT HO SWEE THE BEO CRESCENT SINGAPORE 160034,34,THE BEO CRESCENT,1.28807687600985,103.82708127923,103.82708127923,160034,JALAN BUKIT HO SWEE,THE BEO CRESCENT,27305.8412093315,30054.5168249719
35 LIM LIAK STREET SINGAPORE 160035,35,NIL,1.28510176909525,103.831035177953,103.831035177953,160035,LIM LIAK STREET,35 LIM LIAK STREET SINGAPORE 160035,27745.8764301818,29725.5441286527
36 BEO CRESCENT CS MONTESSORI KINDERGARTEN @ TIONG BAHRU SINGAPORE 160036,36,CS MONTESSORI KINDERGARTEN @ TIONG BAHRU,1.28835977080873,103.827056911096,103.827056911096,160036,BEO CRESCENT,CS MONTESSORI KINDERGARTEN @ TIONG BAHRU,27303.1293190625,30085.7978781052
37 LIM LIAK STREET SINGAPORE 160037,37,NIL,1.28508446478781,103.830493625033,103.830493625033,160037,LIM LIAK STREET,37 LIM LIAK STREET SINGAPORE 160037,27685.6060945718,29723.6307683289
38 BEO CRESCENT THE BEO CRESCENT SINGAPORE 160038,38,THE BEO CRESCENT,1.28855393184563,103.827290023383,103.827290023383,160038,BEO CRESCENT,THE BEO CRESCENT,27329.0727948742,30107.2671405636
40 BEO CRESCENT DBS HAVELOCK ROAD SINGAPORE 160040,40,DBS HAVELOCK ROAD,1.28905634657056,103.827502108439,103.827502108439,160040,BEO CRESCENT,DBS HAVELOCK ROAD,27352.6761923283,30162.8215124346
41 KIM CHENG STREET SINGAPORE 160041,41,NIL,1.2846906958963,103.831590918207,103.831590918207,160041,KIM CHENG STREET,41 KIM CHENG STREET SINGAPORE 160041,27807.7256648932,29680.0897289291
42 BEO CRESCENT THE SALVATION ARMY FAMILY SUPPORT SERVICES SINGAPORE 160042,42,THE SALVATION ARMY FAMILY SUPPORT SERVICES,1.28918796287517,103.826617709664,103.826617709664,160042,BEO CRESCENT,THE SALVATION ARMY FAMILY SUPPORT SERVICES,27254.2501575165,30177.3752065096
43 MOH GUAN TERRACE SINGAPORE 160043,43,NIL,1.28467056650891,103.831049307715,103.831049307715,160043,MOH GUAN TERRACE,43 MOH GUAN TERRACE SINGAPORE 160043,27747.4489124715,29677.8639727458
44 BEO CRESCENT THE BEO CRESCENT SINGAPORE 160044,44,THE BEO CRESCENT,1.2888091628641,103.82629508593,103.82629508593,160044,BEO CRESCENT,THE BEO CRESCENT,27218.3447618317,30135.489553405
45 KIM CHENG STREET SINGAPORE 160045,45,NIL,1.2842264860305,103.831606269855,103.831606269855,160045,KIM CHENG STREET,45 KIM CHENG STREET SINGAPORE 160045,27809.4341412345,29628.7597990092
46 JALAN BUKIT HO SWEE THE BEO CRESCENT SINGAPORE 160046,46,THE BEO CRESCENT,1.28829579725142,103.826144732416,103.826144732416,160046,JALAN BUKIT HO SWEE,THE BEO CRESCENT,27201.6115307854,30078.724280579
47 MOH GUAN TERRACE SINGAPORE 160047,47,NIL,1.28420581657007,103.831063385283,103.831063385283,160047,MOH GUAN TERRACE,47 MOH GUAN TERRACE SINGAPORE 160047,27749.0155833084,29626.4743240941
48 LOWER DELTA ROAD THE BEO CRESCENT SINGAPORE 160048,48,THE BEO CRESCENT,1.28944268125333,103.826201445621,103.826201445621,160048,LOWER DELTA ROAD,THE BEO CRESCENT,27207.9235858424,30205.5407760777
49 KIM PONG ROAD SINGAPORE 160049,49,NIL,1.28429935662089,103.830518003368,103.830518003368,160049,KIM PONG ROAD,49 KIM PONG ROAD SINGAPORE 160049,27688.3191047562,29636.8175600264
50 HAVELOCK ROAD DBS NTUC HAVELOCK ROAD SINGAPORE 160050,50,DBS NTUC HAVELOCK ROAD,1.2897647546758,103.826802915076,103.826802915076,160050,HAVELOCK ROAD,DBS NTUC HAVELOCK ROAD,27274.8621096043,30241.1538133062
51 CHIN SWEE ROAD SINGAPORE 160051,51,NIL,1.2874030079153,103.842029778891,103.842029778891,160051,CHIN SWEE ROAD,51 CHIN SWEE ROAD SINGAPORE 160051,28969.4831599081,29980.0047673974
52 CHIN SWEE ROAD SINGAPORE 160052,52,NIL,1.28708278284998,103.841580109275,103.841580109275,160052,CHIN SWEE ROAD,52 CHIN SWEE ROAD SINGAPORE 160052,28919.4388323296,29944.5957666449
53 CHIN SWEE ROAD SINGAPORE 160053,53,NIL,1.28762316970348,103.841462885627,103.841462885627,160053,CHIN SWEE ROAD,53 CHIN SWEE ROAD SINGAPORE 160053,28906.3926351834,30004.348913217
54 CHIN SWEE ROAD SINGAPORE 160054,54,NIL,1.28743641379469,103.841175875514,103.841175875514,160054,CHIN SWEE ROAD,54 CHIN SWEE ROAD SINGAPORE 160054,28874.4508925034,29983.698308913
55 TIONG BAHRU ROAD TIONG BAHRU ESTATE SINGAPORE 160055,55,TIONG BAHRU ESTATE,1.28441396459751,103.83413547764,103.83413547764,160055,TIONG BAHRU ROAD,TIONG BAHRU ESTATE,28090.9140101997,29649.4901594501
56 ENG HOON STREET TIONG BAHRU ESTATE SINGAPORE 160056,56,TIONG BAHRU ESTATE,1.28424137023496,103.833923067555,103.833923067555,160056,ENG HOON STREET,TIONG BAHRU ESTATE,28067.274533309,29630.4055600874
57 ENG HOON STREET TIONG BAHRU ESTATE SINGAPORE 160057,57,TIONG BAHRU ESTATE,1.28480586062688,103.833476049892,103.833476049892,160057,ENG HOON STREET,TIONG BAHRU ESTATE,28017.5251672314,29692.8239842337
58 SENG POH ROAD OCBC SENG POH ROAD - 7 ELEVEN SINGAPORE 160058,58,OCBC SENG POH ROAD - 7 ELEVEN,1.28462080421635,103.832979536063,103.832979536063,160058,SENG POH ROAD,OCBC SENG POH ROAD - 7 ELEVEN,27962.2673005294,29672.3614046462
59 ENG HOON STREET TIONG BAHRU ESTATE SINGAPORE 160059,59,TIONG BAHRU ESTATE,1.28414799093318,103.833436351788,103.833436351788,160059,ENG HOON STREET,TIONG BAHRU ESTATE,28013.1071009887,29620.0801519994
60 SENG POH LANE SINGAPORE 160060,60,NIL,1.28441315829599,103.833100235201,103.833100235201,160060,SENG POH LANE,60 SENG POH LANE SINGAPORE 160060,27975.7001106311,29649.4009899702
61 SENG POH LANE SINGAPORE 160061,61,NIL,1.28432421202391,103.833006077363,103.833006077363,160061,SENG POH LANE,61 SENG POH LANE SINGAPORE 160061,27965.2211227929,29639.5657718759
62 SENG POH LANE SINGAPORE 160062,62,NIL,1.28381431886142,103.833404070055,103.833404070055,160062,SENG POH LANE,62 SENG POH LANE SINGAPORE 160062,28009.5144123929,29583.1844181549
63 SENG POH LANE SINGAPORE 160063,63,NIL,1.28388267574087,103.833516220044,103.833516220044,160063,SENG POH LANE,63 SENG POH LANE SINGAPORE 160063,28021.9957786947,29590.7429693174
64 TIONG POH ROAD SIT FLATS SINGAPORE 160064,64,SIT FLATS,1.28351299106912,103.833600594268,103.833600594268,160064,TIONG POH ROAD,SIT FLATS,28031.3859363552,29549.865149267
65 TIONG POH ROAD TIONG BAHRU ESTATE SINGAPORE 160065,65,TIONG BAHRU ESTATE,1.28333820378313,103.833214514241,103.833214514241,160065,TIONG POH ROAD,TIONG BAHRU ESTATE,27988.4184147101,29530.5380730871
66 ENG WATT STREET TIONG BAHRU ESTATE SINGAPORE 160066,66,TIONG BAHRU ESTATE,1.28381045177125,103.832759850443,103.832759850443,160066,ENG WATT STREET,TIONG BAHRU ESTATE,27937.8180945385,29582.7568223495
67 SENG POH LANE SINGAPORE 160067,67,NIL,1.28354723069379,103.833093586708,103.833093586708,160067,SENG POH LANE,67 SENG POH LANE SINGAPORE 160067,27974.9601795012,29553.6511897426
68 SENG POH LANE SINGAPORE 160068,68,NIL,1.28363700883776,103.833186476869,103.833186476869,160068,SENG POH LANE,68 SENG POH LANE SINGAPORE 160068,27985.2980882684,29563.5783922374
69 SENG POH LANE SINGAPORE 160069,69,NIL,1.28414816852897,103.832785763648,103.832785763648,160069,SENG POH LANE,69 SENG POH LANE SINGAPORE 160069,27940.7020280268,29620.0997959208
70 SENG POH LANE SINGAPORE 160070,70,NIL,1.2840779190283,103.832677454152,103.832677454152,160070,SENG POH LANE,70 SENG POH LANE SINGAPORE 160070,27928.6480759233,29612.3319719192
71 SENG POH ROAD TIONG BAHRU ESTATE SINGAPORE 160071,71,TIONG BAHRU ESTATE,1.28424655193409,103.83250362707,103.83250362707,160071,SENG POH ROAD,TIONG BAHRU ESTATE,27909.3025665423,29630.9785330202
72 SENG POH ROAD TIONG BAHRU ESTATE SINGAPORE 160072,72,TIONG BAHRU ESTATE,1.2838441737517,103.831998421105,103.831998421105,160072,SENG POH ROAD,TIONG BAHRU ESTATE,27853.0773048131,29586.4856563341
73 ENG WATT STREET TIONG BAHRU ESTATE SINGAPORE 160073,73,TIONG BAHRU ESTATE,1.28337036699164,103.832456524921,103.832456524921,160073,ENG WATT STREET,TIONG BAHRU ESTATE,27904.0604544422,29534.0945309065
74 TIONG POH ROAD TIONG BAHRU ESTATE SINGAPORE 160074,74,TIONG BAHRU ESTATE,1.28293692915712,103.832709463638,103.832709463638,160074,TIONG POH ROAD,TIONG BAHRU ESTATE,27932.2104359986,29486.167206645
75 TIONG POH ROAD TIONG BAHRU ESTATE SINGAPORE 160075,75,TIONG BAHRU ESTATE,1.28255938189518,103.83223380684,103.83223380684,160075,TIONG POH ROAD,TIONG BAHRU ESTATE,27879.2737301644,29444.4199992996
76 GUAN CHUAN STREET TIONG BAHRU ESTATE SINGAPORE 160076,76,TIONG BAHRU ESTATE,1.28303695135392,103.831778176417,103.831778176417,160076,GUAN CHUAN STREET,TIONG BAHRU ESTATE,27828.5658375788,29497.2271884307
77 INDUS ROAD INDUS GARDEN SINGAPORE 160077,77,INDUS GARDEN,1.29113483646901,103.826764453591,103.826764453591,160077,INDUS ROAD,INDUS GARDEN,27270.5820653671,30392.6503989771
78 GUAN CHUAN STREET SINGAPORE 160078,78,NIL,1.28332611385654,103.831014548462,103.831014548462,160078,GUAN CHUAN STREET,78 GUAN CHUAN STREET SINGAPORE 160078,27743.5803614724,29529.2013481222
79 CHAY YAN STREET TIONG BAHRU ESTATE SINGAPORE 160079,79,TIONG BAHRU ESTATE,1.28254464335985,103.830801232256,103.830801232256,160079,CHAY YAN STREET,TIONG BAHRU ESTATE,27719.8399408562,29442.7904013246
80 CHAY YAN STREET TIONG BAHRU ESTATE SINGAPORE 160080,80,TIONG BAHRU ESTATE,1.28289054156981,103.831236127687,103.831236127687,160080,CHAY YAN STREET,TIONG BAHRU ESTATE,27768.2402628986,29481.037994124
81 TIONG POH ROAD TIONG BAHRU ESTATE SINGAPORE 160081,81,TIONG BAHRU ESTATE,1.28259669409394,103.832878803965,103.832878803965,160081,TIONG POH ROAD,TIONG BAHRU ESTATE,27951.056614452,29448.5457676239
82 TIONG POH ROAD TIONG BAHRU ESTATE SINGAPORE 160082,82,TIONG BAHRU ESTATE,1.28323471543259,103.833681074961,103.833681074961,160082,TIONG POH ROAD,TIONG BAHRU ESTATE,28040.3427775605,29519.0948683601
87 ZION ROAD SINGAPORE 160087,87,NIL,1.29065980562649,103.832608331993,103.832608331993,160087,ZION ROAD,87 ZION ROAD SINGAPORE 160087,27920.9555586651,30340.123007087
93 HAVELOCK ROAD SINGAPORE 160093,93,NIL,1.28975999628051,103.832884912512,103.832884912512,160093,HAVELOCK ROAD,93 HAVELOCK ROAD SINGAPORE 160093,27951.7365847072,30240.6267266385
94 HAVELOCK ROAD HAVELOCK HEIGHTS SINGAPORE 160094,94,HAVELOCK HEIGHTS,1.28821320112553,103.833233526093,103.833233526093,160094,HAVELOCK ROAD,HAVELOCK HEIGHTS,27990.5342981117,30069.5900992565
95 HAVELOCK ROAD HAVELOCK HEIGHTS SINGAPORE 160095,95,HAVELOCK HEIGHTS,1.28847543074122,103.832848165751,103.832848165751,160095,HAVELOCK ROAD,HAVELOCK HEIGHTS,27947.6469563544,30098.5861012246
96 HAVELOCK ROAD HAVELOCK HEIGHTS SINGAPORE 160096,96,HAVELOCK HEIGHTS,1.28851645692397,103.832470634069,103.832470634069,160096,HAVELOCK ROAD,HAVELOCK HEIGHTS,27905.630878509,30103.1225758214
104 JALAN BUKIT MERAH TIONG BAHRU ORCHID SINGAPORE 160104,104,TIONG BAHRU ORCHID,1.28102515462893,103.82446093445,103.82446093445,160104,JALAN BUKIT MERAH,TIONG BAHRU ORCHID,27014.2162689231,29274.774760861
105 JALAN BUKIT MERAH TIONG BAHRU ORCHID SINGAPORE 160105,105,TIONG BAHRU ORCHID,1.28063239751755,103.824935469367,103.824935469367,160105,JALAN BUKIT MERAH,TIONG BAHRU ORCHID,27067.0279982528,29231.345531391
106 JALAN BUKIT MERAH TIONG BAHRU ORCHID SINGAPORE 160106,106,TIONG BAHRU ORCHID,1.28024258715197,103.824523574131,103.824523574131,160106,JALAN BUKIT MERAH,TIONG BAHRU ORCHID,27021.1872579856,29188.242469715
107 JALAN BUKIT MERAH TIONG BAHRU ORCHID SINGAPORE 160107,107,TIONG BAHRU ORCHID,1.27983690191197,103.824757769108,103.824757769108,160107,JALAN BUKIT MERAH,TIONG BAHRU ORCHID,27047.2511095684,29143.3838044461
108 JALAN BUKIT MERAH SINGAPORE 160108,108,NIL,1.27922008833835,103.825441382185,103.825441382185,160108,JALAN BUKIT MERAH,108 JALAN BUKIT MERAH SINGAPORE 160108,27123.3315027207,29075.179503873
109 JALAN BUKIT MERAH SINGAPORE 160109,109,NIL,1.27942671435022,103.826086916123,103.826086916123,160109,JALAN BUKIT MERAH,109 JALAN BUKIT MERAH SINGAPORE 160109,27195.174287349,29098.0269281659
110 JALAN BUKIT MERAH TIONG BAHRU ORCHID SINGAPORE 160110,110,TIONG BAHRU ORCHID,1.27974755603932,103.826698196427,103.826698196427,160110,JALAN BUKIT MERAH,TIONG BAHRU ORCHID,27263.2049404997,29133.5037594698
111 JALAN BUKIT MERAH BANYAN TREE EDUCATION CENTRE SINGAPORE 160111,111,BANYAN TREE EDUCATION CENTRE,1.2803211411457,103.826185854436,103.826185854436,160111,JALAN BUKIT MERAH,BANYAN TREE EDUCATION CENTRE,27206.185598217,29196.9279887136
112 JALAN BUKIT MERAH MARKET & HAWKER CENTRE (BLK 112 JALAN BUKIT MERAH) SINGAPORE 160112,112,MARKET & HAWKER CENTRE (BLK 112 JALAN BUKIT MERAH),1.28000482954569,103.826013281251,103.826013281251,160112,JALAN BUKIT MERAH,MARKET & HAWKER CENTRE (BLK 112 JALAN BUKIT MERAH),27186.9795031687,29161.9519412015
113 JALAN BUKIT MERAH TIONG BAHRU ORCHID SINGAPORE 160113,113,TIONG BAHRU ORCHID,1.28027764882907,103.82572355886,103.82572355886,160113,JALAN BUKIT MERAH,TIONG BAHRU ORCHID,27154.7358373506,29192.1189811938
115 JALAN BUKIT MERAH TIONG BAHRU ORCHID SINGAPORE 160115,115,TIONG BAHRU ORCHID,1.28108139632864,103.826489308768,103.826489308768,160115,JALAN BUKIT MERAH,TIONG BAHRU ORCHID,27239.9578274814,29280.9929851666
116 JALAN BUKIT MERAH TIONG BAHRU ORCHID SINGAPORE 160116,116,TIONG BAHRU ORCHID,1.2814103907615,103.826659816441,103.826659816441,160116,JALAN BUKIT MERAH,TIONG BAHRU ORCHID,27258.9340371927,29317.3714391701
117 JALAN BUKIT MERAH TIONG BAHRU ORCHID SINGAPORE 160117,117,TIONG BAHRU ORCHID,1.28170700587327,103.82683952932,103.82683952932,160117,JALAN BUKIT MERAH,TIONG BAHRU ORCHID,27278.9346970813,29350.1695539132
118 JALAN MEMBINA MEMBINA 118 SINGAPORE 160118,118,MEMBINA 118,1.28198287775746,103.826289547194,103.826289547194,160118,JALAN MEMBINA,MEMBINA 118,27217.7262658523,29380.6742029954
119 KIM TIAN ROAD SINGAPORE 160119,119,NIL,1.28181140518598,103.82776299913,103.82776299913,160119,KIM TIAN ROAD,119 KIM TIAN ROAD SINGAPORE 160119,27381.7093633814,29361.7132483479
120 KIM TIAN PLACE KIM TIAN TOWERS SINGAPORE 160120,120,KIM TIAN TOWERS,1.28295503980413,103.827983319539,103.827983319539,160120,KIM TIAN PLACE,KIM TIAN TOWERS,27406.2294872589,29488.1704023443
121 KIM TIAN PLACE KIM TIAN TOWERS SINGAPORE 160121,121,KIM TIAN TOWERS,1.28270270194687,103.828491163221,103.828491163221,160121,KIM TIAN PLACE,KIM TIAN TOWERS,27462.7482576268,29460.2680734303
122 KIM TIAN ROAD SINGAPORE 160122,122,NIL,1.28339187402842,103.82889400724,103.82889400724,160122,KIM TIAN ROAD,122 KIM TIAN ROAD SINGAPORE 160122,27507.5816188604,29536.4730798714
123 KIM TIAN ROAD SINGAPORE 160123,123,NIL,1.28385157947843,103.828964702534,103.828964702534,160123,KIM TIAN ROAD,123 KIM TIAN ROAD SINGAPORE 160123,27515.449508816,29587.3049198501
124 KIM TIAN PLACE SINGAPORE 160124,124,NIL,1.28392508534814,103.828263774087,103.828263774087,160124,KIM TIAN PLACE,124 KIM TIAN PLACE SINGAPORE 160124,27437.4419834083,29595.4329631254
125 KIM TIAN ROAD SINGAPORE 160125,125,NIL,1.28363467623261,103.828128050891,103.828128050891,160125,KIM TIAN ROAD,125 KIM TIAN ROAD SINGAPORE 160125,27422.3370488137,29563.3210538402
126 KIM TIAN ROAD HAMPTON PRE-SCHOOL TANJONG PAGAR SINGAPORE 160126,126,HAMPTON PRE-SCHOOL TANJONG PAGAR,1.28253467643522,103.829470021296,103.829470021296,160126,KIM TIAN ROAD,HAMPTON PRE-SCHOOL TANJONG PAGAR,27571.6870896146,29441.6884953771
127 KIM TIAN ROAD KIM TIAN GREEN SINGAPORE 160127,127,KIM TIAN GREEN,1.28186142731102,103.829292612773,103.829292612773,160127,KIM TIAN ROAD,KIM TIAN GREEN,27551.9428600846,29367.2441170122
128 KIM TIAN ROAD KIM TIAN VISTA SINGAPORE 160128,128,KIM TIAN VISTA,1.28152464770049,103.829054629386,103.829054629386,160128,KIM TIAN ROAD,KIM TIAN VISTA,27525.4571938803,29330.0048112851
129 KIM TIAN ROAD KIM TIAN VISTA SINGAPORE 160129,129,KIM TIAN VISTA,1.2811530312289,103.828856188305,103.828856188305,160129,KIM TIAN ROAD,KIM TIAN VISTA,27503.3722503651,29288.9134203419
130 KIM TIAN ROAD KIM TIAN VISTA SINGAPORE 160130,130,KIM TIAN VISTA,1.28040157426854,103.829278570017,103.829278570017,160130,KIM TIAN ROAD,KIM TIAN VISTA,27550.3797608688,29205.8211158141
131 JALAN BUKIT MERAH BAMBINI MONTESSORI PTE. LTD. SINGAPORE 160131,131,BAMBINI MONTESSORI PTE. LTD.,1.2801894226101,103.828178445611,103.828178445611,160131,JALAN BUKIT MERAH,BAMBINI MONTESSORI PTE. LTD.,27427.9447981576,29182.3627020009
132 JALAN BUKIT MERAH SINGAPORE 160132,132,NIL,1.27873808127932,103.828304288385,103.828304288385,160132,JALAN BUKIT MERAH,132 JALAN BUKIT MERAH SINGAPORE 160132,27441.9497639555,29021.880853489
133 JALAN BUKIT MERAH SINGAPORE 160133,133,NIL,1.27955093259631,103.82740093837,103.82740093837,160133,JALAN BUKIT MERAH,133 JALAN BUKIT MERAH SINGAPORE 160133,27341.4143836265,29111.7619640846
134 JALAN BUKIT MERAH SINGAPORE 160134,134,NIL,1.27883101079191,103.82772371417,103.82772371417,160134,JALAN BUKIT MERAH,134 JALAN BUKIT MERAH SINGAPORE 160134,27377.3365477743,29032.1566523537
135 JALAN BUKIT MERAH SINGAPORE 160135,135,NIL,1.27860068677354,103.82708537661,103.82708537661,160135,JALAN BUKIT MERAH,135 JALAN BUKIT MERAH SINGAPORE 160135,27306.294653995,29006.6887773704
136 JALAN BUKIT MERAH SINGAPORE 160136,136,NIL,1.27828763907526,103.827537246771,103.827537246771,160136,JALAN BUKIT MERAH,136 JALAN BUKIT MERAH SINGAPORE 160136,27356.5840917062,28972.0734636877
137 JALAN BUKIT MERAH SINGAPORE 160137,137,NIL,1.27814726027803,103.826958969986,103.826958969986,160137,JALAN BUKIT MERAH,137 JALAN BUKIT MERAH SINGAPORE 160137,27292.2264886471,28956.5512546692
138 JALAN BUKIT MERAH SINGAPORE 160138,138,NIL,1.27842357024921,103.826237590943,103.826237590943,160138,JALAN BUKIT MERAH,138 JALAN BUKIT MERAH SINGAPORE 160138,27211.9428714002,28987.1043930613
139 JALAN BUKIT MERAH SINGAPORE 160139,139,NIL,1.27907853356834,103.826785281335,103.826785281335,160139,JALAN BUKIT MERAH,139 JALAN BUKIT MERAH SINGAPORE 160139,27272.8965975456,29059.526688505
140 JALAN BUKIT MERAH SINGAPORE 160140,140,NIL,1.27815614255865,103.829524327849,103.829524327849,160140,JALAN BUKIT MERAH,140 JALAN BUKIT MERAH SINGAPORE 160140,27577.7302439036,28957.5328453816
141 JALAN BUKIT MERAH SINGAPORE 160141,141,NIL,1.27714559744846,103.828738908605,103.828738908605,160141,JALAN BUKIT MERAH,141 JALAN BUKIT MERAH SINGAPORE 160141,27490.3191823866,28845.7921364084
142 JALAN BUKIT MERAH SINGAPORE 160142,142,NIL,1.27700823497374,103.828056201882,103.828056201882,160142,JALAN BUKIT MERAH,142 JALAN BUKIT MERAH SINGAPORE 160142,27414.3393394761,28830.603450302
143 JALAN BUKIT MERAH SINGAPORE 160143,143,NIL,1.27778523331688,103.830001495464,103.830001495464,160143,JALAN BUKIT MERAH,143 JALAN BUKIT MERAH SINGAPORE 160143,27630.835118656,28916.5195458364
144 JALAN BUKIT MERAH SINGAPORE 160144,144,NIL,1.27730543179553,103.829955551262,103.829955551262,160144,JALAN BUKIT MERAH,144 JALAN BUKIT MERAH SINGAPORE 160144,27625.7218270944,28863.4655818325
145 JALAN BUKIT MERAH SINGAPORE 160145,145,NIL,1.27729352946741,103.830515650322,103.830515650322,160145,JALAN BUKIT MERAH,145 JALAN BUKIT MERAH SINGAPORE 160145,27688.0563786579,28862.1494088285
146 JALAN BUKIT MERAH SINGAPORE 160146,146,NIL,1.27784876576774,103.830811459909,103.830811459909,160146,JALAN BUKIT MERAH,146 JALAN BUKIT MERAH SINGAPORE 160146,27720.9776840955,28923.5445329808
147 SILAT AVENUE SINGAPORE 160147,147,NIL,1.27727696508456,103.831093355841,103.831093355841,160147,SILAT AVENUE,147 SILAT AVENUE SINGAPORE 160147,27752.3503886824,28860.3177417945
148 SILAT AVENUE SINGAPORE 160148,148,NIL,1.27688315064164,103.830883904963,103.830883904963,160148,SILAT AVENUE,148 SILAT AVENUE SINGAPORE 160148,27729.0401366502,28816.7717989795
149 SILAT AVENUE SINGAPORE 160149,149,NIL,1.27736066510423,103.831600213349,103.831600213349,160149,SILAT AVENUE,149 SILAT AVENUE SINGAPORE 160149,27808.7595889494,28869.5728134438
150 SILAT AVENUE SINGAPORE 160150,150,NIL,1.27707706824333,103.831425856916,103.831425856916,160150,SILAT AVENUE,150 SILAT AVENUE SINGAPORE 160150,27789.3550872682,28838.2141532004
201 KIM TIAN ROAD SINGAPORE 160201,201,NIL,1.2805659901889,103.827374794883,103.827374794883,160201,KIM TIAN ROAD,201 KIM TIAN ROAD SINGAPORE 160201,27338.5050855679,29224.0017921105
568 GANGES AVENUE SINGAPORE 160568,568,NIL,1.28991402621127,103.831035210088,103.831035210088,160568,GANGES AVENUE,568 GANGES AVENUE SINGAPORE 160568,27745.8804860916,30257.6586724166
1 JALAN KUKOH HAWKER CENTRE (BLK 1 JALAN KUKOH) SINGAPORE 161001,1,HAWKER CENTRE (BLK 1 JALAN KUKOH),1.2882310152805,103.839934168065,103.839934168065,161001,JALAN KUKOH,HAWKER CENTRE (BLK 1 JALAN KUKOH),28736.2590833632,30071.5608476754
2 DELTA AVENUE SINGAPORE 161002,2,NIL,1.29173412228908,103.82802613443,103.82802613443,161002,DELTA AVENUE,2 DELTA AVENUE SINGAPORE 161002,27410.9964525504,30458.916004926
3 JALAN KUKOH SINGAPORE 161003,3,NIL,1.28819406377188,103.839392752271,103.839392752271,161003,JALAN KUKOH,3 JALAN KUKOH SINGAPORE 161003,28676.0040936219,30067.4747909456
4 DELTA AVENUE SINGAPORE 161004,4,NIL,1.29182862424357,103.826545813025,103.826545813025,161004,DELTA AVENUE,4 DELTA AVENUE SINGAPORE 161004,27246.2494516484,30469.3659355007
5 JALAN MINYAK SINGAPORE 161005,5,NIL,1.28787848965781,103.838066722633,103.838066722633,161005,JALAN MINYAK,5 JALAN MINYAK SINGAPORE 161005,28528.4282712229,30032.5799221657
6 JALAN BUKIT HO SWEE BUKIT HO SWEE VIEW SINGAPORE 161006,6,BUKIT HO SWEE VIEW,1.28763869859867,103.831443269057,103.831443269057,161006,JALAN BUKIT HO SWEE,BUKIT HO SWEE VIEW,27791.2937818933,30006.0646538734
7 TIONG BAHRU ROAD SINGAPORE 161007,7,NIL,1.28613832025727,103.831069869517,103.831069869517,161007,TIONG BAHRU ROAD,7 TIONG BAHRU ROAD SINGAPORE 161007,27749.737414185,29840.1605987586
8 JALAN BUKIT HO SWEE BUKIT HO SWEE VIEW SINGAPORE 161008,8,BUKIT HO SWEE VIEW,1.28752686260169,103.832020454212,103.832020454212,161008,JALAN BUKIT HO SWEE,BUKIT HO SWEE VIEW,27855.5296168532,29993.6983664464
9 TIONG BAHRU ROAD SINGAPORE 161009,9,NIL,1.28615970912446,103.830448149376,103.830448149376,161009,TIONG BAHRU ROAD,9 TIONG BAHRU ROAD SINGAPORE 161009,27680.5451666228,29842.5257390048
10 JALAN BUKIT HO SWEE BUKIT HO SWEE VIEW SINGAPORE 161010,10,BUKIT HO SWEE VIEW,1.28745837020188,103.832675765986,103.832675765986,161010,JALAN BUKIT HO SWEE,BUKIT HO SWEE VIEW,27928.4602933526,29986.124802364
11A BOON TIONG ROAD DBS BOON TIONG ROAD/11A SINGAPORE 161011,11A,DBS BOON TIONG ROAD/11A,1.28636578112537,103.828789865607,103.828789865607,161011,BOON TIONG ROAD,DBS BOON TIONG ROAD/11A,27495.9920986993,29865.3123851866
14 TAMAN HO SWEE BUKIT HO SWEE VIEW SINGAPORE 161014,14,BUKIT HO SWEE VIEW,1.28790461781044,103.83219770269,103.83219770269,161014,TAMAN HO SWEE,BUKIT HO SWEE VIEW,27875.2558974698,30035.4685774595
17 SENG POH ROAD SINGAPORE 161017,17,NIL,1.28529691796456,103.833235327463,103.833235327463,161017,SENG POH ROAD,17 SENG POH ROAD SINGAPORE 161017,27990.7347629676,29747.1225677282
19 LIM LIAK STREET SINGAPORE 161019,19,NIL,1.28549378363945,103.832599980169,103.832599980169,161019,LIM LIAK STREET,19 LIM LIAK STREET SINGAPORE 161019,27920.0259078136,29768.8909686692
21 LIM LIAK STREET SINGAPORE 161021,21,NIL,1.28543821567121,103.832161417555,103.832161417555,161021,LIM LIAK STREET,21 LIM LIAK STREET SINGAPORE 161021,27871.2175430823,29762.7465679757
22A HAVELOCK ROAD HAVELOCK ROAD COOKED FOOD CENTRE SINGAPORE 161022,22A,HAVELOCK ROAD COOKED FOOD CENTRE,1.28793145242331,103.829634832006,103.829634832006,161022,HAVELOCK ROAD,HAVELOCK ROAD COOKED FOOD CENTRE,27590.0300325714,30038.4360808507
23 LIM LIAK STREET SINGAPORE 161023,23,NIL,1.28546534866696,103.83171937723,103.83171937723,161023,LIM LIAK STREET,23 LIM LIAK STREET SINGAPORE 161023,27822.0221416429,29765.7468213253
25 LIM LIAK STREET SINGAPORE 161025,25,NIL,1.28540981038352,103.831280929684,103.831280929684,161025,LIM LIAK STREET,25 LIM LIAK STREET SINGAPORE 161025,27773.2265802687,29759.6057198402
26 JALAN MEMBINA MULTI STOREY CAR PARK SINGAPORE 161026,26,MULTI STOREY CAR PARK,1.28263437649669,103.825595753657,103.825595753657,161026,JALAN MEMBINA,MULTI STOREY CAR PARK,27140.5129420701,29452.7137900535
27 JALAN MEMBINA MEMBINA COURT SINGAPORE 161027,27,MEMBINA COURT,1.28276650091676,103.824679490861,103.824679490861,161027,JALAN MEMBINA,MEMBINA COURT,27038.5404681424,29467.3237523101
29 LIM LIAK STREET SINGAPORE 161029,29,NIL,1.28538144338708,103.830400732841,103.830400732841,161029,LIM LIAK STREET,29 LIM LIAK STREET SINGAPORE 161029,27675.2680041976,29756.4691394921
34 KIM CHENG STREET SINGAPORE 161034,34,NIL,1.28489922215081,103.831584184636,103.831584184636,161034,KIM CHENG STREET,34 KIM CHENG STREET SINGAPORE 161034,27806.9762901524,29703.1474854406
36 MOH GUAN TERRACE SINGAPORE 161036,36,NIL,1.28488193684795,103.83104242125,103.83104242125,161036,MOH GUAN TERRACE,36 MOH GUAN TERRACE SINGAPORE 161036,27746.682527124,29701.2362136077
38 KIM PONG ROAD SINGAPORE 161038,38,NIL,1.28486466867448,103.830500488707,103.830500488707,161038,KIM PONG ROAD,38 KIM PONG ROAD SINGAPORE 161038,27686.3699374087,29699.3268486597
42 KIM CHENG STREET SINGAPORE 161042,42,NIL,1.28443456965915,103.831598973038,103.831598973038,161042,KIM CHENG STREET,42 KIM CHENG STREET SINGAPORE 161042,27808.6220814995,29651.7686121911
44 MOH GUAN TERRACE SINGAPORE 161044,44,NIL,1.28442020673303,103.831056918196,103.831056918196,161044,MOH GUAN TERRACE,44 MOH GUAN TERRACE SINGAPORE 161044,27748.2958711917,29650.1804813538
46 SENG POH ROAD SINGAPORE 161046,46,NIL,1.28400391666539,103.831529775519,103.831529775519,161046,SENG POH ROAD,46 SENG POH ROAD SINGAPORE 161046,27800.920937866,29604.1492343973
48 MOH GUAN TERRACE SINGAPORE 161048,48,NIL,1.28399159776449,103.831070839075,103.831070839075,161048,MOH GUAN TERRACE,48 MOH GUAN TERRACE SINGAPORE 161048,27749.8451076709,29602.7871145941
50 MOH GUAN TERRACE SINGAPORE 161050,50,NIL,1.28407984956888,103.830525506982,103.830525506982,161050,MOH GUAN TERRACE,50 MOH GUAN TERRACE SINGAPORE 161050,27689.1541681597,29612.5456033479
51 HAVELOCK ROAD HAVELOCK VIEW SINGAPORE 161051,51,HAVELOCK VIEW,1.28994618456452,103.827679720482,103.827679720482,161051,HAVELOCK ROAD,HAVELOCK VIEW,27372.443122847,30261.2151605021
52 HAVELOCK ROAD HAVELOCK VIEW SINGAPORE 161052,52,HAVELOCK VIEW,1.28951776036854,103.828467082634,103.828467082634,161052,HAVELOCK ROAD,HAVELOCK VIEW,27460.0697226757,30213.8420430236
53 HAVELOCK ROAD HAVELOCK VIEW SINGAPORE 161053,53,HAVELOCK VIEW,1.2893366539636,103.828920345451,103.828920345451,161053,HAVELOCK ROAD,HAVELOCK VIEW,27510.5139811235,30193.8161396366
54 HAVELOCK ROAD HAVELOCK VIEW SINGAPORE 161054,54,HAVELOCK VIEW,1.28930893190551,103.829233342268,103.829233342268,161054,HAVELOCK ROAD,HAVELOCK VIEW,27545.3478599163,30190.7507193182
55 HAVELOCK ROAD HAVELOCK VIEW SINGAPORE 161055,55,HAVELOCK VIEW,1.29006686277944,103.829245853053,103.829245853053,161055,HAVELOCK ROAD,HAVELOCK VIEW,27546.7403385071,30274.5588011239
56 HAVELOCK ROAD HAVELOCK VIEW SINGAPORE 161056,56,HAVELOCK VIEW,1.29012952655141,103.828914256572,103.828914256572,161056,HAVELOCK ROAD,HAVELOCK VIEW,27509.8364928439,30281.4878992978
57 HAVELOCK ROAD HAVELOCK VIEW SINGAPORE 161057,57,HAVELOCK VIEW,1.29013858517146,103.828453293371,103.828453293371,161057,HAVELOCK ROAD,HAVELOCK VIEW,27458.5352267055,30282.4896484856
58 HAVELOCK ROAD HAVELOCK VIEW SINGAPORE 161058,58,HAVELOCK VIEW,1.29008719115666,103.827999956886,103.827999956886,161058,HAVELOCK ROAD,HAVELOCK VIEW,27408.0827353662,30276.8068648111
77 SENG POH ROAD TIONG BAHRU ESTATE SINGAPORE 161077,77,TIONG BAHRU ESTATE,1.28346690118722,103.831522665247,103.831522665247,161077,SENG POH ROAD,TIONG BAHRU ESTATE,27800.1295814319,29544.7688380443
78 INDUS ROAD ANIMAL MEDICAL CENTRE (VET@RV) SINGAPORE 161078,78,ANIMAL MEDICAL CENTRE (VET@RV),1.29130442807028,103.827447793798,103.827447793798,161078,INDUS ROAD,ANIMAL MEDICAL CENTRE (VET@RV),27346.6320089279,30411.4027769491
79 INDUS ROAD INDUS GARDEN SINGAPORE 161079,79,INDUS GARDEN,1.29107462413343,103.828690172458,103.828690172458,161079,INDUS ROAD,INDUS GARDEN,27484.8980351631,30385.991957115
105A JALAN BUKIT MERAH TIONG BAHRU ORCHID SINGAPORE 161105,105A,TIONG BAHRU ORCHID,1.28066118670896,103.824258381594,103.824258381594,161105,JALAN BUKIT MERAH,TIONG BAHRU ORCHID,26991.6736432258,29234.5291481856
107A JALAN BUKIT MERAH TIONG BAHRU ORCHID SINGAPORE 161107,107A,TIONG BAHRU ORCHID,1.27986597619726,103.825525852793,103.825525852793,161107,JALAN BUKIT MERAH,TIONG BAHRU ORCHID,27132.7326173913,29146.598415656
113A JALAN BUKIT MERAH MULTI STOREY CAR PARK SINGAPORE 161113,113A,MULTI STOREY CAR PARK,1.2802491885155,103.825273102894,103.825273102894,161113,JALAN BUKIT MERAH,MULTI STOREY CAR PARK,27104.6037326194,29188.9721399974
117A JALAN MEMBINA MULTI STOREY CAR PARK SINGAPORE 161117,117A,MULTI STOREY CAR PARK,1.28195105054175,103.827018447946,103.827018447946,161117,JALAN MEMBINA,MULTI STOREY CAR PARK,27298.8469441896,29377.154702384
118A JALAN MEMBINA MEMBINA 118 SINGAPORE 161118,118A,MEMBINA 118,1.28142028197972,103.825645216312,103.825645216312,161118,JALAN MEMBINA,MEMBINA 118,27146.0173262488,29318.46547544
119A KIM TIAN ROAD SINGAPORE 161119,119A,NIL,1.28148086463071,103.827290143354,103.827290143354,161119,KIM TIAN ROAD,119A KIM TIAN ROAD SINGAPORE 161119,27329.084296708,29325.1639013086
120A KIM TIAN PLACE KIM TIAN TOWERS SINGAPORE 161120,120A,KIM TIAN TOWERS,1.28324650251872,103.827854744997,103.827854744997,161120,KIM TIAN PLACE,KIM TIAN TOWERS,27391.920267689,29520.3988736346
121A KIM TIAN PLACE KIM TIAN TOWERS SINGAPORE 161121,121A,KIM TIAN TOWERS,1.28265068056025,103.828178493453,103.828178493453,161121,KIM TIAN PLACE,KIM TIAN TOWERS,27427.9506701464,29454.5158852674
125A KIM TIAN ROAD SINGAPORE 161125,125A,NIL,1.28308573551586,103.828658189947,103.828658189947,161125,KIM TIAN ROAD,125A KIM TIAN ROAD SINGAPORE 161125,27481.337037147,29502.6219117045
126A KIM TIAN ROAD KIM TIAN GREEN SINGAPORE 161126,126A,KIM TIAN GREEN,1.28285654819351,103.829496414106,103.829496414106,161126,KIM TIAN ROAD,KIM TIAN GREEN,27574.624446095,29477.2794067096
127A KIM TIAN ROAD KIM TIAN GREEN SINGAPORE 161127,127A,KIM TIAN GREEN,1.28196243466081,103.829559141133,103.829559141133,161127,KIM TIAN ROAD,KIM TIAN GREEN,27581.6053025192,29378.4129424673
129A KIM TIAN ROAD KIM TIAN VISTA SINGAPORE 161129,129A,KIM TIAN VISTA,1.2809759794697,103.829262248229,103.829262248229,161129,KIM TIAN ROAD,KIM TIAN VISTA,27548.5633791666,29269.335876599
131A KIM TIAN ROAD MULTI STOREY CAR PARK SINGAPORE 161131,131A,MULTI STOREY CAR PARK,1.28061973842453,103.82865387745,103.82865387745,161131,KIM TIAN ROAD,MULTI STOREY CAR PARK,27480.8565934412,29229.9446988367
132A JALAN BUKIT MERAH SINGAPORE 161132,132A,NIL,1.2783284102703,103.827923962344,103.827923962344,161132,JALAN BUKIT MERAH,132A JALAN BUKIT MERAH SINGAPORE 161132,27399.6224404331,28976.5816377178
133A JALAN BUKIT MERAH SINGAPORE 161133,133A,NIL,1.27961966656662,103.826899723826,103.826899723826,161133,JALAN BUKIT MERAH,133A JALAN BUKIT MERAH SINGAPORE 161133,27285.6332742898,29119.3623456005
134A JALAN BUKIT MERAH MULTI STOREY CAR PARK SINGAPORE 161134,134A,MULTI STOREY CAR PARK,1.27925619858448,103.827209347314,103.827209347314,161134,JALAN BUKIT MERAH,MULTI STOREY CAR PARK,27320.0917695491,29079.1718509253
139A JALAN BUKIT MERAH SINGAPORE 161139,139A,NIL,1.27924161904686,103.826781408624,103.826781408624,161139,JALAN BUKIT MERAH,139A JALAN BUKIT MERAH SINGAPORE 161139,27272.465641994,29077.5598386489
1 TIONG BAHRU ROAD SINGAPORE 162001,1,NIL,1.28613693561234,103.833027874167,103.833027874167,162001,TIONG BAHRU ROAD,1 TIONG BAHRU ROAD SINGAPORE 162001,27967.6469503473,29840.0073822252
2 JALAN BUKIT HO SWEE BUKIT HO SWEE VIEW SINGAPORE 162002,2,BUKIT HO SWEE VIEW,1.28728822015938,103.831873006286,103.831873006286,162002,JALAN BUKIT HO SWEE,BUKIT HO SWEE VIEW,27839.1198900174,29967.3105263654
3 TIONG BAHRU ROAD SINGAPORE 162003,3,NIL,1.28617878318091,103.832309554646,103.832309554646,162003,TIONG BAHRU ROAD,3 TIONG BAHRU ROAD SINGAPORE 162003,27887.7039992567,29844.6346910391
4 JALAN BUKIT HO SWEE BUKIT HO SWEE VIEW SINGAPORE 162004,4,BUKIT HO SWEE VIEW,1.28742239926051,103.831238878232,103.831238878232,162004,JALAN BUKIT HO SWEE,BUKIT HO SWEE VIEW,27768.5467867702,29982.1474076957
5 TIONG BAHRU ROAD SINGAPORE 162005,5,NIL,1.28620043157708,103.831687678938,103.831687678938,162005,TIONG BAHRU ROAD,5 TIONG BAHRU ROAD SINGAPORE 162005,27818.4944384089,29847.0284950677
6 JALAN MINYAK SINGAPORE 162006,6,NIL,1.28758908682933,103.837417467375,103.837417467375,162006,JALAN MINYAK,6 JALAN MINYAK SINGAPORE 162006,28456.1716929888,30000.5791266486
8 JALAN KUKOH CHIN SWEE VIEW SINGAPORE 162008,8,CHIN SWEE VIEW,1.2873776268224,103.839407060595,103.839407060595,162008,JALAN KUKOH,CHIN SWEE VIEW,28677.5967041207,29977.197411906
9A BOON TIONG ROAD TIONG BAHRU VIEW SINGAPORE 162009,9A,TIONG BAHRU VIEW,1.2868271524179,103.828659487514,103.828659487514,162009,BOON TIONG ROAD,TIONG BAHRU VIEW,27481.4822023967,29916.3284663837
10 JALAN KUKOH CHIN SWEE VIEW SINGAPORE 162010,10,CHIN SWEE VIEW,1.2869738344398,103.839075823483,103.839075823483,162010,JALAN KUKOH,CHIN SWEE VIEW,28640.732903,29932.5480497461
11 YORK HILL SINGAPORE 162011,11,NIL,1.28726393994064,103.838030276418,103.838030276418,162011,YORK HILL,11 YORK HILL SINGAPORE 162011,28524.372240332,29964.6261799615
12 TAMAN HO SWEE BUKIT HO SWEE VIEW SINGAPORE 162012,12,BUKIT HO SWEE VIEW,1.28780753147299,103.832780576669,103.832780576669,162012,TAMAN HO SWEE,BUKIT HO SWEE VIEW,27940.1248478452,30024.7332500666
13 YORK HILL SINGAPORE 162013,13,NIL,1.28654422558783,103.838264529411,103.838264529411,162013,YORK HILL,13 YORK HILL SINGAPORE 162013,28550.4427811401,29885.0439324323
18 TAMAN HO SWEE BUKIT HO SWEE VIEW SINGAPORE 162018,18,BUKIT HO SWEE VIEW,1.28809868332674,103.831032031024,103.831032031024,162018,TAMAN HO SWEE,BUKIT HO SWEE VIEW,27745.5265020216,30056.9274277315
22B HAVELOCK ROAD HAVELOCK ROAD COOKED FOOD CENTRE SINGAPORE 162022,22B,HAVELOCK ROAD COOKED FOOD CENTRE,1.28774735477206,103.82953144717,103.82953144717,162022,HAVELOCK ROAD,HAVELOCK ROAD COOKED FOOD CENTRE,27578.5241428493,30018.07953001
25A JALAN MEMBINA MEMBINA COURT SINGAPORE 162025,25A,MEMBINA COURT,1.28346637277709,103.826183412946,103.826183412946,162025,JALAN MEMBINA,MEMBINA COURT,27205.914851103,29544.7114499472
26A JALAN MEMBINA MEMBINA COURT SINGAPORE 162026,26A,MEMBINA COURT,1.28306228472371,103.826059892794,103.826059892794,162026,JALAN MEMBINA,MEMBINA COURT,27192.1679501338,29500.0295194369
42A HAVELOCK ROAD THE BEO CRESCENT SINGAPORE 162042,42A,THE BEO CRESCENT,1.28910716858189,103.82628690207,103.82628690207,162042,HAVELOCK ROAD,THE BEO CRESCENT,27217.4340587379,30168.441490043
44A HAVELOCK ROAD MULTI STOREY CAR PARK SINGAPORE 162044,44A,MULTI STOREY CAR PARK,1.28875268769602,103.826828582672,103.826828582672,162044,HAVELOCK ROAD,MULTI STOREY CAR PARK,27277.7184084235,30129.2446630038
48A HAVELOCK ROAD THE BEO CRESCENT SINGAPORE 162048,48A,THE BEO CRESCENT,1.28986706712873,103.826323921132,103.826323921132,162048,HAVELOCK ROAD,THE BEO CRESCENT,27221.5541972173,30252.4671381172
52A HAVELOCK ROAD HAVELOCK VIEW SINGAPORE 162052,52A,HAVELOCK VIEW,1.28984937786071,103.828652093659,103.828652093659,162052,HAVELOCK ROAD,HAVELOCK VIEW,27480.6599423513,30250.5105551127
54A HAVELOCK ROAD HAVELOCK VIEW SINGAPORE 162054,54A,HAVELOCK VIEW,1.28962554865698,103.829173949692,103.829173949692,162054,HAVELOCK ROAD,HAVELOCK VIEW,27538.738028436,30225.7605761681
77A INDUS ROAD INDUS GARDEN SINGAPORE 162077,77A,INDUS GARDEN,1.290884396953,103.827751174576,103.827751174576,162077,INDUS ROAD,INDUS GARDEN,27380.3955815481,30364.9578271899
78 MOH GUAN TERRACE SINGAPORE 162078,78,NIL,1.28363327298815,103.830492514551,103.830492514551,162078,MOH GUAN TERRACE,78 MOH GUAN TERRACE SINGAPORE 162078,27685.4823287865,29563.1654764041
118B JALAN MEMBINA MEMBINA 118 SINGAPORE 162118,118B,MEMBINA 118,1.28178928032033,103.825989640948,103.825989640948,162118,JALAN MEMBINA,MEMBINA 118,27184.3490943117,29359.2672925834
119B KIM TIAN ROAD KIM TIAN 119 SINGAPORE 162119,119B,KIM TIAN 119,1.28115558487763,103.827266559741,103.827266559741,162119,KIM TIAN ROAD,KIM TIAN 119,27326.4595479639,29289.1961535774
120B KIM TIAN PLACE KIM TIAN TOWERS SINGAPORE 162120,120B,KIM TIAN TOWERS,1.28345133826449,103.827466123525,103.827466123525,162120,KIM TIAN PLACE,KIM TIAN TOWERS,27348.6699522715,29543.0486479942
126B KIM TIAN ROAD KIM TIAN GREEN SINGAPORE 162126,126B,KIM TIAN GREEN,1.28265422099585,103.829757172347,103.829757172347,162126,KIM TIAN ROAD,KIM TIAN GREEN,27603.644662451,29454.9070686903
127B KIM TIAN ROAD KIM TIAN GREEN SINGAPORE 162127,127B,KIM TIAN GREEN,1.28185520799836,103.829978509058,103.829978509058,162127,KIM TIAN ROAD,KIM TIAN GREEN,27628.2775042998,29366.5563073494
131B KIM TIAN ROAD KIM TIAN VISTA SINGAPORE 162131,131B,KIM TIAN VISTA,1.28091756873327,103.828370313694,103.828370313694,162131,KIM TIAN ROAD,KIM TIAN VISTA,27449.2983158464,29262.8772942331
2 JALAN KUKOH SINGAPORE 163002,2,NIL,1.28857969885015,103.839614514996,103.839614514996,163002,JALAN KUKOH,2 JALAN KUKOH SINGAPORE 163002,28700.6843048651,30110.1163869426
4 JALAN MINYAK SINGAPORE 163004,4,NIL,1.28811682574004,103.838735762401,103.838735762401,163004,JALAN MINYAK,4 JALAN MINYAK SINGAPORE 163004,28602.8866939312,30058.9340437129
6 KIM TIAN ROAD SINGAPORE 163006,6,NIL,1.28400968071886,103.827421421303,103.827421421303,163006,KIM TIAN ROAD,6 KIM TIAN ROAD SINGAPORE 163006,27343.6951064672,29604.7872834932
8 KIM TIAN PLACE SINGAPORE 163008,8,NIL,1.28302965610411,103.827236715363,103.827236715363,163008,KIM TIAN PLACE,8 KIM TIAN PLACE SINGAPORE 163008,27323.1386053264,29496.4212730974
9B BOON TIONG ROAD MY WORLD PRESCHOOL LTD. SINGAPORE 163009,9B,MY WORLD PRESCHOOL LTD.,1.28681417822795,103.828928312802,103.828928312802,163009,BOON TIONG ROAD,MY WORLD PRESCHOOL LTD.,27511.4001974184,29914.8937942237
10A JALAN KUKOH SINGAPORE 163010,10A,NIL,1.28683793317038,103.838674084243,103.838674084243,163010,JALAN KUKOH,10A JALAN KUKOH SINGAPORE 163010,28596.0227324599,29917.5206919946
11B BOON TIONG ROAD TIONG BAHRU VIEW SINGAPORE 163011,11B,TIONG BAHRU VIEW,1.28613632693307,103.829480477757,103.829480477757,163011,BOON TIONG ROAD,TIONG BAHRU VIEW,27572.8514081445,29839.9403991755
12 YORK HILL SINGAPORE 163012,12,NIL,1.2869040952223,103.838147365943,103.838147365943,163012,YORK HILL,12 YORK HILL SINGAPORE 163012,28537.4033942902,29924.8364333902
16 TAMAN HO SWEE BUKIT HO SWEE VIEW SINGAPORE 163016,16,BUKIT HO SWEE VIEW,1.2880016960752,103.831614592325,103.831614592325,163016,TAMAN HO SWEE,BUKIT HO SWEE VIEW,27810.3606442157,30046.2030270807
17 TIONG BAHRU ROAD SINGAPORE 163017,17,NIL,1.28561526398792,103.833116272886,103.833116272886,163017,TIONG BAHRU ROAD,17 TIONG BAHRU ROAD SINGAPORE 163017,27977.4849833632,29782.3236274309
18 TIONG BAHRU ROAD SINGAPORE 163018,18,NIL,1.28572778130037,103.832592401388,103.832592401388,163018,TIONG BAHRU ROAD,18 TIONG BAHRU ROAD SINGAPORE 163018,27919.1824601796,29794.7652216032
19 JALAN MEMBINA SINGAPORE 163019,19,NIL,1.2855704164404,103.826276204595,103.826276204595,163019,JALAN MEMBINA,19 JALAN MEMBINA SINGAPORE 163019,27216.2424384868,29777.3657014314
20 TIONG BAHRU ROAD SINGAPORE 163020,20,NIL,1.28575479611863,103.832150774683,103.832150774683,163020,TIONG BAHRU ROAD,20 TIONG BAHRU ROAD SINGAPORE 163020,27870.0330963433,29797.7523991838
21 JALAN MEMBINA SINGAPORE 163021,21,NIL,1.28508656289053,103.825782815048,103.825782815048,163021,JALAN MEMBINA,21 JALAN MEMBINA SINGAPORE 163021,27161.3321390422,29723.8638318032
23 JALAN MEMBINA SINGAPORE 163023,23,NIL,1.28474832742359,103.82687567732,103.82687567732,163023,JALAN MEMBINA,23 JALAN MEMBINA SINGAPORE 163023,27282.9585228367,29686.463167455
27A JALAN MEMBINA MEMBINA COURT SINGAPORE 163027,27A,MEMBINA COURT,1.2822186913861,103.824536254761,103.824536254761,163027,JALAN MEMBINA,MEMBINA COURT,27022.5992594259,29406.7498590928
28 TIONG BAHRU ROAD SINGAPORE 163028,28,NIL,1.28569738247167,103.830391160227,103.830391160227,163028,TIONG BAHRU ROAD,28 TIONG BAHRU ROAD SINGAPORE 163028,27674.2026922423,29791.4040528145
78 YONG SIAK STREET SINGAPORE 163078,78,NIL,1.28285702106485,103.830422937143,103.830422937143,163078,YONG SIAK STREET,78 YONG SIAK STREET SINGAPORE 163078,27677.7388402447,29477.3315584473
118C JALAN MEMBINA MEMBINA 118 SINGAPORE 163118,118C,MEMBINA 118,1.2821693708226,103.826333715085,103.826333715085,163118,JALAN MEMBINA,MEMBINA 118,27222.6418469446,29401.2956289612
119C KIM TIAN ROAD KIM TIAN 119 SINGAPORE 163119,119C,KIM TIAN 119,1.28148915140735,103.827671951512,103.827671951512,163119,KIM TIAN ROAD,KIM TIAN 119,27371.5764294006,29326.0801131763
120C KIM TIAN PLACE KIM TIAN TOWERS SINGAPORE 163120,120C,KIM TIAN TOWERS,1.28318646426232,103.828191362529,103.828191362529,163120,KIM TIAN PLACE,KIM TIAN TOWERS,27429.3830116717,29513.760075694
126C KIM TIAN ROAD KIM TIAN GREEN SINGAPORE 163126,126C,KIM TIAN GREEN,1.28231370027498,103.829311503614,103.829311503614,163126,KIM TIAN ROAD,KIM TIAN GREEN,27554.0453347694,29417.2541206963
127C KIM TIAN ROAD KIM TIAN GREEN SINGAPORE 163127,127C,KIM TIAN GREEN,1.28152280420004,103.830035757166,103.830035757166,163127,KIM TIAN ROAD,KIM TIAN GREEN,27634.6487029968,29329.8008050751
131C KIM TIAN ROAD KIM TIAN VISTA SINGAPORE 163131,131C,KIM TIAN VISTA,1.28031242686461,103.828822266209,103.828822266209,163131,KIM TIAN ROAD,KIM TIAN VISTA,27499.5968339518,29195.9637415558
2A BOON TIONG ROAD BOON TIONG ARCADIA SINGAPORE 164002,2A,BOON TIONG ARCADIA,1.28652962097246,103.833163087554,103.833163087554,164002,BOON TIONG ROAD,BOON TIONG ARCADIA,27982.6950719366,29883.4284998737
4A BOON TIONG ROAD BOON TIONG ARCADIA SINGAPORE 164004,4A,BOON TIONG ARCADIA,1.28667370705366,103.832481682655,103.832481682655,164004,BOON TIONG ROAD,BOON TIONG ARCADIA,27906.8604245437,29899.360809803
6A BOON TIONG ROAD BOON TIONG ARCADIA SINGAPORE 164006,6A,BOON TIONG ARCADIA,1.28683524831823,103.831347591398,103.831347591398,164006,BOON TIONG ROAD,BOON TIONG ARCADIA,27780.6455960255,29917.2232787851
8A BOON TIONG ROAD BOON TIONG ARCADIA SINGAPORE 164008,8A,BOON TIONG ARCADIA,1.28652536951665,103.830124811691,103.830124811691,164008,BOON TIONG ROAD,BOON TIONG ARCADIA,27644.5604385529,29882.9586196952
9C BOON TIONG ROAD TIONG BAHRU VIEW SINGAPORE 164009,9C,TIONG BAHRU VIEW,1.28684455991278,103.829122970966,103.829122970966,164009,BOON TIONG ROAD,TIONG BAHRU VIEW,27533.0640224759,29918.2532074675
10B BOON TIONG ROAD TIONG BAHRU VIEW SINGAPORE 164010,10B,TIONG BAHRU VIEW,1.28633684743341,103.829204757258,103.829204757258,164010,BOON TIONG ROAD,TIONG BAHRU VIEW,27542.1660591997,29862.1129685044
12A TAMAN HO SWEE BUKIT HO SWEE VIEW SINGAPORE 164012,12A,BUKIT HO SWEE VIEW,1.2877106240149,103.833132082606,103.833132082606,164012,TAMAN HO SWEE,BUKIT HO SWEE VIEW,27979.244491525,30014.0177179351
18 JALAN MEMBINA SINGAPORE 164018,18,NIL,1.28569742883225,103.826785448095,103.826785448095,164018,JALAN MEMBINA,18 JALAN MEMBINA SINGAPORE 164018,27272.9170284346,29791.4099248033
19A JALAN MEMBINA SINGAPORE 164019,19A,NIL,1.28529172597121,103.826323201757,103.826323201757,164019,JALAN MEMBINA,19A JALAN MEMBINA SINGAPORE 164019,27221.4727460733,29746.5495342594
20 JALAN MEMBINA SINGAPORE 164020,20,NIL,1.28562459787443,103.825923251122,103.825923251122,164020,JALAN MEMBINA,20 JALAN MEMBINA SINGAPORE 164020,27176.9616783299,29783.3569158595
22C HAVELOCK ROAD SINGAPORE 164022,22C,NIL,1.28878482368426,103.828268465774,103.828268465774,164022,HAVELOCK ROAD,22C HAVELOCK ROAD SINGAPORE 164022,27437.965195775,30132.7977308091
24 TIONG BAHRU ROAD SINGAPORE 164024,24,NIL,1.28572654548652,103.831270493129,103.831270493129,164024,TIONG BAHRU ROAD,24 TIONG BAHRU ROAD SINGAPORE 164024,27772.0651069293,29794.628652459
25B JALAN MEMBINA MEMBINA COURT SINGAPORE 164025,25B,MEMBINA COURT,1.28362146974577,103.825391035279,103.825391035279,164025,JALAN MEMBINA,MEMBINA COURT,27117.7298069736,29561.8615316655
26 TIONG BAHRU ROAD SINGAPORE 164026,26,NIL,1.28567055710851,103.830832052892,103.830832052892,164026,TIONG BAHRU ROAD,26 TIONG BAHRU ROAD SINGAPORE 164026,27723.2703627907,29788.4377904106
27B JALAN MEMBINA MEMBINA COURT SINGAPORE 164027,27B,MEMBINA COURT,1.28290865549123,103.824868037687,103.824868037687,164027,JALAN MEMBINA,MEMBINA COURT,27059.5242321417,29483.0424005426
28A BEO CRESCENT MULTI STOREY CAR PARK SINGAPORE 164028,28A,MULTI STOREY CAR PARK,1.28815925020475,103.827782732047,103.827782732047,164028,BEO CRESCENT,MULTI STOREY CAR PARK,27383.9070006078,30063.6251574364
78A INDUS ROAD MULTI STOREY CAR PARK SINGAPORE 164078,78A,MULTI STOREY CAR PARK,1.29129782826991,103.828153110488,103.828153110488,164078,INDUS ROAD,MULTI STOREY CAR PARK,27425.1276963772,30410.6728342548
118D JALAN MEMBINA MEMBINA 118 SINGAPORE 164118,118D,MEMBINA 118,1.2826810505173,103.826583442179,103.826583442179,164118,JALAN MEMBINA,MEMBINA 118,27250.4345754897,29457.8744510096
119D KIM TIAN ROAD KIM TIAN 119 SINGAPORE 164119,119D,KIM TIAN 119,1.2819459836123,103.827911093868,103.827911093868,164119,KIM TIAN ROAD,KIM TIAN 119,27398.1911280192,29376.5941998623
127D KIM TIAN ROAD KIM TIAN GREEN SINGAPORE 164127,127D,KIM TIAN GREEN,1.28111980555052,103.829943174928,103.829943174928,164127,KIM TIAN ROAD,KIM TIAN GREEN,27624.3449970512,29285.2393108699
