ADDRESS,BLK_NO,BUILDING,LATITUDE,LONGITUDE,LONGTITUDE,POSTAL,ROAD_NAME,SEARCHVAL,X,Y
12 PASIR RIS WALK NTUC HEALTH (PASIR RIS) SINGAPORE 518063,12,NTUC HEALTH (PASIR RIS),1.37008350675499,103.964567960271,103.964567960271,518063,PASIR RIS WALK,NTUC HEALTH (PASIR RIS),42606.4780833321,39122.7887046412
5 PASIR RIS STREET 22 AWWA HOME SINGAPORE 518064,5,AWWA HOME,1.36537478102458,103.965369127644,103.965369127644,518064,PASIR RIS STREET 22,AWWA HOME,42695.6671770159,38602.125295816
3A PASIR RIS WALK TEMPORARY PRAYER SHED SINGAPORE 518069,3A,TEMPORARY PRAYER SHED,1.37140778886146,103.964496741066,103.964496741066,518069,PASIR RIS WALK,TEMPORARY PRAYER SHED,42598.544209172,39269.2210328821
21 PASIR RIS GROVE COCO PALMS SINGAPORE 518070,21,COCO PALMS,1.37191999032998,103.946770192124,103.946770192124,518070,PASIR RIS GROVE,COCO PALMS,40625.7880534437,39325.7569954656
23 PASIR RIS GROVE COCO PALMS SINGAPORE 518071,23,COCO PALMS,1.3720347049909,103.946401836451,103.946401836451,518071,PASIR RIS GROVE,COCO PALMS,40584.7938832641,39338.439643858
25 PASIR RIS GROVE COCO PALMS SINGAPORE 518072,25,COCO PALMS,1.37213474104815,103.945974218576,103.945974218576,518072,PASIR RIS GROVE,COCO PALMS,40537.2046221131,39349.498899214
27 PASIR RIS GROVE COCO PALMS SINGAPORE 518073,27,COCO PALMS,1.37234730448592,103.945605890775,103.945605890775,518073,PASIR RIS GROVE,COCO PALMS,40496.2130549802,39373.0012016017
29 PASIR RIS GROVE COCO PALMS SINGAPORE 518074,29,COCO PALMS,1.3724641535877,103.945195828733,103.945195828733,518074,PASIR RIS GROVE,COCO PALMS,40450.5774711063,39385.9196678568
31 PASIR RIS GROVE COCO PALMS SINGAPORE 518075,31,COCO PALMS,1.37207887142705,103.945087557807,103.945087557807,518075,PASIR RIS GROVE,COCO PALMS,40438.5302082272,39343.3164819311
33 PASIR RIS GROVE COCO PALMS SINGAPORE 518076,33,COCO PALMS,1.37190028369612,103.94549126349,103.94549126349,518076,PASIR RIS GROVE,COCO PALMS,40483.4587320015,39323.5712232888
1 PASIR RIS RISE SEA HORIZON SINGAPORE 518080,1,SEA HORIZON,1.37591819779032,103.958797848133,103.958797848133,518080,PASIR RIS RISE,SEA HORIZON,41964.2990715327,39767.9263210427
3 PASIR RIS RISE SEA HORIZON SINGAPORE 518081,3,SEA HORIZON,1.37590488480981,103.958502979324,103.958502979324,518081,PASIR RIS RISE,SEA HORIZON,41931.4838251099,39766.4525123797
5 PASIR RIS RISE SEA HORIZON SINGAPORE 518082,5,SEA HORIZON,1.37590488770458,103.958178116256,103.958178116256,518082,PASIR RIS RISE,SEA HORIZON,41895.3305043709,39766.4509384446
7 PASIR RIS RISE SEA HORIZON SINGAPORE 518083,7,SEA HORIZON,1.3762347586023,103.957947427589,103.957947427589,518083,PASIR RIS RISE,SEA HORIZON,41869.6557477182,39802.9251300804
9 PASIR RIS RISE SEA HORIZON SINGAPORE 518084,9,SEA HORIZON,1.37652117445494,103.957952067735,103.957952067735,518084,PASIR RIS RISE,SEA HORIZON,41870.1704850495,39834.5956413578
11 PASIR RIS RISE SEA HORIZON SINGAPORE 518085,11,SEA HORIZON,1.37680122409372,103.957962369075,103.957962369075,518085,PASIR RIS RISE,SEA HORIZON,41871.3152807299,39865.5622404087
13 PASIR RIS RISE SEA HORIZON SINGAPORE 518086,13,SEA HORIZON,1.37708887261158,103.95796604132,103.95796604132,518086,PASIR RIS RISE,SEA HORIZON,41871.7222943064,39897.3690484185
15 PASIR RIS RISE SEA HORIZON SINGAPORE 518087,15,SEA HORIZON,1.37749983591776,103.958859388352,103.958859388352,518087,PASIR RIS RISE,SEA HORIZON,41971.1385462061,39942.8166075777
17 PASIR RIS RISE SEA HORIZON SINGAPORE 518088,17,SEA HORIZON,1.37722309068834,103.958845821958,103.958845821958,518088,PASIR RIS RISE,SEA HORIZON,41969.6303833807,39912.2153733596
19 PASIR RIS RISE SEA HORIZON SINGAPORE 518089,19,SEA HORIZON,1.37693730121919,103.958829508379,103.958829508379,518089,PASIR RIS RISE,SEA HORIZON,41967.8165441891,39880.614054691
21 PASIR RIS RISE SEA HORIZON SINGAPORE 518090,21,SEA HORIZON,1.3766484041779,103.958800773896,103.958800773896,518090,PASIR RIS RISE,SEA HORIZON,41964.6204267163,39848.6690430678
23 PASIR RIS RISE SEA HORIZON SINGAPORE 518091,23,SEA HORIZON,1.37635830413734,103.958770995504,103.958770995504,518091,PASIR RIS RISE,SEA HORIZON,41961.3081407221,39816.5910036564
131 PASIR RIS GROVE D'NEST SINGAPORE 518130,131,D'NEST,1.36983181096693,103.946441576614,103.946441576614,518130,PASIR RIS GROVE,D'NEST,40589.2279915391,39094.8545640763
133 PASIR RIS GROVE D'NEST SINGAPORE 518131,133,D'NEST,1.3695007764838,103.946219897206,103.946219897206,518131,PASIR RIS GROVE,D'NEST,40564.5594334695,39058.2492212672
135 PASIR RIS GROVE D'NEST SINGAPORE 518132,135,D'NEST,1.36907633625895,103.946270834973,103.946270834973,518132,PASIR RIS GROVE,D'NEST,40570.2304126304,39011.3169569708
137 PASIR RIS GROVE D'NEST SINGAPORE 518133,137,D'NEST,1.36845265185769,103.946146415365,103.946146415365,518133,PASIR RIS GROVE,D'NEST,40556.3872292051,38942.352324646
139 PASIR RIS GROVE D'NEST SINGAPORE 518134,139,D'NEST,1.36857369907868,103.945571141969,103.945571141969,518134,PASIR RIS GROVE,D'NEST,40492.3654796937,38955.7341331951
141 PASIR RIS GROVE D'NEST SINGAPORE 518135,141,D'NEST,1.36864617449164,103.945131545714,103.945131545714,518135,PASIR RIS GROVE,D'NEST,40443.4432468079,38963.7458263412
143 PASIR RIS GROVE D'NEST SINGAPORE 518136,143,D'NEST,1.36864338653621,103.944809943273,103.944809943273,518136,PASIR RIS GROVE,D'NEST,40407.6527181212,38963.4358821884
145 PASIR RIS GROVE D'NEST SINGAPORE 518137,145,D'NEST,1.36913412388539,103.944788531852,103.944788531852,518137,PASIR RIS GROVE,D'NEST,40405.2673588609,39017.6991126779
147 PASIR RIS GROVE D'NEST SINGAPORE 518138,147,D'NEST,1.36911253687891,103.945143393212,103.945143393212,518138,PASIR RIS GROVE,D'NEST,40444.7593290079,39015.3139652926
149 PASIR RIS GROVE D'NEST SINGAPORE 518139,149,D'NEST,1.36908286839721,103.945667264087,103.945667264087,518139,PASIR RIS GROVE,D'NEST,40503.0600966485,39012.0360939968
11 PASIR RIS GROVE COCO PALMS SINGAPORE 518140,11,COCO PALMS,1.37150158736384,103.945323459304,103.945323459304,518140,PASIR RIS GROVE,COCO PALMS,40464.7862009704,39279.4844521414
13 PASIR RIS GROVE COCO PALMS SINGAPORE 518141,13,COCO PALMS,1.37136156245848,103.945744590993,103.945744590993,518141,PASIR RIS GROVE,COCO PALMS,40511.6538431216,39264.0033773147
15 PASIR RIS GROVE COCO PALMS SINGAPORE 518142,15,COCO PALMS,1.37109720037597,103.946164843754,103.946164843754,518142,PASIR RIS GROVE,COCO PALMS,40558.4243250461,39234.7737065107
17 PASIR RIS GROVE COCO PALMS SINGAPORE 518143,17,COCO PALMS,1.37103747120617,103.946578860859,103.946578860859,518143,PASIR RIS GROVE,COCO PALMS,40604.4997935276,39228.1713209543
19 PASIR RIS GROVE COCO PALMS SINGAPORE 518144,19,COCO PALMS,1.37152136472147,103.946464505913,103.946464505913,518144,PASIR RIS GROVE,COCO PALMS,40591.7709259233,39281.6773070265
26 PASIR RIS LINK SEA ESTA SINGAPORE 518145,26,SEA ESTA,1.37794932177147,103.959967062618,103.959967062618,518145,PASIR RIS LINK,SEA ESTA,42094.4065443659,39992.5251118764
28 PASIR RIS LINK SEA ESTA SINGAPORE 518146,28,SEA ESTA,1.37778944030575,103.959618469918,103.959618469918,518146,PASIR RIS LINK,SEA ESTA,42055.613371158,39974.8441297244
30 PASIR RIS LINK SEA ESTA SINGAPORE 518147,30,SEA ESTA,1.37750076552963,103.959420693377,103.959420693377,518147,PASIR RIS LINK,SEA ESTA,42033.6049451055,39942.9226968605
25 PASIR RIS LINK WATERCOLOURS SINGAPORE 518150,25,WATERCOLOURS,1.37570749939384,103.959759853434,103.959759853434,518150,PASIR RIS LINK,WATERCOLOURS,42071.3598356675,39744.6339573897
27 PASIR RIS LINK WATERCOLOURS SINGAPORE 518151,27,WATERCOLOURS,1.37583033068198,103.959482199655,103.959482199655,518151,PASIR RIS LINK,WATERCOLOURS,42040.4596143067,39758.2144147158
29 PASIR RIS LINK WATERCOLOURS SINGAPORE 518152,29,WATERCOLOURS,1.3762202996299,103.959523461706,103.959523461706,518152,PASIR RIS LINK,WATERCOLOURS,42045.0493000168,39801.3355463799
31 PASIR RIS LINK WATERCOLOURS SINGAPORE 518153,31,WATERCOLOURS,1.37655166513154,103.959397410496,103.959397410496,518153,PASIR RIS LINK,WATERCOLOURS,42031.0193934003,39837.9756065644
33 PASIR RIS LINK WATERCOLOURS SINGAPORE 518154,33,WATERCOLOURS,1.37670596628513,103.959783053347,103.959783053347,518154,PASIR RIS LINK,WATERCOLOURS,42073.9358529579,39855.0397574771
35 PASIR RIS LINK WATERCOLOURS SINGAPORE 518155,35,WATERCOLOURS,1.37671114421798,103.95992630291,103.95992630291,518155,PASIR RIS LINK,WATERCOLOURS,42089.877757838,39855.6131541599
18 PASIR RIS LINK SEA ESTA SINGAPORE 518156,18,SEA ESTA,1.37742779265615,103.959877225877,103.959877225877,518156,PASIR RIS LINK,SEA ESTA,42084.4118745346,39934.8564002719
20 PASIR RIS LINK SEA ESTA SINGAPORE 518157,20,SEA ESTA,1.3775253897225,103.960239292361,103.960239292361,518157,PASIR RIS LINK,SEA ESTA,42124.7048868705,39945.6503567491
22 PASIR RIS LINK SEA ESTA SINGAPORE 518158,22,SEA ESTA,1.37812217642744,103.960234265668,103.960234265668,518158,PASIR RIS LINK,SEA ESTA,42124.1419629091,40011.6401305608
24 PASIR RIS LINK SEA ESTA SINGAPORE 518159,24,SEA ESTA,1.37784827386187,103.960380213523,103.960380213523,518159,PASIR RIS LINK,SEA ESTA,42140.3857909264,39981.3541676626
4 PASIR RIS LINK RIPPLE BAY SINGAPORE 518160,4,RIPPLE BAY,1.37728246631098,103.961456235096,103.961456235096,518160,PASIR RIS LINK,RIPPLE BAY,42260.1372244703,39918.7962989155
6 PASIR RIS LINK RIPPLE BAY SINGAPORE 518161,6,RIPPLE BAY,1.3778920202583,103.961544937278,103.961544937278,518161,PASIR RIS LINK,RIPPLE BAY,42270.00507145,39986.1983768474
8 PASIR RIS LINK RIPPLE BAY SINGAPORE 518162,8,RIPPLE BAY,1.37787049599494,103.960939888398,103.960939888398,518162,PASIR RIS LINK,RIPPLE BAY,42202.6706424607,39983.8147125933
10 PASIR RIS LINK RIPPLE BAY SINGAPORE 518163,10,RIPPLE BAY,1.37837995394942,103.960914026879,103.960914026879,518163,PASIR RIS LINK,RIPPLE BAY,42199.7895541629,40040.1479704902
12 PASIR RIS LINK RIPPLE BAY SINGAPORE 518164,12,RIPPLE BAY,1.37847279113467,103.961312455573,103.961312455573,518164,PASIR RIS LINK,RIPPLE BAY,42244.1292445818,40050.4158391412
14 PASIR RIS LINK RIPPLE BAY SINGAPORE 518165,14,RIPPLE BAY,1.37815542568255,103.961704423212,103.961704423212,518165,PASIR RIS LINK,RIPPLE BAY,42287.7523404872,40015.3254391868
16 PASIR RIS LINK RIPPLE BAY SINGAPORE 518166,16,RIPPLE BAY,1.37861744601968,103.961665376747,103.961665376747,518166,PASIR RIS LINK,RIPPLE BAY,42283.4041932859,40066.4131949674
19 PASIR RIS LINK WATERCOLOURS SINGAPORE 518167,19,WATERCOLOURS,1.37647034302247,103.959846533938,103.959846533938,518167,PASIR RIS LINK,WATERCOLOURS,42081.0018532202,39828.9860456679
21 PASIR RIS LINK WATERCOLOURS SINGAPORE 518168,21,WATERCOLOURS,1.37622597532268,103.960085349791,103.960085349791,518168,PASIR RIS LINK,WATERCOLOURS,42107.5805934742,39801.9664522316
23 PASIR RIS LINK WATERCOLOURS SINGAPORE 518169,23,WATERCOLOURS,1.37595276562295,103.959954167983,103.959954167983,518169,PASIR RIS LINK,WATERCOLOURS,42092.9832529668,39771.755463127
111 PASIR RIS GROVE THE PALETTE SINGAPORE 518170,111,THE PALETTE,1.36958134322046,103.94398139213,103.94398139213,518170,PASIR RIS GROVE,THE PALETTE,40315.4400042035,39067.1462832056
113 PASIR RIS GROVE THE PALETTE SINGAPORE 518171,113,THE PALETTE,1.36962948718971,103.944377001078,103.944377001078,518171,PASIR RIS GROVE,THE PALETTE,40359.4663301874,39072.4718441367
115 PASIR RIS GROVE THE PALETTE SINGAPORE 518172,115,THE PALETTE,1.36972155350826,103.944973963535,103.944973963535,518172,PASIR RIS GROVE,THE PALETTE,40425.9006801452,39082.6551743113
117 PASIR RIS GROVE THE PALETTE SINGAPORE 518173,117,THE PALETTE,1.36962887643545,103.945371874254,103.945371874254,518173,PASIR RIS GROVE,THE PALETTE,40470.1838905066,39072.4094618224
119 PASIR RIS GROVE THE PALETTE SINGAPORE 518174,119,THE PALETTE,1.36997909925567,103.945764156314,103.945764156314,518174,PASIR RIS GROVE,THE PALETTE,40513.8384045791,39111.1374377925
121 PASIR RIS GROVE THE PALETTE SINGAPORE 518175,121,THE PALETTE,1.37031607617913,103.945842335426,103.945842335426,518175,PASIR RIS GROVE,THE PALETTE,40522.5370598836,39148.3991115596
123 PASIR RIS GROVE THE PALETTE SINGAPORE 518176,123,THE PALETTE,1.37044750684635,103.94546489173,103.94546489173,518176,PASIR RIS GROVE,THE PALETTE,40480.5313942246,39162.9301046468
125 PASIR RIS GROVE THE PALETTE SINGAPORE 518177,125,THE PALETTE,1.370048406135,103.945484504589,103.945484504589,518177,PASIR RIS GROVE,THE PALETTE,40482.7161372891,39118.7995962631
127 PASIR RIS GROVE D'NEST SINGAPORE 518178,127,D'NEST,1.37033365760834,103.946520522372,103.946520522372,518178,PASIR RIS GROVE,D'NEST,40598.011094518,39150.346735239
129 PASIR RIS GROVE D'NEST SINGAPORE 518179,129,D'NEST,1.37011753260225,103.946248406855,103.946248406855,518179,PASIR RIS GROVE,D'NEST,40567.7290059198,39126.4472563677
11 PASIR RIS LINK SEASTRAND SINGAPORE 518180,11,SEASTRAND,1.37558830923856,103.960839727163,103.960839727163,518180,PASIR RIS LINK,SEASTRAND,42191.5374121536,39731.460876856
13 PASIR RIS LINK SEASTRAND SINGAPORE 518181,13,SEASTRAND,1.3756369868622,103.960644064982,103.960644064982,518181,PASIR RIS LINK,SEASTRAND,42169.7622917201,39736.842251949
15 PASIR RIS LINK SEASTRAND SINGAPORE 518182,15,SEASTRAND,1.37570154434,103.960405299294,103.960405299294,518182,PASIR RIS LINK,SEASTRAND,42143.1901801545,39743.9792911708
17 PASIR RIS LINK SEASTRAND SINGAPORE 518183,17,SEASTRAND,1.37617625629392,103.960488443697,103.960488443697,518183,PASIR RIS LINK,SEASTRAND,42152.4403483905,39796.4711484481
2 PASIR RIS LINK RIPPLE BAY SINGAPORE 518184,2,RIPPLE BAY,1.37727987843588,103.960995134049,103.960995134049,518184,PASIR RIS LINK,RIPPLE BAY,42208.8223074712,39918.5073910095
1 PASIR RIS LINK SEASTRAND SINGAPORE 518185,1,SEASTRAND,1.37653402370619,103.960777976088,103.960777976088,518185,PASIR RIS LINK,SEASTRAND,42184.6596787497,39836.0330679063
3 PASIR RIS LINK SEASTRAND SINGAPORE 518186,3,SEASTRAND,1.37652251128531,103.961104587149,103.961104587149,518186,PASIR RIS LINK,SEASTRAND,42221.0075923558,39834.7620244659
5 PASIR RIS LINK SEASTRAND SINGAPORE 518187,5,SEASTRAND,1.37648948471679,103.961327139989,103.961327139989,518187,PASIR RIS LINK,SEASTRAND,42245.7752175368,39831.1114332173
7 PASIR RIS LINK SEASTRAND SINGAPORE 518188,7,SEASTRAND,1.37608146342971,103.961037855893,103.961037855893,518188,PASIR RIS LINK,SEASTRAND,42213.5838245256,39785.9926751647
9 PASIR RIS LINK SEASTRAND SINGAPORE 518189,9,SEASTRAND,1.37556055093607,103.961072724745,103.961072724745,518189,PASIR RIS LINK,SEASTRAND,42217.4673884446,39728.392883759
91 PASIR RIS GROVE NV RESIDENCES SINGAPORE 518190,91,NV RESIDENCES,1.37141634507612,103.943621458548,103.943621458548,518190,PASIR RIS GROVE,NV RESIDENCES,40275.374334693,39270.0499821529
93 PASIR RIS GROVE NV RESIDENCES SINGAPORE 518191,93,NV RESIDENCES,1.37092999528982,103.943892550961,103.943892550961,518191,PASIR RIS GROVE,NV RESIDENCES,40305.5461570257,39216.2731884308
95 PASIR RIS GROVE NV RESIDENCES SINGAPORE 518192,95,NV RESIDENCES,1.37095544488119,103.944312687761,103.944312687761,518192,PASIR RIS GROVE,NV RESIDENCES,40352.3022313891,39219.0894427076
97 PASIR RIS GROVE NV RESIDENCES SINGAPORE 518193,97,NV RESIDENCES,1.37115645749111,103.944089028206,103.944089028206,518193,PASIR RIS GROVE,NV RESIDENCES,40327.4105680119,39241.3152836878
99 PASIR RIS GROVE NV RESIDENCES SINGAPORE 518194,99,NV RESIDENCES,1.37094681098262,103.944730899828,103.944730899828,518194,PASIR RIS GROVE,NV RESIDENCES,40398.8442808399,39218.1369092595
101 PASIR RIS GROVE THE PALETTE SINGAPORE 518195,101,THE PALETTE,1.37026590756704,103.945204473783,103.945204473783,518195,PASIR RIS GROVE,THE PALETTE,40451.5509197302,39142.8483870979
103 PASIR RIS GROVE THE PALETTE SINGAPORE 518196,103,THE PALETTE,1.37030961368855,103.944776209228,103.944776209228,518196,PASIR RIS GROVE,THE PALETTE,40403.889953726,39147.6789756902
105 PASIR RIS GROVE THE PALETTE SINGAPORE 518197,105,THE PALETTE,1.37042367326737,103.944519140794,103.944519140794,518197,PASIR RIS GROVE,THE PALETTE,40375.2807160523,39160.2897981592
107 PASIR RIS GROVE THE PALETTE SINGAPORE 518198,107,THE PALETTE,1.37026239548906,103.944082405789,103.944082405789,518198,PASIR RIS GROVE,THE PALETTE,40326.678143342,39142.4542374127
109 PASIR RIS GROVE THE PALETTE SINGAPORE 518199,109,THE PALETTE,1.37013551622329,103.943727808877,103.943727808877,518199,PASIR RIS GROVE,THE PALETTE,40287.2163806427,39128.4227265939
101 PASIR RIS COAST INDUSTRIAL PARK 6 SERANGOON EAST DAM SINGAPORE 518200,101,SERANGOON EAST DAM,1.40058195160079,103.929653556533,103.929653556533,518200,PASIR RIS COAST INDUSTRIAL PARK 6,SERANGOON EAST DAM,38720.7833287157,42494.9722539131
50 PASIR RIS COAST INDUSTRIAL PARK 6 SINGAPORE 518201,50,NIL,1.39838466948425,103.932586107488,103.932586107488,518201,PASIR RIS COAST INDUSTRIAL PARK 6,50 PASIR RIS COAST INDUSTRIAL PARK 6 SINGAPORE 518201,39047.1472880561,42252.0211673174
71 PASIR RIS GROVE LIVIA SINGAPORE 518205,71,LIVIA,1.37305703366527,103.942459094386,103.942459094386,518205,PASIR RIS GROVE,LIVIA,40146.0088512134,39451.4633823931
73 PASIR RIS GROVE LIVIA SINGAPORE 518206,73,LIVIA,1.37307907959145,103.942654013489,103.942654013489,518206,PASIR RIS GROVE,LIVIA,40167.7008860316,39453.9021041095
75 PASIR RIS GROVE LIVIA SINGAPORE 518207,75,LIVIA,1.37304121118052,103.943306598164,103.943306598164,518207,PASIR RIS GROVE,LIVIA,40240.3258861629,39449.7181304526
77 PASIR RIS GROVE LIVIA SINGAPORE 518208,77,LIVIA,1.3729148417953,103.943602727992,103.943602727992,518208,PASIR RIS GROVE,LIVIA,40273.2822116585,39435.7463383637
79 PASIR RIS GROVE LIVIA SINGAPORE 518209,79,LIVIA,1.37275956404085,103.944122454706,103.944122454706,518209,PASIR RIS GROVE,LIVIA,40331.1223308556,39418.5791552346
81 PASIR RIS GROVE LIVIA SINGAPORE 518210,81,LIVIA,1.37280149385449,103.94430920065,103.94430920065,518210,PASIR RIS GROVE,LIVIA,40351.9046916915,39423.2165130209
83 PASIR RIS GROVE NV RESIDENCES SINGAPORE 518211,83,NV RESIDENCES,1.3714701111373,103.944466035434,103.944466035434,518211,PASIR RIS GROVE,NV RESIDENCES,40369.3653531903,39275.9995175693
85 PASIR RIS GROVE NV RESIDENCES SINGAPORE 518212,85,NV RESIDENCES,1.37186327386309,103.944268662748,103.944268662748,518212,PASIR RIS GROVE,NV RESIDENCES,40347.3981218636,39319.4725145418
87 PASIR RIS GROVE NV RESIDENCES SINGAPORE 518213,87,NV RESIDENCES,1.37184506128881,103.943840985234,103.943840985234,518213,PASIR RIS GROVE,NV RESIDENCES,40299.8028373839,39317.4564549513
89 PASIR RIS GROVE NV RESIDENCES SINGAPORE 518214,89,NV RESIDENCES,1.37178755504668,103.943433997804,103.943433997804,518214,PASIR RIS GROVE,NV RESIDENCES,40254.5103108371,39311.0956079047
61 PASIR RIS GROVE LIVIA SINGAPORE 518215,61,LIVIA,1.37234260087294,103.943819783648,103.943819783648,518215,PASIR RIS GROVE,LIVIA,40297.4408147382,39372.4718448352
63 PASIR RIS GROVE LIVIA SINGAPORE 518216,63,LIVIA,1.37233081948329,103.943417527664,103.943417527664,518216,PASIR RIS GROVE,LIVIA,40252.6746181604,39371.1670525931
65 PASIR RIS GROVE LIVIA SINGAPORE 518217,65,LIVIA,1.37232549277135,103.943018215601,103.943018215601,518217,PASIR RIS GROVE,LIVIA,40208.2360119699,39370.576009674
67 PASIR RIS GROVE LIVIA SINGAPORE 518218,67,LIVIA,1.37266009256918,103.943152814732,103.943152814732,518218,PASIR RIS GROVE,LIVIA,40223.2135788891,39407.5751086827
69 PASIR RIS GROVE LIVIA SINGAPORE 518219,69,LIVIA,1.37258148702295,103.942726006017,103.942726006017,518219,PASIR RIS GROVE,LIVIA,40175.7153032962,39398.8811146487
81 PASIR RIS INDUSTRIAL DRIVE 1 PASIR RIS WAFER FAB PARK SINGAPORE 518220,81,PASIR RIS WAFER FAB PARK,1.3804135650472,103.930754295326,103.930754295326,518220,PASIR RIS INDUSTRIAL DRIVE 1,PASIR RIS WAFER FAB PARK,38843.3728397526,40264.856149815
70A PASIR RIS INDUSTRIAL DRIVE 1 SINGAPORE 518221,70A,NIL,1.38371456582916,103.933875524222,103.933875524222,518221,PASIR RIS INDUSTRIAL DRIVE 1,70A PASIR RIS INDUSTRIAL DRIVE 1 SINGAPORE 518221,39190.7113616252,40629.8790741228
61 PASIR RIS GREEN SINGAPORE 518225,61,NIL,1.37969648941633,103.948489694716,103.948489694716,518225,PASIR RIS GREEN,61 PASIR RIS GREEN SINGAPORE 518225,40817.1065908195,40185.6536141429
51 PASIR RIS GREEN SINGAPORE 518226,51,NIL,1.37897899508086,103.948144815095,103.948144815095,518226,PASIR RIS GREEN,51 PASIR RIS GREEN SINGAPORE 518226,40778.7295721201,40106.3147212025
29 PASIR RIS COAST INDUSTRIAL PARK 3 PASIR RIS CAMP SINGAPORE 518227,29,PASIR RIS CAMP,1.39287318817571,103.933456264314,103.933456264314,518227,PASIR RIS COAST INDUSTRIAL PARK 3,PASIR RIS CAMP,39144.0101328483,41642.5926587228
28 PASIR RIS COAST INDUSTRIAL PARK 3 LOYANG AGROTECHNOLOGY PARK SINGAPORE 518228,28,LOYANG AGROTECHNOLOGY PARK,1.39153285458978,103.931372200327,103.931372200327,518228,PASIR RIS COAST INDUSTRIAL PARK 3,LOYANG AGROTECHNOLOGY PARK,38912.0870953156,41494.3753972128
31 PASIR RIS COAST INDUSTRIAL PARK 3 PASIR RIS CAMP SINGAPORE 518230,31,PASIR RIS CAMP,1.3929123111853,103.933607816142,103.933607816142,518230,PASIR RIS COAST INDUSTRIAL PARK 3,PASIR RIS CAMP,39160.8756955191,41646.9194064606
63 PASIR RIS FARMWAY 3 LOYANG AGROTECHNOLOGY PARK SINGAPORE 518233,63,LOYANG AGROTECHNOLOGY PARK,1.38782550486611,103.929960662505,103.929960662505,518233,PASIR RIS FARMWAY 3,LOYANG AGROTECHNOLOGY PARK,38755.0179922348,41084.4283985253
70 PASIR RIS FARMWAY 3 LOYANG AGROTECHNOLOGY PARK SINGAPORE 518234,70,LOYANG AGROTECHNOLOGY PARK,1.39011921139224,103.929210765479,103.929210765479,518234,PASIR RIS FARMWAY 3,LOYANG AGROTECHNOLOGY PARK,38671.5537547227,41338.0517945718
1 PASIR RIS COAST INDUSTRIAL PARK 1 LOYANG AGROTECHNOLOGY PARK SINGAPORE 518235,1,LOYANG AGROTECHNOLOGY PARK,1.38924419458862,103.930004486741,103.930004486741,518235,PASIR RIS COAST INDUSTRIAL PARK 1,LOYANG AGROTECHNOLOGY PARK,38759.8886556393,41241.3003359586
4 PASIR RIS COAST INDUSTRIAL PARK 1 LOYANG AGROTECHNOLOGY PARK SINGAPORE 518237,4,LOYANG AGROTECHNOLOGY PARK,1.38994101123664,103.930484260494,103.930484260494,518237,PASIR RIS COAST INDUSTRIAL PARK 1,LOYANG AGROTECHNOLOGY PARK,38813.2781402422,41318.3530880883
2 PASIR RIS WALK AL - ISTIGHFAR MOSQUE KINDERGARTEN SINGAPORE 518239,2,AL - ISTIGHFAR MOSQUE KINDERGARTEN,1.37099780377049,103.964110392533,103.964110392533,518239,PASIR RIS WALK,AL - ISTIGHFAR MOSQUE KINDERGARTEN,42555.550687328,39223.884496687
10 PASIR RIS WALK APEX HARMONY LODGE SINGAPORE 518240,10,APEX HARMONY LODGE,1.37056212817076,103.964349401009,103.964349401009,518240,PASIR RIS WALK,APEX HARMONY LODGE,42582.1521285698,39175.7110331822
5 RIVERINA CRESCENT THE RIVERINA SINGAPORE 518241,5,THE RIVERINA,1.37914470426804,103.94468894976,103.94468894976,518241,RIVERINA CRESCENT,THE RIVERINA,40394.1334626582,40124.6197686438
7 RIVERINA CRESCENT THE RIVERINA SINGAPORE 518242,7,THE RIVERINA,1.37919599138322,103.944687141575,103.944687141575,518242,RIVERINA CRESCENT,THE RIVERINA,40393.9319686908,40130.2908386085
9 RIVERINA CRESCENT THE RIVERINA SINGAPORE 518243,9,THE RIVERINA,1.3792534544776,103.94468467059,103.94468467059,518243,RIVERINA CRESCENT,THE RIVERINA,40393.6566813784,40136.6448148228
10 RIVERINA CRESCENT THE RIVERINA SINGAPORE 518244,10,THE RIVERINA,1.37931567740968,103.945038260945,103.945038260945,518244,RIVERINA CRESCENT,THE RIVERINA,40433.006603878,40143.5269673523
11 RIVERINA CRESCENT THE RIVERINA SINGAPORE 518245,11,THE RIVERINA,1.37930440791952,103.944682724768,103.944682724768,518245,RIVERINA CRESCENT,THE RIVERINA,40393.4398718113,40142.2789881155
12 RIVERINA CRESCENT THE RIVERINA SINGAPORE 518246,12,THE RIVERINA,1.37933505895071,103.945086175695,103.945086175695,518246,RIVERINA CRESCENT,THE RIVERINA,40438.3388237655,40145.670334084
13 RIVERINA CRESCENT THE RIVERINA SINGAPORE 518247,13,THE RIVERINA,1.37936194519613,103.944680236653,103.944680236653,518247,RIVERINA CRESCENT,THE RIVERINA,40393.1626776168,40148.6411669534
14 RIVERINA CRESCENT THE RIVERINA SINGAPORE 518248,14,THE RIVERINA,1.3793571305117,103.945138743055,103.945138743055,518248,RIVERINA CRESCENT,THE RIVERINA,40444.1888077827,40148.1111745592
15 RIVERINA CRESCENT THE RIVERINA SINGAPORE 518249,15,THE RIVERINA,1.37941291013222,103.944678345499,103.944678345499,518249,RIVERINA CRESCENT,THE RIVERINA,40392.9519519135,40154.2766115014
16 RIVERINA CRESCENT THE RIVERINA SINGAPORE 518250,16,THE RIVERINA,1.37937594299118,103.94518602189,103.94518602189,518250,RIVERINA CRESCENT,THE RIVERINA,40449.4502611244,40150.191614151
17 RIVERINA CRESCENT THE RIVERINA SINGAPORE 518251,17,THE RIVERINA,1.37947039321002,103.944675852213,103.944675852213,518251,RIVERINA CRESCENT,THE RIVERINA,40392.6741826274,40160.6327972785
18 RIVERINA CRESCENT THE RIVERINA SINGAPORE 518252,18,THE RIVERINA,1.37939800277885,103.945238598771,103.945238598771,518252,RIVERINA CRESCENT,THE RIVERINA,40455.301304521,40152.631153103
19 RIVERINA CRESCENT THE RIVERINA SINGAPORE 518253,19,THE RIVERINA,1.37952186757338,103.944673716573,103.944673716573,518253,RIVERINA CRESCENT,THE RIVERINA,40392.4362460077,40166.3245705441
20 RIVERINA CRESCENT THE RIVERINA SINGAPORE 518254,20,THE RIVERINA,1.37941683961908,103.945285862922,103.945285862922,518254,RIVERINA CRESCENT,THE RIVERINA,40460.5611233916,40154.7142865472
21 RIVERINA CRESCENT THE RIVERINA SINGAPORE 518255,21,THE RIVERINA,1.37969181536892,103.94506815274,103.94506815274,518255,RIVERINA CRESCENT,THE RIVERINA,40436.3312392095,40185.1186275296
22 RIVERINA CRESCENT THE RIVERINA SINGAPORE 518256,22,THE RIVERINA,1.37943886956741,103.945338442522,103.945338442522,518256,RIVERINA CRESCENT,THE RIVERINA,40466.4124694681,40157.150526287
23 RIVERINA CRESCENT THE RIVERINA SINGAPORE 518257,23,THE RIVERINA,1.37974816387196,103.945163110565,103.945163110565,518257,RIVERINA CRESCENT,THE RIVERINA,40446.8985792929,40191.3498670701
24 RIVERINA CRESCENT THE RIVERINA SINGAPORE 518258,24,THE RIVERINA,1.37945774882908,103.945385810845,103.945385810845,518258,RIVERINA CRESCENT,THE RIVERINA,40471.6838809755,40159.2383512687
25 RIVERINA CRESCENT THE RIVERINA SINGAPORE 518259,25,THE RIVERINA,1.37976787143979,103.945210707123,103.945210707123,518259,RIVERINA CRESCENT,THE RIVERINA,40452.1953856396,40193.5292829704
26 RIVERINA CRESCENT THE RIVERINA SINGAPORE 518260,26,THE RIVERINA,1.37949283863941,103.945470983474,103.945470983474,518260,RIVERINA CRESCENT,THE RIVERINA,40481.1623606132,40163.1188581213
27 RIVERINA CRESCENT THE RIVERINA SINGAPORE 518261,27,THE RIVERINA,1.37978594404497,103.945263213112,103.945263213112,518261,RIVERINA CRESCENT,THE RIVERINA,40458.0385593604,40195.5279384702
28 RIVERINA CRESCENT THE RIVERINA SINGAPORE 518262,28,THE RIVERINA,1.37951225165367,103.945518826428,103.945518826428,518262,RIVERINA CRESCENT,THE RIVERINA,40486.4865897531,40165.2657056693
29 RIVERINA CRESCENT THE RIVERINA SINGAPORE 518263,29,THE RIVERINA,1.37980954449689,103.945313646602,103.945313646602,518263,RIVERINA CRESCENT,THE RIVERINA,40463.6510607768,40198.1378256343
30 RIVERINA CRESCENT THE RIVERINA SINGAPORE 518264,30,THE RIVERINA,1.3795342416306,103.945571426157,103.945571426157,518264,RIVERINA CRESCENT,THE RIVERINA,40492.3401756594,40167.6975262854
31 RIVERINA CRESCENT THE RIVERINA SINGAPORE 518265,31,THE RIVERINA,1.3798293030052,103.94536062033,103.94536062033,518265,RIVERINA CRESCENT,THE RIVERINA,40468.8785534408,40200.3228713796
32 RIVERINA CRESCENT THE RIVERINA SINGAPORE 518266,32,THE RIVERINA,1.37955314854028,103.945618667471,103.945618667471,518266,RIVERINA CRESCENT,THE RIVERINA,40497.5974520193,40169.7884083334
33 RIVERINA CRESCENT THE RIVERINA SINGAPORE 518267,33,THE RIVERINA,1.38007106922756,103.945178913799,103.945178913799,518267,RIVERINA CRESCENT,THE RIVERINA,40448.6556054801,40227.0552519187
34 RIVERINA CRESCENT THE RIVERINA SINGAPORE 518268,34,THE RIVERINA,1.37957511524702,103.945671279439,103.945671279439,518268,RIVERINA CRESCENT,THE RIVERINA,40503.4523999859,40172.2176561709
35 RIVERINA CRESCENT THE RIVERINA SINGAPORE 518269,35,THE RIVERINA,1.38011873956531,103.945563011028,103.945563011028,518269,RIVERINA CRESCENT,THE RIVERINA,40491.4006271772,40232.3284189701
36 RIVERINA CRESCENT THE RIVERINA SINGAPORE 518270,36,THE RIVERINA,1.37959404295866,103.945718510964,103.945718510964,518270,RIVERINA CRESCENT,THE RIVERINA,40508.7085866984,40174.3108385839
37 RIVERINA CRESCENT THE RIVERINA SINGAPORE 518271,37,THE RIVERINA,1.3800707774383,103.945582936194,103.945582936194,518271,RIVERINA CRESCENT,THE RIVERINA,40493.6183018079,40227.025105007
38 RIVERINA CRESCENT THE RIVERINA SINGAPORE 518272,38,THE RIVERINA,1.37961599625002,103.945771124837,103.945771124837,518272,RIVERINA CRESCENT,THE RIVERINA,40514.5637465408,40176.7386032902
39 RIVERINA CRESCENT THE RIVERINA SINGAPORE 518273,39,THE RIVERINA,1.37991305574757,103.945574775663,103.945574775663,518273,RIVERINA CRESCENT,THE RIVERINA,40492.7109584603,40209.5849652011
40 RIVERINA CRESCENT THE RIVERINA SINGAPORE 518274,40,THE RIVERINA,1.37963494119688,103.945818520639,103.945818520639,518274,RIVERINA CRESCENT,THE RIVERINA,40519.8382151155,40178.8336925879
41 RIVERINA CRESCENT THE RIVERINA SINGAPORE 518275,41,THE RIVERINA,1.37993371940225,103.945623449311,103.945623449311,518275,RIVERINA CRESCENT,THE RIVERINA,40498.1276260223,40211.8701071665
42 RIVERINA CRESCENT THE RIVERINA SINGAPORE 518276,42,THE RIVERINA,1.37967000498492,103.945903715309,103.945903715309,518276,RIVERINA CRESCENT,THE RIVERINA,40529.319146459,40182.7113239821
43 RIVERINA CRESCENT THE RIVERINA SINGAPORE 518277,43,THE RIVERINA,1.37995658511995,103.945680241932,103.945680241932,518277,RIVERINA CRESCENT,THE RIVERINA,40504.4478231668,40214.3987853304
44 RIVERINA CRESCENT THE RIVERINA SINGAPORE 518278,44,THE RIVERINA,1.37968945111527,103.945951477493,103.945951477493,518278,RIVERINA CRESCENT,THE RIVERINA,40534.6343860077,40184.8618339561
45 RIVERINA CRESCENT THE RIVERINA SINGAPORE 518279,45,THE RIVERINA,1.37997728786475,103.945729994255,103.945729994255,518279,RIVERINA CRESCENT,THE RIVERINA,40509.9845335521,40216.6882556193
46 RIVERINA CRESCENT THE RIVERINA SINGAPORE 518280,46,THE RIVERINA,1.37971136115048,103.946004110407,103.946004110407,518280,RIVERINA CRESCENT,THE RIVERINA,40540.4916646089,40187.284816321
47 RIVERINA CRESCENT THE RIVERINA SINGAPORE 518281,47,THE RIVERINA,1.38000017082518,103.945786780351,103.945786780351,518281,RIVERINA CRESCENT,THE RIVERINA,40516.3040042641,40219.2188406661
48 RIVERINA CRESCENT THE RIVERINA SINGAPORE 518282,48,THE RIVERINA,1.37973034798219,103.946051321269,103.946051321269,518282,RIVERINA CRESCENT,THE RIVERINA,40545.7455509547,40189.3845366202
49 RIVERINA CRESCENT THE RIVERINA SINGAPORE 518283,49,THE RIVERINA,1.38001985123278,103.945835371003,103.945835371003,518283,RIVERINA CRESCENT,THE RIVERINA,40521.711440091,40221.395260036
50 RIVERINA CRESCENT THE RIVERINA SINGAPORE 518284,50,THE RIVERINA,1.37975223474729,103.946103964247,103.946103964247,518284,RIVERINA CRESCENT,THE RIVERINA,40551.6039494704,40191.8049462046
51 RIVERINA CRESCENT THE RIVERINA SINGAPORE 518285,51,THE RIVERINA,1.38014267307367,103.94573582701,103.94573582701,518285,RIVERINA CRESCENT,THE RIVERINA,40510.6327829594,40234.975777898
52 RIVERINA CRESCENT THE RIVERINA SINGAPORE 518286,52,THE RIVERINA,1.3797712429286,103.946151162327,103.946151162327,518286,RIVERINA CRESCENT,THE RIVERINA,40556.856413221,40193.9070274066
53 RIVERINA CRESCENT THE RIVERINA SINGAPORE 518287,53,THE RIVERINA,1.38007529923744,103.945956656456,103.945956656456,518287,RIVERINA CRESCENT,THE RIVERINA,40535.2087209988,40227.5270692483
54 RIVERINA CRESCENT THE RIVERINA SINGAPORE 518288,54,THE RIVERINA,1.37979311162472,103.946203811018,103.946203811018,518288,RIVERINA CRESCENT,THE RIVERINA,40562.7154473653,40196.325439306
55 RIVERINA CRESCENT THE RIVERINA SINGAPORE 518289,55,THE RIVERINA,1.38009489920663,103.946004353381,103.946004353381,518289,RIVERINA CRESCENT,THE RIVERINA,40540.5166962314,40229.6945898309
56 RIVERINA CRESCENT THE RIVERINA SINGAPORE 518290,56,THE RIVERINA,1.3798121485347,103.9462512411,103.9462512411,518290,RIVERINA CRESCENT,THE RIVERINA,40567.9937297059,40198.4306986444
57 RIVERINA CRESCENT THE RIVERINA SINGAPORE 518291,57,THE RIVERINA,1.38011623795188,103.946057167688,103.946057167688,518291,RIVERINA CRESCENT,THE RIVERINA,40546.3941635769,40232.0544029139
58 RIVERINA CRESCENT THE RIVERINA SINGAPORE 518292,58,THE RIVERINA,1.37985738546694,103.946361414064,103.946361414064,518292,RIVERINA CRESCENT,THE RIVERINA,40580.2543818699,40203.4333607256
59 RIVERINA CRESCENT THE RIVERINA SINGAPORE 518293,59,THE RIVERINA,1.3801359717948,103.946104428094,103.946104428094,518293,RIVERINA CRESCENT,THE RIVERINA,40551.6535586957,40234.2367245387
60 RIVERINA CRESCENT THE RIVERINA SINGAPORE 518294,60,THE RIVERINA,1.37987687511499,103.946409089768,103.946409089768,518294,RIVERINA CRESCENT,THE RIVERINA,40585.5599961998,40205.5886833109
61 RIVERINA CRESCENT THE RIVERINA SINGAPORE 518295,61,THE RIVERINA,1.38018016805968,103.94621913846,103.94621913846,518295,RIVERINA CRESCENT,THE RIVERINA,40564.4191716332,40239.1243380141
62 RIVERINA CRESCENT THE RIVERINA SINGAPORE 518296,62,THE RIVERINA,1.37989870192297,103.946461758587,103.946461758587,518296,RIVERINA CRESCENT,THE RIVERINA,40591.4212701749,40208.0024642088
63 RIVERINA CRESCENT THE RIVERINA SINGAPORE 518297,63,THE RIVERINA,1.38020072494943,103.946267710394,103.946267710394,518297,RIVERINA CRESCENT,THE RIVERINA,40569.8245189693,40241.3976754677
64 RIVERINA CRESCENT THE RIVERINA SINGAPORE 518298,64,THE RIVERINA,1.37991776949767,103.946508932741,103.946508932741,518298,RIVERINA CRESCENT,THE RIVERINA,40596.6710703429,40210.1111135613
65 RIVERINA CRESCENT THE RIVERINA SINGAPORE 518299,65,THE RIVERINA,1.38022374284613,103.946324493785,103.946324493785,518299,RIVERINA CRESCENT,THE RIVERINA,40576.1436870014,40243.9431826286
66 RIVERINA CRESCENT THE RIVERINA SINGAPORE 518300,66,THE RIVERINA,1.37993957276178,103.946561611896,103.946561611896,518300,RIVERINA CRESCENT,THE RIVERINA,40602.5334945014,40212.5222914126
67 RIVERINA CRESCENT THE RIVERINA SINGAPORE 518301,67,THE RIVERINA,1.3802443174699,103.946374241761,103.946374241761,518301,RIVERINA CRESCENT,THE RIVERINA,40581.6799130989,40246.2184875011
68 RIVERINA CRESCENT THE RIVERINA SINGAPORE 518302,68,THE RIVERINA,1.37995866743426,103.94660877735,103.94660877735,518302,RIVERINA CRESCENT,THE RIVERINA,40607.7823260939,40214.6339372955
69 RIVERINA CRESCENT THE RIVERINA SINGAPORE 518303,69,THE RIVERINA,1.38026438058773,103.94643332406,103.94643332406,518303,RIVERINA CRESCENT,THE RIVERINA,40588.254936398,40248.4372820482
70 RIVERINA CRESCENT THE RIVERINA SINGAPORE 518304,70,THE RIVERINA,1.37998921495907,103.946658133056,103.946658133056,518304,RIVERINA CRESCENT,THE RIVERINA,40613.2748452229,40218.0119956192
71 RIVERINA CRESCENT THE RIVERINA SINGAPORE 518305,71,THE RIVERINA,1.38028487465234,103.946484730567,103.946484730567,518305,RIVERINA CRESCENT,THE RIVERINA,40593.9757366609,40250.7036881335
72 RIVERINA CRESCENT THE RIVERINA SINGAPORE 518306,72,THE RIVERINA,1.38000819931911,103.94670522072,103.94670522072,518306,RIVERINA CRESCENT,THE RIVERINA,40618.5150201721,40220.1114435066
73 RIVERINA CRESCENT THE RIVERINA SINGAPORE 518307,73,THE RIVERINA,1.38032693876843,103.946554333814,103.946554333814,518307,RIVERINA CRESCENT,THE RIVERINA,40601.7214953015,40255.3553021383
74 RIVERINA CRESCENT THE RIVERINA SINGAPORE 518308,74,THE RIVERINA,1.38008250492296,103.946793222201,103.946793222201,518308,RIVERINA CRESCENT,THE RIVERINA,40628.3081052313,40228.328262778
76 RIVERINA CRESCENT THE RIVERINA SINGAPORE 518309,76,THE RIVERINA,1.38012287429412,103.946824164259,103.946824164259,518309,RIVERINA CRESCENT,THE RIVERINA,40631.7513607917,40232.7922758199
78 RIVERINA CRESCENT THE RIVERINA SINGAPORE 518310,78,THE RIVERINA,1.38016528282854,103.946863754556,103.946863754556,518310,RIVERINA CRESCENT,THE RIVERINA,40636.1570474291,40237.4818156101
80 RIVERINA CRESCENT THE RIVERINA SINGAPORE 518311,80,THE RIVERINA,1.38020530538163,103.946894657707,103.946894657707,518311,RIVERINA CRESCENT,THE RIVERINA,40639.595974667,40241.9074791167
82 RIVERINA CRESCENT THE RIVERINA SINGAPORE 518312,82,THE RIVERINA,1.38025116671925,103.946929681086,103.946929681086,518312,RIVERINA CRESCENT,THE RIVERINA,40643.4934013225,40246.9787889849
84 RIVERINA CRESCENT THE RIVERINA SINGAPORE 518313,84,THE RIVERINA,1.38029114739297,103.946960527122,103.946960527122,518313,RIVERINA CRESCENT,THE RIVERINA,40646.9259722838,40251.39982149
86 RIVERINA CRESCENT THE RIVERINA SINGAPORE 518314,86,THE RIVERINA,1.38033480269818,103.947001716725,103.947001716725,518314,RIVERINA CRESCENT,THE RIVERINA,40651.5096346661,40256.2272319458
88 RIVERINA CRESCENT THE RIVERINA SINGAPORE 518315,88,THE RIVERINA,1.3803766061166,103.947033338536,103.947033338536,518315,RIVERINA CRESCENT,THE RIVERINA,40655.0285299169,40260.8498189542
10 RIVERINA WALK THE RIVERINA SINGAPORE 518316,10,THE RIVERINA,1.37832548104782,103.943946455586,103.943946455586,518316,RIVERINA WALK,THE RIVERINA,40311.507224543,40034.0302056205
11 RIVERINA WALK THE RIVERINA SINGAPORE 518317,11,THE RIVERINA,1.37846139544956,103.943647001711,103.943647001711,518317,RIVERINA WALK,THE RIVERINA,40278.1809940189,40049.057412032
12 RIVERINA WALK THE RIVERINA SINGAPORE 518318,12,THE RIVERINA,1.37836838657371,103.943977797501,103.943977797501,518318,RIVERINA WALK,THE RIVERINA,40314.9949740386,40038.774651533
13 RIVERINA WALK THE RIVERINA SINGAPORE 518319,13,THE RIVERINA,1.37851011382683,103.943681175743,103.943681175743,518319,RIVERINA WALK,THE RIVERINA,40281.9838937614,40054.4446288459
14 RIVERINA WALK THE RIVERINA SINGAPORE 518320,14,THE RIVERINA,1.37841989008311,103.944008018443,103.944008018443,518320,RIVERINA WALK,THE RIVERINA,40318.3579286374,40044.4698148128
15 RIVERINA WALK THE RIVERINA SINGAPORE 518321,15,THE RIVERINA,1.37856547378955,103.943720806265,103.943720806265,518321,RIVERINA WALK,THE RIVERINA,40286.3939995244,40060.5662680175
16 RIVERINA WALK THE RIVERINA SINGAPORE 518322,16,THE RIVERINA,1.37846591227238,103.944046313663,103.944046313663,518322,RIVERINA WALK,THE RIVERINA,40322.6194791375,40049.5589222554
17 RIVERINA WALK THE RIVERINA SINGAPORE 518323,17,THE RIVERINA,1.37861391324352,103.943754738769,103.943754738769,518323,RIVERINA WALK,THE RIVERINA,40290.1700212974,40065.922641756
18 RIVERINA WALK THE RIVERINA SINGAPORE 518324,18,THE RIVERINA,1.37850877541892,103.944076569838,103.944076569838,518324,RIVERINA WALK,THE RIVERINA,40325.9863988422,40054.2986766286
19 RIVERINA WALK THE RIVERINA SINGAPORE 518325,19,THE RIVERINA,1.37866928223842,103.943794357328,103.943794357328,518325,RIVERINA WALK,THE RIVERINA,40294.5787952701,40072.0452797711
20 RIVERINA WALK THE RIVERINA SINGAPORE 518326,20,THE RIVERINA,1.37859266254245,103.944136243865,103.944136243865,518326,RIVERINA WALK,THE RIVERINA,40332.6269523259,40063.5748147946
21 RIVERINA WALK THE RIVERINA SINGAPORE 518327,21,THE RIVERINA,1.37871781339089,103.943828300446,103.943828300446,518327,RIVERINA WALK,THE RIVERINA,40298.3559974935,40077.4117932841
22 RIVERINA WALK THE RIVERINA SINGAPORE 518328,22,THE RIVERINA,1.37863556615146,103.944167534111,103.944167534111,518328,RIVERINA WALK,THE RIVERINA,40336.1089509046,40068.3190488312
23 RIVERINA WALK THE RIVERINA SINGAPORE 518329,23,THE RIVERINA,1.37880384418959,103.943945016587,103.943945016587,518329,RIVERINA WALK,THE RIVERINA,40311.3446249347,40086.9252627101
24 RIVERINA WALK THE RIVERINA SINGAPORE 518330,24,THE RIVERINA,1.37868594821787,103.944202713469,103.944202713469,518330,RIVERINA WALK,THE RIVERINA,40340.0237211147,40073.8902344499
25 RIVERINA WALK THE RIVERINA SINGAPORE 518331,25,THE RIVERINA,1.37886029812872,103.943905380335,103.943905380335,518331,RIVERINA WALK,THE RIVERINA,40306.9333084514,40093.1674592588
26 RIVERINA WALK THE RIVERINA SINGAPORE 518332,26,THE RIVERINA,1.37872981589805,103.944234279278,103.944234279278,518332,RIVERINA WALK,THE RIVERINA,40343.5363811608,40078.741072325
27 RIVERINA WALK THE RIVERINA SINGAPORE 518333,27,THE RIVERINA,1.37892971142856,103.943882186394,103.943882186394,518333,RIVERINA WALK,THE RIVERINA,40304.3517521201,40100.8427237663
28 RIVERINA WALK THE RIVERINA SINGAPORE 518334,28,THE RIVERINA,1.37878018427582,103.944269474957,103.944269474957,518334,RIVERINA WALK,THE RIVERINA,40347.45296745,40084.3107445445
29 RIVERINA WALK THE RIVERINA SINGAPORE 518335,29,THE RIVERINA,1.37899757954562,103.943881650189,103.943881650189,518335,RIVERINA WALK,THE RIVERINA,40304.2917307084,40108.347246578
30 RIVERINA WALK THE RIVERINA SINGAPORE 518336,30,THE RIVERINA,1.37882310873542,103.944299717,103.944299717,518336,RIVERINA WALK,THE RIVERINA,40350.8183132196,40089.057278946
31 RIVERINA WALK THE RIVERINA SINGAPORE 518337,31,THE RIVERINA,1.37906746865921,103.943903877144,103.943903877144,518337,RIVERINA WALK,THE RIVERINA,40306.7649579262,40116.075358985
33 RIVERINA WALK THE RIVERINA SINGAPORE 518338,33,THE RIVERINA,1.37912335614551,103.943942511172,103.943942511172,518338,RIVERINA WALK,THE RIVERINA,40311.064161798,40122.2553245593
35 RIVERINA WALK THE RIVERINA SINGAPORE 518339,35,THE RIVERINA,1.37916667070921,103.944001338296,103.944001338296,518339,RIVERINA WALK,THE RIVERINA,40317.6106726555,40127.0451421794
37 RIVERINA WALK THE RIVERINA SINGAPORE 518340,37,THE RIVERINA,1.37918800624516,103.944065261578,103.944065261578,518340,RIVERINA WALK,THE RIVERINA,40324.724435797,40129.4046525825
39 RIVERINA WALK THE RIVERINA SINGAPORE 518341,39,THE RIVERINA,1.37918760757421,103.944137893461,103.944137893461,518341,RIVERINA WALK,THE RIVERINA,40332.8074705806,40129.3609456141
41 RIVERINA WALK THE RIVERINA SINGAPORE 518342,41,THE RIVERINA,1.37916820978442,103.944202665339,103.944202665339,518342,RIVERINA WALK,THE RIVERINA,40340.015881707,40127.216368163
43 RIVERINA WALK THE RIVERINA SINGAPORE 518343,43,THE RIVERINA,1.37914122176021,103.944318030796,103.944318030796,518343,RIVERINA WALK,THE RIVERINA,40352.854773432,40124.2327622045
45 RIVERINA WALK THE RIVERINA SINGAPORE 518344,45,THE RIVERINA,1.37911625256869,103.94436794226,103.94436794226,518344,RIVERINA WALK,THE RIVERINA,40358.4094327325,40121.4720496777
47 RIVERINA WALK THE RIVERINA SINGAPORE 518345,47,THE RIVERINA,1.37907807860835,103.944416189139,103.944416189139,518345,RIVERINA WALK,THE RIVERINA,40363.7789125079,40117.2512096148
49 RIVERINA WALK THE RIVERINA SINGAPORE 518346,49,THE RIVERINA,1.37904576194676,103.944459121806,103.944459121806,518346,RIVERINA WALK,THE RIVERINA,40368.5569558814,40113.6780136023
51 RIVERINA WALK THE RIVERINA SINGAPORE 518347,51,THE RIVERINA,1.37900763780192,103.944507414649,103.944507414649,518347,RIVERINA WALK,THE RIVERINA,40373.9315509461,40109.4626823142
53 RIVERINA WALK THE RIVERINA SINGAPORE 518348,53,THE RIVERINA,1.37897526721233,103.944550373965,103.944550373965,518348,RIVERINA WALK,THE RIVERINA,40378.712560582,40105.883523507
55 RIVERINA WALK THE RIVERINA SINGAPORE 518349,55,THE RIVERINA,1.37893712664381,103.944598626008,103.944598626008,518349,RIVERINA WALK,THE RIVERINA,40384.0826154491,40101.66637614
57 RIVERINA WALK THE RIVERINA SINGAPORE 518350,57,THE RIVERINA,1.37890480997814,103.944641582332,103.944641582332,518350,RIVERINA WALK,THE RIVERINA,40388.8632921372,40098.0931801256
59 RIVERINA WALK THE RIVERINA SINGAPORE 518351,59,THE RIVERINA,1.37886666530175,103.944689839539,103.944689839539,518351,RIVERINA WALK,THE RIVERINA,40394.233922096,40093.8755787387
61 RIVERINA WALK THE RIVERINA SINGAPORE 518352,61,THE RIVERINA,1.37883490001195,103.944731087038,103.944731087038,518352,RIVERINA WALK,THE RIVERINA,40398.8244250426,40090.3633424435
1 RIVERINA VIEW THE RIVERINA SINGAPORE 518353,1,THE RIVERINA,1.37821589199696,103.944105552322,103.944105552322,518353,RIVERINA VIEW,THE RIVERINA,40329.2132988544,40021.913205307
2 RIVERINA VIEW THE RIVERINA SINGAPORE 518354,2,THE RIVERINA,1.37796950720256,103.944344969967,103.944344969967,518354,RIVERINA VIEW,THE RIVERINA,40355.8588102805,39994.6704157591
3 RIVERINA VIEW THE RIVERINA SINGAPORE 518355,3,THE RIVERINA,1.37825973730336,103.944135618698,103.944135618698,518355,RIVERINA VIEW,THE RIVERINA,40332.5590915065,40026.7615612075
4 RIVERINA VIEW SINGAPORE 518356,4,NIL,1.37801801912294,103.944380258567,103.944380258567,518356,RIVERINA VIEW,4 RIVERINA VIEW SINGAPORE 518356,40359.78574822,40000.0348105133
5 RIVERINA VIEW THE RIVERINA SINGAPORE 518357,5,THE RIVERINA,1.3783095959607,103.944171525298,103.944171525298,518357,RIVERINA VIEW,THE RIVERINA,40336.554798305,40032.2748744413
6 RIVERINA VIEW THE RIVERINA SINGAPORE 518358,6,THE RIVERINA,1.37809525051489,103.944432471338,103.944432471338,518358,RIVERINA VIEW,THE RIVERINA,40365.5959903738,40008.5749523863
7 RIVERINA VIEW THE RIVERINA SINGAPORE 518359,7,THE RIVERINA,1.37835397473311,103.944202385337,103.944202385337,518359,RIVERINA VIEW,THE RIVERINA,40339.9889129335,40037.1822226401
8 RIVERINA VIEW THE RIVERINA SINGAPORE 518360,8,THE RIVERINA,1.37814374984105,103.944467778436,103.944467778436,518360,RIVERINA VIEW,THE RIVERINA,40369.5249865362,40013.9379548132
9 RIVERINA VIEW THE RIVERINA SINGAPORE 518361,9,THE RIVERINA,1.37839952006686,103.944240905465,103.944240905465,518361,RIVERINA VIEW,THE RIVERINA,40344.2754950551,40042.2186032552
10 RIVERINA VIEW THE RIVERINA SINGAPORE 518362,10,THE RIVERINA,1.37822153254284,103.944519662143,103.944519662143,518362,RIVERINA VIEW,THE RIVERINA,40375.2986044306,40022.5390564054
11 RIVERINA VIEW THE RIVERINA SINGAPORE 518363,11,THE RIVERINA,1.37845096743306,103.944271642627,103.944271642627,518363,RIVERINA VIEW,THE RIVERINA,40347.695898287,40047.9075615983
12 RIVERINA VIEW THE RIVERINA SINGAPORE 518364,12,THE RIVERINA,1.37827010605391,103.944554861,103.944554861,518364,RIVERINA VIEW,THE RIVERINA,40379.2155539356,40027.9102614559
13 RIVERINA VIEW THE RIVERINA SINGAPORE 518365,13,THE RIVERINA,1.37849533306391,103.944302519261,103.944302519261,518365,RIVERINA VIEW,THE RIVERINA,40351.1318592634,40052.8134569358
14 RIVERINA VIEW THE RIVERINA SINGAPORE 518366,14,THE RIVERINA,1.3783530349891,103.944622749591,103.944622749591,518366,RIVERINA VIEW,THE RIVERINA,40386.7702913312,40037.080491947
15 RIVERINA VIEW THE RIVERINA SINGAPORE 518367,15,THE RIVERINA,1.37854521389235,103.944338383713,103.944338383713,518367,RIVERINA VIEW,THE RIVERINA,40355.1228745244,40058.3292218763
16 RIVERINA VIEW THE RIVERINA SINGAPORE 518368,16,THE RIVERINA,1.37839593480885,103.944664619576,103.944664619576,518368,RIVERINA VIEW,THE RIVERINA,40391.4296842087,40041.8243627679
17 RIVERINA VIEW THE RIVERINA SINGAPORE 518369,17,THE RIVERINA,1.37858799490768,103.944368794374,103.944368794374,518369,RIVERINA VIEW,THE RIVERINA,40358.5069864439,40063.0598958563
18 RIVERINA VIEW THE RIVERINA SINGAPORE 518370,18,THE RIVERINA,1.3784714416963,103.944733919131,103.944733919131,518370,RIVERINA VIEW,THE RIVERINA,40399.1414821725,40050.1739071477
19 RIVERINA VIEW THE RIVERINA SINGAPORE 518371,19,THE RIVERINA,1.3786567461148,103.944437584739,103.944437584739,518371,RIVERINA VIEW,THE RIVERINA,40366.1621530093,40070.6624263991
20 RIVERINA VIEW THE RIVERINA SINGAPORE 518372,20,THE RIVERINA,1.3785103139158,103.944779497918,103.944779497918,518372,RIVERINA VIEW,THE RIVERINA,40404.2136395434,40054.4724451229
21 RIVERINA VIEW THE RIVERINA SINGAPORE 518373,21,THE RIVERINA,1.3786990070662,103.944467377714,103.944467377714,518373,RIVERINA VIEW,THE RIVERINA,40369.4775263378,40075.3355912082
22 RIVERINA VIEW THE RIVERINA SINGAPORE 518374,22,THE RIVERINA,1.37856965514791,103.944862896423,103.944862896423,518374,RIVERINA VIEW,THE RIVERINA,40413.4945600508,40061.034543993
24 RIVERINA VIEW THE RIVERINA SINGAPORE 518375,24,THE RIVERINA,1.37860418170755,103.944911802138,103.944911802138,518375,RIVERINA VIEW,THE RIVERINA,40418.9369856669,40064.8525777273
26 RIVERINA VIEW THE RIVERINA SINGAPORE 518376,26,THE RIVERINA,1.3786845263975,103.945012932794,103.945012932794,518376,RIVERINA VIEW,THE RIVERINA,40430.1911668368,40073.7372297924
28 RIVERINA VIEW THE RIVERINA SINGAPORE 518377,28,THE RIVERINA,1.3787142696133,103.945064851009,103.945064851009,518377,RIVERINA VIEW,THE RIVERINA,40435.968870909,40077.0263607781
29 RIVERINA VIEW THE RIVERINA SINGAPORE 518378,29,THE RIVERINA,1.37902104475628,103.944813684489,103.944813684489,518378,RIVERINA VIEW,THE RIVERINA,40408.0155404424,40110.9467518236
30 RIVERINA VIEW THE RIVERINA SINGAPORE 518379,30,THE RIVERINA,1.37876251204864,103.945154803175,103.945154803175,518379,RIVERINA VIEW,THE RIVERINA,40445.9791892879,40082.3612442482
31 RIVERINA VIEW THE RIVERINA SINGAPORE 518380,31,THE RIVERINA,1.37908509983555,103.945015081607,103.945015081607,518380,RIVERINA VIEW,THE RIVERINA,40430.4282256858,40118.0307010002
32 RIVERINA VIEW THE RIVERINA SINGAPORE 518381,32,THE RIVERINA,1.37878726335965,103.945209244859,103.945209244859,518381,RIVERINA VIEW,THE RIVERINA,40452.0377499806,40085.0984082837
33 RIVERINA VIEW THE RIVERINA SINGAPORE 518382,33,THE RIVERINA,1.3791049658911,103.945062838626,103.945062838626,518382,RIVERINA VIEW,THE RIVERINA,40435.7428901428,40120.2276420631
34 RIVERINA VIEW THE RIVERINA SINGAPORE 518383,34,THE RIVERINA,1.3788266757729,103.94529835076,103.94529835076,518383,RIVERINA VIEW,THE RIVERINA,40461.9539349303,40089.4569071364
35 RIVERINA VIEW THE RIVERINA SINGAPORE 518384,35,THE RIVERINA,1.37912603283635,103.945115811999,103.945115811999,518384,RIVERINA VIEW,THE RIVERINA,40441.6380642587,40122.5573990364
36 RIVERINA VIEW THE RIVERINA SINGAPORE 518385,36,THE RIVERINA,1.37884869681997,103.945353944425,103.945353944425,518385,RIVERINA VIEW,THE RIVERINA,40468.1407108018,40091.8921783008
37 RIVERINA VIEW THE RIVERINA SINGAPORE 518386,37,THE RIVERINA,1.37914584664845,103.945162689163,103.945162689163,518386,RIVERINA VIEW,THE RIVERINA,40446.8548117885,40124.7485589143
38 RIVERINA VIEW THE RIVERINA SINGAPORE 518387,38,THE RIVERINA,1.37888608324005,103.945439271351,103.945439271351,518387,RIVERINA VIEW,THE RIVERINA,40477.6363523854,40096.0266335383
39 RIVERINA VIEW THE RIVERINA SINGAPORE 518388,39,THE RIVERINA,1.37916692536211,103.945215656555,103.945215656555,518388,RIVERINA VIEW,THE RIVERINA,40452.7493200097,40127.0796174128
40 RIVERINA VIEW THE RIVERINA SINGAPORE 518389,40,THE RIVERINA,1.37890819434335,103.945494825858,103.945494825858,518389,RIVERINA VIEW,THE RIVERINA,40483.8187696682,40098.4718628693
41 RIVERINA VIEW THE RIVERINA SINGAPORE 518390,41,THE RIVERINA,1.37918672137921,103.945262539431,103.945262539431,518390,RIVERINA VIEW,THE RIVERINA,40457.9667031672,40129.2688098699
42 RIVERINA VIEW THE RIVERINA SINGAPORE 518391,42,THE RIVERINA,1.37894361970857,103.945580812246,103.945580812246,518391,RIVERINA VIEW,THE RIVERINA,40493.3878111122,40102.38947827
43 RIVERINA VIEW THE RIVERINA SINGAPORE 518392,43,THE RIVERINA,1.37920782636906,103.94531550057,103.94531550057,518392,RIVERINA VIEW,THE RIVERINA,40463.8605152247,40131.6027740948
44 RIVERINA VIEW THE RIVERINA SINGAPORE 518393,44,THE RIVERINA,1.37896561802829,103.945636415978,103.945636415978,518393,RIVERINA VIEW,THE RIVERINA,40499.5757068992,40104.8222371936
45 RIVERINA VIEW THE RIVERINA SINGAPORE 518394,45,THE RIVERINA,1.37922758734596,103.945362391061,103.945362391061,518394,RIVERINA VIEW,THE RIVERINA,40469.0787458858,40133.7880922519
46 RIVERINA VIEW THE RIVERINA SINGAPORE 518395,46,THE RIVERINA,1.37901288497348,103.945746985534,103.945746985534,518395,RIVERINA VIEW,THE RIVERINA,40511.8804897843,40110.0493666418
47 RIVERINA VIEW THE RIVERINA SINGAPORE 518396,47,THE RIVERINA,1.37924870793666,103.945415342139,103.945415342139,518396,RIVERINA VIEW,THE RIVERINA,40474.971438027,40136.1237817518
48 RIVERINA VIEW THE RIVERINA SINGAPORE 518397,48,THE RIVERINA,1.37903497854985,103.945802547661,103.945802547661,518397,RIVERINA VIEW,THE RIVERINA,40518.0637545697,40112.4926588237
49 RIVERINA VIEW THE RIVERINA SINGAPORE 518398,49,THE RIVERINA,1.37926853186675,103.945462297638,103.945462297638,518398,RIVERINA VIEW,THE RIVERINA,40480.1969027361,40138.3160615433
50 RIVERINA VIEW THE RIVERINA SINGAPORE 518399,50,THE RIVERINA,1.37907029632716,103.945888516102,103.945888516102,518399,RIVERINA VIEW,THE RIVERINA,40527.6307983268,40116.3983789068
51 RIVERINA VIEW THE RIVERINA SINGAPORE 518400,51,THE RIVERINA,1.37930318944298,103.945547651651,103.945547651651,518400,RIVERINA VIEW,THE RIVERINA,40489.695571118,40142.1487752497
52 RIVERINA VIEW THE RIVERINA SINGAPORE 518401,52,THE RIVERINA,1.37909238606765,103.945944079591,103.945944079591,518401,RIVERINA VIEW,THE RIVERINA,40533.8142144531,40118.8412473369
53 RIVERINA VIEW THE RIVERINA SINGAPORE 518402,53,THE RIVERINA,1.37932296214618,103.945595368964,103.945595368964,518402,RIVERINA VIEW,THE RIVERINA,40495.0058164494,40144.3353949301
54 RIVERINA VIEW THE RIVERINA SINGAPORE 518403,54,THE RIVERINA,1.37912978752135,103.946029381512,103.946029381512,518403,RIVERINA VIEW,THE RIVERINA,40543.3070713822,40122.9773673117
55 RIVERINA VIEW THE RIVERINA SINGAPORE 518404,55,THE RIVERINA,1.37934412926654,103.945648304546,103.945648304546,518404,RIVERINA VIEW,THE RIVERINA,40500.8967833165,40146.6762299873
56 RIVERINA VIEW THE RIVERINA SINGAPORE 518405,56,THE RIVERINA,1.37915189286133,103.94608493902,103.94608493902,518405,RIVERINA VIEW,THE RIVERINA,40549.4898216119,40125.421961017
57 RIVERINA VIEW THE RIVERINA SINGAPORE 518406,57,THE RIVERINA,1.37936383521483,103.945695222509,103.945695222509,518406,RIVERINA VIEW,THE RIVERINA,40506.1180710439,40148.8554642778
58 RIVERINA VIEW THE RIVERINA SINGAPORE 518407,58,THE RIVERINA,1.37918839727474,103.946170537089,103.946170537089,518407,RIVERINA VIEW,THE RIVERINA,40559.0156403752,40129.4588928092
59 RIVERINA VIEW THE RIVERINA SINGAPORE 518408,59,THE RIVERINA,1.37938501519866,103.945748148574,103.945748148574,518408,RIVERINA VIEW,THE RIVERINA,40512.0079785315,40151.1977219302
60 RIVERINA VIEW THE RIVERINA SINGAPORE 518409,60,THE RIVERINA,1.37921047496365,103.946226106021,103.946226106021,518409,RIVERINA VIEW,THE RIVERINA,40565.1996618612,40131.9004294463
61 RIVERINA VIEW THE RIVERINA SINGAPORE 518410,61,THE RIVERINA,1.37940471402778,103.945795067898,103.945795067898,518410,RIVERINA VIEW,THE RIVERINA,40517.2294175988,40153.376169255
62 RIVERINA VIEW THE RIVERINA SINGAPORE 518411,62,THE RIVERINA,1.37924507743997,103.946312536262,103.946312536262,518411,RIVERINA VIEW,THE RIVERINA,40574.8181006545,40135.727059288
63 RIVERINA VIEW THE RIVERINA SINGAPORE 518412,63,THE RIVERINA,1.37942590879081,103.945847992333,103.945847992333,518412,RIVERINA VIEW,THE RIVERINA,40523.1191434786,40155.7200613767
64 RIVERINA VIEW THE RIVERINA SINGAPORE 518413,64,THE RIVERINA,1.37926716826476,103.946368099758,103.946368099758,518413,RIVERINA VIEW,THE RIVERINA,40581.0015167799,40138.1700487901
65 RIVERINA VIEW THE RIVERINA SINGAPORE 518414,65,THE RIVERINA,1.37944569055312,103.945895028342,103.945895028342,518414,RIVERINA VIEW,THE RIVERINA,40528.3535675099,40157.9076799005
66 RIVERINA VIEW THE RIVERINA SINGAPORE 518415,66,THE RIVERINA,1.37936826298233,103.946621630655,103.946621630655,518415,RIVERINA VIEW,THE RIVERINA,40609.2158480706,40149.349952329
67 RIVERINA VIEW THE RIVERINA SINGAPORE 518416,67,THE RIVERINA,1.37948038972051,103.945980370402,103.945980370402,518416,RIVERINA VIEW,THE RIVERINA,40537.8509041015,40161.7449943405
68 RIVERINA VIEW THE RIVERINA SINGAPORE 518417,68,THE RIVERINA,1.37939025662236,103.946677236037,103.946677236037,518417,RIVERINA VIEW,THE RIVERINA,40615.4039254654,40151.782196695
69 RIVERINA VIEW THE RIVERINA SINGAPORE 518418,69,THE RIVERINA,1.37950008084378,103.946028053176,103.946028053176,518418,RIVERINA VIEW,THE RIVERINA,40543.157305399,40163.9225941598
70 RIVERINA VIEW THE RIVERINA SINGAPORE 518419,70,THE RIVERINA,1.37942559486833,103.946763772668,103.946763772668,518419,RIVERINA VIEW,THE RIVERINA,40625.0341990404,40155.6901868768
71 RIVERINA VIEW THE RIVERINA SINGAPORE 518420,71,THE RIVERINA,1.37952132925379,103.946080956675,103.946080956675,518420,RIVERINA VIEW,THE RIVERINA,40549.044700643,40166.2724188082
72 RIVERINA VIEW THE RIVERINA SINGAPORE 518421,72,THE RIVERINA,1.37944786059968,103.946819273897,103.946819273897,518421,RIVERINA VIEW,THE RIVERINA,40631.2106837984,40158.1525176205
73 RIVERINA VIEW THE RIVERINA SINGAPORE 518422,73,THE RIVERINA,1.37954486341661,103.946126244307,103.946126244307,518422,RIVERINA VIEW,THE RIVERINA,40554.0845318083,40168.8749508522
74 RIVERINA VIEW THE RIVERINA SINGAPORE 518423,74,THE RIVERINA,1.37949392510445,103.946910150748,103.946910150748,518423,RIVERINA VIEW,THE RIVERINA,40641.3239133218,40163.2465890124
75 RIVERINA VIEW THE RIVERINA SINGAPORE 518424,75,THE RIVERINA,1.37956221544003,103.946180802892,103.946180802892,518424,RIVERINA VIEW,THE RIVERINA,40560.1561380019,40170.793941021
76 RIVERINA VIEW THE RIVERINA SINGAPORE 518425,76,THE RIVERINA,1.37952178631663,103.946963088564,103.946963088564,518425,RIVERINA VIEW,THE RIVERINA,40647.2150920648,40166.3276276104
77 RIVERINA VIEW THE RIVERINA SINGAPORE 518426,77,THE RIVERINA,1.37958183432854,103.946227755129,103.946227755129,518426,RIVERINA VIEW,THE RIVERINA,40565.3812394952,40172.9635500927
78 RIVERINA VIEW THE RIVERINA SINGAPORE 518427,78,THE RIVERINA,1.37957160420207,103.947060284776,103.947060284776,518427,RIVERINA VIEW,THE RIVERINA,40658.0315679219,40171.8367638625
79 RIVERINA VIEW THE RIVERINA SINGAPORE 518428,79,THE RIVERINA,1.37960310737018,103.946280647753,103.946280647753,518428,RIVERINA VIEW,THE RIVERINA,40571.2674240209,40175.3160988595
80 RIVERINA VIEW THE RIVERINA SINGAPORE 518429,80,THE RIVERINA,1.37961665280111,103.94711859909,103.94711859909,518429,RIVERINA VIEW,THE RIVERINA,40664.5209933631,40176.8183291592
81 RIVERINA VIEW SINGAPORE 518430,81,NIL,1.37962286037752,103.946327764545,103.946327764545,518430,RIVERINA VIEW,81 RIVERINA VIEW SINGAPORE 518430,40576.5108376443,40177.5005392451
82 RIVERINA VIEW THE RIVERINA SINGAPORE 518431,82,THE RIVERINA,1.37969555620664,103.94720793403,103.94720793403,518431,RIVERINA VIEW,THE RIVERINA,40674.4624520792,40185.5435597543
83 RIVERINA VIEW THE RIVERINA SINGAPORE 518432,83,THE RIVERINA,1.37966781617832,103.946438052535,103.946438052535,518432,RIVERINA VIEW,THE RIVERINA,40588.7842931654,40182.4721161053
84 RIVERINA VIEW THE RIVERINA SINGAPORE 518433,84,THE RIVERINA,1.37975018916277,103.947256969946,103.947256969946,518433,RIVERINA VIEW,THE RIVERINA,40679.9192549875,40191.5848676953
85 RIVERINA VIEW THE RIVERINA SINGAPORE 518434,85,THE RIVERINA,1.37968742134141,103.946485701315,103.946485701315,518434,RIVERINA VIEW,THE RIVERINA,40594.0869109649,40184.6402117796
86 RIVERINA VIEW THE RIVERINA SINGAPORE 518435,86,THE RIVERINA,1.3798378354582,103.947325934302,103.947325934302,518435,RIVERINA VIEW,THE RIVERINA,40687.5936719906,40201.2767366171
87 RIVERINA VIEW THE RIVERINA SINGAPORE 518436,87,THE RIVERINA,1.37970874447095,103.946538571916,103.946538571916,518436,RIVERINA VIEW,THE RIVERINA,40599.9706437839,40186.9982995875
88 RIVERINA VIEW THE RIVERINA SINGAPORE 518437,88,THE RIVERINA,1.37989610238732,103.947371236388,103.947371236388,518437,RIVERINA VIEW,THE RIVERINA,40692.634925751,40207.7198520433
89 RIVERINA VIEW THE RIVERINA SINGAPORE 518438,89,THE RIVERINA,1.37972829792865,103.946585548905,103.946585548905,518438,RIVERINA VIEW,THE RIVERINA,40605.1984996637,40189.1606746111
90 RIVERINA VIEW THE RIVERINA SINGAPORE 518439,90,THE RIVERINA,1.37998204130152,103.947436786782,103.947436786782,518439,RIVERINA VIEW,THE RIVERINA,40699.929419023,40217.2229092829
91 RIVERINA VIEW THE RIVERINA SINGAPORE 518440,91,THE RIVERINA,1.37974963528981,103.946638420867,103.946638420867,518440,RIVERINA VIEW,THE RIVERINA,40611.0823838227,40191.5203363542
92 RIVERINA VIEW THE RIVERINA SINGAPORE 518441,92,THE RIVERINA,1.38004067011499,103.94748182099,103.94748182099,518441,RIVERINA VIEW,THE RIVERINA,40704.9408588186,40223.7060389835
93 RIVERINA VIEW THE RIVERINA SINGAPORE 518442,93,THE RIVERINA,1.37976935872352,103.946685598315,103.946685598315,518442,RIVERINA VIEW,THE RIVERINA,40616.3325472055,40193.7015077975
95 RIVERINA VIEW THE RIVERINA SINGAPORE 518443,95,THE RIVERINA,1.3798148400826,103.946789970511,103.946789970511,518443,RIVERINA VIEW,THE RIVERINA,40627.9476438137,40198.7311689202
97 RIVERINA VIEW THE RIVERINA SINGAPORE 518444,97,THE RIVERINA,1.37984752785416,103.946829218191,103.946829218191,518444,RIVERINA VIEW,THE RIVERINA,40632.3152533276,40202.3458320703
99 RIVERINA VIEW THE RIVERINA SINGAPORE 518445,99,THE RIVERINA,1.37988420092109,103.946873583359,103.946873583359,518445,RIVERINA VIEW,THE RIVERINA,40637.2523549562,40206.4011970647
101 RIVERINA VIEW THE RIVERINA SINGAPORE 518446,101,THE RIVERINA,1.37991667493217,103.946912290063,103.946912290063,518446,RIVERINA VIEW,THE RIVERINA,40641.5597614506,40209.9922209214
103 RIVERINA VIEW THE RIVERINA SINGAPORE 518447,103,THE RIVERINA,1.37995335785223,103.946956642995,103.946956642995,518447,RIVERINA VIEW,THE RIVERINA,40646.49550102,40214.0486755632
105 RIVERINA VIEW THE RIVERINA SINGAPORE 518448,105,THE RIVERINA,1.37998611160765,103.946995525685,103.946995525685,518448,RIVERINA VIEW,THE RIVERINA,40650.8224908998,40217.6706332993
107 RIVERINA VIEW THE RIVERINA SINGAPORE 518449,107,THE RIVERINA,1.38007230777917,103.947062370705,103.947062370705,518449,RIVERINA VIEW,THE RIVERINA,40658.2610597741,40227.2021424435
109 RIVERINA VIEW THE RIVERINA SINGAPORE 518450,109,THE RIVERINA,1.38011319201732,103.94709371777,103.94709371777,518450,RIVERINA VIEW,THE RIVERINA,40661.7493843623,40231.7230895627
111 RIVERINA VIEW THE RIVERINA SINGAPORE 518451,111,THE RIVERINA,1.38015856529411,103.947128597522,103.947128597522,518451,RIVERINA VIEW,THE RIVERINA,40665.6308295215,40236.7404316161
113 RIVERINA VIEW THE RIVERINA SINGAPORE 518452,113,THE RIVERINA,1.38019912736852,103.947159524638,103.947159524638,518452,RIVERINA VIEW,THE RIVERINA,40669.0724203428,40241.2257533185
115 RIVERINA VIEW THE RIVERINA SINGAPORE 518453,115,THE RIVERINA,1.38024451214147,103.947194391882,103.947194391882,518453,RIVERINA VIEW,THE RIVERINA,40672.9524731748,40246.2443666272
117 RIVERINA VIEW THE RIVERINA SINGAPORE 518454,117,THE RIVERINA,1.38028544703252,103.947225436241,103.947225436241,518454,RIVERINA VIEW,THE RIVERINA,40676.4071094971,40250.7709133253
30 PASIR RIS COAST INDUSTRIAL PARK 3 LOYANG AGROTECHNOLOGY PARK SINGAPORE 518455,30,LOYANG AGROTECHNOLOGY PARK,1.39086916465006,103.931163541653,103.931163541653,518455,PASIR RIS COAST INDUSTRIAL PARK 3,LOYANG AGROTECHNOLOGY PARK,38888.8691303656,41420.9868569244
1 PASIR RIS CENTRAL STREET 3 DBS NTUC WHITE SANDS SINGAPORE 518457,1,DBS NTUC WHITE SANDS,1.37228761596577,103.949733905672,103.949733905672,518457,PASIR RIS CENTRAL STREET 3,DBS NTUC WHITE SANDS,40955.6118854657,39366.4230909683
11 PASIR RIS DRIVE 2 BETHESDA (PASIR RIS) KINDERGARTEN SINGAPORE 518458,11,BETHESDA (PASIR RIS) KINDERGARTEN,1.36790211151825,103.964462067712,103.964462067712,518458,PASIR RIS DRIVE 2,BETHESDA (PASIR RIS) KINDERGARTEN,42594.7066828562,38881.5798431877
689 TAMPINES ROAD SINGAPORE 518463,689,NIL,1.37088900384478,103.922638057399,103.922638057399,518463,TAMPINES ROAD,689 TAMPINES ROAD SINGAPORE 518463,37940.1760240206,39211.6418539733
1 PASIR RIS WAY PASIR RIS BEACH PARK SINGAPORE 518517,1,PASIR RIS BEACH PARK,1.38059481524565,103.945667823911,103.945667823911,518517,PASIR RIS WAY,PASIR RIS BEACH PARK,40503.0625180872,40284.97110161
2 PASIR RIS WAY PASIR RIS BEACH PARK SINGAPORE 518518,2,PASIR RIS BEACH PARK,1.38063337459639,103.946040328204,103.946040328204,518518,PASIR RIS WAY,PASIR RIS BEACH PARK,40544.5174275152,40289.2367685549
3 PASIR RIS WAY PASIR RIS BEACH PARK SINGAPORE 518519,3,PASIR RIS BEACH PARK,1.38065640980235,103.945664879901,103.945664879901,518519,PASIR RIS WAY,PASIR RIS BEACH PARK,40502.7345644841,40291.7819125019
4 PASIR RIS WAY PASIR RIS BEACH PARK SINGAPORE 518520,4,PASIR RIS BEACH PARK,1.38071240958594,103.946046165621,103.946046165621,518520,PASIR RIS WAY,PASIR RIS BEACH PARK,40545.166645498,40297.9761040304
5 PASIR RIS WAY PASIR RIS BEACH PARK SINGAPORE 518521,5,PASIR RIS BEACH PARK,1.38076794492278,103.945661406514,103.945661406514,518521,PASIR RIS WAY,PASIR RIS BEACH PARK,40502.347436972,40304.1149051487
6 PASIR RIS WAY PASIR RIS BEACH PARK SINGAPORE 518522,6,PASIR RIS BEACH PARK,1.38086918784308,103.946040189177,103.946040189177,518522,PASIR RIS WAY,PASIR RIS BEACH PARK,40544.5007195883,40315.3118495606
7 PASIR RIS WAY PASIR RIS BEACH PARK SINGAPORE 518523,7,PASIR RIS BEACH PARK,1.38087813771073,103.945651109089,103.945651109089,518523,PASIR RIS WAY,PASIR RIS BEACH PARK,40501.2008857494,40316.2994333338
8 PASIR RIS WAY PASIR RIS BEACH PARK SINGAPORE 518524,8,PASIR RIS BEACH PARK,1.38092993462158,103.946037851107,103.946037851107,518524,PASIR RIS WAY,PASIR RIS BEACH PARK,40544.2402030518,40322.0289205071
9 PASIR RIS WAY PASIR RIS BEACH PARK SINGAPORE 518525,9,PASIR RIS BEACH PARK,1.3810340678261,103.945647659001,103.945647659001,518525,PASIR RIS WAY,PASIR RIS BEACH PARK,40500.81611914,40333.5414086506
10 PASIR RIS WAY PASIR RIS BEACH PARK SINGAPORE 518526,10,PASIR RIS BEACH PARK,1.38107266998133,103.946035178557,103.946035178557,518526,PASIR RIS WAY,PASIR RIS BEACH PARK,40543.9420331446,40337.8118882049
11 PASIR RIS WAY PASIR RIS BEACH PARK SINGAPORE 518527,11,PASIR RIS BEACH PARK,1.38111276682551,103.945644555053,103.945644555053,518527,PASIR RIS WAY,PASIR RIS BEACH PARK,40500.4702771585,40342.2435447723
12 PASIR RIS WAY PASIR RIS BEACH PARK SINGAPORE 518528,12,PASIR RIS BEACH PARK,1.38116912789539,103.946043834781,103.946043834781,518528,PASIR RIS WAY,PASIR RIS BEACH PARK,40544.9048577063,40348.4777808432
14 PASIR RIS WAY SINGAPORE 518530,14,NIL,1.38095849011101,103.9462324962,103.9462324962,518530,PASIR RIS WAY,14 PASIR RIS WAY SINGAPORE 518530,40565.9016369395,40325.1874754112
15 PASIR RIS WAY PASIR RIS BEACH PARK SINGAPORE 518531,15,PASIR RIS BEACH PARK,1.38124776115288,103.945639459864,103.945639459864,518531,PASIR RIS WAY,PASIR RIS BEACH PARK,40499.9025405878,40357.1705338899
16 PASIR RIS WAY PASIR RIS BEACH PARK SINGAPORE 518532,16,PASIR RIS BEACH PARK,1.38106866069586,103.946303002661,103.946303002661,518532,PASIR RIS WAY,PASIR RIS BEACH PARK,40573.747552339,40337.3699756432
17 PASIR RIS WAY PASIR RIS BEACH PARK SINGAPORE 518533,17,PASIR RIS BEACH PARK,1.38131449891992,103.945635363988,103.945635363988,518533,PASIR RIS WAY,PASIR RIS BEACH PARK,40499.4463718049,40364.5500499289
18 PASIR RIS WAY PASIR RIS BEACH PARK SINGAPORE 518534,18,PASIR RIS BEACH PARK,1.38113520233815,103.946456087502,103.946456087502,518534,PASIR RIS WAY,PASIR RIS BEACH PARK,40590.7836448299,40344.7286370397
19 PASIR RIS WAY PASIR RIS BEACH PARK SINGAPORE 518535,19,PASIR RIS BEACH PARK,1.3814741836739,103.945629241057,103.945629241057,518535,PASIR RIS WAY,PASIR RIS BEACH PARK,40498.764131452,40382.2071809098
20 PASIR RIS WAY PASIR RIS BEACH PARK SINGAPORE 518536,20,PASIR RIS BEACH PARK,1.38118354395389,103.946508577009,103.946508577009,518536,PASIR RIS WAY,PASIR RIS BEACH PARK,40596.6248208638,40350.0742959119
21 PASIR RIS WAY PASIR RIS BEACH PARK SINGAPORE 518537,21,PASIR RIS BEACH PARK,1.38153665447905,103.945625629105,103.945625629105,518537,PASIR RIS WAY,PASIR RIS BEACH PARK,40498.36183968,40389.1148796175
22 PASIR RIS WAY PASIR RIS BEACH PARK SINGAPORE 518538,22,PASIR RIS BEACH PARK,1.38136473697745,103.946633076767,103.946633076767,518538,PASIR RIS WAY,PASIR RIS BEACH PARK,40610.4791429071,40370.1103996094
23 PASIR RIS WAY PASIR RIS BEACH PARK SINGAPORE 518539,23,PASIR RIS BEACH PARK,1.38168202534519,103.945622722753,103.945622722753,518539,PASIR RIS WAY,PASIR RIS BEACH PARK,40498.0376393069,40405.1892674621
24 PASIR RIS WAY PASIR RIS BEACH PARK SINGAPORE 518540,24,PASIR RIS BEACH PARK,1.38156329789034,103.946743415644,103.946743415644,518540,PASIR RIS WAY,PASIR RIS BEACH PARK,40622.7574413056,40392.0668858029
25 PASIR RIS WAY PASIR RIS BEACH PARK SINGAPORE 518541,25,PASIR RIS BEACH PARK,1.38177160765586,103.945614076365,103.945614076365,518541,PASIR RIS WAY,PASIR RIS BEACH PARK,40497.0749358172,40415.0947980825
26 PASIR RIS WAY PASIR RIS BEACH PARK SINGAPORE 518542,26,PASIR RIS BEACH PARK,1.38150137194776,103.946247300393,103.946247300393,518542,PASIR RIS WAY,PASIR RIS BEACH PARK,40567.5463083703,40385.2167870663
27 PASIR RIS WAY PASIR RIS BEACH PARK SINGAPORE 518543,27,PASIR RIS BEACH PARK,1.38191700862007,103.945611427308,103.945611427308,518543,PASIR RIS WAY,PASIR RIS BEACH PARK,40496.7793689556,40431.1725154053
28 PASIR RIS WAY PASIR RIS BEACH PARK SINGAPORE 518544,28,PASIR RIS BEACH PARK,1.38170480365133,103.946363801727,103.946363801727,518544,PASIR RIS WAY,PASIR RIS BEACH PARK,40580.5103884768,40407.7118920293
29 PASIR RIS WAY PASIR RIS BEACH PARK SINGAPORE 518545,29,PASIR RIS BEACH PARK,1.38198161040362,103.94561414307,103.94561414307,518545,PASIR RIS WAY,PASIR RIS BEACH PARK,40497.0812618257,40438.3158806339
30 PASIR RIS WAY PASIR RIS BEACH PARK SINGAPORE 518546,30,PASIR RIS BEACH PARK,1.38148451158433,103.945991457061,103.945991457061,518546,PASIR RIS WAY,PASIR RIS BEACH PARK,40539.0742149316,40383.3510988187
31 PASIR RIS WAY PASIR RIS BEACH PARK SINGAPORE 518547,31,PASIR RIS BEACH PARK,1.38219282790576,103.945627169409,103.945627169409,518547,PASIR RIS WAY,PASIR RIS BEACH PARK,40498.5298269903,40461.6713530347
32 PASIR RIS WAY PASIR RIS BEACH PARK SINGAPORE 518548,32,PASIR RIS BEACH PARK,1.3817355272722,103.945993426869,103.945993426869,518548,PASIR RIS WAY,PASIR RIS BEACH PARK,40539.2921141461,40411.1072031036
33 PASIR RIS WAY PASIR RIS BEACH PARK SINGAPORE 518549,33,PASIR RIS BEACH PARK,1.38224617358152,103.945657857787,103.945657857787,518549,PASIR RIS WAY,PASIR RIS BEACH PARK,40501.9447819851,40467.5702198446
34 PASIR RIS WAY PASIR RIS BEACH PARK SINGAPORE 518550,34,PASIR RIS BEACH PARK,1.38198806636194,103.945976464497,103.945976464497,518550,PASIR RIS WAY,PASIR RIS BEACH PARK,40537.4030892821,40439.0316579137
1 PASIR RIS VIEW SINGAPORE 518584,1,NIL,1.37923705257787,103.944495497082,103.944495497082,518584,PASIR RIS VIEW,1 PASIR RIS VIEW SINGAPORE 518584,40372.6040879842,40134.8301886637
2 PASIR RIS VIEW PASIR RIS BEACH PARK SINGAPORE 518585,2,PASIR RIS BEACH PARK,1.37982917522734,103.944745445663,103.944745445663,518585,PASIR RIS VIEW,PASIR RIS BEACH PARK,40400.4172171503,40200.3055278249
3 PASIR RIS VIEW PASIR RIS BEACH PARK SINGAPORE 518586,3,PASIR RIS BEACH PARK,1.37941428781135,103.944422575037,103.944422575037,518586,PASIR RIS VIEW,PASIR RIS BEACH PARK,40364.4878492225,40154.4276184719
4 PASIR RIS VIEW PASIR RIS BEACH PARK SINGAPORE 518587,4,PASIR RIS BEACH PARK,1.37982629851871,103.944682722377,103.944682722377,518587,PASIR RIS VIEW,PASIR RIS BEACH PARK,40393.4369055489,40199.9871086366
5 PASIR RIS VIEW PASIR RIS BEACH PARK SINGAPORE 518588,5,PASIR RIS BEACH PARK,1.3794192589797,103.944354414162,103.944354414162,518588,PASIR RIS VIEW,PASIR RIS BEACH PARK,40356.9023595545,40154.9769521095
6 PASIR RIS VIEW PASIR RIS BEACH PARK SINGAPORE 518589,6,PASIR RIS BEACH PARK,1.37981314422644,103.944614805431,103.944614805431,518589,PASIR RIS VIEW,PASIR RIS BEACH PARK,40385.8786570672,40198.5322174616
7 PASIR RIS VIEW PASIR RIS BEACH PARK SINGAPORE 518590,7,PASIR RIS BEACH PARK,1.37939712658249,103.944291239868,103.944291239868,518590,PASIR RIS VIEW,PASIR RIS BEACH PARK,40349.8719544411,40152.5293316059
8 PASIR RIS VIEW PASIR RIS BEACH PARK SINGAPORE 518591,8,PASIR RIS BEACH PARK,1.37981458353562,103.944550290814,103.944550290814,518591,PASIR RIS VIEW,PASIR RIS BEACH PARK,40378.6989702573,40198.6910335738
9 PASIR RIS VIEW PASIR RIS BEACH PARK SINGAPORE 518592,9,PASIR RIS BEACH PARK,1.37942634744341,103.944222527181,103.944222527181,518592,PASIR RIS VIEW,PASIR RIS BEACH PARK,40342.2249299623,40155.7600756511
10 PASIR RIS VIEW PASIR RIS BEACH PARK SINGAPORE 518593,10,PASIR RIS BEACH PARK,1.37981819654988,103.944427567465,103.944427567465,518593,PASIR RIS VIEW,PASIR RIS BEACH PARK,40365.04135984,40199.0899050627
11 PASIR RIS VIEW PASIR RIS BEACH PARK SINGAPORE 518594,11,PASIR RIS BEACH PARK,1.37942397767742,103.944159692144,103.944159692144,518594,PASIR RIS VIEW,PASIR RIS BEACH PARK,40335.2321782205,40155.4977127686
12 PASIR RIS VIEW PASIR RIS BEACH PARK SINGAPORE 518595,12,PASIR RIS BEACH PARK,1.37981534802063,103.944364983705,103.944364983705,518595,PASIR RIS VIEW,PASIR RIS BEACH PARK,40358.0765757151,40198.7746034767
14 PASIR RIS VIEW PASIR RIS BEACH PARK SINGAPORE 518596,14,PASIR RIS BEACH PARK,1.37979883966685,103.944297288269,103.944297288269,518596,PASIR RIS VIEW,PASIR RIS BEACH PARK,40350.5429956401,40196.9488386977
15 PASIR RIS VIEW PASIR RIS BEACH PARK SINGAPORE 518597,15,PASIR RIS BEACH PARK,1.37943017394226,103.944035672404,103.944035672404,518597,PASIR RIS VIEW,PASIR RIS BEACH PARK,40321.430280325,40156.1822232213
16 PASIR RIS VIEW PASIR RIS BEACH PARK SINGAPORE 518598,16,PASIR RIS BEACH PARK,1.37979479467483,103.944234179805,103.944234179805,518598,PASIR RIS VIEW,PASIR RIS BEACH PARK,40343.5198245738,40196.5012357552
17 PASIR RIS VIEW PASIR RIS BEACH PARK SINGAPORE 518599,17,PASIR RIS BEACH PARK,1.37942727039859,103.943972724199,103.943972724199,518599,PASIR RIS VIEW,PASIR RIS BEACH PARK,40314.424937102,40155.8608377688
18 PASIR RIS VIEW PASIR RIS BEACH PARK SINGAPORE 518600,18,PASIR RIS BEACH PARK,1.37980335420993,103.944165707668,103.944165707668,518600,PASIR RIS VIEW,PASIR RIS BEACH PARK,40335.8996780654,40197.4473523907
19 PASIR RIS VIEW PASIR RIS BEACH PARK SINGAPORE 518601,19,PASIR RIS BEACH PARK,1.37941020005609,103.943905112247,103.943905112247,518601,PASIR RIS VIEW,PASIR RIS BEACH PARK,40306.9006492971,40153.9729328211
20 PASIR RIS VIEW PASIR RIS BEACH PARK SINGAPORE 518602,20,PASIR RIS BEACH PARK,1.37982130495364,103.94409133074,103.94409133074,518602,PASIR RIS VIEW,PASIR RIS BEACH PARK,40327.6223530937,40199.4318727423
21 PASIR RIS VIEW PASIR RIS BEACH PARK SINGAPORE 518603,21,PASIR RIS BEACH PARK,1.37940753986318,103.94384203024,103.94384203024,518603,PASIR RIS VIEW,PASIR RIS BEACH PARK,40299.8804142261,40153.678455608
22 PASIR RIS VIEW SINGAPORE 518604,22,NIL,1.37971598965123,103.943999625725,103.943999625725,518604,PASIR RIS VIEW,22 PASIR RIS VIEW SINGAPORE 518604,40317.4172602398,40187.7861449346
23 PASIR RIS VIEW PASIR RIS BEACH PARK SINGAPORE 518605,23,PASIR RIS BEACH PARK,1.37934916652158,103.943776039016,103.943776039016,518605,PASIR RIS VIEW,PASIR RIS BEACH PARK,40292.5367052127,40147.2234751321
24 PASIR RIS VIEW PASIR RIS BEACH PARK SINGAPORE 518606,24,PASIR RIS BEACH PARK,1.37978807434776,103.943917021463,103.943917021463,518606,PASIR RIS VIEW,PASIR RIS BEACH PARK,40308.2240563491,40195.756492015
25 PASIR RIS VIEW SINGAPORE 518607,25,NIL,1.37925571568648,103.943699718295,103.943699718295,518607,PASIR RIS VIEW,25 PASIR RIS VIEW SINGAPORE 518607,40284.0436300533,40136.8897433467
26 PASIR RIS VIEW PASIR RIS BEACH PARK SINGAPORE 518608,26,PASIR RIS BEACH PARK,1.37977865616822,103.943849896426,103.943849896426,518608,PASIR RIS VIEW,PASIR RIS BEACH PARK,40300.7539179679,40194.7147285528
28 PASIR RIS VIEW PASIR RIS BEACH PARK SINGAPORE 518609,28,PASIR RIS BEACH PARK,1.37976993667819,103.943785920132,103.943785920132,518609,PASIR RIS VIEW,PASIR RIS BEACH PARK,40293.6341920337,40193.7502392512
30 PASIR RIS VIEW PASIR RIS BEACH PARK SINGAPORE 518610,30,PASIR RIS BEACH PARK,1.37978294846835,103.943717189001,103.943717189001,518610,PASIR RIS VIEW,PASIR RIS BEACH PARK,40285.9852001369,40195.1886646412
32 PASIR RIS VIEW PASIR RIS BEACH PARK SINGAPORE 518611,32,PASIR RIS BEACH PARK,1.3797797280821,103.943651086895,103.943651086895,518611,PASIR RIS VIEW,PASIR RIS BEACH PARK,40278.6288693743,40194.8322288655
1A PASIR RIS VIEW THE RIVERINA SINGAPORE 518612,1A,THE RIVERINA,1.38006521304843,103.945027356063,103.945027356063,518612,PASIR RIS VIEW,THE RIVERINA,40431.7891347697,40226.4069117066
1 PASIR RIS TERRACE PASIR RIS BEACH PARK SINGAPORE 518645,1,PASIR RIS BEACH PARK,1.38044509461748,103.944359245034,103.944359245034,518645,PASIR RIS TERRACE,PASIR RIS BEACH PARK,40357.4346825844,40268.4088846724
2 PASIR RIS TERRACE PASIR RIS BEACH PARK SINGAPORE 518646,2,PASIR RIS BEACH PARK,1.38046030380961,103.944729825314,103.944729825314,518646,PASIR RIS TERRACE,PASIR RIS BEACH PARK,40398.6755973669,40270.0925715342
3 PASIR RIS TERRACE PASIR RIS BEACH PARK SINGAPORE 518647,3,PASIR RIS BEACH PARK,1.38050912345762,103.944356706352,103.944356706352,518647,PASIR RIS TERRACE,PASIR RIS BEACH PARK,40357.1518282769,40275.4888687432
4 PASIR RIS TERRACE PASIR RIS BEACH PARK SINGAPORE 518648,4,PASIR RIS BEACH PARK,1.3805273549241,103.944727360218,103.944727360218,518648,PASIR RIS TERRACE,PASIR RIS BEACH PARK,40398.400915415,40277.5067444146
5 PASIR RIS TERRACE PASIR RIS BEACH PARK SINGAPORE 518649,5,PASIR RIS BEACH PARK,1.38057745617246,103.94434872773,103.94434872773,518649,PASIR RIS TERRACE,PASIR RIS BEACH PARK,40356.2635537582,40283.0447260551
6 PASIR RIS TERRACE PASIR RIS BEACH PARK SINGAPORE 518650,6,PASIR RIS BEACH PARK,1.38059261890383,103.944735162549,103.944735162549,518650,PASIR RIS TERRACE,PASIR RIS BEACH PARK,40399.2688801158,40284.7233581636
7 PASIR RIS TERRACE PASIR RIS BEACH PARK SINGAPORE 518651,7,PASIR RIS BEACH PARK,1.38064196737023,103.944362785009,103.944362785009,518651,PASIR RIS TERRACE,PASIR RIS BEACH PARK,40357.8276215494,40290.178133117
8 PASIR RIS TERRACE PASIR RIS BEACH PARK SINGAPORE 518652,8,PASIR RIS BEACH PARK,1.38066007817688,103.94473219295,103.94473219295,518652,PASIR RIS TERRACE,PASIR RIS BEACH PARK,40398.9380510533,40292.1826606076
9 PASIR RIS TERRACE PASIR RIS BEACH PARK SINGAPORE 518653,9,PASIR RIS BEACH PARK,1.38071011155797,103.944347396014,103.944347396014,518653,PASIR RIS TERRACE,PASIR RIS BEACH PARK,40356.1146655465,40297.7131055202
10 PASIR RIS TERRACE PASIR RIS BEACH PARK SINGAPORE 518654,10,PASIR RIS BEACH PARK,1.38072473752522,103.944739075418,103.944739075418,518654,PASIR RIS TERRACE,PASIR RIS BEACH PARK,40399.7036494333,40299.3324123807
11 PASIR RIS TERRACE PASIR RIS BEACH PARK SINGAPORE 518655,11,PASIR RIS BEACH PARK,1.3808127834072,103.944334320994,103.944334320994,518655,PASIR RIS TERRACE,PASIR RIS BEACH PARK,40354.6590479417,40309.065990584
12 PASIR RIS TERRACE PASIR RIS BEACH PARK SINGAPORE 518656,12,PASIR RIS BEACH PARK,1.38079163968209,103.944714387385,103.944714387385,518656,PASIR RIS TERRACE,PASIR RIS BEACH PARK,40396.9558310676,40306.729998406
14 PASIR RIS TERRACE PASIR RIS BEACH PARK SINGAPORE 518658,14,PASIR RIS BEACH PARK,1.3808559935278,103.944704220237,103.944704220237,518658,PASIR RIS TERRACE,PASIR RIS BEACH PARK,40395.8240203531,40313.8458803054
15 PASIR RIS TERRACE PASIR RIS BEACH PARK SINGAPORE 518659,15,PASIR RIS BEACH PARK,1.38089558988047,103.944340338582,103.944340338582,518659,PASIR RIS TERRACE,PASIR RIS BEACH PARK,40355.3283033296,40318.2223583385
16 PASIR RIS TERRACE PASIR RIS BEACH PARK SINGAPORE 518660,16,PASIR RIS BEACH PARK,1.38097974095872,103.944717823631,103.944717823631,518660,PASIR RIS TERRACE,PASIR RIS BEACH PARK,40397.3372681988,40327.5293395799
17 PASIR RIS TERRACE PASIR RIS BEACH PARK SINGAPORE 518661,17,PASIR RIS BEACH PARK,1.38096083357249,103.944337201601,103.944337201601,518661,PASIR RIS TERRACE,PASIR RIS BEACH PARK,40354.9788594572,40325.4366717227
18 PASIR RIS TERRACE PASIR RIS BEACH PARK SINGAPORE 518662,18,PASIR RIS BEACH PARK,1.38104276955593,103.944715804667,103.944715804667,518662,PASIR RIS TERRACE,PASIR RIS BEACH PARK,40397.1122560082,40334.4987244383
19 PASIR RIS TERRACE PASIR RIS BEACH PARK SINGAPORE 518663,19,PASIR RIS BEACH PARK,1.38103009173182,103.944347637963,103.944347637963,518663,PASIR RIS TERRACE,PASIR RIS BEACH PARK,40356.1399393128,40333.0949558895
20 PASIR RIS TERRACE PASIR RIS BEACH PARK SINGAPORE 518664,20,PASIR RIS BEACH PARK,1.38111126550725,103.944700073275,103.944700073275,518664,PASIR RIS TERRACE,PASIR RIS BEACH PARK,40395.3611926138,40342.0725912005
21 PASIR RIS TERRACE PASIR RIS BEACH PARK SINGAPORE 518665,21,PASIR RIS BEACH PARK,1.38109366349608,103.94434388079,103.94434388079,518665,PASIR RIS TERRACE,PASIR RIS BEACH PARK,40355.7214844376,40340.1243924294
22 PASIR RIS TERRACE PASIR RIS BEACH PARK SINGAPORE 518666,22,PASIR RIS BEACH PARK,1.38117431796036,103.944691375029,103.944691375029,518666,PASIR RIS TERRACE,PASIR RIS BEACH PARK,40394.3928592782,40349.0445791055
23 PASIR RIS TERRACE PASIR RIS BEACH PARK SINGAPORE 518667,23,PASIR RIS BEACH PARK,1.38116082640806,103.944333153756,103.944333153756,518667,PASIR RIS TERRACE,PASIR RIS BEACH PARK,40354.5273519447,40347.5508843772
24 PASIR RIS TERRACE PASIR RIS BEACH PARK SINGAPORE 518668,24,PASIR RIS BEACH PARK,1.38124375175351,103.944703926054,103.944703926054,518668,PASIR RIS TERRACE,PASIR RIS BEACH PARK,40395.7892727079,40356.7222953197
25 PASIR RIS TERRACE PASIR RIS BEACH PARK SINGAPORE 518669,25,PASIR RIS BEACH PARK,1.38122341264046,103.944325604865,103.944325604865,518669,PASIR RIS TERRACE,PASIR RIS BEACH PARK,40353.6869311081,40354.471325906
26 PASIR RIS TERRACE PASIR RIS BEACH PARK SINGAPORE 518670,26,PASIR RIS BEACH PARK,1.38130663611376,103.944701481706,103.944701481706,518670,PASIR RIS TERRACE,PASIR RIS BEACH PARK,40395.5169213898,40363.6757289507
27 PASIR RIS TERRACE PASIR RIS BEACH PARK SINGAPORE 518671,27,PASIR RIS BEACH PARK,1.38134852860995,103.944324419942,103.944324419942,518671,PASIR RIS TERRACE,PASIR RIS BEACH PARK,40353.5544178756,40368.3060342968
28 PASIR RIS TERRACE PASIR RIS BEACH PARK SINGAPORE 518672,28,PASIR RIS BEACH PARK,1.38143127312063,103.94471041253,103.94471041253,518672,PASIR RIS TERRACE,PASIR RIS BEACH PARK,40396.510165276,40377.4575289059
29 PASIR RIS TERRACE PASIR RIS BEACH PARK SINGAPORE 518673,29,PASIR RIS BEACH PARK,1.38141271402348,103.94432190493,103.94432190493,518673,PASIR RIS TERRACE,PASIR RIS BEACH PARK,40353.2741968827,40375.4033316541
30 PASIR RIS TERRACE PASIR RIS BEACH PARK SINGAPORE 518674,30,PASIR RIS BEACH PARK,1.38149439713648,103.944693393334,103.944693393334,518674,PASIR RIS TERRACE,PASIR RIS BEACH PARK,40394.6158132469,40384.4373864867
31 PASIR RIS TERRACE PASIR RIS BEACH PARK SINGAPORE 518675,31,PASIR RIS BEACH PARK,1.38148199823988,103.944331218291,103.944331218291,518675,PASIR RIS TERRACE,PASIR RIS BEACH PARK,40354.3103002328,40383.0644912813
32 PASIR RIS TERRACE PASIR RIS BEACH PARK SINGAPORE 518676,32,PASIR RIS BEACH PARK,1.3815624050168,103.944677793555,103.944677793555,518676,PASIR RIS TERRACE,PASIR RIS BEACH PARK,40392.8793995567,40391.9572854321
33 PASIR RIS TERRACE PASIR RIS BEACH PARK SINGAPORE 518677,33,PASIR RIS BEACH PARK,1.38156207039086,103.944325798727,103.944325798727,518677,PASIR RIS TERRACE,PASIR RIS BEACH PARK,40353.7067566374,40391.9184516091
34 PASIR RIS TERRACE PASIR RIS BEACH PARK SINGAPORE 518678,34,PASIR RIS BEACH PARK,1.38162630011498,103.944678642659,103.944678642659,518678,PASIR RIS TERRACE,PASIR RIS BEACH PARK,40392.9735632539,40399.0224987287
35 PASIR RIS TERRACE PASIR RIS BEACH PARK SINGAPORE 518679,35,PASIR RIS BEACH PARK,1.38174417344551,103.944211197539,103.944211197539,518679,PASIR RIS TERRACE,PASIR RIS BEACH PARK,40340.9521309789,40412.0539250989
36 PASIR RIS TERRACE PASIR RIS BEACH PARK SINGAPORE 518680,36,PASIR RIS BEACH PARK,1.38169529575,103.944683532535,103.944683532535,518680,PASIR RIS TERRACE,PASIR RIS BEACH PARK,40393.5173881175,40406.6517256331
37 PASIR RIS TERRACE PASIR RIS BEACH PARK SINGAPORE 518681,37,PASIR RIS BEACH PARK,1.38177917470932,103.944160076991,103.944160076991,518681,PASIR RIS TERRACE,PASIR RIS BEACH PARK,40335.262869956,40415.9239289593
38 PASIR RIS TERRACE PASIR RIS BEACH PARK SINGAPORE 518682,38,PASIR RIS BEACH PARK,1.38177466476457,103.944676372822,103.944676372822,518682,PASIR RIS TERRACE,PASIR RIS BEACH PARK,40392.7201899625,40415.4279275108
39 PASIR RIS TERRACE PASIR RIS BEACH PARK SINGAPORE 518683,39,PASIR RIS BEACH PARK,1.38182122697589,103.944104537909,103.944104537909,518683,PASIR RIS TERRACE,PASIR RIS BEACH PARK,40329.0818450013,40420.573575547
40 PASIR RIS TERRACE PASIR RIS BEACH PARK SINGAPORE 518684,40,PASIR RIS BEACH PARK,1.38196946088725,103.94457736241,103.94457736241,518684,PASIR RIS TERRACE,PASIR RIS BEACH PARK,40381.7005553981,40436.9670182075
41 PASIR RIS TERRACE PASIR RIS BEACH PARK SINGAPORE 518685,41,PASIR RIS BEACH PARK,1.38185303176508,103.94404972508,103.94404972508,518685,PASIR RIS TERRACE,PASIR RIS BEACH PARK,40322.9816960981,40424.0901098959
42 PASIR RIS TERRACE PASIR RIS BEACH PARK SINGAPORE 518686,42,PASIR RIS BEACH PARK,1.38198796378281,103.944508459316,103.944508459316,518686,PASIR RIS TERRACE,PASIR RIS BEACH PARK,40374.0324038677,40439.012619352
43 PASIR RIS TERRACE PASIR RIS BEACH PARK SINGAPORE 518687,43,PASIR RIS BEACH PARK,1.38187706576515,103.943984846184,103.943984846184,518687,PASIR RIS TERRACE,PASIR RIS BEACH PARK,40315.7613593871,40426.7473361865
44 PASIR RIS TERRACE PASIR RIS BEACH PARK SINGAPORE 518688,44,PASIR RIS BEACH PARK,1.38203089960441,103.944454211638,103.944454211638,518688,PASIR RIS TERRACE,PASIR RIS BEACH PARK,40367.9950912995,40443.7599709891
45 PASIR RIS TERRACE PASIR RIS BEACH PARK SINGAPORE 518689,45,PASIR RIS BEACH PARK,1.38190514726329,103.943923802663,103.943923802663,518689,PASIR RIS TERRACE,PASIR RIS BEACH PARK,40308.9678315129,40429.8521351516
46 PASIR RIS TERRACE PASIR RIS BEACH PARK SINGAPORE 518690,46,PASIR RIS BEACH PARK,1.38206231270137,103.944399173593,103.944399173593,518690,PASIR RIS TERRACE,PASIR RIS BEACH PARK,40361.8698805068,40447.2331918534
47 PASIR RIS TERRACE SINGAPORE 518691,47,NIL,1.38203260762474,103.943866867096,103.943866867096,518691,PASIR RIS TERRACE,47 PASIR RIS TERRACE SINGAPORE 518691,40302.6309567103,40443.9457861409
48 PASIR RIS TERRACE PASIR RIS BEACH PARK SINGAPORE 518692,48,PASIR RIS BEACH PARK,1.38211291086625,103.94428604749,103.94428604749,518692,PASIR RIS TERRACE,PASIR RIS BEACH PARK,40349.2800942874,40452.8275022116
49 PASIR RIS TERRACE PASIR RIS BEACH PARK SINGAPORE 518693,49,PASIR RIS BEACH PARK,1.38198318351643,103.94375788433,103.94375788433,518693,PASIR RIS TERRACE,PASIR RIS BEACH PARK,40290.5027875109,40438.4801449813
50 PASIR RIS TERRACE PASIR RIS BEACH PARK SINGAPORE 518694,50,PASIR RIS BEACH PARK,1.38214127244566,103.944229868071,103.944229868071,518694,PASIR RIS TERRACE,PASIR RIS BEACH PARK,40343.0278790342,40455.963295592
51 PASIR RIS TERRACE PASIR RIS BEACH PARK SINGAPORE 518695,51,PASIR RIS BEACH PARK,1.38202755664774,103.943704544573,103.943704544573,518695,PASIR RIS TERRACE,PASIR RIS BEACH PARK,40284.5665094722,40443.3864338025
52 PASIR RIS TERRACE PASIR RIS BEACH PARK SINGAPORE 518696,52,PASIR RIS BEACH PARK,1.38220301342048,103.944186759926,103.944186759926,518696,PASIR RIS TERRACE,PASIR RIS BEACH PARK,40338.2301614713,40462.7900879812
53 PASIR RIS TERRACE PASIR RIS BEACH PARK SINGAPORE 518697,53,PASIR RIS BEACH PARK,1.38205910029481,103.943649581589,103.943649581589,518697,PASIR RIS TERRACE,PASIR RIS BEACH PARK,40278.4496526429,40446.8740924951
54 PASIR RIS TERRACE PASIR RIS BEACH PARK SINGAPORE 518698,54,PASIR RIS BEACH PARK,1.38221665130493,103.944122759308,103.944122759308,518698,PASIR RIS TERRACE,PASIR RIS BEACH PARK,40331.1076206155,40464.2977665178
55 PASIR RIS TERRACE PASIR RIS BEACH PARK SINGAPORE 518699,55,PASIR RIS BEACH PARK,1.3820817604654,103.943583778159,103.943583778159,518699,PASIR RIS TERRACE,PASIR RIS BEACH PARK,40271.1264350545,40449.3794037756
56 PASIR RIS TERRACE PASIR RIS BEACH PARK SINGAPORE 518700,56,PASIR RIS BEACH PARK,1.38229237980682,103.944031221682,103.944031221682,518700,PASIR RIS TERRACE,PASIR RIS BEACH PARK,40320.9202345312,40472.6709804609
57 PASIR RIS TERRACE PASIR RIS BEACH PARK SINGAPORE 518701,57,PASIR RIS BEACH PARK,1.38211346805768,103.943529196495,103.943529196495,518701,PASIR RIS TERRACE,PASIR RIS BEACH PARK,40265.0520139374,40452.8851929884
58 PASIR RIS TERRACE PASIR RIS BEACH PARK SINGAPORE 518702,58,PASIR RIS BEACH PARK,1.38231058985401,103.94396103699,103.94396103699,518702,PASIR RIS TERRACE,PASIR RIS BEACH PARK,40313.1094602617,40474.6841948628
59 PASIR RIS TERRACE PASIR RIS BEACH PARK SINGAPORE 518703,59,PASIR RIS BEACH PARK,1.38218317299512,103.943403809301,103.943403809301,518703,PASIR RIS TERRACE,PASIR RIS BEACH PARK,40251.097625941,40460.5921783429
60 PASIR RIS TERRACE PASIR RIS BEACH PARK SINGAPORE 518704,60,PASIR RIS BEACH PARK,1.38235930748587,103.943911605784,103.943911605784,518704,PASIR RIS TERRACE,PASIR RIS BEACH PARK,40307.6081331484,40480.070897121
61 PASIR RIS TERRACE PASIR RIS BEACH PARK SINGAPORE 518705,61,PASIR RIS BEACH PARK,1.3822085157705,103.943337262123,103.943337262123,518705,PASIR RIS TERRACE,PASIR RIS BEACH PARK,40243.6916254163,40463.3941158634
62 PASIR RIS TERRACE PASIR RIS BEACH PARK SINGAPORE 518706,62,PASIR RIS BEACH PARK,1.38235987101138,103.943837545101,103.943837545101,518706,PASIR RIS TERRACE,PASIR RIS BEACH PARK,40299.3661006466,40480.1328254156
63 PASIR RIS TERRACE PASIR RIS BEACH PARK SINGAPORE 518707,63,PASIR RIS BEACH PARK,1.38224146820874,103.943278593466,103.943278593466,518707,PASIR RIS TERRACE,PASIR RIS BEACH PARK,40237.1623673094,40467.0375335999
64 PASIR RIS TERRACE PASIR RIS BEACH PARK SINGAPORE 518708,64,PASIR RIS BEACH PARK,1.38240836862277,103.94378677574,103.94378677574,518708,PASIR RIS TERRACE,PASIR RIS BEACH PARK,40293.7158550536,40485.4951922148
65 PASIR RIS TERRACE PASIR RIS BEACH PARK SINGAPORE 518709,65,PASIR RIS BEACH PARK,1.38228485052383,103.943228888118,103.943228888118,518709,PASIR RIS TERRACE,PASIR RIS BEACH PARK,40231.6305603366,40471.8342825864
66 PASIR RIS TERRACE PASIR RIS BEACH PARK SINGAPORE 518710,66,PASIR RIS BEACH PARK,1.38245402691029,103.943727972226,103.943727972226,518710,PASIR RIS TERRACE,PASIR RIS BEACH PARK,40287.1715234909,40490.5435589496
67 PASIR RIS TERRACE PASIR RIS BEACH PARK SINGAPORE 518711,67,PASIR RIS BEACH PARK,1.38230748412628,103.943163195643,103.943163195643,518711,PASIR RIS TERRACE,PASIR RIS BEACH PARK,40224.3196920855,40474.3366578724
68 PASIR RIS TERRACE PASIR RIS BEACH PARK SINGAPORE 518712,68,PASIR RIS BEACH PARK,1.38252661190922,103.943606031414,103.943606031414,518712,PASIR RIS TERRACE,PASIR RIS BEACH PARK,40273.6006611148,40498.5690240283
69 PASIR RIS TERRACE PASIR RIS BEACH PARK SINGAPORE 518713,69,PASIR RIS BEACH PARK,1.38233806388817,103.943109569111,103.943109569111,518713,PASIR RIS TERRACE,PASIR RIS BEACH PARK,40218.351572128,40477.7177429944
70 PASIR RIS TERRACE PASIR RIS BEACH PARK SINGAPORE 518714,70,PASIR RIS BEACH PARK,1.38254647591222,103.943545915761,103.943545915761,518714,PASIR RIS TERRACE,PASIR RIS BEACH PARK,40266.9104378698,40500.7651781235
71 PASIR RIS TERRACE PASIR RIS BEACH PARK SINGAPORE 518715,71,PASIR RIS BEACH PARK,1.38236810836875,103.942994038261,103.942994038261,518715,PASIR RIS TERRACE,PASIR RIS BEACH PARK,40205.4942774689,40481.0393212587
72 PASIR RIS TERRACE PASIR RIS BEACH PARK SINGAPORE 518716,72,PASIR RIS BEACH PARK,1.38256884208248,103.943480327167,103.943480327167,518716,PASIR RIS TERRACE,PASIR RIS BEACH PARK,40259.6111319885,40503.2379815895
73 PASIR RIS TERRACE PASIR RIS BEACH PARK SINGAPORE 518717,73,PASIR RIS BEACH PARK,1.38244366586026,103.942953114712,103.942953114712,518717,PASIR RIS TERRACE,PASIR RIS BEACH PARK,40200.9396118149,40489.3938901257
74 PASIR RIS TERRACE PASIR RIS BEACH PARK SINGAPORE 518718,74,PASIR RIS BEACH PARK,1.38260011912337,103.943425081296,103.943425081296,518718,PASIR RIS TERRACE,PASIR RIS BEACH PARK,40253.4627964562,40506.6961592659
75 PASIR RIS TERRACE PASIR RIS BEACH PARK SINGAPORE 518719,75,PASIR RIS BEACH PARK,1.38246246071969,103.942885570686,103.942885570686,518719,PASIR RIS TERRACE,PASIR RIS BEACH PARK,40193.4227093989,40491.4717872068
76 PASIR RIS TERRACE SINGAPORE 518720,76,NIL,1.38272611153556,103.943419102995,103.943419102995,518720,PASIR RIS TERRACE,76 PASIR RIS TERRACE SINGAPORE 518720,40252.7968402784,40520.6277554706
77 PASIR RIS TERRACE PASIR RIS BEACH PARK SINGAPORE 518721,77,PASIR RIS BEACH PARK,1.38249290644167,103.942829903201,103.942829903201,518721,PASIR RIS TERRACE,PASIR RIS BEACH PARK,40187.2274584919,40494.8380410168
78 PASIR RIS TERRACE PASIR RIS BEACH PARK SINGAPORE 518722,78,PASIR RIS BEACH PARK,1.38267698030209,103.943315995258,103.943315995258,518722,PASIR RIS TERRACE,PASIR RIS BEACH PARK,40241.3224897953,40515.1945313215
79 PASIR RIS TERRACE PASIR RIS BEACH PARK SINGAPORE 518723,79,PASIR RIS BEACH PARK,1.38251734059978,103.94276518204,103.94276518204,518723,PASIR RIS TERRACE,PASIR RIS BEACH PARK,40180.0246772105,40497.5395190995
80 PASIR RIS TERRACE PASIR RIS BEACH PARK SINGAPORE 518724,80,PASIR RIS BEACH PARK,1.38273573285432,103.943215694697,103.943215694697,518724,PASIR RIS TERRACE,PASIR RIS BEACH PARK,40230.1599903479,40521.6905854512
81 PASIR RIS TERRACE PASIR RIS BEACH PARK SINGAPORE 518725,81,PASIR RIS BEACH PARK,1.38257075897679,103.94270473637,103.94270473637,518725,PASIR RIS TERRACE,PASIR RIS BEACH PARK,40173.2975572934,40503.4459529053
82 PASIR RIS TERRACE PASIR RIS BEACH PARK SINGAPORE 518726,82,PASIR RIS BEACH PARK,1.38278043527391,103.943162382126,103.943162382126,518726,PASIR RIS TERRACE,PASIR RIS BEACH PARK,40224.2267391076,40526.6332866549
84 PASIR RIS TERRACE PASIR RIS BEACH PARK SINGAPORE 518727,84,PASIR RIS BEACH PARK,1.38280311382281,103.94309550435,103.94309550435,518727,PASIR RIS TERRACE,PASIR RIS BEACH PARK,40216.7839629836,40529.1406258903
86 PASIR RIS TERRACE PASIR RIS BEACH PARK SINGAPORE 518728,86,PASIR RIS BEACH PARK,1.3828219155292,103.943033870171,103.943033870171,518728,PASIR RIS TERRACE,PASIR RIS BEACH PARK,40209.9247535858,40531.2193099409
88 PASIR RIS TERRACE PASIR RIS BEACH PARK SINGAPORE 518729,88,PASIR RIS BEACH PARK,1.38286630780986,103.94298048333,103.94298048333,518729,PASIR RIS TERRACE,PASIR RIS BEACH PARK,40203.983239186,40536.127717521
90 PASIR RIS TERRACE PASIR RIS BEACH PARK SINGAPORE 518730,90,PASIR RIS BEACH PARK,1.38289857384906,103.942924931241,103.942924931241,518730,PASIR RIS TERRACE,PASIR RIS BEACH PARK,40197.8008219041,40539.6952534206
21 PASIR RIS STREET 72 WHITEWATER SINGAPORE 518764,21,WHITEWATER,1.37993635799156,103.935495173706,103.935495173706,518764,PASIR RIS STREET 72,WHITEWATER,39370.9759405432,40212.1110705864
23 PASIR RIS STREET 72 WHITEWATER SINGAPORE 518765,23,WHITEWATER,1.37970993966809,103.935331312255,103.935331312255,518765,PASIR RIS STREET 72,WHITEWATER,39352.7412661649,40187.0740603507
25 PASIR RIS STREET 72 WHITEWATER SINGAPORE 518766,25,WHITEWATER,1.37997950860202,103.93504479732,103.93504479732,518766,PASIR RIS STREET 72,WHITEWATER,39320.8544296063,40216.8803059757
27 PASIR RIS STREET 72 WHITEWATER SINGAPORE 518767,27,WHITEWATER,1.38019874370421,103.935175886517,103.935175886517,518767,PASIR RIS STREET 72,WHITEWATER,39335.4419935551,40241.122872442
29 PASIR RIS STREET 72 WHITEWATER SINGAPORE 518768,29,WHITEWATER,1.38042350544105,103.935307266177,103.935307266177,518768,PASIR RIS STREET 72,WHITEWATER,39350.0618534423,40265.9765495006
31 PASIR RIS STREET 72 WHITEWATER SINGAPORE 518769,31,WHITEWATER,1.38066338282949,103.935371590946,103.935371590946,518769,PASIR RIS STREET 72,WHITEWATER,39357.2192630162,40292.5013219398
33 PASIR RIS STREET 72 WHITEWATER SINGAPORE 518770,33,WHITEWATER,1.38050561956999,103.935639085159,103.935639085159,518770,PASIR RIS STREET 72,WHITEWATER,39386.9887935771,40275.0579131916
19 PASIR RIS STREET 72 CHURCH OF DIVINE MERCY SINGAPORE 518771,19,CHURCH OF DIVINE MERCY,1.38017396310492,103.935970468387,103.935970468387,518771,PASIR RIS STREET 72,CHURCH OF DIVINE MERCY,39423.8692118218,40238.3865559101
20 PASIR RIS STREET 71 LIFE STUDENT CARE - HAPPY MERIDIANS SINGAPORE 518798,20,LIFE STUDENT CARE - HAPPY MERIDIANS,1.37550677054835,103.934953276155,103.934953276155,518798,PASIR RIS STREET 71,LIFE STUDENT CARE - HAPPY MERIDIANS,39310.6903498704,39722.3064462524
21 PASIR RIS STREET 71 TAMPINES MERIDIAN JUNIOR COLLEGE SINGAPORE 518799,21,TAMPINES MERIDIAN JUNIOR COLLEGE,1.37674192921324,103.937553253083,103.937553253083,518799,PASIR RIS STREET 71,TAMPINES MERIDIAN JUNIOR COLLEGE,39600.0301180435,39858.8967158385
11 PASIR RIS STREET 52 AFTERSCHOOL @ ELIAS PARK PRIMARY SCHOOL SINGAPORE 518866,11,AFTERSCHOOL @ ELIAS PARK PRIMARY SCHOOL,1.37505696315817,103.945289416873,103.945289416873,518866,PASIR RIS STREET 52,AFTERSCHOOL @ ELIAS PARK PRIMARY SCHOOL,40460.9792755861,39672.6204007976
5 PASIR RIS STREET 51 PASIR RIS TELEPHONE EXCHANGE SINGAPORE 518900,5,PASIR RIS TELEPHONE EXCHANGE,1.36693446505935,103.952998741085,103.952998741085,518900,PASIR RIS STREET 51,PASIR RIS TELEPHONE EXCHANGE,41318.978485168,38774.5155376978
31 PASIR RIS STREET 51 MERIDIAN SECONDARY SCHOOL SINGAPORE 518901,31,MERIDIAN SECONDARY SCHOOL,1.3671073515704,103.949273556351,103.949273556351,518901,PASIR RIS STREET 51,MERIDIAN SECONDARY SCHOOL,40904.4082335755,38793.61215345
20 PASIR RIS STREET 51 SINGAPORE 518902,20,NIL,1.36842577055313,103.950648583066,103.950648583066,518902,PASIR RIS STREET 51,20 PASIR RIS STREET 51 SINGAPORE 518902,41057.4254222112,38939.4039506204
50A PASIR RIS STREET 51 TEMPORARY SITE OFFICE SINGAPORE 518903,50A,TEMPORARY SITE OFFICE,1.37003780803961,103.949020279112,103.949020279112,518903,PASIR RIS STREET 51,TEMPORARY SITE OFFICE,40876.2058278704,39117.6464163512
11 PASIR RIS STREET 41 PASIR RIS CREST SECONDARY SCHOOL SINGAPORE 518934,11,PASIR RIS CREST SECONDARY SCHOOL,1.37234390824993,103.959362578923,103.959362578923,518934,PASIR RIS STREET 41,PASIR RIS CREST SECONDARY SCHOOL,42027.1676108651,39372.7019117791
30 PASIR RIS STREET 41 CASUARINA PRIMARY SCHOOL SINGAPORE 518935,30,CASUARINA PRIMARY SCHOOL,1.3727890164636,103.957291273316,103.957291273316,518935,PASIR RIS STREET 41,CASUARINA PRIMARY SCHOOL,41796.6535177063,39421.9077859409
5 PASIR RIS STREET 21 COMMIT LEARNING SCHOOLHOUSE @ PASIR RIS PRIMARY SINGAPORE 518968,5,COMMIT LEARNING SCHOOLHOUSE @ PASIR RIS PRIMARY,1.37245132722087,103.962922699031,103.962922699031,518968,PASIR RIS STREET 21,COMMIT LEARNING SCHOOLHOUSE @ PASIR RIS PRIMARY,42423.3658017013,39384.6009523422
15 PASIR RIS STREET 21 SINGAPORE 518969,15,NIL,1.36933055696636,103.962762942764,103.962762942764,518969,PASIR RIS STREET 21,15 PASIR RIS STREET 21 SINGAPORE 518969,42405.6054871632,39039.5202101786
12 PASIR RIS STREET 11 LOYANG VIEW SECONDARY SCHOOL SINGAPORE 519073,12,LOYANG VIEW SECONDARY SCHOOL,1.36665831773121,103.958066437297,103.958066437297,519073,PASIR RIS STREET 11,LOYANG VIEW SECONDARY SCHOOL,41882.9552576197,38744.0091936104
2 PASIR RIS STREET 11 LEARNING LEAP PTE LTD (WHITE SANDS PRIMARY SCHOOL) SINGAPORE 519075,2,LEARNING LEAP PTE LTD (WHITE SANDS PRIMARY SCHOOL),1.36563610941695,103.960861814678,103.960861814678,519075,PASIR RIS STREET 11,LEARNING LEAP PTE LTD (WHITE SANDS PRIMARY SCHOOL),42194.0540739279,38630.9946565423
102 PASIR RIS ROAD KIDZ MEADOW KINDERGARTEN SINGAPORE 519108,102,KIDZ MEADOW KINDERGARTEN,1.38368698889419,103.943440840415,103.943440840415,519108,PASIR RIS ROAD,KIDZ MEADOW KINDERGARTEN,40255.2110146601,40626.8770046942
104 PASIR RIS ROAD PASIR RIS BEACH PARK SINGAPORE 519109,104,PASIR RIS BEACH PARK,1.38357340318349,103.943627122021,103.943627122021,519109,PASIR RIS ROAD,PASIR RIS BEACH PARK,40275.9424042115,40614.3182128891
106 PASIR RIS ROAD PASIR RIS BEACH PARK SINGAPORE 519111,106,PASIR RIS BEACH PARK,1.38345070714644,103.943835806193,103.943835806193,519111,PASIR RIS ROAD,PASIR RIS BEACH PARK,40299.166967582,40600.7521631233
108 PASIR RIS ROAD PASIR RIS BEACH PARK SINGAPORE 519112,108,PASIR RIS BEACH PARK,1.38337718777269,103.943965968143,103.943965968143,519112,PASIR RIS ROAD,PASIR RIS BEACH PARK,40313.6527403006,40592.6234236844
110 PASIR RIS ROAD PASIR RIS BEACH PARK SINGAPORE 519113,110,PASIR RIS BEACH PARK,1.38323784166981,103.944215374276,103.944215374276,519113,PASIR RIS ROAD,PASIR RIS BEACH PARK,40341.4092380693,40577.2165054157
112 PASIR RIS ROAD PASIR RIS BEACH PARK SINGAPORE 519114,112,PASIR RIS BEACH PARK,1.38312312246081,103.94441733296,103.94441733296,519114,PASIR RIS ROAD,PASIR RIS BEACH PARK,40363.8853044705,40564.5324646961
114 PASIR RIS ROAD SINGAPORE 519115,114,NIL,1.38309800865638,103.944602353612,103.944602353612,519115,PASIR RIS ROAD,114 PASIR RIS ROAD SINGAPORE 519115,40384.4759176299,40561.7564668376
116 PASIR RIS ROAD PASIR RIS BEACH PARK SINGAPORE 519116,116,PASIR RIS BEACH PARK,1.38292427973422,103.94481262095,103.94481262095,519116,PASIR RIS ROAD,PASIR RIS BEACH PARK,40407.8769433452,40542.547466062
118 PASIR RIS ROAD SINGAPORE 519117,118,NIL,1.38278150967106,103.944993382857,103.944993382857,519117,PASIR RIS ROAD,118 PASIR RIS ROAD SINGAPORE 519117,40427.9942257749,40526.7615926396
120 PASIR RIS ROAD PEOPLE'S ASSOCIATION HOLIDAY BUNGALOW SINGAPORE 519118,120,PEOPLE'S ASSOCIATION HOLIDAY BUNGALOW,1.38267139950695,103.945172211677,103.945172211677,519118,PASIR RIS ROAD,PEOPLE'S ASSOCIATION HOLIDAY BUNGALOW,40447.8962120367,40514.5870831553
122 PASIR RIS ROAD PASIR RIS BEACH PARK SINGAPORE 519119,122,PASIR RIS BEACH PARK,1.38254856182845,103.945530604102,103.945530604102,519119,PASIR RIS ROAD,PASIR RIS BEACH PARK,40487.7814540965,40501.0061718095
124 PASIR RIS ROAD PASIR RIS BEACH PARK SINGAPORE 519120,124,PASIR RIS BEACH PARK,1.38240368727629,103.945734053051,103.945734053051,519120,PASIR RIS ROAD,PASIR RIS BEACH PARK,40510.4235403882,40484.9877191987
125 PASIR RIS ROAD HERITAGE CHALET SINGAPORE 519121,125,HERITAGE CHALET,1.38627856545258,103.941791903904,103.941791903904,519121,PASIR RIS ROAD,HERITAGE CHALET,40071.6919615958,40913.4324513134
126 PASIR RIS ROAD PASIR RIS BEACH PARK SINGAPORE 519122,126,PASIR RIS BEACH PARK,1.38218141050175,103.946064200484,103.946064200484,519122,PASIR RIS ROAD,PASIR RIS BEACH PARK,40547.1659971625,40460.4111758005
128 PASIR RIS ROAD PASIR RIS BEACH PARK SINGAPORE 519123,128,PASIR RIS BEACH PARK,1.3820838490518,103.946252809926,103.946252809926,519123,PASIR RIS ROAD,PASIR RIS BEACH PARK,40568.1563898502,40449.6243020315
130 PASIR RIS ROAD PASIR RIS BEACH PARK SINGAPORE 519124,130,PASIR RIS BEACH PARK,1.38182820727725,103.946211076671,103.946211076671,519124,PASIR RIS ROAD,PASIR RIS BEACH PARK,40563.5133416839,40421.3564569466
132 PASIR RIS ROAD PASIR RIS BEACH PARK SINGAPORE 519125,132,PASIR RIS BEACH PARK,1.38191602276721,103.946577123423,103.946577123423,519125,PASIR RIS ROAD,PASIR RIS BEACH PARK,40604.2493259618,40431.0686054174
134 PASIR RIS ROAD PASIR RIS BEACH PARK SINGAPORE 519126,134,PASIR RIS BEACH PARK,1.38174605428473,103.946854410623,103.946854410623,519126,PASIR RIS ROAD,PASIR RIS BEACH PARK,40635.1088368855,40412.2757894192
136 PASIR RIS ROAD PASIR RIS BEACH PARK SINGAPORE 519127,136,PASIR RIS BEACH PARK,1.38164700414739,103.947038859447,103.947038859447,519127,PASIR RIS ROAD,PASIR RIS BEACH PARK,40655.6362202261,40401.324288087
138 PASIR RIS ROAD PASIR RIS BEACH PARK SINGAPORE 519128,138,PASIR RIS BEACH PARK,1.38147982670935,103.947313670063,103.947313670063,519128,PASIR RIS ROAD,PASIR RIS BEACH PARK,40686.2201108895,40382.8400844503
140 PASIR RIS ROAD PASIR RIS BEACH PARK SINGAPORE 519129,140,PASIR RIS BEACH PARK,1.38136022152773,103.947564152135,103.947564152135,519129,PASIR RIS ROAD,PASIR RIS BEACH PARK,40714.0962882657,40369.6160629001
142 PASIR RIS ROAD SINGAPORE 519130,142,NIL,1.38104604037215,103.947445738045,103.947445738045,519130,PASIR RIS ROAD,142 PASIR RIS ROAD SINGAPORE 519130,40700.9199387897,40334.8748041373
144 PASIR RIS ROAD PASIR RIS BEACH PARK SINGAPORE 519131,144,PASIR RIS BEACH PARK,1.38096673959998,103.947649297309,103.947649297309,519131,PASIR RIS ROAD,PASIR RIS BEACH PARK,40723.5739809349,40326.107198365
146 PASIR RIS ROAD PASIR RIS BEACH PARK SINGAPORE 519132,146,PASIR RIS BEACH PARK,1.38116170541846,103.947818522707,103.947818522707,519132,PASIR RIS ROAD,PASIR RIS BEACH PARK,40742.4056307571,40347.6664778069
148 PASIR RIS ROAD PASIR RIS BEACH PARK SINGAPORE 519133,148,PASIR RIS BEACH PARK,1.38101250395994,103.948001823731,103.948001823731,519133,PASIR RIS ROAD,PASIR RIS BEACH PARK,40762.8055556184,40331.1694883741
150 PASIR RIS ROAD PASIR RIS BEACH PARK SINGAPORE 519134,150,PASIR RIS BEACH PARK,1.38088395156173,103.948183478613,103.948183478613,519134,PASIR RIS ROAD,PASIR RIS BEACH PARK,40783.0221775705,40316.9557642918
155 PASIR RIS ROAD SINGAPORE 519138,155,NIL,1.38457832747631,103.94567918682,103.94567918682,519138,PASIR RIS ROAD,155 PASIR RIS ROAD SINGAPORE 519138,40504.3062295383,40725.4485679716
161 PASIR RIS ROAD SINGAPORE 519141,161,NIL,1.3842829040833,103.946098135902,103.946098135902,519141,PASIR RIS ROAD,161 PASIR RIS ROAD SINGAPORE 519141,40550.9315462122,40692.7842982505
163 PASIR RIS ROAD SINGAPORE 519142,163,NIL,1.38418450914017,103.946325963922,103.946325963922,519142,PASIR RIS ROAD,163 PASIR RIS ROAD SINGAPORE 519142,40576.2864610804,40681.905470347
201 PASIR RIS ROAD SINGAPORE 519147,201,NIL,1.3816416852621,103.948473389285,103.948473389285,519147,PASIR RIS ROAD,201 PASIR RIS ROAD SINGAPORE 519147,40815.2815827411,40400.7438389622
131 PASIR RIS ROAD SEA SPORTS CENTRE SINGAPORE 519148,131,SEA SPORTS CENTRE,1.38518443834163,103.944490776814,103.944490776814,519148,PASIR RIS ROAD,SEA SPORTS CENTRE,40372.0480045872,40792.4631249085
133 PASIR RIS ROAD SINGAPORE 519149,133,NIL,1.38519273288346,103.944695550667,103.944695550667,519149,PASIR RIS ROAD,133 PASIR RIS ROAD SINGAPORE 519149,40394.8367089918,40793.3813647311
129 PASIR RIS ROAD SINGAPORE 519150,129,NIL,1.38517725968778,103.944084603732,103.944084603732,519150,PASIR RIS ROAD,129 PASIR RIS ROAD SINGAPORE 519150,40326.8461003834,40791.6672282759
138A PASIR RIS ROAD PASIR RIS BEACH PARK SINGAPORE 519151,138A,PASIR RIS BEACH PARK,1.38143144692802,103.94740009726,103.94740009726,519151,PASIR RIS ROAD,PASIR RIS BEACH PARK,40695.8386404878,40377.4909447599
127 PASIR RIS ROAD PASIR RIS PARK OFFICE SINGAPORE 519152,127,PASIR RIS PARK OFFICE,1.38535913164985,103.944488585449,103.944488585449,519152,PASIR RIS ROAD,PASIR RIS PARK OFFICE,40371.8032274032,40811.7798494361
114A PASIR RIS ROAD SINGAPORE 519153,114A,NIL,1.38304058642538,103.944701815968,103.944701815968,519153,PASIR RIS ROAD,114A PASIR RIS ROAD SINGAPORE 519153,40395.5451311506,40555.4075151086
101 PASIR RIS ROAD MUHAMMADIYAH WELFARE HOME SINGAPORE 519154,101,MUHAMMADIYAH WELFARE HOME,1.38551992958253,103.942406544593,103.942406544593,519154,PASIR RIS ROAD,MUHAMMADIYAH WELFARE HOME,40140.0975442613,40829.5493351743
1 PASIR RIS LANE PASIR RIS BEACH PARK SINGAPORE 519169,1,PASIR RIS BEACH PARK,1.38101032708252,103.94671220313,103.94671220313,519169,PASIR RIS LANE,PASIR RIS BEACH PARK,40619.2867932208,40330.9218962677
2 PASIR RIS LANE PASIR RIS BEACH PARK SINGAPORE 519170,2,PASIR RIS BEACH PARK,1.38099938885849,103.94712531581,103.94712531581,519170,PASIR RIS LANE,PASIR RIS BEACH PARK,40665.2611666368,40329.714597201
3 PASIR RIS LANE PASIR RIS BEACH PARK SINGAPORE 519171,3,PASIR RIS BEACH PARK,1.38109696527508,103.946746145972,103.946746145972,519171,PASIR RIS LANE,PASIR RIS BEACH PARK,40623.0637533013,40340.5021065976
4 PASIR RIS LANE PASIR RIS BEACH PARK SINGAPORE 519172,4,PASIR RIS BEACH PARK,1.38117194829069,103.94720524204,103.94720524204,519172,PASIR RIS LANE,PASIR RIS BEACH PARK,40674.155050436,40348.7958065476
5 PASIR RIS LANE PASIR RIS BEACH PARK SINGAPORE 519173,5,PASIR RIS BEACH PARK,1.38127930408583,103.946814578229,103.946814578229,519173,PASIR RIS LANE,PASIR RIS BEACH PARK,40630.6784515725,40360.664609395
7 PASIR RIS LANE PASIR RIS BEACH PARK SINGAPORE 519174,7,PASIR RIS BEACH PARK,1.38145710436684,103.946923799925,103.946923799925,519174,PASIR RIS LANE,PASIR RIS BEACH PARK,40642.832530166,40380.3254808988
6 PASIR RIS LANE PASIR RIS BEACH PARK SINGAPORE 519175,6,PASIR RIS BEACH PARK,1.38126571545431,103.9472583484,103.9472583484,519175,PASIR RIS LANE,PASIR RIS BEACH PARK,40680.0646321131,40359.1644070502
1 PASIR RIS HEIGHTS PASIR RIS BEACH PARK SINGAPORE 519208,1,PASIR RIS BEACH PARK,1.3804163003519,103.943706742355,103.943706742355,519208,PASIR RIS HEIGHTS,PASIR RIS BEACH PARK,40284.8193682078,40265.2215751819
2 PASIR RIS HEIGHTS PASIR RIS BEACH PARK SINGAPORE 519209,2,PASIR RIS BEACH PARK,1.38043151899925,103.944064673942,103.944064673942,519209,PASIR RIS HEIGHTS,PASIR RIS BEACH PARK,40324.6526401397,40266.906230621
3 PASIR RIS HEIGHTS PASIR RIS BEACH PARK SINGAPORE 519210,3,PASIR RIS BEACH PARK,1.3804823233134,103.943692892922,103.943692892922,519210,PASIR RIS HEIGHTS,PASIR RIS BEACH PARK,40283.2777592614,40272.5220009796
4 PASIR RIS HEIGHTS PASIR RIS BEACH PARK SINGAPORE 519211,4,PASIR RIS BEACH PARK,1.38049908830686,103.94406184467,103.94406184467,519211,PASIR RIS HEIGHTS,PASIR RIS BEACH PARK,40324.3374293568,40274.3777007926
5 PASIR RIS HEIGHTS PASIR RIS BEACH PARK SINGAPORE 519212,5,PASIR RIS BEACH PARK,1.38055074123845,103.943712500656,103.943712500656,519212,PASIR RIS HEIGHTS,PASIR RIS BEACH PARK,40285.4595057955,40280.0874229744
6 PASIR RIS HEIGHTS PASIR RIS BEACH PARK SINGAPORE 519213,6,PASIR RIS BEACH PARK,1.38056269370729,103.944058797358,103.944058797358,519213,PASIR RIS HEIGHTS,PASIR RIS BEACH PARK,40323.9979739198,40281.4108602945
7 PASIR RIS HEIGHTS PASIR RIS BEACH PARK SINGAPORE 519214,7,PASIR RIS BEACH PARK,1.38061431349046,103.943710033195,103.943710033195,519214,PASIR RIS HEIGHTS,PASIR RIS BEACH PARK,40285.1845816998,40287.1169200484
8 PASIR RIS HEIGHTS PASIR RIS BEACH PARK SINGAPORE 519215,8,PASIR RIS BEACH PARK,1.38063190265766,103.944067941259,103.944067941259,519215,PASIR RIS HEIGHTS,PASIR RIS BEACH PARK,40325.0152203161,40289.0636962242
9 PASIR RIS HEIGHTS PASIR RIS BEACH PARK SINGAPORE 519216,9,PASIR RIS BEACH PARK,1.38068252524302,103.943695592578,103.943695592578,519216,PASIR RIS HEIGHTS,PASIR RIS BEACH PARK,40283.5771701559,40294.6593686435
10 PASIR RIS HEIGHTS PASIR RIS BEACH PARK SINGAPORE 519217,10,PASIR RIS BEACH PARK,1.38069518752838,103.944064661934,103.944064661934,519217,PASIR RIS HEIGHTS,PASIR RIS BEACH PARK,40324.6499462891,40296.0614119172
11 PASIR RIS HEIGHTS PASIR RIS BEACH PARK SINGAPORE 519218,11,PASIR RIS BEACH PARK,1.38074505731497,103.943693067137,103.943693067137,519218,PASIR RIS HEIGHTS,PASIR RIS BEACH PARK,40283.2957989797,40301.5738473795
12 PASIR RIS HEIGHTS PASIR RIS BEACH PARK SINGAPORE 519219,12,PASIR RIS BEACH PARK,1.38076342645582,103.944048641126,103.944048641126,519219,PASIR RIS HEIGHTS,PASIR RIS BEACH PARK,40322.8666777601,40303.6068570409
14 PASIR RIS HEIGHTS PASIR RIS BEACH PARK SINGAPORE 519221,14,PASIR RIS BEACH PARK,1.38082651529364,103.94404622696,103.94404622696,519221,PASIR RIS HEIGHTS,PASIR RIS BEACH PARK,40322.5976861892,40310.5829008557
15 PASIR RIS HEIGHTS PASIR RIS BEACH PARK SINGAPORE 519222,15,PASIR RIS BEACH PARK,1.38086990359448,103.943687446175,103.943687446175,519222,PASIR RIS HEIGHTS,PASIR RIS BEACH PARK,40282.6696149325,40315.3787115365
16 PASIR RIS HEIGHTS PASIR RIS BEACH PARK SINGAPORE 519223,16,PASIR RIS BEACH PARK,1.38095018612501,103.944041479834,103.944041479834,519223,PASIR RIS HEIGHTS,PASIR RIS BEACH PARK,40322.0687531736,40324.2577942926
17 PASIR RIS HEIGHTS PASIR RIS BEACH PARK SINGAPORE 519224,17,PASIR RIS BEACH PARK,1.38093210025671,103.943680935398,103.943680935398,519224,PASIR RIS HEIGHTS,PASIR RIS BEACH PARK,40281.9447269905,40322.2560817245
18 PASIR RIS HEIGHTS PASIR RIS BEACH PARK SINGAPORE 519225,18,PASIR RIS BEACH PARK,1.38101706947647,103.944038283085,103.944038283085,519225,PASIR RIS HEIGHTS,PASIR RIS BEACH PARK,40321.7126503447,40331.6534128971
19 PASIR RIS HEIGHTS PASIR RIS BEACH PARK SINGAPORE 519226,19,PASIR RIS BEACH PARK,1.3810021942711,103.943694108712,103.943694108712,519226,PASIR RIS HEIGHTS,PASIR RIS BEACH PARK,40283.4103935659,40330.0068043154
20 PASIR RIS HEIGHTS PASIR RIS BEACH PARK SINGAPORE 519227,20,PASIR RIS BEACH PARK,1.38108034356228,103.944037334355,103.944037334355,519227,PASIR RIS HEIGHTS,PASIR RIS BEACH PARK,40321.6067426698,40338.6499481387
21 PASIR RIS HEIGHTS SINGAPORE 519228,21,NIL,1.38106316492854,103.943598774412,103.943598774412,519228,PASIR RIS HEIGHTS,21 PASIR RIS HEIGHTS SINGAPORE 519228,40272.8005572334,40336.7481501848
22 PASIR RIS HEIGHTS PASIR RIS BEACH PARK SINGAPORE 519229,22,PASIR RIS BEACH PARK,1.38114978103634,103.944047383961,103.944047383961,519229,PASIR RIS HEIGHTS,PASIR RIS BEACH PARK,40322.7247814527,40346.3280578349
23 PASIR RIS HEIGHTS PASIR RIS BEACH PARK SINGAPORE 519230,23,PASIR RIS BEACH PARK,1.38113406093322,103.943677399726,103.943677399726,519230,PASIR RIS HEIGHTS,PASIR RIS BEACH PARK,40281.5502140904,40344.5878909156
24 PASIR RIS HEIGHTS PASIR RIS BEACH PARK SINGAPORE 519231,24,PASIR RIS BEACH PARK,1.38121429690126,103.94406118884,103.94406118884,519231,PASIR RIS HEIGHTS,PASIR RIS BEACH PARK,40324.2607605541,40353.4619794544
25 PASIR RIS HEIGHTS SINGAPORE 519232,25,NIL,1.3812050275477,103.943662526242,103.943662526242,519232,PASIR RIS HEIGHTS,25 PASIR RIS HEIGHTS SINGAPORE 519232,40279.8946159175,40352.4349564984
26 PASIR RIS HEIGHTS PASIR RIS BEACH PARK SINGAPORE 519233,26,PASIR RIS BEACH PARK,1.38128152049185,103.944029009112,103.944029009112,519233,PASIR RIS HEIGHTS,PASIR RIS BEACH PARK,40320.6792105772,40360.8950698227
27 PASIR RIS HEIGHTS PASIR RIS BEACH PARK SINGAPORE 519234,27,PASIR RIS BEACH PARK,1.38133168299339,103.94355575494,103.94355575494,519234,PASIR RIS HEIGHTS,PASIR RIS BEACH PARK,40268.0116476538,40366.4393472038
28 PASIR RIS HEIGHTS PASIR RIS BEACH PARK SINGAPORE 519235,28,PASIR RIS BEACH PARK,1.38134423404311,103.944026581329,103.944026581329,519235,PASIR RIS HEIGHTS,PASIR RIS BEACH PARK,40320.4087056071,40367.8296162318
29 PASIR RIS HEIGHTS PASIR RIS BEACH PARK SINGAPORE 519236,29,PASIR RIS BEACH PARK,1.38135748702956,103.943477053297,103.943477053297,519236,PASIR RIS HEIGHTS,PASIR RIS BEACH PARK,40259.2530012056,40369.2922257409
30 PASIR RIS HEIGHTS PASIR RIS BEACH PARK SINGAPORE 519237,30,PASIR RIS BEACH PARK,1.3815426616136,103.943947981508,103.943947981508,519237,PASIR RIS HEIGHTS,PASIR RIS BEACH PARK,40311.6605016124,40389.7703630738
31 PASIR RIS HEIGHTS PASIR RIS BEACH PARK SINGAPORE 519238,31,PASIR RIS BEACH PARK,1.3813979144411,103.9434207496,103.9434207496,519238,PASIR RIS HEIGHTS,PASIR RIS BEACH PARK,40252.9868929479,40373.7622015774
32 PASIR RIS HEIGHTS PASIR RIS BEACH PARK SINGAPORE 519239,32,PASIR RIS BEACH PARK,1.38157323165461,103.94389184218,103.94389184218,519239,PASIR RIS HEIGHTS,PASIR RIS BEACH PARK,40305.4127357537,40393.1503585465
33 PASIR RIS HEIGHTS PASIR RIS BEACH PARK SINGAPORE 519240,33,PASIR RIS BEACH PARK,1.38142663788775,103.94336426776,103.94336426776,519240,PASIR RIS HEIGHTS,PASIR RIS BEACH PARK,40246.7010196978,40376.9380092323
34 PASIR RIS HEIGHTS SINGAPORE 519241,34,NIL,1.38152797312462,103.943796253279,103.943796253279,519241,PASIR RIS HEIGHTS,34 PASIR RIS HEIGHTS SINGAPORE 519241,40294.7751134122,40388.1453961004
35 PASIR RIS HEIGHTS PASIR RIS BEACH PARK SINGAPORE 519242,35,PASIR RIS BEACH PARK,1.38144379830624,103.943296610275,103.943296610275,519242,PASIR RIS HEIGHTS,PASIR RIS BEACH PARK,40239.1714955326,40378.8351761848
36 PASIR RIS HEIGHTS PASIR RIS BEACH PARK SINGAPORE 519243,36,PASIR RIS BEACH PARK,1.38164943560505,103.94378306215,103.94378306215,519243,PASIR RIS HEIGHTS,PASIR RIS BEACH PARK,40293.3064805744,40401.5760571752
37 PASIR RIS HEIGHTS SINGAPORE 519244,37,NIL,1.38156504612602,103.943284575297,103.943284575297,519244,PASIR RIS HEIGHTS,37 PASIR RIS HEIGHTS SINGAPORE 519244,40237.8315318935,40392.2421071604
38 PASIR RIS HEIGHTS PASIR RIS BEACH PARK SINGAPORE 519245,38,PASIR RIS BEACH PARK,1.38169840810207,103.94366869194,103.94366869194,519245,PASIR RIS HEIGHTS,PASIR RIS BEACH PARK,40280.5782485977,40406.9906059783
39 PASIR RIS HEIGHTS PASIR RIS BEACH PARK SINGAPORE 519246,39,PASIR RIS BEACH PARK,1.38152963640639,103.943131260201,103.943131260201,519246,PASIR RIS HEIGHTS,PASIR RIS BEACH PARK,40220.7696510796,40388.325884087
40 PASIR RIS HEIGHTS PASIR RIS BEACH PARK SINGAPORE 519247,40,PASIR RIS BEACH PARK,1.38173508683395,103.943616550447,103.943616550447,519247,PASIR RIS HEIGHTS,PASIR RIS BEACH PARK,40274.7753615631,40411.0460920446
41 PASIR RIS HEIGHTS PASIR RIS BEACH PARK SINGAPORE 519248,41,PASIR RIS BEACH PARK,1.38155883694115,103.943075227143,103.943075227143,519248,PASIR RIS HEIGHTS,PASIR RIS BEACH PARK,40214.5337200025,40391.5544488374
42 PASIR RIS HEIGHTS PASIR RIS BEACH PARK SINGAPORE 519249,42,PASIR RIS BEACH PARK,1.381751725797,103.943548960111,103.943548960111,519249,PASIR RIS HEIGHTS,PASIR RIS BEACH PARK,40267.2533135898,40412.8855984863
43 PASIR RIS HEIGHTS PASIR RIS BEACH PARK SINGAPORE 519250,43,PASIR RIS BEACH PARK,1.38159762444905,103.943018162903,103.943018162903,519250,PASIR RIS HEIGHTS,PASIR RIS BEACH PARK,40208.1829824625,40395.8430891819
44 PASIR RIS HEIGHTS PASIR RIS BEACH PARK SINGAPORE 519251,44,PASIR RIS BEACH PARK,1.38178248001976,103.943493493116,103.943493493116,519251,PASIR RIS HEIGHTS,PASIR RIS BEACH PARK,40261.0803701868,40416.2859643139
45 PASIR RIS HEIGHTS PASIR RIS BEACH PARK SINGAPORE 519252,45,PASIR RIS BEACH PARK,1.38162543008546,103.942961183832,103.942961183832,519252,PASIR RIS HEIGHTS,PASIR RIS BEACH PARK,40201.8417793382,40398.9174082894
46 PASIR RIS HEIGHTS PASIR RIS BEACH PARK SINGAPORE 519253,46,PASIR RIS BEACH PARK,1.38182741373317,103.943440490911,103.943440490911,519253,PASIR RIS HEIGHTS,PASIR RIS BEACH PARK,40255.1816547159,40421.2542419638
47 PASIR RIS HEIGHTS PASIR RIS BEACH PARK SINGAPORE 519254,47,PASIR RIS BEACH PARK,1.38164405930867,103.942894214786,103.942894214786,519254,PASIR RIS HEIGHTS,PASIR RIS BEACH PARK,40194.3888634387,40400.9769932404
48 PASIR RIS HEIGHTS PASIR RIS BEACH PARK SINGAPORE 519255,48,PASIR RIS BEACH PARK,1.38185911968881,103.943385710433,103.943385710433,519255,PASIR RIS HEIGHTS,PASIR RIS BEACH PARK,40249.0851077037,40424.7598495707
49 PASIR RIS HEIGHTS PASIR RIS BEACH PARK SINGAPORE 519256,49,PASIR RIS BEACH PARK,1.38167598523832,103.942841468997,103.942841468997,519256,PASIR RIS HEIGHTS,PASIR RIS BEACH PARK,40188.5187512133,40404.5069363061
50 PASIR RIS HEIGHTS PASIR RIS BEACH PARK SINGAPORE 519257,50,PASIR RIS BEACH PARK,1.38192643057275,103.943248192285,103.943248192285,519257,PASIR RIS HEIGHTS,PASIR RIS BEACH PARK,40233.7807070967,40432.2020506039
51 PASIR RIS HEIGHTS PASIR RIS BEACH PARK SINGAPORE 519258,51,PASIR RIS BEACH PARK,1.38172533105525,103.94272725,103.94272725,519258,PASIR RIS HEIGHTS,PASIR RIS BEACH PARK,40175.8073482355,40409.962770639
52 PASIR RIS HEIGHTS PASIR RIS BEACH PARK SINGAPORE 519259,52,PASIR RIS BEACH PARK,1.38194357043021,103.943187038642,103.943187038642,519259,PASIR RIS HEIGHTS,PASIR RIS BEACH PARK,40226.9749812251,40434.0969777238
53 PASIR RIS HEIGHTS PASIR RIS BEACH PARK SINGAPORE 519260,53,PASIR RIS BEACH PARK,1.38175412404454,103.942670119474,103.942670119474,519260,PASIR RIS HEIGHTS,PASIR RIS BEACH PARK,40169.4492858434,40413.1462663617
54 PASIR RIS HEIGHTS PASIR RIS BEACH PARK SINGAPORE 519261,54,PASIR RIS BEACH PARK,1.38198014235619,103.943129885085,103.943129885085,519261,PASIR RIS HEIGHTS,PASIR RIS BEACH PARK,40220.6143157873,40438.1406290084
55 PASIR RIS HEIGHTS PASIR RIS BEACH PARK SINGAPORE 519262,55,PASIR RIS BEACH PARK,1.38179423446487,103.942613636232,103.942613636232,519262,PASIR RIS HEIGHTS,PASIR RIS BEACH PARK,40163.1632007174,40417.5811918732
56 PASIR RIS HEIGHTS PASIR RIS BEACH PARK SINGAPORE 519263,56,PASIR RIS BEACH PARK,1.38201097184801,103.943074380548,103.943074380548,519263,PASIR RIS HEIGHTS,PASIR RIS BEACH PARK,40214.4371954026,40441.5493185315
57 PASIR RIS HEIGHTS PASIR RIS BEACH PARK SINGAPORE 519264,57,PASIR RIS BEACH PARK,1.38182189446671,103.942556654968,103.942556654968,519264,PASIR RIS HEIGHTS,PASIR RIS BEACH PARK,40156.8217554484,40420.6394084115
58 PASIR RIS HEIGHTS SINGAPORE 519265,58,NIL,1.3819616525217,103.942977604263,103.942977604263,519265,PASIR RIS HEIGHTS,58 PASIR RIS HEIGHTS SINGAPORE 519265,40203.6674533114,40436.0953305457
59 PASIR RIS HEIGHTS PASIR RIS BEACH PARK SINGAPORE 519266,59,PASIR RIS BEACH PARK,1.38184086802603,103.942489866251,103.942489866251,519266,PASIR RIS HEIGHTS,PASIR RIS BEACH PARK,40149.388907223,40422.7370704878
60 PASIR RIS HEIGHTS PASIR RIS BEACH PARK SINGAPORE 519267,60,PASIR RIS BEACH PARK,1.38208044010646,103.942958134038,103.942958134038,519267,PASIR RIS HEIGHTS,PASIR RIS BEACH PARK,40201.5000538016,40449.2301826142
61 PASIR RIS HEIGHTS PASIR RIS BEACH PARK SINGAPORE 519268,61,PASIR RIS BEACH PARK,1.38186783785242,103.942434908484,103.942434908484,519268,PASIR RIS HEIGHTS,PASIR RIS BEACH PARK,40143.2726557534,40425.7189814392
62 PASIR RIS HEIGHTS PASIR RIS BEACH PARK SINGAPORE 519269,62,PASIR RIS BEACH PARK,1.3821345457801,103.942851563866,103.942851563866,519269,PASIR RIS HEIGHTS,PASIR RIS BEACH PARK,40189.6398470616,40455.212377185
63 PASIR RIS HEIGHTS PASIR RIS BEACH PARK SINGAPORE 519270,63,PASIR RIS BEACH PARK,1.38192904281825,103.94232686314,103.94232686314,519270,PASIR RIS HEIGHTS,PASIR RIS BEACH PARK,40131.248245202,40432.4861761667
64 PASIR RIS HEIGHTS PASIR RIS BEACH PARK SINGAPORE 519271,64,PASIR RIS BEACH PARK,1.3821599467413,103.94279316031,103.94279316031,519271,PASIR RIS HEIGHTS,PASIR RIS BEACH PARK,40183.1401305068,40458.020792054
65 PASIR RIS HEIGHTS PASIR RIS BEACH PARK SINGAPORE 519272,65,PASIR RIS BEACH PARK,1.38194033028062,103.942259234738,103.942259234738,519272,PASIR RIS HEIGHTS,PASIR RIS BEACH PARK,40123.7219899781,40433.7339435276
66 PASIR RIS HEIGHTS PASIR RIS BEACH PARK SINGAPORE 519273,66,PASIR RIS BEACH PARK,1.38220362431986,103.942739364116,103.942739364116,519273,PASIR RIS HEIGHTS,PASIR RIS BEACH PARK,40177.1530627916,40462.8501699287
67 PASIR RIS HEIGHTS PASIR RIS BEACH PARK SINGAPORE 519274,67,PASIR RIS BEACH PARK,1.38199655077394,103.942212141783,103.942212141783,519274,PASIR RIS HEIGHTS,PASIR RIS BEACH PARK,40118.4808464544,40439.9502912182
68 PASIR RIS HEIGHTS PASIR RIS BEACH PARK SINGAPORE 519275,68,PASIR RIS BEACH PARK,1.38222469314763,103.942670080885,103.942670080885,519275,PASIR RIS HEIGHTS,PASIR RIS BEACH PARK,40169.442596619,40465.1795031503
69 PASIR RIS HEIGHTS PASIR RIS BEACH PARK SINGAPORE 519276,69,PASIR RIS BEACH PARK,1.38202438485898,103.942155195331,103.942155195331,519276,PASIR RIS HEIGHTS,PASIR RIS BEACH PARK,40112.1432754872,40443.027758196
70 PASIR RIS HEIGHTS PASIR RIS BEACH PARK SINGAPORE 519277,70,PASIR RIS BEACH PARK,1.38227873078362,103.942566535115,103.942566535115,519277,PASIR RIS HEIGHTS,PASIR RIS BEACH PARK,40157.9189698584,40471.1541912612
71 PASIR RIS HEIGHTS PASIR RIS BEACH PARK SINGAPORE 519278,71,PASIR RIS BEACH PARK,1.38204292236485,103.942088127805,103.942088127805,519278,PASIR RIS HEIGHTS,PASIR RIS BEACH PARK,40104.6794025786,40445.0772033725
72 PASIR RIS HEIGHTS PASIR RIS BEACH PARK SINGAPORE 519279,72,PASIR RIS BEACH PARK,1.38229834511281,103.942506499679,103.942506499679,519279,PASIR RIS HEIGHTS,PASIR RIS BEACH PARK,40151.2376756687,40473.3227409553
73 PASIR RIS HEIGHTS PASIR RIS BEACH PARK SINGAPORE 519280,73,PASIR RIS BEACH PARK,1.38206997458212,103.942033037578,103.942033037578,519280,PASIR RIS HEIGHTS,PASIR RIS BEACH PARK,40098.548410601,40448.0682249889
74 PASIR RIS HEIGHTS PASIR RIS BEACH PARK SINGAPORE 519281,74,PASIR RIS BEACH PARK,1.38232179926112,103.942442624332,103.942442624332,519281,PASIR RIS HEIGHTS,PASIR RIS BEACH PARK,40144.1290278165,40475.9158596545
76 PASIR RIS HEIGHTS PASIR RIS BEACH PARK SINGAPORE 519282,76,PASIR RIS BEACH PARK,1.38234533373115,103.942370233292,103.942370233292,519282,PASIR RIS HEIGHTS,PASIR RIS BEACH PARK,40136.0726893945,40478.5178166069
83 PASIR RIS HEIGHTS VUE 8 RESIDENCE SINGAPORE 519283,83,VUE 8 RESIDENCE,1.38193442744681,103.940839678846,103.940839678846,519283,PASIR RIS HEIGHTS,VUE 8 RESIDENCE,39965.74315238,40433.0740409456
85 PASIR RIS HEIGHTS VUE 8 RESIDENCE SINGAPORE 519284,85,VUE 8 RESIDENCE,1.38163869030538,103.940882286175,103.940882286175,519284,PASIR RIS HEIGHTS,VUE 8 RESIDENCE,39970.4862967683,40400.3730864301
87 PASIR RIS HEIGHTS VUE 8 RESIDENCE SINGAPORE 519285,87,VUE 8 RESIDENCE,1.38110659661794,103.940453095331,103.940453095331,519285,PASIR RIS HEIGHTS,VUE 8 RESIDENCE,39922.725355613,40341.5346080586
89 PASIR RIS HEIGHTS VUE 8 RESIDENCE SINGAPORE 519286,89,VUE 8 RESIDENCE,1.38136974720608,103.940400295134,103.940400295134,519286,PASIR RIS HEIGHTS,VUE 8 RESIDENCE,39916.8480396066,40370.632249916
91 PASIR RIS HEIGHTS VUE 8 RESIDENCE SINGAPORE 519287,91,VUE 8 RESIDENCE,1.38162080141665,103.940036196424,103.940036196424,519287,PASIR RIS HEIGHTS,VUE 8 RESIDENCE,39876.3271396207,40398.3907756396
93 PASIR RIS HEIGHTS VUE 8 RESIDENCE SINGAPORE 519288,93,VUE 8 RESIDENCE,1.38173882313206,103.940227511065,103.940227511065,519288,PASIR RIS HEIGHTS,VUE 8 RESIDENCE,39897.6174880276,40411.441997271
95 PASIR RIS HEIGHTS VUE 8 RESIDENCE SINGAPORE 519289,95,VUE 8 RESIDENCE,1.38207503989149,103.940551200023,103.940551200023,519289,PASIR RIS HEIGHTS,VUE 8 RESIDENCE,39933.63835607,40448.6208275668
97 PASIR RIS HEIGHTS VUE 8 RESIDENCE SINGAPORE 519290,97,VUE 8 RESIDENCE,1.38228561055664,103.940505533679,103.940505533679,519290,PASIR RIS HEIGHTS,VUE 8 RESIDENCE,39928.5552114211,40471.9044740405
99 PASIR RIS HEIGHTS VUE 8 RESIDENCE SINGAPORE 519291,99,VUE 8 RESIDENCE,1.38232768105939,103.940781684542,103.940781684542,519291,PASIR RIS HEIGHTS,VUE 8 RESIDENCE,39959.2871427927,40476.5578133222
81 PASIR RIS HEIGHTS OVERSEAS FAMILY SCHOOL SINGAPORE SINGAPORE 519292,81,OVERSEAS FAMILY SCHOOL SINGAPORE,1.38113234482257,103.942323245402,103.942323245402,519292,PASIR RIS HEIGHTS,OVERSEAS FAMILY SCHOOL SINGAPORE,40130.849676392,40344.3911792897
6 PASIR RIS FARMWAY 1 LOYANG AGROTECHNOLOGY PARK SINGAPORE 519351,6,LOYANG AGROTECHNOLOGY PARK,1.3883978265475,103.932715443118,103.932715443118,519351,PASIR RIS FARMWAY 1,LOYANG AGROTECHNOLOGY PARK,39061.5872047795,41147.7256233096
1 PASIR RIS FARMWAY 1 LOYANG AGROTECHNOLOGY PARK SINGAPORE 519352,1,LOYANG AGROTECHNOLOGY PARK,1.38502816341186,103.936434211715,103.936434211715,519352,PASIR RIS FARMWAY 1,LOYANG AGROTECHNOLOGY PARK,39475.4547851309,40775.1424831022
2 PASIR RIS FARMWAY 1 LOYANG AGROTECHNOLOGY PARK SINGAPORE 519353,2,LOYANG AGROTECHNOLOGY PARK,1.38673528782804,103.936059017301,103.936059017301,519353,PASIR RIS FARMWAY 1,LOYANG AGROTECHNOLOGY PARK,39433.6922016488,40963.9061302394
10 PASIR RIS DRIVE 10 SINGAPORE 519385,10,NIL,1.37939133247899,103.938922547778,103.938922547778,519385,PASIR RIS DRIVE 10,10 PASIR RIS DRIVE 10 SINGAPORE 519385,39752.4028710388,40151.8614685442
3 PASIR RIS DRIVE 6 SINGAPORE 519419,3,NIL,1.37091699784346,103.955849482219,103.955849482219,519419,PASIR RIS DRIVE 6,3 PASIR RIS DRIVE 6 SINGAPORE 519419,41636.2100489968,39214.9007472452
4 PASIR RIS DRIVE 6 SINGAPORE 519420,4,NIL,1.3712566310888,103.957149807972,103.957149807972,519420,PASIR RIS DRIVE 6,4 PASIR RIS DRIVE 6 SINGAPORE 519420,41780.9188879784,39252.4631939661
9 PASIR RIS DRIVE 6 HAI SING CATHOLIC SCHOOL SINGAPORE 519421,9,HAI SING CATHOLIC SCHOOL,1.37463820319777,103.954751280409,103.954751280409,519421,PASIR RIS DRIVE 6,HAI SING CATHOLIC SCHOOL,41513.9723730031,39626.3674105909
3A PASIR RIS DRIVE 6 SINGAPORE 519422,3A,NIL,1.37066952335502,103.955733346201,103.955733346201,519422,PASIR RIS DRIVE 6,3A PASIR RIS DRIVE 6 SINGAPORE 519422,41623.2868912052,39187.5355539694
5 PASIR RIS DRIVE 4 SAKYA TENPHEL LING SINGAPORE 519455,5,SAKYA TENPHEL LING,1.36904168493079,103.959176601805,103.959176601805,519455,PASIR RIS DRIVE 4,SAKYA TENPHEL LING,42006.4897653768,39007.5568864252
11 PASIR RIS DRIVE 4 SPC PASIR RIS SINGAPORE 519456,11,SPC PASIR RIS,1.37094130485749,103.960326310089,103.960326310089,519456,PASIR RIS DRIVE 4,SPC PASIR RIS,42134.4275988685,39217.6144535933
1 PASIR RIS DRIVE 4 PASIR RIS EAST COMMUNITY CLUB SINGAPORE 519457,1,PASIR RIS EAST COMMUNITY CLUB,1.36846766161723,103.959437516581,103.959437516581,519457,PASIR RIS DRIVE 4,PASIR RIS EAST COMMUNITY CLUB,42035.5298375301,38944.0856812708
7 PASIR RIS DRIVE 4 THE ESPARIS SINGAPORE 519459,7,THE ESPARIS,1.36889804410344,103.95979978405,103.95979978405,519459,PASIR RIS DRIVE 4,THE ESPARIS,42075.8434320958,38991.6774243955
7A PASIR RIS DRIVE 4 THE ESPARIS SINGAPORE 519460,7A,THE ESPARIS,1.36898296324588,103.959597844559,103.959597844559,519460,PASIR RIS DRIVE 4,THE ESPARIS,42053.3694541855,39001.0661897287
7B PASIR RIS DRIVE 4 THE ESPARIS SINGAPORE 519461,7B,THE ESPARIS,1.36936468103281,103.959356384687,103.959356384687,519461,PASIR RIS DRIVE 4,THE ESPARIS,42026.4956010906,39043.2732888199
9 PASIR RIS DRIVE 4 THE ESPARIS SINGAPORE 519462,9,THE ESPARIS,1.3696876925985,103.959321292132,103.959321292132,519462,PASIR RIS DRIVE 4,THE ESPARIS,42022.5883373404,39078.9901452344
9A PASIR RIS DRIVE 4 THE ESPARIS SINGAPORE 519463,9A,THE ESPARIS,1.36952303141664,103.959709933099,103.959709933099,519463,PASIR RIS DRIVE 4,THE ESPARIS,42065.840438569,39060.7849821392
9B PASIR RIS DRIVE 4 THE ESPARIS SINGAPORE 519464,9B,THE ESPARIS,1.36935578997994,103.96010365742,103.96010365742,519464,PASIR RIS DRIVE 4,THE ESPARIS,42109.6582786804,39042.294543298
6 PASIR RIS DRIVE 8 POLYCLINIC SINGAPORE 519466,6,POLYCLINIC,1.37350295229758,103.948184929877,103.948184929877,519466,PASIR RIS DRIVE 8,POLYCLINIC,40783.2230056431,39500.800740676
8 PASIR RIS DRIVE 8 SINGAPORE 519467,8,NIL,1.3728690802455,103.948322385512,103.948322385512,519467,PASIR RIS DRIVE 8,8 PASIR RIS DRIVE 8 SINGAPORE 519467,40798.5235319482,39430.710986862
10 PASIR RIS DRIVE 8 SINGAPORE 519468,10,NIL,1.37325945018403,103.948417037615,103.948417037615,519468,PASIR RIS DRIVE 8,10 PASIR RIS DRIVE 8 SINGAPORE 519468,40809.055095274,39473.8767032642
12 PASIR RIS DRIVE 8 SINGAPORE 519469,12,NIL,1.37373920985698,103.948257336533,103.948257336533,519469,PASIR RIS DRIVE 8,12 PASIR RIS DRIVE 8 SINGAPORE 519469,40791.2797375489,39526.925340103
14 PASIR RIS DRIVE 8 SINGAPORE 519470,14,NIL,1.37414835678173,103.94857672968,103.94857672968,519470,PASIR RIS DRIVE 8,14 PASIR RIS DRIVE 8 SINGAPORE 519470,40826.8221595725,39572.1685298365
16 PASIR RIS DRIVE 8 SINGAPORE 519471,16,NIL,1.37452891315064,103.94858628922,103.94858628922,519471,PASIR RIS DRIVE 8,16 PASIR RIS DRIVE 8 SINGAPORE 519471,40827.8839907097,39614.2486547343
18 PASIR RIS DRIVE 8 SINGAPORE 519472,18,NIL,1.37489313737977,103.948712110912,103.948712110912,519472,PASIR RIS DRIVE 8,18 PASIR RIS DRIVE 8 SINGAPORE 519472,40841.8844768461,39654.5234760121
20 PASIR RIS DRIVE 8 SINGAPORE 519473,20,NIL,1.3746712655711,103.949162378015,103.949162378015,519473,PASIR RIS DRIVE 8,20 PASIR RIS DRIVE 8 SINGAPORE 519473,40891.9949399689,39629.9923951253
501 PASIR RIS DRIVE 3 PASIR RIS BUS INTERCHANGE SINGAPORE 519490,501,PASIR RIS BUS INTERCHANGE,1.3735855936428,103.94982741227,103.94982741227,519490,PASIR RIS DRIVE 3,PASIR RIS BUS INTERCHANGE,40966.0110566318,39509.9476648197
31 PASIR RIS DRIVE 3 EASTVALE CONDOMINIUM SINGAPORE 519491,31,EASTVALE CONDOMINIUM,1.37460383882424,103.953736505213,103.953736505213,519491,PASIR RIS DRIVE 3,EASTVALE CONDOMINIUM,41401.0403464586,39622.5618472658
33 PASIR RIS DRIVE 3 EASTVALE CONDOMINIUM SINGAPORE 519492,33,EASTVALE CONDOMINIUM,1.37425837877515,103.953922545772,103.953922545772,519492,PASIR RIS DRIVE 3,EASTVALE CONDOMINIUM,41421.7463411726,39584.3635912798
35 PASIR RIS DRIVE 3 EASTVALE CONDOMINIUM SINGAPORE 519493,35,EASTVALE CONDOMINIUM,1.37395893406803,103.953739230242,103.953739230242,519493,PASIR RIS DRIVE 3,EASTVALE CONDOMINIUM,41401.347203278,39551.2514159363
37 PASIR RIS DRIVE 3 EASTVALE CONDOMINIUM SINGAPORE 519494,37,EASTVALE CONDOMINIUM,1.37443828069909,103.95321104346,103.95321104346,519494,PASIR RIS DRIVE 3,EASTVALE CONDOMINIUM,41342.5637218328,39604.2522898968
39 PASIR RIS DRIVE 3 EASTVALE CONDOMINIUM SINGAPORE 519495,39,EASTVALE CONDOMINIUM,1.37467402762989,103.95316804526,103.95316804526,519495,PASIR RIS DRIVE 3,EASTVALE CONDOMINIUM,41337.7772336919,39630.3198039047
41 PASIR RIS DRIVE 3 EASTVALE CONDOMINIUM SINGAPORE 519496,41,EASTVALE CONDOMINIUM,1.3743141815968,103.953576312462,103.953576312462,519496,PASIR RIS DRIVE 3,EASTVALE CONDOMINIUM,41383.2144412007,39590.5320550203
60 PASIR RIS DRIVE 3 ARANDA COUNTRY CLUB SINGAPORE 519497,60,ARANDA COUNTRY CLUB,1.3761056770854,103.953517403291,103.953517403291,519497,PASIR RIS DRIVE 3,ARANDA COUNTRY CLUB,41376.6485891007,39788.6266253758
93 PASIR RIS DRIVE 3 DBS PASIR RIS ELIAS COMMUNITY CLUB SINGAPORE 519498,93,DBS PASIR RIS ELIAS COMMUNITY CLUB,1.37843931210648,103.942549067179,103.942549067179,519498,PASIR RIS DRIVE 3,DBS PASIR RIS ELIAS COMMUNITY CLUB,40155.9945011856,40046.6099126004
62 PASIR RIS DRIVE 3 SINGAPORE 519499,62,NIL,1.37544561949238,103.953067896404,103.953067896404,519499,PASIR RIS DRIVE 3,62 PASIR RIS DRIVE 3 SINGAPORE 519499,41326.6275981376,39715.6381370276
45 PASIR RIS DRIVE 3 BICYCLE STATION SINGAPORE 519500,45,BICYCLE STATION,1.37467493364268,103.95245665763,103.95245665763,519500,PASIR RIS DRIVE 3,BICYCLE STATION,41258.6083862847,39630.4160258248
80A PASIR RIS DRIVE 3 TEMPORARY SITE OFFICE SINGAPORE 519501,80A,TEMPORARY SITE OFFICE,1.37582340155676,103.949371288054,103.949371288054,519501,PASIR RIS DRIVE 3,TEMPORARY SITE OFFICE,40915.2379062735,39757.3911255598
60 PASIR RIS DRIVE 1 LIFE STUDENT CARE - PARK VIEW PRIMARY SINGAPORE 519524,60,LIFE STUDENT CARE - PARK VIEW PRIMARY,1.37801687647812,103.9392021807,103.9392021807,519524,PASIR RIS DRIVE 1,LIFE STUDENT CARE - PARK VIEW PRIMARY,39783.5293153096,39999.8822296057
61 PASIR RIS DRIVE 1 DBS EXXONMOBIL PASIR RIS DRIVE 1 SINGAPORE 519525,61,DBS EXXONMOBIL PASIR RIS DRIVE 1,1.3748820566351,103.940592109521,103.940592109521,519525,PASIR RIS DRIVE 1,DBS EXXONMOBIL PASIR RIS DRIVE 1,39938.2268915977,39653.2560949977
71 PASIR RIS DRIVE 1 PASIR RIS WAFER FAB PARK SINGAPORE 519526,71,PASIR RIS WAFER FAB PARK,1.37968650580529,103.933588363936,103.933588363936,519526,PASIR RIS DRIVE 1,PASIR RIS WAFER FAB PARK,39158.7728273505,40184.4746156409
70 PASIR RIS INDUSTRIAL DRIVE 1 PASIR RIS WAFER FAB PARK SINGAPORE 519527,70,PASIR RIS WAFER FAB PARK,1.38264116117112,103.934861798494,103.934861798494,519527,PASIR RIS INDUSTRIAL DRIVE 1,PASIR RIS WAFER FAB PARK,39300.4763582293,40511.1919234227
3 PASIR RIS DRIVE 12 PASIR RIS WAFER FAB PARK SINGAPORE 519528,3,PASIR RIS WAFER FAB PARK,1.37902877198635,103.932269689331,103.932269689331,519528,PASIR RIS DRIVE 12,PASIR RIS WAFER FAB PARK,39012.0237143906,40111.7395005841
65 PASIR RIS DRIVE 1 CEREBRAL PALSY ALLIANCE SINGAPORE SCHOOL SINGAPORE 519529,65,CEREBRAL PALSY ALLIANCE SINGAPORE SCHOOL,1.37538513507624,103.939356106886,103.939356106886,519529,PASIR RIS DRIVE 1,CEREBRAL PALSY ALLIANCE SINGAPORE SCHOOL,39800.6723445877,39708.8779039364
55 PASIR RIS DRIVE 1 BELYSA SINGAPORE 519530,55,BELYSA,1.3738301364827,103.941704779944,103.941704779944,519530,PASIR RIS DRIVE 1,BELYSA,40062.0588730983,39536.9454955757
57 PASIR RIS DRIVE 1 BELYSA SINGAPORE 519531,57,BELYSA,1.37362918733813,103.941459628266,103.941459628266,519531,PASIR RIS DRIVE 1,BELYSA,40034.7774616024,39514.7242855988
59 PASIR RIS DRIVE 1 BELYSA SINGAPORE 519532,59,BELYSA,1.37344018770058,103.940779151023,103.940779151023,519532,PASIR RIS DRIVE 1,BELYSA,39959.049508852,39493.8222148865
30A PASIR RIS DRIVE 1 SINGAPORE 519533,30A,NIL,1.37059395285073,103.952560257957,103.952560257957,519533,PASIR RIS DRIVE 1,30A PASIR RIS DRIVE 1 SINGAPORE 519533,41270.160343878,39179.1615227908
1A PASIR RIS FARMWAY 1 TEMPORARY SITE OFFICE SINGAPORE 519586,1A,TEMPORARY SITE OFFICE,1.38489294647334,103.937001717169,103.937001717169,519586,PASIR RIS FARMWAY 1,TEMPORARY SITE OFFICE,39538.6116270078,40760.1936102323
1 PASIR RIS CLOSE ACES MONTESSORI KIDZ KINDERGARTEN SINGAPORE 519599,1,ACES MONTESSORI KIDZ KINDERGARTEN,1.3766980678365,103.95514122442,103.95514122442,519599,PASIR RIS CLOSE,ACES MONTESSORI KIDZ KINDERGARTEN,41557.3568058563,39854.1394968368
7 PASIR RIS CENTRAL PASIR RIS MALL SINGAPORE 519612,7,PASIR RIS MALL,1.37396197529539,103.94859767619,103.94859767619,519612,PASIR RIS CENTRAL,PASIR RIS MALL,40829.1542471824,39551.5594834741
9 PASIR RIS CENTRAL HDB TOWN PLAZA SINGAPORE 519613,9,HDB TOWN PLAZA,1.37262692656746,103.948739861818,103.948739861818,519613,PASIR RIS CENTRAL,HDB TOWN PLAZA,40844.9849172216,39403.9370483793
1A PASIR RIS STREET 53 TEMPORARY SITE OFFICE SINGAPORE 519632,1A,TEMPORARY SITE OFFICE,1.37317980509566,103.947553832417,103.947553832417,519632,PASIR RIS STREET 53,TEMPORARY SITE OFFICE,40712.9911739118,39465.0653299876
10 PASIR RIS CENTRAL CITIBANK PASIR RIS SMRT STATION SINGAPORE 519634,10,CITIBANK PASIR RIS SMRT STATION,1.37300805046319,103.949265083922,103.949265083922,519634,PASIR RIS CENTRAL,CITIBANK PASIR RIS SMRT STATION,40903.4337861072,39446.0827034637
90 PASIR RIS CENTRAL SINGAPORE 519635,90,NIL,1.37214836074971,103.951249278441,103.951249278441,519635,PASIR RIS CENTRAL,90 PASIR RIS CENTRAL SINGAPORE 519635,41124.2554655196,39351.0331833083
92 PASIR RIS CENTRAL SINGAPORE 519636,92,NIL,1.3723284807515,103.951358029566,103.951358029566,519636,PASIR RIS CENTRAL,92 PASIR RIS CENTRAL SINGAPORE 519636,41136.3571805013,39370.9505759738
94 PASIR RIS CENTRAL SINGAPORE 519637,94,NIL,1.37266407308841,103.951695988738,103.951695988738,519637,PASIR RIS CENTRAL,94 PASIR RIS CENTRAL SINGAPORE 519637,41173.9661491141,39408.0606071427
96 PASIR RIS CENTRAL SINGAPORE 519638,96,NIL,1.37267327814844,103.951932233026,103.951932233026,519638,PASIR RIS CENTRAL,96 PASIR RIS CENTRAL SINGAPORE 519638,41200.2572527183,39409.0797604211
98 PASIR RIS CENTRAL SINGAPORE 519639,98,NIL,1.37260498445627,103.95248965767,103.95248965767,519639,PASIR RIS CENTRAL,98 PASIR RIS CENTRAL SINGAPORE 519639,41262.2923025824,39401.531258231
120 PASIR RIS CENTRAL PASIR RIS SPORTS AND RECREATION CENTRE SINGAPORE 519640,120,PASIR RIS SPORTS AND RECREATION CENTRE,1.37405935580675,103.951850332313,103.951850332313,519640,PASIR RIS CENTRAL,PASIR RIS SPORTS AND RECREATION CENTRE,41191.1350877862,39562.3450557198
110 PASIR RIS CENTRAL PASIR RIS CENTRAL HAWKER CENTRE SINGAPORE 519641,110,PASIR RIS CENTRAL HAWKER CENTRE,1.37343174666105,103.951547789534,103.951547789534,519641,PASIR RIS CENTRAL,PASIR RIS CENTRAL HAWKER CENTRE,41157.4691596804,39492.9454119336
1 PASIR RIS AVENUE PASIR RIS BEACH PARK SINGAPORE 519668,1,PASIR RIS BEACH PARK,1.3804716903677,103.945023117184,103.945023117184,519668,PASIR RIS AVENUE,PASIR RIS BEACH PARK,40431.3152894843,40271.3531725202
2 PASIR RIS AVENUE PASIR RIS BEACH PARK SINGAPORE 519669,2,PASIR RIS BEACH PARK,1.38054612531287,103.945404272909,103.945404272909,519669,PASIR RIS AVENUE,PASIR RIS BEACH PARK,40473.7328115981,40279.5858219471
3 PASIR RIS AVENUE PASIR RIS BEACH PARK SINGAPORE 519670,3,PASIR RIS BEACH PARK,1.38053834227565,103.945040234353,103.945040234353,519670,PASIR RIS AVENUE,PASIR RIS BEACH PARK,40433.2198720919,40278.7233054843
4 PASIR RIS AVENUE PASIR RIS BEACH PARK SINGAPORE 519671,4,PASIR RIS BEACH PARK,1.38062238907404,103.945420936332,103.945420936332,519671,PASIR RIS AVENUE,PASIR RIS BEACH PARK,40475.586846672,40288.0187848918
5 PASIR RIS AVENUE PASIR RIS BEACH PARK SINGAPORE 519672,5,PASIR RIS BEACH PARK,1.38060417475213,103.94500263023,103.94500263023,519672,PASIR RIS AVENUE,PASIR RIS BEACH PARK,40429.0346574467,40286.0025436915
6 PASIR RIS AVENUE PASIR RIS BEACH PARK SINGAPORE 519673,6,PASIR RIS BEACH PARK,1.38076150763719,103.945394647021,103.945394647021,519673,PASIR RIS AVENUE,PASIR RIS BEACH PARK,40472.6604472026,40303.4017006475
7 PASIR RIS AVENUE PASIR RIS BEACH PARK SINGAPORE 519674,7,PASIR RIS BEACH PARK,1.38067089124308,103.945014335004,103.945014335004,519674,PASIR RIS AVENUE,PASIR RIS BEACH PARK,40430.3369071782,40293.3797896318
8 PASIR RIS AVENUE PASIR RIS BEACH PARK SINGAPORE 519675,8,PASIR RIS BEACH PARK,1.3808298871719,103.945386444047,103.945386444047,519675,PASIR RIS AVENUE,PASIR RIS BEACH PARK,40471.7472015982,40310.9627337847
9 PASIR RIS AVENUE PASIR RIS BEACH PARK SINGAPORE 519676,9,PASIR RIS BEACH PARK,1.38073899542766,103.945028766169,103.945028766169,519676,PASIR RIS AVENUE,PASIR RIS BEACH PARK,40431.9425631789,40300.9104942475
10 PASIR RIS AVENUE PASIR RIS BEACH PARK SINGAPORE 519677,10,PASIR RIS BEACH PARK,1.38098748708411,103.945393927066,103.945393927066,519677,PASIR RIS AVENUE,PASIR RIS BEACH PARK,40472.5791473985,40328.3894043379
11 PASIR RIS AVENUE PASIR RIS BEACH PARK SINGAPORE 519678,11,PASIR RIS BEACH PARK,1.38080256439688,103.945026223404,103.945026223404,519678,PASIR RIS AVENUE,PASIR RIS BEACH PARK,40431.6592548508,40307.9396281056
12 PASIR RIS AVENUE PASIR RIS BEACH PARK SINGAPORE 519679,12,PASIR RIS BEACH PARK,1.38105047246576,103.945391169692,103.945391169692,519679,PASIR RIS AVENUE,PASIR RIS BEACH PARK,40472.2719576312,40335.3540068548
14 PASIR RIS AVENUE PASIR RIS BEACH PARK SINGAPORE 519681,14,PASIR RIS BEACH PARK,1.38120840130106,103.945371969869,103.945371969869,519681,PASIR RIS AVENUE,PASIR RIS BEACH PARK,40470.1344326213,40352.8169081844
15 PASIR RIS AVENUE PASIR RIS BEACH PARK SINGAPORE 519682,15,PASIR RIS BEACH PARK,1.38086952193303,103.944993988213,103.944993988213,519682,PASIR RIS AVENUE,PASIR RIS BEACH PARK,40428.0715302052,40315.3432979956
16 PASIR RIS AVENUE PASIR RIS BEACH PARK SINGAPORE 519683,16,PASIR RIS BEACH PARK,1.38127091257485,103.945369286179,103.945369286179,519683,PASIR RIS AVENUE,PASIR RIS BEACH PARK,40469.8354454786,40359.7290865537
17 PASIR RIS AVENUE PASIR RIS BEACH PARK SINGAPORE 519684,17,PASIR RIS BEACH PARK,1.38093139046868,103.945008999493,103.945008999493,519684,PASIR RIS AVENUE,PASIR RIS BEACH PARK,40429.7417780831,40322.1844979431
18 PASIR RIS AVENUE PASIR RIS BEACH PARK SINGAPORE 519685,18,PASIR RIS BEACH PARK,1.38137992984124,103.945361405771,103.945361405771,519685,PASIR RIS AVENUE,PASIR RIS BEACH PARK,40468.957885826,40371.7836440168
19 PASIR RIS AVENUE PASIR RIS BEACH PARK SINGAPORE 519686,19,PASIR RIS BEACH PARK,1.38105765723885,103.945001338817,103.945001338817,519686,PASIR RIS AVENUE,PASIR RIS BEACH PARK,40428.8885841575,40336.1464226693
20 PASIR RIS AVENUE PASIR RIS BEACH PARK SINGAPORE 519687,20,PASIR RIS BEACH PARK,1.38150796193176,103.9453763674,103.9453763674,519687,PASIR RIS AVENUE,PASIR RIS BEACH PARK,40470.6222617151,40385.9408880416
21 PASIR RIS AVENUE PASIR RIS BEACH PARK SINGAPORE 519688,21,PASIR RIS BEACH PARK,1.38112136606954,103.944999126243,103.944999126243,519688,PASIR RIS AVENUE,PASIR RIS BEACH PARK,40428.6420211624,40343.1910234671
22 PASIR RIS AVENUE PASIR RIS BEACH PARK SINGAPORE 519689,22,PASIR RIS BEACH PARK,1.38165011200743,103.945351595598,103.945351595598,519689,PASIR RIS AVENUE,PASIR RIS BEACH PARK,40467.8647273267,40401.6590217184
23 PASIR RIS AVENUE PASIR RIS BEACH PARK SINGAPORE 519690,23,PASIR RIS BEACH PARK,1.38119060948029,103.945008767898,103.945008767898,519690,PASIR RIS AVENUE,PASIR RIS BEACH PARK,40429.7146579688,40350.8476731647
24 PASIR RIS AVENUE PASIR RIS BEACH PARK SINGAPORE 519691,24,PASIR RIS BEACH PARK,1.38172354845515,103.945355285998,103.945355285998,519691,PASIR RIS AVENUE,PASIR RIS BEACH PARK,40468.2750401134,40409.779286122
25 PASIR RIS AVENUE PASIR RIS BEACH PARK SINGAPORE 519692,25,PASIR RIS BEACH PARK,1.38125414315197,103.94500592677,103.94500592677,519692,PASIR RIS AVENUE,PASIR RIS BEACH PARK,40429.3981456636,40357.8729024529
26 PASIR RIS AVENUE PASIR RIS BEACH PARK SINGAPORE 519693,26,PASIR RIS BEACH PARK,1.38185691044172,103.945346009569,103.945346009569,519693,PASIR RIS AVENUE,PASIR RIS BEACH PARK,40467.2419938296,40424.5257569849
27 PASIR RIS AVENUE PASIR RIS BEACH PARK SINGAPORE 519694,27,PASIR RIS BEACH PARK,1.38132235797697,103.94499029111,103.94499029111,519694,PASIR RIS AVENUE,PASIR RIS BEACH PARK,40427.6577365994,40365.4156839959
28 PASIR RIS AVENUE PASIR RIS BEACH PARK SINGAPORE 519695,28,PASIR RIS BEACH PARK,1.3819367249115,103.945342666323,103.945342666323,519695,PASIR RIS AVENUE,PASIR RIS BEACH PARK,40466.8695160216,40433.351235142
29 PASIR RIS AVENUE PASIR RIS BEACH PARK SINGAPORE 519696,29,PASIR RIS BEACH PARK,1.38138534305914,103.944988083941,103.944988083941,519696,PASIR RIS AVENUE,PASIR RIS BEACH PARK,40427.4117789641,40372.3802562449
30 PASIR RIS AVENUE PASIR RIS BEACH PARK SINGAPORE 519697,30,PASIR RIS BEACH PARK,1.38209177606009,103.945316400863,103.945316400863,519697,PASIR RIS AVENUE,PASIR RIS BEACH PARK,40463.9456893308,40450.4958988894
31 PASIR RIS AVENUE PASIR RIS BEACH PARK SINGAPORE 519698,31,PASIR RIS BEACH PARK,1.38150920274807,103.944995234092,103.944995234092,519698,PASIR RIS AVENUE,PASIR RIS BEACH PARK,40428.2068583602,40386.0760951247
32 PASIR RIS AVENUE PASIR RIS BEACH PARK SINGAPORE 519699,32,PASIR RIS BEACH PARK,1.38215218750098,103.945314396752,103.945314396752,519699,PASIR RIS AVENUE,PASIR RIS BEACH PARK,40463.7223418783,40457.1758915558
33 PASIR RIS AVENUE PASIR RIS BEACH PARK SINGAPORE 519700,33,PASIR RIS BEACH PARK,1.38157347305825,103.944991863453,103.944991863453,519700,PASIR RIS AVENUE,PASIR RIS BEACH PARK,40427.8314142907,40393.182775557
34 PASIR RIS AVENUE PASIR RIS BEACH PARK SINGAPORE 519701,34,PASIR RIS BEACH PARK,1.38232036439479,103.945391755477,103.945391755477,519701,PASIR RIS AVENUE,PASIR RIS BEACH PARK,40472.3305261796,40475.7724802159
35 PASIR RIS AVENUE PASIR RIS BEACH PARK SINGAPORE 519702,35,PASIR RIS BEACH PARK,1.38164185370916,103.944977407375,103.944977407375,519702,PASIR RIS AVENUE,PASIR RIS BEACH PARK,40426.2222774718,40400.7438994981
36 PASIR RIS AVENUE PASIR RIS BEACH PARK SINGAPORE 519703,36,PASIR RIS BEACH PARK,1.38238140875302,103.945423311286,103.945423311286,519703,PASIR RIS AVENUE,PASIR RIS BEACH PARK,40475.8419755073,40482.5226340685
37 PASIR RIS AVENUE PASIR RIS BEACH PARK SINGAPORE 519704,37,PASIR RIS BEACH PARK,1.38170500798459,103.944974632592,103.944974632592,519704,PASIR RIS AVENUE,PASIR RIS BEACH PARK,40425.9131505545,40407.727177361
38 PASIR RIS AVENUE SINGAPORE 519705,38,NIL,1.38247431523754,103.945051663075,103.945051663075,519705,PASIR RIS AVENUE,38 PASIR RIS AVENUE SINGAPORE 519705,40434.4816837972,40492.7938321996
39 PASIR RIS AVENUE PASIR RIS BEACH PARK SINGAPORE 519706,39,PASIR RIS BEACH PARK,1.38177433769644,103.944982671205,103.944982671205,519706,PASIR RIS AVENUE,PASIR RIS BEACH PARK,40426.8073878651,40415.3933614735
40 PASIR RIS AVENUE SINGAPORE 519707,40,NIL,1.38256479177667,103.944870580536,103.944870580536,519707,PASIR RIS AVENUE,40 PASIR RIS AVENUE SINGAPORE 519707,40414.3289878257,40502.7973402832
41 PASIR RIS AVENUE PASIR RIS BEACH PARK SINGAPORE 519708,41,PASIR RIS BEACH PARK,1.38183785301276,103.944980148837,103.944980148837,519708,PASIR RIS AVENUE,PASIR RIS BEACH PARK,40426.5263496367,40422.4165628068
42 PASIR RIS AVENUE PASIR RIS BEACH PARK SINGAPORE 519709,42,PASIR RIS BEACH PARK,1.38269037147798,103.944677465588,103.944677465588,519709,PASIR RIS AVENUE,PASIR RIS BEACH PARK,40392.8370546475,40516.6823237929
43 PASIR RIS AVENUE PASIR RIS BEACH PARK SINGAPORE 519710,43,PASIR RIS BEACH PARK,1.3819037467154,103.944961815839,103.944961815839,519710,PASIR RIS AVENUE,PASIR RIS BEACH PARK,40424.4857729785,40429.7026718482
44 PASIR RIS AVENUE SINGAPORE 519711,44,NIL,1.38273307379402,103.944507456095,103.944507456095,519711,PASIR RIS AVENUE,44 PASIR RIS AVENUE SINGAPORE 519711,40373.916901242,40521.4032514822
45 PASIR RIS AVENUE PASIR RIS BEACH PARK SINGAPORE 519712,45,PASIR RIS BEACH PARK,1.38215761078186,103.94487881069,103.94487881069,519712,PASIR RIS AVENUE,PASIR RIS BEACH PARK,40415.2470157724,40457.7732907515
46 PASIR RIS AVENUE PASIR RIS BEACH PARK SINGAPORE 519713,46,PASIR RIS BEACH PARK,1.38291286527513,103.944297981036,103.944297981036,519713,PASIR RIS AVENUE,PASIR RIS BEACH PARK,40350.6040158952,40541.2826275583
47 PASIR RIS AVENUE PASIR RIS BEACH PARK SINGAPORE 519714,47,PASIR RIS BEACH PARK,1.38221614117487,103.944702075639,103.944702075639,519714,PASIR RIS AVENUE,PASIR RIS BEACH PARK,40395.5783048607,40464.2443737946
48 PASIR RIS AVENUE PASIR RIS BEACH PARK SINGAPORE 519715,48,PASIR RIS BEACH PARK,1.38302577210758,103.944095683663,103.944095683663,519715,PASIR RIS AVENUE,PASIR RIS BEACH PARK,40328.0902658543,40553.7662639599
49 PASIR RIS AVENUE PASIR RIS BEACH PARK SINGAPORE 519716,49,PASIR RIS BEACH PARK,1.38225495681879,103.944641257002,103.944641257002,519716,PASIR RIS AVENUE,PASIR RIS BEACH PARK,40388.809748074,40468.5361014735
51 PASIR RIS AVENUE PASIR RIS BEACH PARK SINGAPORE 519717,51,PASIR RIS BEACH PARK,1.38231519613634,103.944521983781,103.944521983781,519717,PASIR RIS AVENUE,PASIR RIS BEACH PARK,40375.5358146187,40475.1964502186
53 PASIR RIS AVENUE PASIR RIS BEACH PARK SINGAPORE 519718,53,PASIR RIS BEACH PARK,1.382358486971,103.944456504154,103.944456504154,519718,PASIR RIS AVENUE,PASIR RIS BEACH PARK,40368.2485251268,40479.9829988964
54 PASIR RIS AVENUE PASIR RIS BEACH PARK SINGAPORE 519719,54,PASIR RIS BEACH PARK,1.38336222458295,103.943507534016,103.943507534016,519719,PASIR RIS AVENUE,PASIR RIS BEACH PARK,40262.6348430263,40590.9664937202
55 PASIR RIS AVENUE PASIR RIS BEACH PARK SINGAPORE 519720,55,PASIR RIS BEACH PARK,1.38241985981258,103.94432543928,103.94432543928,519720,PASIR RIS AVENUE,PASIR RIS BEACH PARK,40353.6623232374,40486.7686268259
56 PASIR RIS AVENUE PASIR RIS BEACH PARK SINGAPORE 519721,56,PASIR RIS BEACH PARK,1.38346375185277,103.943355933961,103.943355933961,519721,PASIR RIS AVENUE,PASIR RIS BEACH PARK,40245.7631359547,40602.1921019126
57 PASIR RIS AVENUE PASIR RIS BEACH PARK SINGAPORE 519722,57,PASIR RIS BEACH PARK,1.38246291683329,103.944266666663,103.944266666663,519722,PASIR RIS AVENUE,PASIR RIS BEACH PARK,40347.1214422248,40491.5293569118
59 PASIR RIS AVENUE PASIR RIS BEACH PARK SINGAPORE 519723,59,PASIR RIS BEACH PARK,1.38254110451962,103.94413502052,103.94413502052,519723,PASIR RIS AVENUE,PASIR RIS BEACH PARK,40332.4704668503,40500.1742865462
61 PASIR RIS AVENUE PASIR RIS BEACH PARK SINGAPORE 519724,61,PASIR RIS BEACH PARK,1.3825700580975,103.944068917924,103.944068917924,519724,PASIR RIS AVENUE,PASIR RIS BEACH PARK,40325.1139242118,40503.3754890393
63 PASIR RIS AVENUE PASIR RIS BEACH PARK SINGAPORE 519725,63,PASIR RIS BEACH PARK,1.38264674047158,103.943944140012,103.943944140012,519725,PASIR RIS AVENUE,PASIR RIS BEACH PARK,40311.22730623,40511.8540052976
65 PASIR RIS AVENUE PASIR RIS BEACH PARK SINGAPORE 519726,65,PASIR RIS BEACH PARK,1.38267473217741,103.943871594158,103.943871594158,519726,PASIR RIS AVENUE,PASIR RIS BEACH PARK,40303.1537150573,40514.9488158301
67 PASIR RIS AVENUE PASIR RIS BEACH PARK SINGAPORE 519727,67,PASIR RIS BEACH PARK,1.38277340465425,103.94370368447,103.94370368447,519727,PASIR RIS AVENUE,PASIR RIS BEACH PARK,40284.4669580739,40525.8586684167
69 PASIR RIS AVENUE PASIR RIS BEACH PARK SINGAPORE 519728,69,PASIR RIS BEACH PARK,1.38281606295993,103.943642197453,103.943642197453,519728,PASIR RIS AVENUE,PASIR RIS BEACH PARK,40277.6240025824,40530.5752980504
71 PASIR RIS AVENUE PASIR RIS BEACH PARK SINGAPORE 519729,71,PASIR RIS BEACH PARK,1.38287445109412,103.943526330097,103.943526330097,519729,PASIR RIS AVENUE,PASIR RIS BEACH PARK,40264.7291150875,40537.0309746899
73 PASIR RIS AVENUE PASIR RIS BEACH PARK SINGAPORE 519730,73,PASIR RIS BEACH PARK,1.38292068869537,103.94345948931,103.94345948931,519730,PASIR RIS AVENUE,PASIR RIS BEACH PARK,40257.2903343374,40542.143358212
75 PASIR RIS AVENUE PASIR RIS BEACH PARK SINGAPORE 519731,75,PASIR RIS BEACH PARK,1.38300249037118,103.943329062295,103.943329062295,519731,PASIR RIS AVENUE,PASIR RIS BEACH PARK,40242.7750200657,40551.1879160348
77 PASIR RIS AVENUE ISLAND PLAYHOUSE-CHILD DEVELOPMENT CENTRE PTE LTD SINGAPORE 519732,77,ISLAND PLAYHOUSE-CHILD DEVELOPMENT CENTRE PTE LTD,1.38294870093472,103.943222170818,103.943222170818,519732,PASIR RIS AVENUE,ISLAND PLAYHOUSE-CHILD DEVELOPMENT CENTRE PTE LTD,40230.8796116607,40545.2395913377
79 PASIR RIS AVENUE SINGAPORE 519733,79,NIL,1.38301915856628,103.94308624628,103.94308624628,519733,PASIR RIS AVENUE,79 PASIR RIS AVENUE SINGAPORE 519733,40215.752551171,40553.0297531113
81 PASIR RIS AVENUE PASIR RIS BEACH PARK SINGAPORE 519734,81,PASIR RIS BEACH PARK,1.38313581560095,103.943074630744,103.943074630744,519734,PASIR RIS AVENUE,PASIR RIS BEACH PARK,40214.4592910307,40565.9290597327
50 PASIR RIS AVENUE SINGAPORE 519735,50,NIL,1.38314191917813,103.943891575305,103.943891575305,519735,PASIR RIS AVENUE,50 PASIR RIS AVENUE SINGAPORE 519735,40305.3749613101,40566.6081824824
52 PASIR RIS AVENUE PASIR RIS BEACH PARK SINGAPORE 519736,52,PASIR RIS BEACH PARK,1.38326433845269,103.943718455001,103.943718455001,519736,PASIR RIS AVENUE,PASIR RIS BEACH PARK,40286.1082092226,40580.1438129265
43A PASIR RIS AVENUE PASIR RIS BEACH PARK SINGAPORE 519737,43A,PASIR RIS BEACH PARK,1.38196106027857,103.944955079395,103.944955079395,519737,PASIR RIS AVENUE,PASIR RIS BEACH PARK,40423.7357928781,40436.0400914755
44A PASIR RIS AVENUE SINGAPORE 519738,44A,NIL,1.38277935970011,103.944426824585,103.944426824585,519738,PASIR RIS AVENUE,44A PASIR RIS AVENUE SINGAPORE 519738,40364.9433823768,40526.5209016316
1 ELIAS TERRACE ELIAS TERRACE SINGAPORE 519768,1,ELIAS TERRACE,1.37248163063022,103.940737933063,103.940737933063,519768,ELIAS TERRACE,ELIAS TERRACE,39954.4672085298,39387.8294565566
3 ELIAS TERRACE ELIAS TERRACE SINGAPORE 519769,3,ELIAS TERRACE,1.3724849470251,103.940795671078,103.940795671078,519769,ELIAS TERRACE,ELIAS TERRACE,39960.8927382566,39388.1964558605
5 ELIAS TERRACE ELIAS TERRACE SINGAPORE 519770,5,ELIAS TERRACE,1.37248983361361,103.940851941565,103.940851941565,519770,ELIAS TERRACE,ELIAS TERRACE,39967.1549419444,39388.7370723169
7 ELIAS TERRACE ELIAS TERRACE SINGAPORE 519771,7,ELIAS TERRACE,1.37249424222128,103.940903111338,103.940903111338,519771,ELIAS TERRACE,ELIAS TERRACE,39972.8494998645,39389.2248106059
9 ELIAS TERRACE ELIAS TERRACE SINGAPORE 519772,9,ELIAS TERRACE,1.37249913784154,103.940959357347,103.940959357347,519772,ELIAS TERRACE,ELIAS TERRACE,39979.1089794338,39389.7664259076
11 ELIAS TERRACE ELIAS TERRACE SINGAPORE 519773,11,ELIAS TERRACE,1.37250353905541,103.941010541263,103.941010541263,519773,ELIAS TERRACE,ELIAS TERRACE,39984.805111289,39390.253346961
13 ELIAS TERRACE ELIAS TERRACE SINGAPORE 519774,13,ELIAS TERRACE,1.37250844179112,103.941066765786,103.941066765786,519774,ELIAS TERRACE,ELIAS TERRACE,39991.0621996867,39390.7957492303
15 ELIAS TERRACE ELIAS TERRACE SINGAPORE 519775,15,ELIAS TERRACE,1.37251496499017,103.941123668154,103.941123668154,519775,ELIAS TERRACE,ELIAS TERRACE,39997.3947159005,39391.5173379611
17 ELIAS TERRACE ELIAS TERRACE SINGAPORE 519776,17,ELIAS TERRACE,1.37254578464901,103.941235320702,103.941235320702,519776,ELIAS TERRACE,ELIAS TERRACE,40009.8201469686,39394.9257853404
19 ELIAS TERRACE ELIAS TERRACE SINGAPORE 519777,19,ELIAS TERRACE,1.37256351908886,103.941292454484,103.941292454484,519777,ELIAS TERRACE,ELIAS TERRACE,40016.1783606997,39396.8870598804
21 ELIAS TERRACE ELIAS TERRACE SINGAPORE 519778,21,ELIAS TERRACE,1.37258016528338,103.941341015985,103.941341015985,519778,ELIAS TERRACE,ELIAS TERRACE,40021.5825881204,39398.7279586513
23 ELIAS TERRACE ELIAS TERRACE SINGAPORE 519779,23,ELIAS TERRACE,1.37259843667288,103.941394560758,103.941394560758,519779,ELIAS TERRACE,ELIAS TERRACE,40027.5413855389,39400.7485887073
25 ELIAS TERRACE ELIAS TERRACE SINGAPORE 519780,25,ELIAS TERRACE,1.37261507273787,103.941443104038,103.941443104038,519780,ELIAS TERRACE,ELIAS TERRACE,40032.9435850047,39402.5883675609
27 ELIAS TERRACE ELIAS TERRACE SINGAPORE 519781,27,ELIAS TERRACE,1.37263335397833,103.941496670571,103.941496670571,519781,ELIAS TERRACE,ELIAS TERRACE,40038.9048038619,39404.6100872662
29 ELIAS TERRACE ELIAS TERRACE SINGAPORE 519782,29,ELIAS TERRACE,1.37265300473088,103.941549567554,103.941549567554,519782,ELIAS TERRACE,ELIAS TERRACE,40044.7915029433,39406.7832376938
30 ELIAS TERRACE ELIAS TERRACE SINGAPORE 519783,30,ELIAS TERRACE,1.37225686296065,103.941499011442,103.941499011442,519783,ELIAS TERRACE,ELIAS TERRACE,40039.1671970133,39362.9795629978
31 ELIAS TERRACE ELIAS TERRACE SINGAPORE 519784,31,ELIAS TERRACE,1.37275675305728,103.941755098569,103.941755098569,519784,ELIAS TERRACE,ELIAS TERRACE,40067.6641101986,39418.2562563848
32 ELIAS TERRACE ELIAS TERRACE SINGAPORE 519785,32,ELIAS TERRACE,1.37227873387749,103.941559664268,103.941559664268,519785,ELIAS TERRACE,ELIAS TERRACE,40045.9170179181,39365.398247309
33 ELIAS TERRACE ELIAS TERRACE SINGAPORE 519786,33,ELIAS TERRACE,1.37278527217023,103.941802297997,103.941802297997,519786,ELIAS TERRACE,ELIAS TERRACE,40072.9166950211,39421.4099986814
34 ELIAS TERRACE ELIAS TERRACE SINGAPORE 519787,34,ELIAS TERRACE,1.37229714786741,103.941613420641,103.941613420641,519787,ELIAS TERRACE,ELIAS TERRACE,40051.8993638279,39367.4346469846
35 ELIAS TERRACE ELIAS TERRACE SINGAPORE 519788,35,ELIAS TERRACE,1.37281581084638,103.941850217989,103.941850217989,519788,ELIAS TERRACE,ELIAS TERRACE,40078.2494597323,39424.7870581597
36 ELIAS TERRACE ELIAS TERRACE SINGAPORE 519789,36,ELIAS TERRACE,1.37231895183704,103.941671434182,103.941671434182,519789,ELIAS TERRACE,ELIAS TERRACE,40058.3554642182,39369.8459156398
37 ELIAS TERRACE ELIAS TERRACE SINGAPORE 519790,37,ELIAS TERRACE,1.37284327489977,103.941893462253,103.941893462253,519790,ELIAS TERRACE,ELIAS TERRACE,40083.0618875353,39427.8241173774
38 ELIAS TERRACE ELIAS TERRACE SINGAPORE 519791,38,ELIAS TERRACE,1.37233662776245,103.941732935668,103.941732935668,519791,ELIAS TERRACE,ELIAS TERRACE,40065.199751501,39371.8007430993
39 ELIAS TERRACE ELIAS TERRACE SINGAPORE 519792,39,ELIAS TERRACE,1.3728738039939,103.941941368377,103.941941368377,519792,ELIAS TERRACE,ELIAS TERRACE,40088.3931085793,39431.2001174781
41 ELIAS TERRACE ELIAS TERRACE SINGAPORE 519793,41,ELIAS TERRACE,1.37290128063703,103.941984615091,103.941984615091,519793,ELIAS TERRACE,ELIAS TERRACE,40093.2058087951,39434.2385690231
43 ELIAS TERRACE ELIAS TERRACE SINGAPORE 519794,43,ELIAS TERRACE,1.3729317922103,103.9420325204,103.9420325204,519794,ELIAS TERRACE,ELIAS TERRACE,40098.5369390352,39437.6126319729
45 ELIAS TERRACE ELIAS TERRACE SINGAPORE 519795,45,ELIAS TERRACE,1.37296328243347,103.942079160236,103.942079160236,519795,ELIAS TERRACE,ELIAS TERRACE,40103.7272323463,39441.0949029624
47 ELIAS TERRACE ELIAS TERRACE SINGAPORE 519796,47,ELIAS TERRACE,1.37268684931749,103.942321230507,103.942321230507,519796,ELIAS TERRACE,ELIAS TERRACE,40130.668129026,39410.529506037
49 ELIAS TERRACE ELIAS TERRACE SINGAPORE 519797,49,ELIAS TERRACE,1.37265631682311,103.942270040237,103.942270040237,519797,ELIAS TERRACE,ELIAS TERRACE,40124.9714220781,39407.1531124543
51 ELIAS TERRACE ELIAS TERRACE SINGAPORE 519798,51,ELIAS TERRACE,1.37262877174279,103.942226993154,103.942226993154,519798,ELIAS TERRACE,ELIAS TERRACE,40120.1809385633,39404.1070939135
53 ELIAS TERRACE ELIAS TERRACE SINGAPORE 519799,53,ELIAS TERRACE,1.37259799246412,103.942179060639,103.942179060639,519799,ELIAS TERRACE,ELIAS TERRACE,40114.8467815248,39400.7034288757
55 ELIAS TERRACE ELIAS TERRACE SINGAPORE 519800,55,ELIAS TERRACE,1.37257041699314,103.942136112557,103.942136112557,519800,ELIAS TERRACE,ELIAS TERRACE,40110.0673155561,39397.6540505886
57 ELIAS TERRACE ELIAS TERRACE SINGAPORE 519801,57,ELIAS TERRACE,1.37253963004854,103.942088166989,103.942088166989,519801,ELIAS TERRACE,ELIAS TERRACE,40104.7317056544,39394.2495380472
59 ELIAS TERRACE ELIAS TERRACE SINGAPORE 519802,59,ELIAS TERRACE,1.37251206169215,103.942045232508,103.942045232508,519802,ELIAS TERRACE,ELIAS TERRACE,40099.9537530849,39391.2009467278
61 ELIAS TERRACE ELIAS TERRACE SINGAPORE 519803,61,ELIAS TERRACE,1.37248126790321,103.94199726464,103.94199726464,519803,ELIAS TERRACE,ELIAS TERRACE,40094.6156612085,39387.7956774868
63 ELIAS TERRACE ELIAS TERRACE SINGAPORE 519804,63,ELIAS TERRACE,1.37244760814124,103.941949174797,103.941949174797,519804,ELIAS TERRACE,ELIAS TERRACE,40089.2640092755,39384.0735024586
65 ELIAS TERRACE ELIAS TERRACE SINGAPORE 519805,65,ELIAS TERRACE,1.37228911576681,103.942074557,103.942074557,519805,ELIAS TERRACE,ELIAS TERRACE,40103.2183367368,39366.5488241725
67 ELIAS TERRACE ELIAS TERRACE SINGAPORE 519806,67,ELIAS TERRACE,1.37231443249022,103.942121519655,103.942121519655,519806,ELIAS TERRACE,ELIAS TERRACE,40108.4445884135,39369.3484613281
69 ELIAS TERRACE ELIAS TERRACE SINGAPORE 519807,69,ELIAS TERRACE,1.37234548086283,103.942169161158,103.942169161158,519807,ELIAS TERRACE,ELIAS TERRACE,40113.7463587094,39372.781879792
71 ELIAS TERRACE ELIAS TERRACE SINGAPORE 519808,71,ELIAS TERRACE,1.37237346036827,103.942211982784,103.942211982784,519808,ELIAS TERRACE,ELIAS TERRACE,40118.5117500657,39375.8759336229
73 ELIAS TERRACE ELIAS TERRACE SINGAPORE 519809,73,ELIAS TERRACE,1.37240450654881,103.942259628913,103.942259628913,519809,ELIAS TERRACE,ELIAS TERRACE,40123.8140349174,39379.3091099449
75 ELIAS TERRACE ELIAS TERRACE SINGAPORE 519810,75,ELIAS TERRACE,1.37243247701922,103.942302450813,103.942302450813,519810,ELIAS TERRACE,ELIAS TERRACE,40128.5794565417,39382.4021649323
77 ELIAS TERRACE ELIAS TERRACE SINGAPORE 519811,77,ELIAS TERRACE,1.37246352648211,103.942350106463,103.942350106463,519811,ELIAS TERRACE,ELIAS TERRACE,40133.8828007728,39385.8357044701
79 ELIAS TERRACE ELIAS TERRACE SINGAPORE 519812,79,ELIAS TERRACE,1.37249156292031,103.942392926736,103.942392926736,519812,ELIAS TERRACE,ELIAS TERRACE,40138.6480407892,39388.9360540416
81 ELIAS TERRACE ELIAS TERRACE SINGAPORE 519813,81,ELIAS TERRACE,1.37252486597085,103.942441640489,103.942441640489,519813,ELIAS TERRACE,ELIAS TERRACE,40144.0691274768,39392.6187898889
83 ELIAS TERRACE ELIAS TERRACE SINGAPORE 519814,83,ELIAS TERRACE,1.37222730084684,103.942644548018,103.942644548018,519814,ELIAS TERRACE,ELIAS TERRACE,40166.6517977165,39359.7165230121
85 ELIAS TERRACE ELIAS TERRACE SINGAPORE 519815,85,ELIAS TERRACE,1.37219655159514,103.942592654679,103.942592654679,519815,ELIAS TERRACE,ELIAS TERRACE,40160.8768480308,39356.3161571864
87 ELIAS TERRACE ELIAS TERRACE SINGAPORE 519816,87,ELIAS TERRACE,1.37216923126815,103.942549308707,103.942549308707,519816,ELIAS TERRACE,ELIAS TERRACE,40156.053100002,39353.2949886583
89 ELIAS TERRACE ELIAS TERRACE SINGAPORE 519817,89,ELIAS TERRACE,1.37213919244941,103.942501202165,103.942501202165,519817,ELIAS TERRACE,ELIAS TERRACE,40150.699571454,39349.9731985182
91 ELIAS TERRACE ELIAS TERRACE SINGAPORE 519818,91,ELIAS TERRACE,1.37211158469427,103.942458016921,103.942458016921,519818,ELIAS TERRACE,ELIAS TERRACE,40145.8937118035,39346.920248609
93 ELIAS TERRACE ELIAS TERRACE SINGAPORE 519819,93,ELIAS TERRACE,1.37208123216955,103.942410055604,103.942410055604,519819,ELIAS TERRACE,ELIAS TERRACE,40140.5563463587,39343.5637713578
95 ELIAS TERRACE ELIAS TERRACE SINGAPORE 519820,95,ELIAS TERRACE,1.37206271658439,103.942357577799,103.942357577799,519820,ELIAS TERRACE,ELIAS TERRACE,40134.7162902402,39341.5161422603
97 ELIAS TERRACE ELIAS TERRACE SINGAPORE 519821,97,ELIAS TERRACE,1.37191037985653,103.942549139492,103.942549139492,519821,ELIAS TERRACE,ELIAS TERRACE,40156.0355748395,39324.6724633407
99 ELIAS TERRACE ELIAS TERRACE SINGAPORE 519822,99,ELIAS TERRACE,1.37195359289204,103.942608554965,103.942608554965,519822,ELIAS TERRACE,ELIAS TERRACE,40162.6475856146,39329.4510515388
101 ELIAS TERRACE ELIAS TERRACE SINGAPORE 519823,101,ELIAS TERRACE,1.37197366601737,103.942678701403,103.942678701403,519823,ELIAS TERRACE,ELIAS TERRACE,40170.4539407594,39331.6709962673
103 ELIAS TERRACE ELIAS TERRACE SINGAPORE 519824,103,ELIAS TERRACE,1.3719709608299,103.942747732238,103.942747732238,519824,ELIAS TERRACE,ELIAS TERRACE,40178.1362577062,39331.3722210005
105 ELIAS TERRACE ELIAS TERRACE SINGAPORE 519825,105,ELIAS TERRACE,1.37194451044403,103.94281702255,103.94281702255,519825,ELIAS TERRACE,ELIAS TERRACE,40185.8475713823,39328.447819218
107 ELIAS TERRACE ELIAS TERRACE SINGAPORE 519826,107,ELIAS TERRACE,1.37189811585663,103.942869838464,103.942869838464,519826,ELIAS TERRACE,ELIAS TERRACE,40191.7255835515,39323.3180013373
109 ELIAS TERRACE ELIAS TERRACE SINGAPORE 519827,109,ELIAS TERRACE,1.37183262117071,103.942908103999,103.942908103999,519827,ELIAS TERRACE,ELIAS TERRACE,40195.984409933,39316.0761138219
111 ELIAS TERRACE ELIAS TERRACE SINGAPORE 519828,111,ELIAS TERRACE,1.37176160860715,103.942922198248,103.942922198248,519828,ELIAS TERRACE,ELIAS TERRACE,40197.5532903327,39308.2239632178
113 ELIAS TERRACE ELIAS TERRACE SINGAPORE 519829,113,ELIAS TERRACE,1.37168783897081,103.942907474853,103.942907474853,519829,ELIAS TERRACE,ELIAS TERRACE,40195.9151265183,39300.0668021422
115 ELIAS TERRACE ELIAS TERRACE SINGAPORE 519830,115,ELIAS TERRACE,1.37161620945383,103.942873182136,103.942873182136,519830,ELIAS TERRACE,ELIAS TERRACE,40192.0991207389,39292.146185359
117 ELIAS TERRACE ELIAS TERRACE SINGAPORE 519831,117,ELIAS TERRACE,1.37146611046568,103.94299320473,103.94299320473,519831,ELIAS TERRACE,ELIAS TERRACE,40205.456957045,39275.5495839901
119 ELIAS TERRACE ELIAS TERRACE SINGAPORE 519832,119,ELIAS TERRACE,1.37149022913319,103.943061996342,103.943061996342,519832,ELIAS TERRACE,ELIAS TERRACE,40213.1125170952,39278.2168592513
121 ELIAS TERRACE ELIAS TERRACE SINGAPORE 519833,121,ELIAS TERRACE,1.37148944882423,103.943136897369,103.943136897369,519833,ELIAS TERRACE,ELIAS TERRACE,40221.4481079346,39278.1309587136
123 ELIAS TERRACE ELIAS TERRACE SINGAPORE 519834,123,ELIAS TERRACE,1.37146678075667,103.943202533526,103.943202533526,519834,ELIAS TERRACE,ELIAS TERRACE,40228.7527409811,39275.6247696616
125 ELIAS TERRACE ELIAS TERRACE SINGAPORE 519835,125,ELIAS TERRACE,1.37142113593785,103.943260774619,103.943260774619,519835,ELIAS TERRACE,ELIAS TERRACE,40235.2345086224,39270.5778860562
127 ELIAS TERRACE ELIAS TERRACE SINGAPORE 519836,127,ELIAS TERRACE,1.37136302516934,103.943299190877,103.943299190877,519836,ELIAS TERRACE,ELIAS TERRACE,40239.510073198,39264.1524774022
129 ELIAS TERRACE ELIAS TERRACE SINGAPORE 519837,129,ELIAS TERRACE,1.371290464414,103.943318347383,103.943318347383,519837,ELIAS TERRACE,ELIAS TERRACE,40241.6423315788,39256.1291613504
131 ELIAS TERRACE ELIAS TERRACE SINGAPORE 519838,131,ELIAS TERRACE,1.37121931915195,103.943313313072,103.943313313072,519838,ELIAS TERRACE,ELIAS TERRACE,40241.0824344167,39248.2622399703
133 ELIAS TERRACE ELIAS TERRACE SINGAPORE 519839,133,ELIAS TERRACE,1.37114825826823,103.943283099243,103.943283099243,519839,ELIAS TERRACE,ELIAS TERRACE,40237.7203575885,39240.4045200571
135 ELIAS TERRACE ELIAS TERRACE SINGAPORE 519840,135,ELIAS TERRACE,1.37109322044445,103.94323210452,103.94323210452,519840,ELIAS TERRACE,ELIAS TERRACE,40232.0455343938,39234.3184457663
137 ELIAS TERRACE ELIAS TERRACE SINGAPORE 519841,137,ELIAS TERRACE,1.37101163071256,103.943397481292,103.943397481292,519841,ELIAS TERRACE,ELIAS TERRACE,40250.4504056452,39225.2974969707
139 ELIAS TERRACE ELIAS TERRACE SINGAPORE 519842,139,ELIAS TERRACE,1.37095459496657,103.943416479124,103.943416479124,519842,ELIAS TERRACE,ELIAS TERRACE,40252.5649269875,39218.9908598848
141 ELIAS TERRACE ELIAS TERRACE SINGAPORE 519843,141,ELIAS TERRACE,1.37090516055975,103.943445873145,103.943445873145,519843,ELIAS TERRACE,ELIAS TERRACE,40255.8363814717,39213.5247949734
143 ELIAS TERRACE ELIAS TERRACE SINGAPORE 519844,143,ELIAS TERRACE,1.3706130076195,103.943530238747,103.943530238747,519844,ELIAS TERRACE,ELIAS TERRACE,40265.2267510081,39181.2203813102
145 ELIAS TERRACE SINGAPORE 519845,145,NIL,1.37049580966409,103.943506762445,103.943506762445,519845,ELIAS TERRACE,145 ELIAS TERRACE SINGAPORE 519845,40262.6147148171,39168.261083547
29A ELIAS TERRACE D' ELIAS SINGAPORE 519846,29A,D' ELIAS,1.37267683098571,103.940849020159,103.940849020159,519846,ELIAS TERRACE,D' ELIAS,39966.8288952233,39409.4143124465
29B ELIAS TERRACE D' ELIAS SINGAPORE 519847,29B,D' ELIAS,1.37267573271096,103.940928984375,103.940928984375,519847,ELIAS TERRACE,D' ELIAS,39975.7279548477,39409.2932707779
29C ELIAS TERRACE D' ELIAS SINGAPORE 519848,29C,D' ELIAS,1.37268435426695,103.941005739402,103.941005739402,519848,ELIAS TERRACE,D' ELIAS,39984.2698219968,39410.2469846774
29D ELIAS TERRACE D' ELIAS SINGAPORE 519849,29D,D' ELIAS,1.37272654423276,103.94111721568,103.94111721568,519849,ELIAS TERRACE,D' ELIAS,39996.6755788755,39414.9127035644
29E ELIAS TERRACE D' ELIAS SINGAPORE 519850,29E,D' ELIAS,1.3727493247209,103.941166912426,103.941166912426,519850,ELIAS TERRACE,D' ELIAS,40002.206114592,39417.4319078494
29F ELIAS TERRACE D' ELIAS SINGAPORE 519851,29F,D' ELIAS,1.37277254931386,103.941220169399,103.941220169399,519851,ELIAS TERRACE,D' ELIAS,40008.1328582158,39420.0002370719
29G ELIAS TERRACE D' ELIAS SINGAPORE 519852,29G,D' ELIAS,1.37279524145306,103.941274375011,103.941274375011,519852,ELIAS TERRACE,D' ELIAS,40014.1651765667,39422.5096950643
29H ELIAS TERRACE D' ELIAS SINGAPORE 519853,29H,D' ELIAS,1.37281852244385,103.941327378231,103.941327378231,519853,ELIAS TERRACE,D' ELIAS,40020.0636801617,39425.0842594914
29J ELIAS TERRACE D' ELIAS SINGAPORE 519854,29J,D' ELIAS,1.37284202567733,103.941380968665,103.941380968665,519854,ELIAS TERRACE,D' ELIAS,40026.0275323335,39427.6834015213
29K ELIAS TERRACE D' ELIAS SINGAPORE 519855,29K,D' ELIAS,1.37286737443097,103.941434162365,103.941434162365,519855,ELIAS TERRACE,D' ELIAS,40031.9472235171,39430.4866102971
29L ELIAS TERRACE D' ELIAS SINGAPORE 519856,29L,D' ELIAS,1.37288945969605,103.94148846233,103.94148846233,519856,ELIAS TERRACE,D' ELIAS,40037.9900448583,39432.9289641716
29M ELIAS TERRACE D' ELIAS SINGAPORE 519857,29M,D' ELIAS,1.3729505881705,103.941622048377,103.941622048377,519857,ELIAS TERRACE,D' ELIAS,40052.8562558647,39439.6889248509
29N ELIAS TERRACE D' ELIAS SINGAPORE 519858,29N,D' ELIAS,1.37297197118195,103.941673099797,103.941673099797,519858,ELIAS TERRACE,D' ELIAS,40058.5375564089,39442.0536110792
29P ELIAS TERRACE D' ELIAS SINGAPORE 519859,29P,D' ELIAS,1.37299597261034,103.941726461253,103.941726461253,519859,ELIAS TERRACE,D' ELIAS,40064.4759229384,39444.7078408394
29Q ELIAS TERRACE D' ELIAS SINGAPORE 519860,29Q,D' ELIAS,1.37301988836584,103.941779678014,103.941779678014,519860,ELIAS TERRACE,D' ELIAS,40070.3981869007,39447.3525967207
29R ELIAS TERRACE D' ELIAS SINGAPORE 519861,29R,D' ELIAS,1.37304345128233,103.941832824045,103.941832824045,519861,ELIAS TERRACE,D' ELIAS,40076.3125811862,39449.958337171
29S ELIAS TERRACE D' ELIAS SINGAPORE 519862,29S,D' ELIAS,1.37306987487515,103.941888136247,103.941888136247,519862,ELIAS TERRACE,D' ELIAS,40082.4680296956,39452.8804083187
29T ELIAS TERRACE D' ELIAS SINGAPORE 519863,29T,D' ELIAS,1.37310269290284,103.941954352649,103.941954352649,519863,ELIAS TERRACE,D' ELIAS,40089.8369519394,39456.5096001029
71 PASIR RIS DRIVE 3 BUS INTECHANGE SINGAPORE 519872,71,BUS INTECHANGE,1.37404506072677,103.948704268491,103.948704268491,519872,PASIR RIS DRIVE 3,BUS INTECHANGE,40841.0162397325,39560.7472391278
501 ELIAS ROAD PASIR RIS BEACH PARK SINGAPORE 519916,501,PASIR RIS BEACH PARK,1.38077681373622,103.946289550902,103.946289550902,519916,ELIAS ROAD,PASIR RIS BEACH PARK,40572.2520717988,40305.09888703
503 ELIAS ROAD PASIR RIS BEACH PARK SINGAPORE 519917,503,PASIR RIS BEACH PARK,1.38079590325479,103.946347264837,103.946347264837,519917,ELIAS ROAD,PASIR RIS BEACH PARK,40578.674816872,40307.2100183591
505 ELIAS ROAD PASIR RIS BEACH PARK SINGAPORE 519918,505,PASIR RIS BEACH PARK,1.38082442969269,103.94650214837,103.94650214837,519918,ELIAS ROAD,PASIR RIS BEACH PARK,40595.9112834157,40310.3651529811
507 ELIAS ROAD SINGAPORE 519919,507,NIL,1.38086611486107,103.946556709499,103.946556709499,519919,ELIAS ROAD,507 ELIAS ROAD SINGAPORE 519919,40601.9830409493,40314.9747852944
509 ELIAS ROAD PASIR RIS BEACH PARK SINGAPORE 519920,509,PASIR RIS BEACH PARK,1.38093205306302,103.947309527822,103.947309527822,519920,ELIAS ROAD,PASIR RIS BEACH PARK,40685.7620352246,40322.2699141931
511 ELIAS ROAD SINGAPORE 519921,511,NIL,1.38081706471444,103.947468150503,103.947468150503,519921,ELIAS ROAD,511 ELIAS ROAD SINGAPORE 519921,40703.4153827075,40309.5559081696
513 ELIAS ROAD PASIR RIS BEACH PARK SINGAPORE 519922,513,PASIR RIS BEACH PARK,1.38085285613167,103.947873243327,103.947873243327,519922,ELIAS ROAD,PASIR RIS BEACH PARK,40748.4970019441,40313.5157171395
515 ELIAS ROAD SINGAPORE 519923,515,NIL,1.3805271389884,103.947689132501,103.947689132501,519923,ELIAS ROAD,515 ELIAS ROAD SINGAPORE 519923,40728.0094815372,40277.498511523
515A ELIAS ROAD PASIR RIS BEACH PARK SINGAPORE 519924,515A,PASIR RIS BEACH PARK,1.38049533617721,103.947848419211,103.947848419211,519924,ELIAS ROAD,PASIR RIS BEACH PARK,40745.7362894174,40273.9827641416
517 ELIAS ROAD PASIR RIS BEACH PARK SINGAPORE 519925,517,PASIR RIS BEACH PARK,1.38067512056811,103.947999709784,103.947999709784,519925,ELIAS ROAD,PASIR RIS BEACH PARK,40762.5720986603,40293.8632601351
125 ELIAS ROAD PASSION WAVE @ PASIR RIS SINGAPORE 519926,125,PASSION WAVE @ PASIR RIS,1.385009245867,103.943517520723,103.943517520723,519926,ELIAS ROAD,PASSION WAVE @ PASIR RIS,40263.7377780853,40773.0861368235
507A ELIAS ROAD SINGAPORE 519927,507A,NIL,1.38085275316085,103.94664819663,103.94664819663,519927,ELIAS ROAD,507A ELIAS ROAD SINGAPORE 519927,40612.1644945079,40313.4977984931
507B ELIAS ROAD SINGAPORE 519928,507B,NIL,1.38084388511397,103.946709755312,103.946709755312,519928,ELIAS ROAD,507B ELIAS ROAD SINGAPORE 519928,40619.0152591383,40312.517539572
21 ELIAS ROAD RIS GRANDEUR SINGAPORE 519929,21,RIS GRANDEUR,1.37379483298163,103.940157628255,103.940157628255,519929,ELIAS ROAD,RIS GRANDEUR,39889.8797806706,39533.0340548437
23 ELIAS ROAD RIS GRANDEUR SINGAPORE 519930,23,RIS GRANDEUR,1.37375371742919,103.939636013486,103.939636013486,519930,ELIAS ROAD,RIS GRANDEUR,39831.8305702424,39528.4851098396
25 ELIAS ROAD RIS GRANDEUR SINGAPORE 519931,25,RIS GRANDEUR,1.37405728152156,103.939259874859,103.939259874859,519931,ELIAS ROAD,RIS GRANDEUR,39789.9694039375,39562.049882343
27 ELIAS ROAD RIS GRANDEUR SINGAPORE 519932,27,RIS GRANDEUR,1.37448740008784,103.939126960443,103.939126960443,519932,ELIAS ROAD,RIS GRANDEUR,39775.175533412,39609.6096322108
29 ELIAS ROAD RIS GRANDEUR SINGAPORE 519933,29,RIS GRANDEUR,1.37469397888239,103.939510757769,103.939510757769,519933,ELIAS ROAD,RIS GRANDEUR,39817.8865036275,39632.4539994374
31 ELIAS ROAD RIS GRANDEUR SINGAPORE 519934,31,RIS GRANDEUR,1.37457279689398,103.93998977659,103.93998977659,519934,ELIAS ROAD,RIS GRANDEUR,39871.1960807536,39619.0566634126
33 ELIAS ROAD RIS GRANDEUR SINGAPORE 519935,33,RIS GRANDEUR,1.37429955802067,103.940313603526,103.940313603526,519935,ELIAS ROAD,RIS GRANDEUR,39907.2354425341,39588.8448570725
511A ELIAS ROAD SINGAPORE 519936,511A,NIL,1.3807527338979,103.947562413466,103.947562413466,519936,ELIAS ROAD,511A ELIAS ROAD SINGAPORE 519936,40713.9060237203,40302.4430227987
9 ELIAS ROAD BUDDHIST TZU CHI FOUNDATION SINGAPORE 519937,9,BUDDHIST TZU CHI FOUNDATION,1.37270619279407,103.939303170185,103.939303170185,519937,ELIAS ROAD,BUDDHIST TZU CHI FOUNDATION,39794.7942718817,39412.6533196513
60 ELIAS ROAD OASIS @ ELIAS SINGAPORE 519938,60,OASIS @ ELIAS,1.37695714547341,103.941637372458,103.941637372458,519938,ELIAS ROAD,OASIS @ ELIAS,40054.5415469306,39882.7145316899
62 ELIAS ROAD OASIS @ ELIAS SINGAPORE 519939,62,OASIS @ ELIAS,1.37681779868428,103.941860091485,103.941860091485,519939,ELIAS ROAD,OASIS @ ELIAS,40079.3281501364,39867.3073712774
64 ELIAS ROAD OASIS @ ELIAS SINGAPORE 519940,64,OASIS @ ELIAS,1.37677178519203,103.942108831178,103.942108831178,519940,ELIAS ROAD,OASIS @ ELIAS,40107.0100675924,39862.2206852734
66 ELIAS ROAD OASIS @ ELIAS SINGAPORE 519941,66,OASIS @ ELIAS,1.37712493426284,103.942367369104,103.942367369104,519941,ELIAS ROAD,OASIS @ ELIAS,40135.7803914761,39901.2714995574
68 ELIAS ROAD OASIS @ ELIAS SINGAPORE 519942,68,OASIS @ ELIAS,1.37722899730585,103.942090374434,103.942090374434,519942,ELIAS ROAD,OASIS @ ELIAS,40104.9537515827,39912.7768747248
70 ELIAS ROAD OASIS @ ELIAS SINGAPORE 519943,70,OASIS @ ELIAS,1.37737958000711,103.941891583018,103.941891583018,519943,ELIAS ROAD,OASIS @ ELIAS,40082.8299439764,39929.426566137
72 ELIAS ROAD OASIS @ ELIAS SINGAPORE 519944,72,OASIS @ ELIAS,1.37744783444568,103.941602277158,103.941602277158,519944,ELIAS ROAD,OASIS @ ELIAS,40050.6334054088,39936.9723442085
80 ELIAS ROAD STRATUM SINGAPORE 519945,80,STRATUM,1.37877593012085,103.943380285486,103.943380285486,519945,ELIAS ROAD,STRATUM,40248.4971521199,40083.8357490748
82 ELIAS ROAD STRATUM SINGAPORE 519946,82,STRATUM,1.37885994154586,103.943580849039,103.943580849039,519946,ELIAS ROAD,STRATUM,40270.8169751884,40093.126355337
84 ELIAS ROAD STRATUM SINGAPORE 519947,84,STRATUM,1.37911965636118,103.94348537518,103.94348537518,519947,ELIAS ROAD,STRATUM,40260.1905822689,40121.8438615892
86 ELIAS ROAD STRATUM SINGAPORE 519948,86,STRATUM,1.37932962367227,103.943329768384,103.943329768384,519948,ELIAS ROAD,STRATUM,40242.8723921692,40145.0602223352
88 ELIAS ROAD STRATUM SINGAPORE 519949,88,STRATUM,1.37934554632863,103.942995476412,103.942995476412,519949,ELIAS ROAD,STRATUM,40205.6697409702,40146.8191554062
90 ELIAS ROAD STRATUM SINGAPORE 519950,90,STRATUM,1.37933551979392,103.942682021516,103.942682021516,519950,ELIAS ROAD,STRATUM,40170.7861318802,40145.7088652272
92 ELIAS ROAD STRATUM SINGAPORE 519951,92,STRATUM,1.37971704130715,103.942427508586,103.942427508586,519951,ELIAS ROAD,STRATUM,40142.4600511948,40187.8943529762
94 ELIAS ROAD STRATUM SINGAPORE 519952,94,STRATUM,1.37984165397142,103.942744453101,103.942744453101,519952,ELIAS ROAD,STRATUM,40177.7314234246,40201.6750330161
96 ELIAS ROAD STRATUM SINGAPORE 519953,96,STRATUM,1.37984993765679,103.943039826496,103.943039826496,519953,ELIAS ROAD,STRATUM,40210.6027866891,40202.5925161373
98 ELIAS ROAD STRATUM SINGAPORE 519954,98,STRATUM,1.37992215984283,103.943332062277,103.943332062277,519954,ELIAS ROAD,STRATUM,40243.1246455461,40210.5799948964
100 ELIAS ROAD STRATUM SINGAPORE 519955,100,STRATUM,1.37963530778824,103.943403375787,103.943403375787,519955,ELIAS ROAD,STRATUM,40251.0624242751,40178.8616602048
102 ELIAS ROAD STRATUM SINGAPORE 519956,102,STRATUM,1.38001140897803,103.943764660548,103.943764660548,519956,ELIAS ROAD,STRATUM,40291.2670238316,40220.4509594794
104 ELIAS ROAD STRATUM SINGAPORE 519957,104,STRATUM,1.38002904727774,103.944201417635,103.944201417635,519957,ELIAS ROAD,STRATUM,40339.8725930722,40222.4035773762
106 ELIAS ROAD STRATUM SINGAPORE 519958,106,STRATUM,1.38004393149071,103.944579707376,103.944579707376,519958,ELIAS ROAD,STRATUM,40381.9714841209,40224.0513664112
1 ELIAS GREEN ELIAS GREEN SINGAPORE 519959,1,ELIAS GREEN,1.37141713343027,103.941469118073,103.941469118073,519959,ELIAS GREEN,ELIAS GREEN,40035.8446199046,39270.1262272038
3 ELIAS GREEN ELIAS GREEN SINGAPORE 519960,3,ELIAS GREEN,1.37092343238693,103.942162416569,103.942162416569,519960,ELIAS GREEN,ELIAS GREEN,40113.0029164925,39215.5386752691
5 ELIAS GREEN ELIAS GREEN SINGAPORE 519961,5,ELIAS GREEN,1.37024713600128,103.942738683574,103.942738683574,519961,ELIAS GREEN,ELIAS GREEN,40177.1379590677,39140.7600475606
7 ELIAS GREEN ELIAS GREEN SINGAPORE 519962,7,ELIAS GREEN,1.36973339058539,103.943295631685,103.943295631685,519962,ELIAS GREEN,ELIAS GREEN,40239.1222495232,39083.955426354
9 ELIAS GREEN ELIAS GREEN SINGAPORE 519963,9,ELIAS GREEN,1.37019562088834,103.943245056838,103.943245056838,519963,ELIAS GREEN,ELIAS GREEN,40233.4915267797,39135.066337144
11 ELIAS GREEN ELIAS GREEN SINGAPORE 519964,11,ELIAS GREEN,1.37106933275038,103.942641564902,103.942641564902,519964,ELIAS GREEN,ELIAS GREEN,40166.3256601915,39231.6740531009
13 ELIAS GREEN ELIAS GREEN SINGAPORE 519965,13,ELIAS GREEN,1.3714108894038,103.942187475049,103.942187475049,519965,ELIAS GREEN,ELIAS GREEN,40115.7891751984,39269.4394163862
15 ELIAS GREEN ELIAS GREEN SINGAPORE 519966,15,ELIAS GREEN,1.37194198889682,103.941824056122,103.941824056122,519966,ELIAS GREEN,ELIAS GREEN,40075.3423409685,39328.1639660671
