ADDRESS,BLK_NO,BUILDING,LATITUDE,LONGITUDE,LONGTITUDE,POSTAL,ROAD_NAME,SEARCHVAL,X,Y
285E TOH GUAN ROAD MULTI STOREY CAR PARK SINGAPORE 605285,285E,MULTI STOREY CAR PARK,1.33757814490756,103.746868149522,103.746868149522,605285,TOH GUAN ROAD,MULTI STOREY CAR PARK,18378.9832867412,35528.2812759243
286E TOH GUAN ROAD DBS TOH GUAN ROAD SINGAPORE 605286,286E,DBS TOH GUAN ROAD,1.33927631440922,103.745175915636,103.745175915636,605286,TOH GUAN ROAD,DBS TOH GUAN ROAD,18190.6621877933,35716.0630902071
287E JURONG EAST STREET 21 MULTI STOREY CAR PARK SINGAPORE 605287,287E,MULTI STOREY CAR PARK,1.33755726750066,103.744099425444,103.744099425444,605287,JURONG EAST STREET 21,MULTI STOREY CAR PARK,18070.8533056164,35525.9837846197
288E JURONG EAST STREET 21 SINGAPORE 605288,288E,NIL,1.34034550003904,103.74371089301,103.74371089301,605288,JURONG EAST STREET 21,288E JURONG EAST STREET 21 SINGAPORE 605288,18027.624995023,35834.2942234632
288F JURONG EAST STREET 21 MULTI STOREY CAR PARK SINGAPORE 606288,288F,MULTI STOREY CAR PARK,1.33974647274866,103.743177691158,103.743177691158,606288,JURONG EAST STREET 21,MULTI STOREY CAR PARK,17968.2828574022,35768.0589460358
84 TOH GUAN ROAD EAST SINGAPORE 608501,84,NIL,1.33493647543735,103.757170167503,103.757170167503,608501,TOH GUAN ROAD EAST,84 TOH GUAN ROAD EAST SINGAPORE 608501,19525.4803907974,35236.140750682
6A TOH GUAN ROAD EAST SINGAPORE 608502,6A,NIL,1.33627471136391,103.750509043859,103.750509043859,608502,TOH GUAN ROAD EAST,6A TOH GUAN ROAD EAST SINGAPORE 608502,18784.1716741016,35384.1401432455
1 BUSINESS PARK DRIVE SINGAPORE 608506,1,NIL,1.3264117167069,103.75322021029,103.75322021029,608506,BUSINESS PARK DRIVE,1 BUSINESS PARK DRIVE SINGAPORE 608506,19085.8606888279,34293.5296627171
151A JURONG GATEWAY ROAD TEMPORARY SITE OFFICES SINGAPORE 608511,151A,TEMPORARY SITE OFFICES,1.33483449254098,103.741266124612,103.741266124612,608511,JURONG GATEWAY ROAD,TEMPORARY SITE OFFICES,17755.5253860876,35224.9245255627
2 JURONG GATEWAY ROAD SPARK新园 SINGAPORE 608512,2,SPARK新园,1.33673806731959,103.745719327956,103.745719327956,608512,JURONG GATEWAY ROAD,SPARK新园,18251.1282059178,35435.3942215964
17A JURONG GATEWAY ROAD JURONG EAST BUS INTERCHANGE SINGAPORE 608513,17A,JURONG EAST BUS INTERCHANGE,1.33199487097783,103.740891117073,103.740891117073,608513,JURONG GATEWAY ROAD,JURONG EAST BUS INTERCHANGE,17713.7791473176,34910.9348746669
2 TOWN HALL LINK GENTING HOTEL JURONG SINGAPORE 608516,2,GENTING HOTEL JURONG,1.33156163694351,103.739259625282,103.739259625282,608516,TOWN HALL LINK,GENTING HOTEL JURONG,17532.208989189,34863.0368800815
1 VENTURE AVENUE BIG BOX SINGAPORE 608521,1,BIG BOX,1.33183269839976,103.744879157153,103.744879157153,608521,VENTURE AVENUE,BIG BOX,18157.6064925073,34892.9863538053
2 VENTURE DRIVE VISION EXCHANGE SINGAPORE 608526,2,VISION EXCHANGE,1.33018185712274,103.744524241244,103.744524241244,608526,VENTURE DRIVE,VISION EXCHANGE,18118.1014163233,34710.445985727
1 GATEWAY DRIVE WESTGATE TOWER SINGAPORE 608531,1,WESTGATE TOWER,1.33456298088397,103.742948615519,103.742948615519,608531,GATEWAY DRIVE,WESTGATE TOWER,17942.7680670442,35194.89517463
3 GATEWAY DRIVE DBS WESTGATE BR 1 SINGAPORE 608532,3,DBS WESTGATE BR 1,1.33415752008876,103.742766489597,103.742766489597,608532,GATEWAY DRIVE,DBS WESTGATE BR 1,17922.4976891531,35150.0620858073
2 GATEWAY DRIVE J GATEWAY SINGAPORE 608533,2,J GATEWAY,1.33555731797921,103.742416815373,103.742416815373,608533,GATEWAY DRIVE,J GATEWAY,17883.5882868879,35304.8461982608
4 GATEWAY DRIVE J GATEWAY SINGAPORE 608534,4,J GATEWAY,1.33616988532154,103.742053284078,103.742053284078,608534,GATEWAY DRIVE,J GATEWAY,17843.1335527152,35372.5823439304
6 GATEWAY DRIVE J GATEWAY SINGAPORE 608535,6,J GATEWAY,1.33629636945962,103.74173137219,103.74173137219,608535,GATEWAY DRIVE,J GATEWAY,17807.308639599,35386.569663493
21 PENJURU WALK CASSIA AT PENJURU SINGAPORE 608536,21,CASSIA AT PENJURU,1.31776873275977,103.731937463766,103.731937463766,608536,PENJURU WALK,CASSIA AT PENJURU,16717.264745458,33337.9182033334
23 PENJURU WALK CASSIA AT PENJURU SINGAPORE 608537,23,CASSIA AT PENJURU,1.31800211513684,103.731982921138,103.731982921138,608537,PENJURU WALK,CASSIA AT PENJURU,16722.3247653674,33363.7242624983
27 PENJURU WALK DBS PENJURU RECREATION CLUB SINGAPORE 608538,27,DBS PENJURU RECREATION CLUB,1.31865728379443,103.733152140767,103.733152140767,608538,PENJURU WALK,DBS PENJURU RECREATION CLUB,16852.4506108668,33436.1642949823
11 PENJURU WALK CASSIA AT PENJURU SINGAPORE 608541,11,CASSIA AT PENJURU,1.31764977702909,103.732492163086,103.732492163086,608541,PENJURU WALK,CASSIA AT PENJURU,16778.9969338765,33324.7621636745
13 PENJURU WALK CASSIA AT PENJURU SINGAPORE 608542,13,CASSIA AT PENJURU,1.31737063351099,103.732442160668,103.732442160668,608542,PENJURU WALK,CASSIA AT PENJURU,16773.4308938151,33293.8960845992
15 PENJURU WALK CASSIA AT PENJURU SINGAPORE 608543,15,CASSIA AT PENJURU,1.3171784304621,103.732264848334,103.732264848334,608543,PENJURU WALK,CASSIA AT PENJURU,16753.6968645947,33272.6440251917
17 PENJURU WALK CASSIA AT PENJURU SINGAPORE 608544,17,CASSIA AT PENJURU,1.31731568364674,103.731546468286,103.731546468286,608544,PENJURU WALK,CASSIA AT PENJURU,16673.7486468758,33287.8240546528
19 PENJURU WALK CASSIA AT PENJURU SINGAPORE 608545,19,CASSIA AT PENJURU,1.31755822238363,103.731691951988,103.731691951988,608545,PENJURU WALK,CASSIA AT PENJURU,16689.940686373,33314.6421238538
21 JURONG GATEWAY ROAD CPF JURONG BUILDING SINGAPORE 608546,21,CPF JURONG BUILDING,1.33504438168257,103.739818608728,103.739818608728,608546,JURONG GATEWAY ROAD,CPF JURONG BUILDING,17594.4327599322,35248.1391004995
60 JURONG GATEWAY ROAD SINGAPORE 608548,60,NIL,1.33302195013258,103.741943039605,103.741943039605,608548,JURONG GATEWAY ROAD,60 JURONG GATEWAY ROAD SINGAPORE 608548,17830.8515616218,35024.4998047501
50 JURONG GATEWAY ROAD CATHAY CINEPLEX JEM SINGAPORE 608549,50,CATHAY CINEPLEX JEM,1.33332819303974,103.743359442234,103.743359442234,608549,JURONG GATEWAY ROAD,CATHAY CINEPLEX JEM,17988.4838308077,35058.3568146359
52 JURONG GATEWAY ROAD BUILDING AND CONSTRUCTION AUTHORITY (BCA) SINGAPORE 608550,52,BUILDING AND CONSTRUCTION AUTHORITY (BCA),1.33295890957906,103.743429962902,103.743429962902,608550,JURONG GATEWAY ROAD,BUILDING AND CONSTRUCTION AUTHORITY (BCA),17996.3305634419,35017.5230042357
16 PENJURU PLACE SINGAPORE 608551,16,NIL,1.31606530978644,103.733481782818,103.733481782818,608551,PENJURU PLACE,16 PENJURU PLACE SINGAPORE 608551,16889.1251160176,33149.5552134961
38 PENJURU PLACE JURONG PENJURU DORMITORY 2 SINGAPORE 608552,38,JURONG PENJURU DORMITORY 2,1.31603559072439,103.732180809355,103.732180809355,608552,PENJURU PLACE,JURONG PENJURU DORMITORY 2,16744.3390028728,33146.2748602238
20 PENJURU PLACE SINGAPORE 608556,20,NIL,1.3162740253575,103.732865102319,103.732865102319,608556,PENJURU PLACE,20 PENJURU PLACE SINGAPORE 608556,16820.4953686651,33172.6367001068
30 PENJURU PLACE JURONG PENJURU DORMITORY 2 SINGAPORE 608557,30,JURONG PENJURU DORMITORY 2,1.31619770326353,103.732541771893,103.732541771893,608557,PENJURU PLACE,JURONG PENJURU DORMITORY 2,16784.5114275627,33164.1988337506
32 PENJURU PLACE JURONG PENJURU DORMITORY 2 SINGAPORE 608558,32,JURONG PENJURU DORMITORY 2,1.31674647616508,103.732614553994,103.732614553994,608558,PENJURU PLACE,JURONG PENJURU DORMITORY 2,16792.6138338558,33224.8790886626
34 PENJURU PLACE JURONG PENJURU DORMITORY 2 SINGAPORE 608559,34,JURONG PENJURU DORMITORY 2,1.31648750450449,103.7316923201,103.7316923201,608559,PENJURU PLACE,JURONG PENJURU DORMITORY 2,16689.9768263455,33196.2474526819
36 PENJURU PLACE DBS PENJURU ROAD DORMITORY 2 SINGAPORE 608560,36,DBS PENJURU ROAD DORMITORY 2,1.31625706117169,103.732241905373,103.732241905373,608560,PENJURU PLACE,DBS PENJURU ROAD DORMITORY 2,16751.1394015793,33170.7636870071
60 PENJURU PLACE JURONG PENJURU DORMITORY SINGAPORE 608561,60,JURONG PENJURU DORMITORY,1.3159852008952,103.731078782704,103.731078782704,608561,PENJURU PLACE,JURONG PENJURU DORMITORY,16621.693677674,33140.7080029268
58 PENJURU PLACE DBS JURONG PENJURU DORMITORY SINGAPORE 608562,58,DBS JURONG PENJURU DORMITORY,1.31639353056352,103.730764127555,103.730764127555,608562,PENJURU PLACE,DBS JURONG PENJURU DORMITORY,16586.6774040116,33185.8605097812
56 PENJURU PLACE JURONG PENJURU DORMITORY SINGAPORE 608563,56,JURONG PENJURU DORMITORY,1.31653649208546,103.730984094131,103.730984094131,608563,PENJURU PLACE,JURONG PENJURU DORMITORY,16611.1582400464,33201.6674799901
54 PENJURU PLACE JURONG PENJURU DORMITORY SINGAPORE 608564,54,JURONG PENJURU DORMITORY,1.31656786130628,103.731110607258,103.731110607258,608564,PENJURU PLACE,JURONG PENJURU DORMITORY,16625.238088836,33205.1355552953
52 PENJURU PLACE JURONG PENJURU DORMITORY SINGAPORE 608565,52,JURONG PENJURU DORMITORY,1.31709313153385,103.73138892289,103.73138892289,608565,PENJURU PLACE,JURONG PENJURU DORMITORY,16656.2143433718,33263.2160628196
50 PENJURU PLACE JURONG PENJURU DORMITORY SINGAPORE 608566,50,JURONG PENJURU DORMITORY,1.31682573158764,103.731496473447,103.731496473447,608566,PENJURU PLACE,JURONG PENJURU DORMITORY,16668.1824857416,33233.6478143502
19A TOH GUAN ROAD EAST DBS TOH GUAN DORMITORY SINGAPORE 608567,19A,DBS TOH GUAN DORMITORY,1.33825491464737,103.75324113373,103.75324113373,608567,TOH GUAN ROAD EAST,DBS TOH GUAN DORMITORY,19088.2318221359,35603.0910191201
19 TOH GUAN ROAD EAST TOH GUAN DORMITORY SINGAPORE 608568,19,TOH GUAN DORMITORY,1.3383123486952,103.753550358867,103.753550358867,608568,TOH GUAN ROAD EAST,TOH GUAN DORMITORY,19122.6455207793,35609.4406670127
17A TOH GUAN ROAD EAST TOH GUAN DORMITORY SINGAPORE 608569,17A,TOH GUAN DORMITORY,1.33853519559161,103.753118562199,103.753118562199,608569,TOH GUAN ROAD EAST,TOH GUAN DORMITORY,19074.5919184899,35634.0835275631
17 TOH GUAN ROAD EAST TOH GUAN DORMITORY SINGAPORE 608570,17,TOH GUAN DORMITORY,1.3387347342013,103.752839665072,103.752839665072,608570,TOH GUAN ROAD EAST,TOH GUAN DORMITORY,19043.5543410182,35656.1485244781
15 TOH GUAN ROAD EAST TOH GUAN DORMITORY SINGAPORE 608571,15,TOH GUAN DORMITORY,1.33830434517235,103.752896833365,103.752896833365,608571,TOH GUAN ROAD EAST,TOH GUAN DORMITORY,19049.9150064569,35608.5580526069
13 TOH GUAN ROAD EAST TOH GUAN DORMITORY SINGAPORE 608572,13,TOH GUAN DORMITORY,1.33814466022526,103.752450008124,103.752450008124,608572,TOH GUAN ROAD EAST,TOH GUAN DORMITORY,19000.1874938635,35590.9025258292
42F PENJURU ROAD SINGAPORE 608573,42F,NIL,1.30429091751073,103.729578832616,103.729578832616,608573,PENJURU ROAD,42F PENJURU ROAD SINGAPORE 608573,16454.7099333117,31847.6190583538
4 PENJURU CLOSE SINGAPORE 608574,4,NIL,1.31285039119836,103.729181921786,103.729181921786,608574,PENJURU CLOSE,4 PENJURU CLOSE SINGAPORE 608574,16410.5766100055,32794.0850161891
80 TOH GUAN ROAD EAST WATERHUB SINGAPORE 608575,80,WATERHUB,1.33515114936934,103.757492733889,103.757492733889,608575,TOH GUAN ROAD EAST,WATERHUB,19561.3793999376,35259.8772061914
82 TOH GUAN ROAD EAST WATERHUB SINGAPORE 608576,82,WATERHUB,1.33456355009728,103.757667369612,103.757667369612,608576,TOH GUAN ROAD EAST,WATERHUB,19580.8125351314,35194.9028324299
30 TOH GUAN ROAD EAST ENTERPRISE HUB SINGAPORE 608577,30,ENTERPRISE HUB,1.33570047003346,103.752284560011,103.752284560011,608577,TOH GUAN ROAD EAST,ENTERPRISE HUB,18981.765944954,35320.6368237585
32 TOH GUAN ROAD EAST ENTERPRISE HUB SINGAPORE 608578,32,ENTERPRISE HUB,1.33608225375456,103.752360413595,103.752360413595,608578,TOH GUAN ROAD EAST,ENTERPRISE HUB,18990.2090476714,35362.8522768132
34 TOH GUAN ROAD EAST ENTERPRISE HUB SINGAPORE 608579,34,ENTERPRISE HUB,1.33639531513457,103.752383163039,103.752383163039,608579,TOH GUAN ROAD EAST,ENTERPRISE HUB,18992.741963353,35397.4689525552
36 TOH GUAN ROAD EAST ENTERPRISE HUB SINGAPORE 608580,36,ENTERPRISE HUB,1.336769465114,103.752512123048,103.752512123048,608580,TOH GUAN ROAD EAST,ENTERPRISE HUB,19007.0952228401,35438.8401104715
38 TOH GUAN ROAD EAST ENTERPRISE HUB SINGAPORE 608581,38,ENTERPRISE HUB,1.33605939411934,103.753794281495,103.753794281495,608581,TOH GUAN ROAD EAST,ENTERPRISE HUB,19149.7834620327,35360.3193611316
40 TOH GUAN ROAD EAST ENTERPRISE HUB SINGAPORE 608582,40,ENTERPRISE HUB,1.33631901011105,103.753946005354,103.753946005354,608582,TOH GUAN ROAD EAST,ENTERPRISE HUB,19166.6696674684,35389.0258498359
42 TOH GUAN ROAD EAST ENTERPRISE HUB SINGAPORE 608583,42,ENTERPRISE HUB,1.33667786449163,103.753331478981,103.753331478981,608583,TOH GUAN ROAD EAST,ENTERPRISE HUB,19098.280611122,35428.7083872091
44 TOH GUAN ROAD EAST ENTERPRISE HUB SINGAPORE 608584,44,ENTERPRISE HUB,1.33743377368574,103.752792805618,103.752792805618,608584,TOH GUAN ROAD EAST,ENTERPRISE HUB,19038.334657494,35512.2949981801
46 TOH GUAN ROAD EAST ENTERPRISE HUB SINGAPORE 608585,46,ENTERPRISE HUB,1.3377697538524,103.753172124856,103.753172124856,608585,TOH GUAN ROAD EAST,ENTERPRISE HUB,19080.5501105487,35549.4446198717
48 TOH GUAN ROAD EAST ENTERPRISE HUB SINGAPORE 608586,48,ENTERPRISE HUB,1.33683097525786,103.754341430783,103.754341430783,608586,TOH GUAN ROAD EAST,ENTERPRISE HUB,19210.6781958779,35445.634970136
50 TOH GUAN ROAD EAST QUEK INDUSTRIAL BUILDING SINGAPORE 608587,50,QUEK INDUSTRIAL BUILDING,1.33617514038581,103.755950986675,103.755950986675,608587,TOH GUAN ROAD EAST,QUEK INDUSTRIAL BUILDING,19389.80257985,35373.1103386376
14 TOH GUAN ROAD EAST WESTLITE TOH GUAN DORMITORY SINGAPORE 608589,14,WESTLITE TOH GUAN DORMITORY,1.33621203336933,103.751578989494,103.751578989494,608589,TOH GUAN ROAD EAST,WESTLITE TOH GUAN DORMITORY,18903.2451956142,35377.2055362985
16 TOH GUAN ROAD EAST WESTLITE TOH GUAN DORMITORY SINGAPORE 608590,16,WESTLITE TOH GUAN DORMITORY,1.33598296485075,103.751586583539,103.751586583539,608590,TOH GUAN ROAD EAST,WESTLITE TOH GUAN DORMITORY,18904.0894907517,35351.8762584124
18 TOH GUAN ROAD EAST DBS CENTURION DORMITORY SINGAPORE 608591,18,DBS CENTURION DORMITORY,1.33581675199731,103.751416959817,103.751416959817,608591,TOH GUAN ROAD EAST,DBS CENTURION DORMITORY,18885.2115309155,35333.4979019165
20 TOH GUAN ROAD EAST WESTLITE TOH GUAN DORMITORY SINGAPORE 608592,20,WESTLITE TOH GUAN DORMITORY,1.33560882092829,103.751639702294,103.751639702294,608592,TOH GUAN ROAD EAST,WESTLITE TOH GUAN DORMITORY,18909.9996777885,35310.5051004961
22 TOH GUAN ROAD EAST WESTLITE TOH GUAN DORMITORY SINGAPORE 608593,22,WESTLITE TOH GUAN DORMITORY,1.33584553105176,103.751806599594,103.751806599594,608593,TOH GUAN ROAD EAST,WESTLITE TOH GUAN DORMITORY,18928.5744735003,35336.6787037887
24 TOH GUAN ROAD EAST WESTLITE TOH GUAN DORMITORY SINGAPORE 608594,24,WESTLITE TOH GUAN DORMITORY,1.33600587846803,103.751791421091,103.751791421091,608594,TOH GUAN ROAD EAST,WESTLITE TOH GUAN DORMITORY,18926.8858529562,35354.409174094
26 TOH GUAN ROAD EAST WESTLITE TOH GUAN DORMITORY SINGAPORE 608595,26,WESTLITE TOH GUAN DORMITORY,1.33621967571857,103.751783827296,103.751783827296,608595,TOH GUAN ROAD EAST,WESTLITE TOH GUAN DORMITORY,18926.0415275507,35378.0498314369
28 TOH GUAN ROAD EAST WESTLITE TOH GUAN DORMITORY SINGAPORE 608596,28,WESTLITE TOH GUAN DORMITORY,1.33641798183711,103.751807381961,103.751807381961,608596,TOH GUAN ROAD EAST,WESTLITE TOH GUAN DORMITORY,18928.6636429802,35399.9774419721
10 TOH GUAN ROAD EAST SINGAPORE 608597,10,NIL,1.33651531368145,103.751184289414,103.751184289414,608597,TOH GUAN ROAD EAST,10 TOH GUAN ROAD EAST SINGAPORE 608597,18859.3203279115,35410.7422201149
71 TOH GUAN ROAD EAST TCH TECHCENTRE SINGAPORE 608598,71,TCH TECHCENTRE,1.33555633641315,103.758085832752,103.758085832752,608598,TOH GUAN ROAD EAST,TCH TECHCENTRE,19627.3864870369,35304.6787255071
7 TOH GUAN ROAD EAST ALPHA INDUSTRIAL BUILDING SINGAPORE 608599,7,ALPHA INDUSTRIAL BUILDING,1.33706910134707,103.751567530032,103.751567530032,608599,TOH GUAN ROAD EAST,ALPHA INDUSTRIAL BUILDING,18901.9730322585,35471.9758645725
5 PENJURU CLOSE SINGAPORE 608600,5,NIL,1.31348513415722,103.730501647872,103.730501647872,608600,PENJURU CLOSE,5 PENJURU CLOSE SINGAPORE 608600,16557.4526668889,32864.26566476
55 TOH GUAN ROAD EAST UNI-TECH CENTRE SINGAPORE 608601,55,UNI-TECH CENTRE,1.33620204039635,103.757205595462,103.757205595462,608601,TOH GUAN ROAD EAST,UNI-TECH CENTRE,19529.4274872141,35376.0804450773
51 TOH GUAN ROAD EAST SOON HONG SENG BUILDING SINGAPORE 608602,51,SOON HONG SENG BUILDING,1.33648515500251,103.756760102833,103.756760102833,608602,TOH GUAN ROAD EAST,SOON HONG SENG BUILDING,19479.8498011408,35407.3873773348
11 TOH GUAN ROAD EAST APP ENTERPRISE BUILDING SINGAPORE 608603,11,APP ENTERPRISE BUILDING,1.33776950495792,103.75220983822,103.75220983822,608603,TOH GUAN ROAD EAST,APP ENTERPRISE BUILDING,18973.4577466389,35549.4206173606
9 TOH GUAN ROAD EAST ALLIANCE BUILDING SINGAPORE 608604,9,ALLIANCE BUILDING,1.33735521711936,103.752018690493,103.752018690493,608604,TOH GUAN ROAD EAST,ALLIANCE BUILDING,18952.1835007994,35503.6114465985
41 TOH GUAN ROAD EAST ADL BUILDING SINGAPORE 608605,41,ADL BUILDING,1.33666560886029,103.756437304303,103.756437304303,608605,TOH GUAN ROAD EAST,ADL BUILDING,19443.9263354698,35427.3421812281
81 TOH GUAN ROAD EAST SECOM CENTRE SINGAPORE 608606,81,SECOM CENTRE,1.33509356662749,103.758654841161,103.758654841161,608606,TOH GUAN ROAD EAST,SECOM CENTRE,19690.7096212162,35253.5060377643
61 TOH GUAN ROAD EAST SINGAPORE 608607,61,NIL,1.33586408435603,103.75764784827,103.75764784827,608607,TOH GUAN ROAD EAST,61 TOH GUAN ROAD EAST SINGAPORE 608607,19578.6444394579,35338.7094433531
31 TOH GUAN ROAD EAST LW TECHNOCENTRE SINGAPORE 608608,31,LW TECHNOCENTRE,1.33693654386623,103.755983554721,103.755983554721,608608,TOH GUAN ROAD EAST,LW TECHNOCENTRE,19393.4297134103,35457.3024000861
21 TOH GUAN ROAD EAST TOH GUAN CENTRE SINGAPORE 608609,21,TOH GUAN CENTRE,1.33765798645516,103.754671532572,103.754671532572,608609,TOH GUAN ROAD EAST,TOH GUAN CENTRE,19247.4179890696,35537.0805420056
14 PENJURU CLOSE SINGAPORE 608610,14,NIL,1.31230837469892,103.732147858903,103.732147858903,608610,PENJURU CLOSE,14 PENJURU CLOSE SINGAPORE 608610,16740.655237915,32734.1379729137
2 PENJURU CLOSE SINGAPORE 608611,2,NIL,1.31307275673293,103.728772028131,103.728772028131,608611,PENJURU CLOSE,2 PENJURU CLOSE SINGAPORE 608611,16364.9603068363,32818.674998574
16 PENJURU CLOSE SINGAPORE 608612,16,NIL,1.31219457041894,103.732593216287,103.732593216287,608612,PENJURU CLOSE,16 PENJURU CLOSE SINGAPORE 608612,16790.2188493758,32721.5520609971
8 PENJURU CLOSE HISAKA INDUSTRIAL BUILDING SINGAPORE 608613,8,HISAKA INDUSTRIAL BUILDING,1.31263570847537,103.730395732751,103.730395732751,608613,PENJURU CLOSE,HISAKA INDUSTRIAL BUILDING,16545.6614408838,32770.34087261
6 PENJURU CLOSE SINGAPORE 608614,6,NIL,1.31278207030825,103.729804342932,103.729804342932,608614,PENJURU CLOSE,6 PENJURU CLOSE SINGAPORE 608614,16479.845950122,32786.5275546741
12 PENJURU CLOSE SINGAPORE 608615,12,NIL,1.31243484254364,103.731500887044,103.731500887044,608615,PENJURU CLOSE,12 PENJURU CLOSE SINGAPORE 608615,16668.6538793202,32748.1250806022
18 PENJURU CLOSE SINGAPORE 608616,18,NIL,1.31214464243946,103.733393840953,103.733393840953,608616,PENJURU CLOSE,18 PENJURU CLOSE SINGAPORE 608616,16879.3206804637,32716.0276999492
1 PENJURU CLOSE SINGAPORE 608617,1,NIL,1.31388180592411,103.729239365644,103.729239365644,608617,PENJURU CLOSE,1 PENJURU CLOSE SINGAPORE 608617,16416.9743234552,32908.1334773134
10 PENJURU CLOSE SINGAPORE 608618,10,NIL,1.31255971342163,103.730930904321,103.730930904321,608618,PENJURU CLOSE,10 PENJURU CLOSE SINGAPORE 608618,16605.2206907524,32761.9352719244
28 PENJURU CLOSE SINGAPORE 608619,28,NIL,1.31358348986869,103.731406057882,103.731406057882,608619,PENJURU CLOSE,28 PENJURU CLOSE SINGAPORE 608619,16658.1054567266,32875.1372283474
3 PENJURU CLOSE SINGAPORE 608627,3,NIL,1.31363727214018,103.729899791571,103.729899791571,608627,PENJURU CLOSE,3 PENJURU CLOSE SINGAPORE 608627,16490.4724035775,32881.0910920836
7 PENJURU CLOSE SOON HOCK HOLDING LOGISTICS BUILDING SINGAPORE 608779,7,SOON HOCK HOLDING LOGISTICS BUILDING,1.31422354327066,103.730199240778,103.730199240778,608779,PENJURU CLOSE,SOON HOCK HOLDING LOGISTICS BUILDING,16523.8009647364,32945.9166684393
8 PENJURU PLACE 2.8 PENJURU TECH HUB SINGAPORE 608780,8,2.8 PENJURU TECH HUB,1.31653795922796,103.734016053819,103.734016053819,608780,PENJURU PLACE,2.8 PENJURU TECH HUB,16948.5864792261,33201.8160655219
6 PENJURU PLACE 2.8 PENJURU TECH HUB SINGAPORE 608781,6,2.8 PENJURU TECH HUB,1.31597032878736,103.734302717623,103.734302717623,608781,PENJURU PLACE,2.8 PENJURU TECH HUB,16980.4869363774,33139.0490450077
4 PENJURU PLACE 2.8 PENJURU TECH HUB SINGAPORE 608782,4,2.8 PENJURU TECH HUB,1.31590927073383,103.73457483558,103.73457483558,608782,PENJURU PLACE,2.8 PENJURU TECH HUB,17010.7708107857,33132.2963486444
2 PENJURU PLACE 2.8 PENJURU TECH HUB SINGAPORE 608783,2,2.8 PENJURU TECH HUB,1.31581802950221,103.734997961872,103.734997961872,608783,PENJURU PLACE,2.8 PENJURU TECH HUB,17057.8603475261,33122.20548716
698 WEST COAST ROAD COMMONWEALTH SECONDARY SCHOOL SINGAPORE 608784,698,COMMONWEALTH SECONDARY SCHOOL,1.31912807800574,103.745755485653,103.745755485653,608784,WEST COAST ROAD,COMMONWEALTH SECONDARY SCHOOL,18255.0832022782,33488.16947335
700 WEST COAST ROAD SINGAPORE 608785,700,NIL,1.31970962774273,103.743320430564,103.743320430564,608785,WEST COAST ROAD,700 WEST COAST ROAD SINGAPORE 608785,17984.0874667084,33552.4840050675
6 TOH GUAN ROAD EAST JURONG EAST WAREHOUSE COMPLEX (BLK 50) SINGAPORE 608826,6,JURONG EAST WAREHOUSE COMPLEX (BLK 50),1.33520042619009,103.749773509331,103.749773509331,608826,TOH GUAN ROAD EAST,JURONG EAST WAREHOUSE COMPLEX (BLK 50),18702.3103382029,35265.3538346309
8 TOH GUAN ROAD EAST JURONG EAST WAREHOUSE COMPLEX (BLK 52) SINGAPORE 608827,8,JURONG EAST WAREHOUSE COMPLEX (BLK 52),1.33280763367198,103.749994691357,103.749994691357,608827,TOH GUAN ROAD EAST,JURONG EAST WAREHOUSE COMPLEX (BLK 52),18726.9166350299,35000.7699779272
5C TOH GUAN ROAD EAST NIPPON EXPRESS GLOBAL LOGISTICS CENTER SINGAPORE 608828,5C,NIPPON EXPRESS GLOBAL LOGISTICS CENTER,1.33795846239993,103.750696203253,103.750696203253,608828,TOH GUAN ROAD EAST,NIPPON EXPRESS GLOBAL LOGISTICS CENTER,18805.0068223011,35570.3202060964
5B TOH GUAN ROAD EAST MAPLETREE LOGISTICS HUB – TOH GUAN SINGAPORE 608829,5B,MAPLETREE LOGISTICS HUB – TOH GUAN,1.33843841567053,103.751754676909,103.751754676909,608829,TOH GUAN ROAD EAST,MAPLETREE LOGISTICS HUB – TOH GUAN,18922.8055471433,35623.3870945293
5A TOH GUAN ROAD EAST CWT JURONG EAST LOGISTICS CENTRE SINGAPORE 608830,5A,CWT JURONG EAST LOGISTICS CENTRE,1.3393398897727,103.751104214554,103.751104214554,608830,TOH GUAN ROAD EAST,CWT JURONG EAST LOGISTICS CENTRE,18850.4193008682,35723.0700073652
5 TOH GUAN ROAD EAST SINGAPORE 608831,5,NIL,1.34027282900887,103.74980673715,103.74980673715,608831,TOH GUAN ROAD EAST,5 TOH GUAN ROAD EAST SINGAPORE 608831,18706.0273374077,35826.2346463669
3C TOH GUAN ROAD EAST TYE SOON BUILDING SINGAPORE 608832,3C,TYE SOON BUILDING,1.33928286035837,103.749451743194,103.749451743194,608832,TOH GUAN ROAD EAST,TYE SOON BUILDING,18666.5165405748,35716.7702108417
3B TOH GUAN ROAD EAST SINGAPORE 608833,3B,NIL,1.338429147846,103.749526249664,103.749526249664,608833,TOH GUAN ROAD EAST,3B TOH GUAN ROAD EAST SINGAPORE 608833,18674.8050949676,35622.3706653677
3A TOH GUAN ROAD EAST SINGAPORE 608834,3A,NIL,1.33783520390189,103.749438218371,103.749438218371,608834,TOH GUAN ROAD EAST,3A TOH GUAN ROAD EAST SINGAPORE 608834,18665.0058957748,35556.6956483182
3 TOH GUAN ROAD EAST SINGAPORE 608835,3,NIL,1.33687766596401,103.749417126845,103.749417126845,608835,TOH GUAN ROAD EAST,3 TOH GUAN ROAD EAST SINGAPORE 608835,18662.655011748,35450.8159711771
2 TOH GUAN ROAD EAST SINGAPORE 608837,2,NIL,1.33583470103276,103.748281616371,103.748281616371,608837,TOH GUAN ROAD EAST,2 TOH GUAN ROAD EAST SINGAPORE 608837,18536.2806104189,35335.4944689255
10 TOH GUAN ROAD COLUMBIA ACADEMY PTE LTD SINGAPORE 608838,10,COLUMBIA ACADEMY PTE LTD,1.33225990249213,103.748074842021,103.748074842021,608838,TOH GUAN ROAD,COLUMBIA ACADEMY PTE LTD,18513.25508931,34940.2119148653
20 TOH GUAN ROAD CJ LOGISTICS BUILDING SINGAPORE 608839,20,CJ LOGISTICS BUILDING,1.33360026051976,103.748413355864,103.748413355864,608839,TOH GUAN ROAD,CJ LOGISTICS BUILDING,18550.9333110685,35088.4207013398
30 TOH GUAN ROAD SINGAPORE 608840,30,NIL,1.3349204932246,103.74832045182,103.74832045182,608840,TOH GUAN ROAD,30 TOH GUAN ROAD SINGAPORE 608840,18540.5990949962,35234.405789854
492 TEBAN GARDENS ROAD HASANAH MOSQUE KINDERGARTEN SINGAPORE 608878,492,HASANAH MOSQUE KINDERGARTEN,1.32166368636589,103.738170825514,103.738170825514,608878,TEBAN GARDENS ROAD,HASANAH MOSQUE KINDERGARTEN,17410.9946131883,33768.5754039846
1 TEBAN GARDENS CRESCENT SINGAPORE 608919,1,NIL,1.32315444367311,103.74381793697,103.74381793697,608919,TEBAN GARDENS CRESCENT,1 TEBAN GARDENS CRESCENT SINGAPORE 608919,18039.4688267838,33933.3925358057
3 TEBAN GARDENS CRESCENT SINGAPORE 608920,3,NIL,1.32302489891917,103.742836256688,103.742836256688,608920,TEBAN GARDENS CRESCENT,3 TEBAN GARDENS CRESCENT SINGAPORE 608920,17930.2169633079,33919.0720868129
6 TEBAN GARDENS CRESCENT SINGAPORE 608921,6,NIL,1.32364256074739,103.742675141035,103.742675141035,608921,TEBAN GARDENS CRESCENT,6 TEBAN GARDENS CRESCENT SINGAPORE 608921,17912.2888733363,33987.3707024232
8 TEBAN GARDENS CRESCENT SINGAPORE 608922,8,NIL,1.32391804140862,103.741897614531,103.741897614531,608922,TEBAN GARDENS CRESCENT,8 TEBAN GARDENS CRESCENT SINGAPORE 608922,17825.7589733619,34017.835155623
10 TEBAN GARDENS CRESCENT SINGAPORE 608923,10,NIL,1.32423917499797,103.741627797485,103.741627797485,608923,TEBAN GARDENS CRESCENT,10 TEBAN GARDENS CRESCENT SINGAPORE 608923,17795.7323162779,34053.3456146568
12 TEBAN GARDENS CRESCENT SINGAPORE 608924,12,NIL,1.32445127152898,103.740998750586,103.740998750586,608924,TEBAN GARDENS CRESCENT,12 TEBAN GARDENS CRESCENT SINGAPORE 608924,17725.7264955817,34076.800789794
18 TEBAN GARDENS CRESCENT SINGAPORE 608925,18,NIL,1.32488646789228,103.739936116299,103.739936116299,608925,TEBAN GARDENS CRESCENT,18 TEBAN GARDENS CRESCENT SINGAPORE 608925,17607.4676368516,34124.9270655122
28 TEBAN GARDENS CRESCENT SINGAPORE 608926,28,NIL,1.32587408157694,103.739074442635,103.739074442635,608926,TEBAN GARDENS CRESCENT,28 TEBAN GARDENS CRESCENT SINGAPORE 608926,17511.5760613885,34234.1360997912
30 TEBAN GARDENS CRESCENT ALFA ROMEO BUILDING SINGAPORE 608927,30,ALFA ROMEO BUILDING,1.32628509000528,103.738230409315,103.738230409315,608927,TEBAN GARDENS CRESCENT,ALFA ROMEO BUILDING,17417.6453064466,34279.5869581606
20 TEBAN GARDENS CRESCENT SINGAPORE MINT COIN GALLERY SINGAPORE 608928,20,SINGAPORE MINT COIN GALLERY,1.32556100888637,103.739673887837,103.739673887837,608928,TEBAN GARDENS CRESCENT,SINGAPORE MINT COIN GALLERY,17578.2870304491,34199.5155497473
2 TANJONG PENJURU CRESCENT LOGOS PENJURU LOGISTICS CENTRE SINGAPORE 608968,2,LOGOS PENJURU LOGISTICS CENTRE,1.30337923220867,103.738689235789,103.738689235789,608968,TANJONG PENJURU CRESCENT,LOGOS PENJURU LOGISTICS CENTRE,17468.6121113654,31746.7694963552
3 TANJONG PENJURU CRESCENT SINGAPORE 608969,3,NIL,1.3043776532828,103.73917516707,103.73917516707,608969,TANJONG PENJURU CRESCENT,3 TANJONG PENJURU CRESCENT SINGAPORE 608969,17522.6960343188,31857.1678807847
5 TANJONG PENJURU CRESCENT SINGAPORE 608970,5,NIL,1.30437441920505,103.73959973492,103.73959973492,608970,TANJONG PENJURU CRESCENT,5 TANJONG PENJURU CRESCENT SINGAPORE 608970,17569.9465967324,31856.8085090145
6 TANJONG PENJURU CRESCENT SINGAPORE 608971,6,NIL,1.30330291081602,103.739705801531,103.739705801531,608971,TANJONG PENJURU CRESCENT,6 TANJONG PENJURU CRESCENT SINGAPORE 608971,17581.7464491129,31738.3260304201
9 TANJONG PENJURU CRESCENT SINGAPORE 608972,9,NIL,1.30505049206063,103.740504877471,103.740504877471,608972,TANJONG PENJURU CRESCENT,9 TANJONG PENJURU CRESCENT SINGAPORE 608972,17670.6835618326,31931.5615300089
10 TANJONG PENJURU CRESCENT SINGAPORE 608973,10,NIL,1.30324783860884,103.740015205349,103.740015205349,608973,TANJONG PENJURU CRESCENT,10 TANJONG PENJURU CRESCENT SINGAPORE 608973,17616.1800943566,31732.2351435218
11 TANJONG PENJURU CRESCENT SINGAPORE 608974,11,NIL,1.30398352960455,103.741073027291,103.741073027291,608974,TANJONG PENJURU CRESCENT,11 TANJONG PENJURU CRESCENT SINGAPORE 608974,17733.9091725685,31813.5798352063
12 TANJONG PENJURU CRESCENT SINGAPORE 608975,12,NIL,1.3024080956233,103.739992781203,103.739992781203,608975,TANJONG PENJURU CRESCENT,12 TANJONG PENJURU CRESCENT SINGAPORE 608975,17613.6810485488,31639.3806575444
14 TANJONG PENJURU CRESCENT SINGAPORE 608976,14,NIL,1.30114670573705,103.740129161864,103.740129161864,608976,TANJONG PENJURU CRESCENT,14 TANJONG PENJURU CRESCENT SINGAPORE 608976,17628.8538439628,31499.9019142725
2 TANJONG PENJURU SINGAPORE 609017,2,NIL,1.30629805126534,103.740462867553,103.740462867553,609017,TANJONG PENJURU,2 TANJONG PENJURU SINGAPORE 609017,17666.013333017,32069.510559652
6 TANJONG PENJURU SINGAPORE 609018,6,NIL,1.30593563074232,103.739658987354,103.739658987354,609018,TANJONG PENJURU,6 TANJONG PENJURU SINGAPORE 609018,17576.5472872816,32029.4392300285
8 TANJONG PENJURU SINGAPORE 609019,8,NIL,1.30497920791314,103.739644648777,103.739644648777,609019,TANJONG PENJURU,8 TANJONG PENJURU SINGAPORE 609019,17574.9475940736,31923.6828343831
19 TANJONG PENJURU THE DOVECHEM HOUSE SINGAPORE 609021,19,THE DOVECHEM HOUSE,1.30645855880338,103.737522610915,103.737522610915,609021,TANJONG PENJURU,THE DOVECHEM HOUSE,17338.7901866911,32087.2709649932
21 TANJONG PENJURU SINGAPORE 609022,21,NIL,1.30739806329913,103.736700393209,103.736700393209,609022,TANJONG PENJURU,21 TANJONG PENJURU SINGAPORE 609022,17247.2888309266,32191.1601892579
23 TANJONG PENJURU SINGAPORE 609023,23,NIL,1.30680189278459,103.736182834086,103.736182834086,609023,TANJONG PENJURU,23 TANJONG PENJURU SINGAPORE 609023,17189.6866786173,32125.2408490423
25 TANJONG PENJURU SINGAPORE 609024,25,NIL,1.30678142073792,103.735604372088,103.735604372088,609024,TANJONG PENJURU,25 TANJONG PENJURU SINGAPORE 609024,17125.3090381539,32122.979649052
27 TANJONG PENJURU SINGAPORE 609025,27,NIL,1.30694470962217,103.73512349787,103.73512349787,609025,TANJONG PENJURU,27 TANJONG PENJURU SINGAPORE 609025,17071.7928215032,32141.0374070648
29 TANJONG PENJURU SINGAPORE 609026,29,NIL,1.30536538563249,103.73628418291,103.73628418291,609026,TANJONG PENJURU,29 TANJONG PENJURU SINGAPORE 609026,17200.959747009,31966.398617208
31 TANJONG PENJURU SINGAPORE 609027,31,NIL,1.3049318049389,103.736643158793,103.736643158793,609027,TANJONG PENJURU,31 TANJONG PENJURU SINGAPORE 609027,17240.9086729065,31918.4538888559
32 TANJONG PENJURU SINGAPORE 609028,32,NIL,1.30251547952236,103.73851979397,103.73851979397,609028,TANJONG PENJURU,32 TANJONG PENJURU SINGAPORE 609028,17449.751162136,31651.2607503496
33 TANJONG PENJURU SINGAPORE 609029,33,NIL,1.30543401321805,103.737328137213,103.737328137213,609029,TANJONG PENJURU,33 TANJONG PENJURU SINGAPORE 609029,17317.1427063448,31973.9826540127
34 TANJONG PENJURU SINGAPORE 609030,34,NIL,1.30191310995308,103.738798126058,103.738798126058,609030,TANJONG PENJURU,34 TANJONG PENJURU SINGAPORE 609030,17480.7245412134,31584.6525713615
36 TANJONG PENJURU SINGAPORE 609031,36,NIL,1.30105802589237,103.73868824944,103.73868824944,609031,TANJONG PENJURU,36 TANJONG PENJURU SINGAPORE 609031,17468.4927041698,31490.1021097209
44 TANJONG PENJURU SINGAPORE 609032,44,NIL,1.30055258637977,103.736184949673,103.736184949673,609032,TANJONG PENJURU,44 TANJONG PENJURU SINGAPORE 609032,17189.8954671696,31434.2237190846
48 TANJONG PENJURU SINGAPORE 609033,48,NIL,1.30223046778548,103.736807498237,103.736807498237,609033,TANJONG PENJURU,48 TANJONG PENJURU SINGAPORE 609033,17259.1867213063,31619.7528084107
52 TANJONG PENJURU CWT LOGISTICS HUB 3 SINGAPORE 609034,52,CWT LOGISTICS HUB 3,1.30393587454401,103.736641062375,103.736641062375,609034,TANJONG PENJURU,CWT LOGISTICS HUB 3,17240.6711297706,31808.3288848549
54 TANJONG PENJURU SINGAPORE 609035,54,NIL,1.30459146272346,103.737851859389,103.737851859389,609035,TANJONG PENJURU,54 TANJONG PENJURU SINGAPORE 609035,17375.4247078355,31880.81540896
58 TANJONG PENJURU SINGAPORE 609036,58,NIL,1.305361529895,103.737705789733,103.737705789733,609036,TANJONG PENJURU,58 TANJONG PENJURU SINGAPORE 609036,17359.1717086192,31965.9662087932
10 TANJONG PENJURU SINGAPORE 609037,10,NIL,1.30469331731772,103.738855083393,103.738855083393,609037,TANJONG PENJURU,10 TANJONG PENJURU SINGAPORE 609037,17487.0749155376,31892.0737671126
50 TANJONG PENJURU SINGAPORE 609038,50,NIL,1.30290453526451,103.737316630487,103.737316630487,609038,TANJONG PENJURU,50 TANJONG PENJURU SINGAPORE 609038,17315.8514438914,31694.2856600918
38 TANJONG PENJURU CWT LOGISTICS HUB 1 SINGAPORE 609039,38,CWT LOGISTICS HUB 1,1.29990029330258,103.73818338126,103.73818338126,609039,TANJONG PENJURU,CWT LOGISTICS HUB 1,17412.3005253458,31362.0879403744
46A TANJONG PENJURU GLOBAL TRADE LOGISTICS CENTRE SINGAPORE 609040,46A,GLOBAL TRADE LOGISTICS CENTRE,1.30231640923311,103.735820405271,103.735820405271,609040,TANJONG PENJURU,GLOBAL TRADE LOGISTICS CENTRE,17149.3324341504,31629.260012364
19A TANJONG PENJURU THE DOVECHEM HOUSE SINGAPORE 609041,19A,THE DOVECHEM HOUSE,1.30653032226462,103.736991257484,103.736991257484,609041,TANJONG PENJURU,THE DOVECHEM HOUSE,17279.6556874383,32095.2084713113
27A TANJONG PENJURU EUROKARS AFTERSALES CENTRE SINGAPORE 609042,27A,EUROKARS AFTERSALES CENTRE,1.30734888599976,103.734067892005,103.734067892005,609042,TANJONG PENJURU,EUROKARS AFTERSALES CENTRE,16954.3152702358,32185.7338359412
9 SCIENCE CENTRE ROAD SINGAPORE 609078,9,NIL,1.32475086642945,103.744088962253,103.744088962253,609078,SCIENCE CENTRE ROAD,9 SCIENCE CENTRE ROAD SINGAPORE 609078,18069.6376223182,34109.9159011319
10 SCIENCE CENTRE ROAD SINGAPORE 609079,10,NIL,1.33121770976014,103.737178601517,103.737178601517,609079,SCIENCE CENTRE ROAD,10 SCIENCE CENTRE ROAD SINGAPORE 609079,17300.610817926,34825.016055014
12 SCIENCE CENTRE ROAD SINGAPORE 609080,12,NIL,1.33144926837623,103.737249726927,103.737249726927,609080,SCIENCE CENTRE ROAD,12 SCIENCE CENTRE ROAD SINGAPORE 609080,17308.5273485314,34850.6203477997
15 SCIENCE CENTRE ROAD DBS SINGAPORE SCIENCE CENTRE SINGAPORE 609081,15,DBS SINGAPORE SCIENCE CENTRE,1.33267172292507,103.735695635709,103.735695635709,609081,SCIENCE CENTRE ROAD,DBS SINGAPORE SCIENCE CENTRE,17135.5782083292,34985.8000990767
10A SCIENCE CENTRE ROAD SINGAPORE 609082,10A,NIL,1.33084191600887,103.738208823342,103.738208823342,609082,SCIENCE CENTRE ROAD,10A SCIENCE CENTRE ROAD SINGAPORE 609082,17415.262398893,34783.4582041744
4 PENJURU ROAD SINGAPORE 609122,4,NIL,1.32432900918867,103.735807938306,103.735807938306,609122,PENJURU ROAD,4 PENJURU ROAD SINGAPORE 609122,17148.0399307096,34063.3037510309
8 PENJURU ROAD SINGAPORE 609123,8,NIL,1.32356303253075,103.735499042122,103.735499042122,609123,PENJURU ROAD,8 PENJURU ROAD SINGAPORE 609123,17113.6594965803,33978.6072130967
10 PENJURU ROAD SINGAPORE 609124,10,NIL,1.32136080494144,103.734878657843,103.734878657843,609124,PENJURU ROAD,10 PENJURU ROAD SINGAPORE 609124,17044.6071779076,33735.0985599738
14 PENJURU ROAD SINGAPORE 609125,14,NIL,1.31893522319099,103.73465368899,103.73465368899,609125,PENJURU ROAD,14 PENJURU ROAD SINGAPORE 609125,17019.5596949495,33466.8907781169
18 PENJURU ROAD SINGAPORE 609126,18,NIL,1.31771882566641,103.735124110856,103.735124110856,609126,PENJURU ROAD,18 PENJURU ROAD SINGAPORE 609126,17071.9078095732,33332.38551859
24 PENJURU ROAD ALOG COMMODITY HUB SINGAPORE 609128,24,ALOG COMMODITY HUB,1.31459916220311,103.733639148694,103.733639148694,609128,PENJURU ROAD,ALOG COMMODITY HUB,16906.6319664596,32987.4352011681
28A PENJURU CLOSE SINGAPORE 609129,28A,NIL,1.31342189593412,103.732181639898,103.732181639898,609129,PENJURU CLOSE,28A PENJURU CLOSE SINGAPORE 609129,16744.4197275862,32857.2654670924
28B PENJURU CLOSE SINGAPORE 609130,28B,NIL,1.31322077350838,103.733075080499,103.733075080499,609130,PENJURU CLOSE,28B PENJURU CLOSE SINGAPORE 609130,16843.8503870452,32835.0223430954
28C PENJURU CLOSE SINGAPORE 609131,28C,NIL,1.31301479929696,103.734007317497,103.734007317497,609131,PENJURU CLOSE,28C PENJURU CLOSE SINGAPORE 609131,16947.598713845,32812.242598014
28D PENJURU CLOSE SINGAPORE 609132,28D,NIL,1.31257108218344,103.733878888155,103.733878888155,609132,PENJURU CLOSE,28D PENJURU CLOSE SINGAPORE 609132,16933.3037807634,32763.1791347153
28E PENJURU CLOSE SINGAPORE 609133,28E,NIL,1.31277466917943,103.73298156587,103.73298156587,609133,PENJURU CLOSE,28E PENJURU CLOSE SINGAPORE 609133,16833.4411063725,32785.6947613712
28F PENJURU CLOSE SINGAPORE 609134,28F,NIL,1.31305234339822,103.731733936181,103.731733936181,609134,PENJURU CLOSE,28F PENJURU CLOSE SINGAPORE 609134,16694.5928452024,32816.404203631
30 PENJURU ROAD SINGAPORE 609135,30,NIL,1.31371653977082,103.73243191347,103.73243191347,609135,PENJURU ROAD,30 PENJURU ROAD SINGAPORE 609135,16772.2741422812,32889.8445929755
32 PENJURU ROAD SINGAPORE 609136,32,NIL,1.31081130280947,103.733696982114,103.733696982114,609136,PENJURU ROAD,32 PENJURU ROAD SINGAPORE 609136,16913.0515939295,32568.5922907256
55 PENJURU ROAD SINGAPORE 609140,55,NIL,1.30845558967503,103.73455519616,103.73455519616,609140,PENJURU ROAD,55 PENJURU ROAD SINGAPORE 609140,17008.5525913313,32308.1054780316
59 PENJURU ROAD SINGAPORE 609142,59,NIL,1.30217816743926,103.732876447907,103.732876447907,609142,PENJURU ROAD,59 PENJURU ROAD SINGAPORE 609142,16821.6955850227,31613.9867877811
51 PENJURU ROAD SINGAPORE 609143,51,NIL,1.31035289121009,103.735062822128,103.735062822128,609143,PENJURU ROAD,51 PENJURU ROAD SINGAPORE 609143,17065.0549261831,32517.897413373
46 PENJURU ROAD SINGAPORE 609144,46,NIL,1.30130146654777,103.730939406298,103.730939406298,609144,PENJURU ROAD,46 PENJURU ROAD SINGAPORE 609144,16606.1161387824,31517.0542358216
40 PENJURU ROAD SINGAPORE 609145,40,NIL,1.3033821123939,103.731492121851,103.731492121851,609145,PENJURU ROAD,40 PENJURU ROAD SINGAPORE 609145,16667.6377831064,31747.1192126386
42C PENJURU ROAD SINGAPORE 609147,42C,NIL,1.30408290543268,103.730507104176,103.730507104176,609147,PENJURU ROAD,42C PENJURU ROAD SINGAPORE 609147,16558.0172858574,31824.61387733
38M PENJURU ROAD SINGAPORE 609148,38M,NIL,1.30308712826117,103.732056823753,103.732056823753,609148,PENJURU ROAD,38M PENJURU ROAD SINGAPORE 609148,16730.4827436795,31714.4988012258
36 PENJURU ROAD SINGAPORE 609149,36,NIL,1.30624549291718,103.731522216229,103.731522216229,609149,PENJURU ROAD,36 PENJURU ROAD SINGAPORE 609149,16670.9998296658,32063.7374563124
18A PENJURU ROAD SINGAPORE 609150,18A,NIL,1.3170384672338,103.734476955432,103.734476955432,609150,PENJURU ROAD,18A PENJURU ROAD SINGAPORE 609150,16999.8826300753,33257.1577140018
42G PENJURU ROAD PENJURU TERMINAL SINGAPORE 609151,42G,PENJURU TERMINAL,1.30317121310288,103.729800752408,103.729800752408,609151,PENJURU ROAD,PENJURU TERMINAL,16479.4025241602,31723.8066905066
48 PENJURU ROAD SINGAPORE 609152,48,NIL,1.30222735853484,103.731749359477,103.731749359477,609152,PENJURU ROAD,48 PENJURU ROAD SINGAPORE 609152,16696.2608835166,31619.4311202802
14A PENJURU ROAD SINGAPORE 609153,14A,NIL,1.31909721622328,103.735647250985,103.735647250985,609153,PENJURU ROAD,14A PENJURU ROAD SINGAPORE 609153,17130.1342693139,33484.7988004144
14B PENJURU ROAD SINGAPORE 609154,14B,NIL,1.3192047340463,103.735185559623,103.735185559623,609154,PENJURU ROAD,14B PENJURU ROAD SINGAPORE 609154,17078.7529443586,33496.6896080859
14C PENJURU ROAD SINGAPORE 609155,14C,NIL,1.31929409144231,103.734810631636,103.734810631636,609155,PENJURU ROAD,14C PENJURU ROAD SINGAPORE 609155,17037.0274694245,33506.5719534289
16A PENJURU ROAD SINGAPORE 609156,16A,NIL,1.31862804298594,103.735217739495,103.735217739495,609156,PENJURU ROAD,16A PENJURU ROAD SINGAPORE 609156,17082.3317399491,33432.9218372256
16B PENJURU ROAD SINGAPORE 609157,16B,NIL,1.31860085546865,103.735532521366,103.735532521366,609157,PENJURU ROAD,16B PENJURU ROAD SINGAPORE 609157,17117.3638134999,33429.914198488
42H PENJURU ROAD SINGAPORE 609158,42H,NIL,1.30231053079775,103.730275069519,103.730275069519,609158,PENJURU ROAD,42H PENJURU ROAD SINGAPORE 609158,16532.1858923892,31628.6345547494
11 PENJURU ROAD SINGAPORE 609159,11,NIL,1.31965061784263,103.73680606471,103.73680606471,609159,PENJURU ROAD,11 PENJURU ROAD SINGAPORE 609159,17259.1014261283,33545.9861651268
42E PENJURU ROAD MENCAST CENTRAL SINGAPORE 609161,42E,MENCAST CENTRAL,1.30543437380728,103.729802530813,103.729802530813,609161,PENJURU ROAD,MENCAST CENTRAL,16479.6107376199,31974.0557511933
42D PENJURU ROAD HSL WATERFRONT @ PENJURU SINGAPORE 609162,42D,HSL WATERFRONT @ PENJURU,1.30594149747899,103.730184932669,103.730184932669,609162,PENJURU ROAD,HSL WATERFRONT @ PENJURU,16522.1709127408,32030.1292189844
42B PENJURU ROAD SINGAPORE 609163,42B,NIL,1.30482605132098,103.732213976385,103.732213976385,609163,PENJURU ROAD,42B PENJURU ROAD SINGAPORE 609163,16747.9801505106,31906.7795578055
42A PENJURU ROAD SINGAPORE 609164,42A,NIL,1.30553298258383,103.732051233238,103.732051233238,609164,PENJURU ROAD,42A PENJURU ROAD SINGAPORE 609164,16729.8714514803,31984.9492288008
4A PENJURU ROAD TEMPORARY SITE OFFICE SINGAPORE 609165,4A,TEMPORARY SITE OFFICE,1.32393727349407,103.734658094475,103.734658094475,609165,PENJURU ROAD,TEMPORARY SITE OFFICE,17020.0719503062,34019.9926272351
2 PENJURU LANE SINGAPORE 609183,2,NIL,1.30702968743802,103.739506319769,103.739506319769,609183,PENJURU LANE,2 PENJURU LANE SINGAPORE 609183,17559.5612883028,32150.41518512
3 PENJURU LANE SINGAPORE 609184,3,NIL,1.30797053427957,103.736836505776,103.736836505776,609184,PENJURU LANE,3 PENJURU LANE SINGAPORE 609184,17262.4393491047,32254.4605921805
4 PENJURU LANE SINGAPORE 609185,4,NIL,1.30758776275767,103.739047807185,103.739047807185,609185,PENJURU LANE,4 PENJURU LANE SINGAPORE 609185,17508.5353397448,32212.1262767557
5 PENJURU LANE SINGAPORE 609186,5,NIL,1.30742823060162,103.736285740215,103.736285740215,609186,PENJURU LANE,5 PENJURU LANE SINGAPORE 609186,17201.1418694677,32194.4977187496
6 PENJURU LANE SINGAPORE 609187,6,NIL,1.30802673418203,103.738646864172,103.738646864172,609187,PENJURU LANE,6 PENJURU LANE SINGAPORE 609187,17463.9158823518,32260.6672238503
7 PENJURU LANE SINGAPORE 609188,7,NIL,1.30772606989869,103.735848205688,103.735848205688,609188,PENJURU LANE,7 PENJURU LANE SINGAPORE 609188,17152.4495521858,32227.4331896044
8 PENJURU LANE SINGAPORE 609189,8,NIL,1.3086097525477,103.738142726969,103.738142726969,609189,PENJURU LANE,8 PENJURU LANE SINGAPORE 609189,17407.8124795249,32325.1366065722
10 PENJURU LANE SINGAPORE 609190,10,NIL,1.30894866451919,103.73787316515,103.73787316515,609190,PENJURU LANE,10 PENJURU LANE SINGAPORE 609190,17377.8141532745,32362.6129408795
11 PENJURU LANE SINGAPORE 609191,11,NIL,1.3080026843077,103.735149854079,103.735149854079,609191,PENJURU LANE,11 PENJURU LANE SINGAPORE 609191,17074.7306017345,32258.0228614528
12 PENJURU LANE SINGAPORE 609192,12,NIL,1.30924736053247,103.737114520132,103.737114520132,609192,PENJURU LANE,12 PENJURU LANE SINGAPORE 609192,17293.3852145849,32395.6444823146
20 PENJURU LANE ACW BUILDING SINGAPORE 609193,20,ACW BUILDING,1.30986749611432,103.736082881724,103.736082881724,609193,PENJURU LANE,ACW BUILDING,17178.5760282269,32464.2204131931
25 PENJURU LANE SINGAPORE 609194,25,NIL,1.30868830228701,103.732978294344,103.732978294344,609194,PENJURU LANE,25 PENJURU LANE SINGAPORE 609194,16833.0589125417,32333.8446449526
27 PENJURU LANE SINGAPORE 609195,27,NIL,1.30828994881836,103.731203655584,103.731203655584,609195,PENJURU LANE,27 PENJURU LANE SINGAPORE 609195,16635.5561115369,32289.804668108
29 PENJURU LANE SINGAPORE 609196,29,NIL,1.30953059778221,103.730267764278,103.730267764278,609196,PENJURU LANE,29 PENJURU LANE SINGAPORE 609196,16531.4056140371,32426.9937292151
30 PENJURU LANE SINGAPORE 609197,30,NIL,1.30989343773031,103.733249792073,103.733249792073,609197,PENJURU LANE,30 PENJURU LANE SINGAPORE 609197,16863.2794360612,32467.101319883
31 PENJURU LANE SINGAPORE 609198,31,NIL,1.30906582673251,103.729344233302,103.729344233302,609198,PENJURU LANE,31 PENJURU LANE SINGAPORE 609198,16428.6229872573,32375.6058966424
32 PENJURU LANE SINGAPORE 609199,32,NIL,1.3103845856926,103.732884080999,103.732884080999,609199,PENJURU LANE,32 PENJURU LANE SINGAPORE 609199,16822.5813472988,32521.4116473552
33 PENJURU LANE SINGAPORE 609200,33,NIL,1.30805617545593,103.72990123194,103.72990123194,609200,PENJURU LANE,33 PENJURU LANE SINGAPORE 609200,16490.6072171768,32263.9611069094
34 PENJURU LANE PENJURU LOGISTICS HUB SINGAPORE 609201,34,PENJURU LOGISTICS HUB,1.31056030959808,103.7323479271,103.7323479271,609201,PENJURU LANE,PENJURU LOGISTICS HUB,16762.9131629569,32540.8447220121
35 PENJURU LANE SINGAPORE 609202,35,NIL,1.30735998134133,103.730151165809,103.730151165809,609202,PENJURU LANE,35 PENJURU LANE SINGAPORE 609202,16518.4194080355,32186.9782738239
36 PENJURU LANE SINGAPORE 609203,36,NIL,1.31027453488502,103.731397695652,103.731397695652,609203,PENJURU LANE,36 PENJURU LANE SINGAPORE 609203,16657.1599151837,32509.2494569402
38 PENJURU LANE SINGAPORE 609204,38,NIL,1.31146328383011,103.730944603541,103.730944603541,609204,PENJURU LANE,38 PENJURU LANE SINGAPORE 609204,16606.7403251426,32640.6974685043
39 PENJURU LANE SINGAPORE 609205,39,NIL,1.30700245073943,103.728846997756,103.728846997756,609205,PENJURU LANE,39 PENJURU LANE SINGAPORE 609205,16373.2757391995,32147.4503150433
46 PENJURU LANE SINGAPORE 609206,46,NIL,1.31067806448481,103.728516471001,103.728516471001,609206,PENJURU LANE,46 PENJURU LANE SINGAPORE 609206,16336.5080994628,32553.8829889465
58 PENJURU LANE SINGAPORE 609207,58,NIL,1.30802142021845,103.728773019259,103.728773019259,609207,PENJURU LANE,58 PENJURU LANE SINGAPORE 609207,16365.0472970214,32260.1232476477
62 PENJURU LANE SINGAPORE 609208,62,NIL,1.30736328290807,103.728622125266,103.728622125266,609208,PENJURU LANE,62 PENJURU LANE SINGAPORE 609208,16348.2511388371,32187.3503884152
64 PENJURU LANE SINGAPORE 609209,64,NIL,1.30681952786052,103.728441665171,103.728441665171,609209,PENJURU LANE,64 PENJURU LANE SINGAPORE 609209,16328.1650626985,32127.2254904676
52 PENJURU LANE SINGAPORE 609213,52,NIL,1.30850814867298,103.728493159047,103.728493159047,609213,PENJURU LANE,52 PENJURU LANE SINGAPORE 609213,16333.9036605358,32313.9445655737
60 PENJURU LANE SINGAPORE 609214,60,NIL,1.30759323472852,103.728689355602,103.728689355602,609214,PENJURU LANE,60 PENJURU LANE SINGAPORE 609214,16355.7343227193,32212.7770081367
37 PENJURU LANE SINGAPORE 609215,37,NIL,1.30681628738228,103.729245191653,103.729245191653,609215,PENJURU LANE,37 PENJURU LANE SINGAPORE 609215,16417.590246656,32126.8634551149
40 PENJURU LANE SINGAPORE 609216,40,NIL,1.31048623182928,103.729842236239,103.729842236239,609216,PENJURU LANE,40 PENJURU LANE SINGAPORE 609216,16484.0526247667,32532.6649507526
1 PENJURU LANE SINGAPORE 609217,1,NIL,1.30657544372323,103.738217217256,103.738217217256,609217,PENJURU LANE,1 PENJURU LANE SINGAPORE 609217,17416.0940420134,32100.1925791185
28 PENJURU LANE SINGAPORE 609218,28,NIL,1.30944326220946,103.73472124188,103.73472124188,609218,PENJURU LANE,28 PENJURU LANE SINGAPORE 609218,17027.0362501433,32417.3166613374
1 PANDAN ROAD SINGAPORE 609253,1,NIL,1.30557082448531,103.75157046098,103.75157046098,609253,PANDAN ROAD,1 PANDAN ROAD SINGAPORE 609253,18902.1846054643,31989.0545359682
2 PANDAN ROAD SINGAPORE 609254,2,NIL,1.30427725826538,103.751030553107,103.751030553107,609254,PANDAN ROAD,2 PANDAN ROAD SINGAPORE 609254,18842.0930931028,31846.0204547942
3 PANDAN ROAD SINGAPORE 609255,3,NIL,1.30441807547294,103.751961288563,103.751961288563,609255,PANDAN ROAD,3 PANDAN ROAD SINGAPORE 609255,18945.6760356398,31861.5879447162
7 PANDAN ROAD SINGAPORE 609256,7,NIL,1.30297045890217,103.752483724029,103.752483724029,609256,PANDAN ROAD,7 PANDAN ROAD SINGAPORE 609256,19003.8132350976,31701.5159247033
9 PANDAN ROAD SINGAPORE 609257,9,NIL,1.30253215060619,103.753093778687,103.753093778687,609257,PANDAN ROAD,9 PANDAN ROAD SINGAPORE 609257,19071.7052911501,31653.0478326436
10 PANDAN ROAD SINGAPORE 609258,10,NIL,1.30276036368755,103.751719474552,103.751719474552,609258,PANDAN ROAD,10 PANDAN ROAD SINGAPORE 609258,18918.7583847726,31678.2873962261
11 PANDAN ROAD SINGAPORE 609259,11,NIL,1.30146496581902,103.753059114051,103.753059114051,609259,PANDAN ROAD,11 PANDAN ROAD SINGAPORE 609259,19067.8436715202,31535.0440422129
12 PANDAN ROAD SINGAPORE 609260,12,NIL,1.30221837161932,103.751965311179,103.751965311179,609260,PANDAN ROAD,12 PANDAN ROAD SINGAPORE 609260,18946.1158597115,31618.3557593543
13 PANDAN ROAD SINGAPORE 609261,13,NIL,1.30124904473141,103.753662923873,103.753662923873,609261,PANDAN ROAD,13 PANDAN ROAD SINGAPORE 609261,19135.0415616343,31511.1664470937
14 PANDAN ROAD SINGAPORE 609262,14,NIL,1.30166152810775,103.752277527677,103.752277527677,609262,PANDAN ROAD,14 PANDAN ROAD SINGAPORE 609262,18980.8607809003,31556.7816908825
15 PANDAN ROAD SINGAPORE 609263,15,NIL,1.30000763301138,103.753874046447,103.753874046447,609263,PANDAN ROAD,15 PANDAN ROAD SINGAPORE 609263,19158.5333004976,31373.8966612741
15B PANDAN ROAD SINGAPORE 609264,15B,NIL,1.29925292029232,103.754635312297,103.754635312297,609264,PANDAN ROAD,15B PANDAN ROAD SINGAPORE 609264,19243.2528420985,31290.4416857641
15C PANDAN ROAD SINGAPORE 609265,15C,NIL,1.29878591569728,103.75444801755,103.75444801755,609265,PANDAN ROAD,15C PANDAN ROAD SINGAPORE 609265,19222.4069790328,31238.8033250924
15D PANDAN ROAD SINGAPORE 609266,15D,NIL,1.29798581977881,103.755173650334,103.755173650334,609266,PANDAN ROAD,15D PANDAN ROAD SINGAPORE 609266,19303.160779139,31150.3302508295
16 PANDAN ROAD SINGAPORE 609267,16,NIL,1.30104858364853,103.752286650939,103.752286650939,609267,PANDAN ROAD,16 PANDAN ROAD SINGAPORE 609267,18981.8739411198,31489.0053493306
17A PANDAN ROAD SINGAPORE 609268,17A,NIL,1.29917865229319,103.752824449104,103.752824449104,609268,PANDAN ROAD,17A PANDAN ROAD SINGAPORE 609268,19041.719495845,31282.2358537707
17B PANDAN ROAD SINGAPORE 609269,17B,NIL,1.29789105567499,103.75331157488,103.75331157488,609269,PANDAN ROAD,17B PANDAN ROAD SINGAPORE 609269,19095.9277899442,31139.8581943586
18 PANDAN ROAD SINGAPORE 609270,18,NIL,1.30026744708366,103.752923837783,103.752923837783,609270,PANDAN ROAD,18 PANDAN ROAD SINGAPORE 609270,19052.784411313,31402.6289383005
19 PANDAN ROAD SINGAPORE 609271,19,NIL,1.29700353789993,103.752178573492,103.752178573492,609271,PANDAN ROAD,19 PANDAN ROAD SINGAPORE 609271,18969.8315211181,31041.7249720227
20 PANDAN ROAD SINGAPORE 609272,20,NIL,1.30003399104219,103.752334117798,103.752334117798,609272,PANDAN ROAD,20 PANDAN ROAD SINGAPORE 609272,18987.15298016,31376.816643931
21 PANDAN ROAD SEMBCORP MARINE PANDAN YARD SINGAPORE 609273,21,SEMBCORP MARINE PANDAN YARD,1.29819016292792,103.749781012741,103.749781012741,609273,PANDAN ROAD,SEMBCORP MARINE PANDAN YARD,18703.0082573714,31172.9446721841
22 PANDAN ROAD SINGAPORE 609274,22,NIL,1.29975328071778,103.751838725025,103.751838725025,609274,PANDAN ROAD,22 PANDAN ROAD SINGAPORE 609274,18932.019151655,31345.7788848523
24 PANDAN ROAD SINGAPORE 609275,24,NIL,1.29962154927674,103.751149214145,103.751149214145,609275,PANDAN ROAD,24 PANDAN ROAD SINGAPORE 609275,18855.2822156679,31331.2151720747
28 PANDAN ROAD SINGAPORE 609276,28,NIL,1.30078259038331,103.751073924328,103.751073924328,609276,PANDAN ROAD,28 PANDAN ROAD SINGAPORE 609276,18846.9073067168,31459.5975211747
30 PANDAN ROAD SINGAPORE 609277,30,NIL,1.30166380429945,103.750738180871,103.750738180871,609277,PANDAN ROAD,30 PANDAN ROAD SINGAPORE 609277,18809.5452340478,31557.0389384758
31 PANDAN ROAD SINGAPORE 609278,31,NIL,1.29907941675674,103.744224527428,103.744224527428,609278,PANDAN ROAD,31 PANDAN ROAD SINGAPORE 609278,18084.623603737,31271.2950067688
32 PANDAN ROAD MING VILLAGE SINGAPORE 609279,32,MING VILLAGE,1.3020908822912,103.75024850124,103.75024850124,609279,PANDAN ROAD,MING VILLAGE,18755.0498178555,31604.2648627516
37 PANDAN ROAD SINGAPORE 609280,37,NIL,1.30023771845432,103.745913844119,103.745913844119,609280,PANDAN ROAD,37 PANDAN ROAD SINGAPORE 609280,18272.6341229044,31399.3676235918
39 PANDAN ROAD SINGAPORE 609281,39,NIL,1.29987094030028,103.746396901935,103.746396901935,609281,PANDAN ROAD,39 PANDAN ROAD SINGAPORE 609281,18326.3927861042,31358.809282111
40 PANDAN ROAD SINGAPORE 609282,40,NIL,1.30049774114054,103.749774450413,103.749774450413,609282,PANDAN ROAD,40 PANDAN ROAD SINGAPORE 609282,18702.2863659598,31428.1050764453
41 PANDAN ROAD SINGAPORE 609283,41,NIL,1.30026543030855,103.746480689559,103.746480689559,609283,PANDAN ROAD,41 PANDAN ROAD SINGAPORE 609283,18335.7191085871,31402.429684164
43 PANDAN ROAD SINGAPORE 609285,43,NIL,1.30061348762079,103.746684174681,103.746684174681,609285,PANDAN ROAD,43 PANDAN ROAD SINGAPORE 609285,18358.3665220439,31440.9153346568
45 PANDAN ROAD SINGAPORE 609286,45,NIL,1.30121989760457,103.746711863515,103.746711863515,609286,PANDAN ROAD,45 PANDAN ROAD SINGAPORE 609286,18361.4503452973,31507.9689978287
45A PANDAN ROAD SINGAPORE 609287,45A,NIL,1.30148098229481,103.746635832102,103.746635832102,609287,PANDAN ROAD,45A PANDAN ROAD SINGAPORE 609287,18352.9897174165,31536.8387217708
47 PANDAN ROAD SINGAPORE 609288,47,NIL,1.30191101820171,103.746247987088,103.746247987088,609288,PANDAN ROAD,47 PANDAN ROAD SINGAPORE 609288,18309.8276634403,31584.3914191984
48 PANDAN ROAD POH TIONG CHOON LOGISTICS HUB SINGAPORE 609289,48,POH TIONG CHOON LOGISTICS HUB,1.29964450869977,103.748373315866,103.748373315866,609289,PANDAN ROAD,POH TIONG CHOON LOGISTICS HUB,18546.3493460063,31333.7641297877
49 PANDAN ROAD PANDAN LOGISTICS HUB SINGAPORE 609290,49,PANDAN LOGISTICS HUB,1.30248561954035,103.746573104021,103.746573104021,609290,PANDAN ROAD,PANDAN LOGISTICS HUB,18346.0124628823,31647.9267016742
52 PANDAN ROAD SINGAPORE 609291,52,NIL,1.29956800062795,103.747358665475,103.747358665475,609291,PANDAN ROAD,52 PANDAN ROAD SINGAPORE 609291,18433.4274289692,31325.3080723714
54 PANDAN ROAD SINGAPORE 609292,54,NIL,1.29990962074278,103.747441093543,103.747441093543,609292,PANDAN ROAD,54 PANDAN ROAD SINGAPORE 609292,18442.6022299258,31363.0823949799
56 PANDAN ROAD SINGAPORE 609293,56,NIL,1.30050274147782,103.747434432776,103.747434432776,609293,PANDAN ROAD,56 PANDAN ROAD SINGAPORE 609293,18441.8631765675,31428.6667291503
60 PANDAN ROAD SINGAPORE 609294,60,NIL,1.30256759114603,103.747915710185,103.747915710185,609294,PANDAN ROAD,60 PANDAN ROAD SINGAPORE 609294,18495.4328162093,31656.9856065214
27 PANDAN ROAD SINGAPORE 609295,27,NIL,1.29813378826579,103.74599861444,103.74599861444,609295,PANDAN ROAD,27 PANDAN ROAD SINGAPORE 609295,18282.0602691974,31166.725267427
17 PANDAN ROAD SINGAPORE 609296,17,NIL,1.29753073989002,103.754410427638,103.754410427638,609296,PANDAN ROAD,17 PANDAN ROAD SINGAPORE 609296,19218.2192218769,31100.0124520194
17C PANDAN ROAD SINGAPORE 609297,17C,NIL,1.29860712052615,103.753372402897,103.753372402897,609297,PANDAN ROAD,17C PANDAN ROAD SINGAPORE 609297,19102.699918353,31219.0368183255
17D PANDAN ROAD SINGAPORE 609298,17D,NIL,1.29959819132949,103.753401981784,103.753401981784,609298,PANDAN ROAD,17D PANDAN ROAD SINGAPORE 609298,19105.9952542763,31328.6243234724
5 PANDAN ROAD WASCO CENTRE SINGAPORE 609299,5,WASCO CENTRE,1.30405005473399,103.752586890588,103.752586890588,609299,PANDAN ROAD,WASCO CENTRE,19015.2985728588,31820.8918233719
150 PANDAN GARDENS AYER RAJAH COMMUNITY CLUB SINGAPORE 609335,150,AYER RAJAH COMMUNITY CLUB,1.32078197491347,103.747620346045,103.747620346045,609335,PANDAN GARDENS,AYER RAJAH COMMUNITY CLUB,18462.6304034116,33671.0418812092
200 PANDAN GARDENS THE SPORTS STAGE SINGAPORE 609336,200,THE SPORTS STAGE,1.32085864122761,103.746994507604,103.746994507604,609336,PANDAN GARDENS,THE SPORTS STAGE,18392.9809882231,33679.5216687229
201 PANDAN GARDENS CALVARY PANDAN BIBLE-PRESBYTERIAN CHURCH SINGAPORE 609337,201,CALVARY PANDAN BIBLE-PRESBYTERIAN CHURCH,1.32103078825939,103.746110493966,103.746110493966,609337,PANDAN GARDENS,CALVARY PANDAN BIBLE-PRESBYTERIAN CHURCH,18294.5995684201,33698.5602607485
202 PANDAN GARDENS GALILEE BIBLE-PRESBYTERIAN CHURCH SINGAPORE 609338,202,GALILEE BIBLE-PRESBYTERIAN CHURCH,1.32174600291993,103.746251008328,103.746251008328,609338,PANDAN GARDENS,GALILEE BIBLE-PRESBYTERIAN CHURCH,18310.2402160577,33777.6445696782
209 PANDAN GARDENS SINGAPORE 609339,209,NIL,1.3219263283818,103.748649495969,103.748649495969,609339,PANDAN GARDENS,209 PANDAN GARDENS SINGAPORE 609339,18577.1690545315,33797.5748262368
213 PANDAN GARDENS SINGAPORE 609340,213,NIL,1.32188302441649,103.749595764583,103.749595764583,609340,PANDAN GARDENS,213 PANDAN GARDENS SINGAPORE 609340,18682.4793000957,33792.7829201259
300 PANDAN GARDENS SHENG HONG TEMPLE SINGAPORE 609341,300,SHENG HONG TEMPLE,1.32109324552201,103.750701448215,103.750701448215,609341,PANDAN GARDENS,SHENG HONG TEMPLE,18805.5281277848,33705.4490117002
150A PANDAN GARDENS SINGAPORE 609342,150A,NIL,1.3212933695135,103.747648912115,103.747648912115,609342,PANDAN GARDENS,150A PANDAN GARDENS SINGAPORE 609342,18465.8114776965,33727.5892245527
2 PANDAN AVENUE SINGAPORE 609382,2,NIL,1.3034346326923,103.751265322376,103.751265322376,609382,PANDAN AVENUE,2 PANDAN AVENUE SINGAPORE 609382,18868.2177530648,31752.8463086411
4 PANDAN AVENUE CWT PANDAN LOGISTICS CENTRE SINGAPORE 609383,4,CWT PANDAN LOGISTICS CENTRE,1.30374371750128,103.750132194748,103.750132194748,609383,PANDAN AVENUE,CWT PANDAN LOGISTICS CENTRE,18742.1119800918,31787.027488634
8 PANDAN AVENUE SINGAPORE 609384,8,NIL,1.30324280420411,103.749517245516,103.749517245516,609384,PANDAN AVENUE,8 PANDAN AVENUE SINGAPORE 609384,18673.671831389,31731.6412856802
10 PANDAN AVENUE SINGAPORE 609385,10,NIL,1.30305782725196,103.748885012832,103.748885012832,609385,PANDAN AVENUE,10 PANDAN AVENUE SINGAPORE 609385,18603.3093327731,31711.1898144428
19 PANDAN AVENUE SINGAPORE 609386,19,NIL,1.30137034477208,103.749337706491,103.749337706491,609386,PANDAN AVENUE,19 PANDAN AVENUE SINGAPORE 609386,18653.6838537855,31524.5948078018
20 PANDAN AVENUE SINGAPORE 609387,20,NIL,1.30226264778489,103.747909013909,103.747909013909,609387,PANDAN AVENUE,20 PANDAN AVENUE SINGAPORE 609387,18494.6864379989,31623.2665278371
21 PANDAN AVENUE SINGAPORE 609388,21,NIL,1.30089817557389,103.74842708129,103.74842708129,609388,PANDAN AVENUE,21 PANDAN AVENUE SINGAPORE 609388,18552.3376244409,31472.3881051987
23 PANDAN AVENUE ONYX HOUSE SINGAPORE 609389,23,ONYX HOUSE,1.30115166227632,103.747569739387,103.747569739387,609389,PANDAN AVENUE,ONYX HOUSE,18456.9240409769,31500.4206167106
9 JURONG TOWN HALL ROAD JURONG TOWN HALL SINGAPORE 609431,9,JURONG TOWN HALL,1.32877305068748,103.741869524172,103.741869524172,609431,JURONG TOWN HALL ROAD,JURONG TOWN HALL,17822.6526307287,34554.6779821962
11 JURONG TOWN HALL ROAD SINGAPORE 609432,11,NIL,1.32812111933354,103.741480980852,103.741480980852,609432,JURONG TOWN HALL ROAD,11 JURONG TOWN HALL ROAD SINGAPORE 609432,17779.4090045355,34482.5922667291
21 JURONG TOWN HALL ROAD OMNI-THEATRE SINGAPORE 609433,21,OMNI-THEATRE,1.33452656511402,103.735469565154,103.735469565154,609433,JURONG TOWN HALL ROAD,OMNI-THEATRE,17110.42702726,35190.900345603
8 JURONG TOWN HALL ROAD JTC AUDITORIUM SINGAPORE 609434,8,JTC AUDITORIUM,1.33114235850558,103.742036114336,103.742036114336,609434,JURONG TOWN HALL ROAD,JTC AUDITORIUM,17841.2021224061,34816.6635443717
7 JURONG TOWN HALL ROAD SINGAPORE 609435,7,NIL,1.32794872566462,103.744391993621,103.744391993621,609435,JURONG TOWN HALL ROAD,7 JURONG TOWN HALL ROAD SINGAPORE 609435,18103.3747104537,34463.5179887507
212 JURONG EAST STREET 32 THONG WHYE TEMPLE SINGAPORE 609474,212,THONG WHYE TEMPLE,1.34578093032274,103.734495114865,103.734495114865,609474,JURONG EAST STREET 32,THONG WHYE TEMPLE,17002.0309910234,36435.356661357
320 JURONG EAST STREET 32 JURONG PRIMARY SCHOOL SINGAPORE 609476,320,JURONG PRIMARY SCHOOL,1.34868451151937,103.732974782772,103.732974782772,609476,JURONG EAST STREET 32,JURONG PRIMARY SCHOOL,16832.8477328196,36756.4272346329
1 JURONG EAST STREET 32 THE MAYFAIR SINGAPORE 609477,1,THE MAYFAIR,1.34504179052521,103.733420522484,103.733420522484,609477,JURONG EAST STREET 32,THE MAYFAIR,16882.4371628715,36353.6311076339
3 JURONG EAST STREET 32 THE MAYFAIR SINGAPORE 609478,3,THE MAYFAIR,1.34559872380256,103.733113689952,103.733113689952,609478,JURONG EAST STREET 32,THE MAYFAIR,16848.2925466029,36415.2154369522
5 JURONG EAST STREET 32 THE MAYFAIR SINGAPORE 609479,5,THE MAYFAIR,1.34597516137613,103.733761140497,103.733761140497,609479,JURONG EAST STREET 32,THE MAYFAIR,16920.3484783722,36456.8370927013
7 JURONG EAST STREET 32 THE MAYFAIR SINGAPORE 609480,7,THE MAYFAIR,1.34611548152626,103.733587037214,103.733587037214,609480,JURONG EAST STREET 32,THE MAYFAIR,16900.9733063672,36472.3537929468
9 JURONG EAST STREET 32 THE MAYFAIR SINGAPORE 609481,9,THE MAYFAIR,1.34552872941249,103.733640541596,103.733640541596,609481,JURONG EAST STREET 32,THE MAYFAIR,16906.9251118815,36407.4734012727
21 JURONG EAST STREET 31 SINGAPORE 609517,21,NIL,1.34649072704441,103.729053872207,103.729053872207,609517,JURONG EAST STREET 31,21 JURONG EAST STREET 31 SINGAPORE 609517,16396.4829892833,36513.8676946741
158 JURONG EAST STREET 24 PRO-TEACH SCHOOLCARE (YUHUA) SINGAPORE 609558,158,PRO-TEACH SCHOOLCARE (YUHUA),1.34291981622016,103.740861148879,103.740861148879,609558,JURONG EAST STREET 24,PRO-TEACH SCHOOLCARE (YUHUA),17710.4895017752,36118.9610992391
160 JURONG EAST STREET 24 BUKIT TIMAH SEU TECK SEAN TONG SINGAPORE 609559,160,BUKIT TIMAH SEU TECK SEAN TONG,1.34170142333921,103.74109783929,103.74109783929,609559,JURONG EAST STREET 24,BUKIT TIMAH SEU TECK SEAN TONG,17736.8255230673,35984.2362757586
571 JURONG EAST STREET 24 SINGAPORE 609560,571,NIL,1.3434187027019,103.74389849209,103.74389849209,609560,JURONG EAST STREET 24,571 JURONG EAST STREET 24 SINGAPORE 609560,18048.5152006857,36174.1129069254
561 JURONG EAST STREET 24 CREST SECONDARY SCHOOL SINGAPORE 609561,561,CREST SECONDARY SCHOOL,1.34355502294458,103.742543051925,103.742543051925,609561,JURONG EAST STREET 24,CREST SECONDARY SCHOOL,17897.6698609525,36189.1920834649
2 JURONG EAST STREET 21 DBS IMM EBC SINGAPORE 609601,2,DBS IMM EBC,1.33491758755437,103.746877132868,103.746877132868,609601,JURONG EAST STREET 21,DBS IMM EBC,18379.9726865934,35234.0900947843
100 JURONG EAST STREET 21 ST ELECTRONICS JURONG EAST BUILDING SINGAPORE 609602,100,ST ELECTRONICS JURONG EAST BUILDING,1.33651456396491,103.744135775847,103.744135775847,609602,JURONG EAST STREET 21,ST ELECTRONICS JURONG EAST BUILDING,18074.8945354624,35410.6866783649
271 JURONG EAST STREET 21 AL - MUKMININ MOSQUE KINDERGARTEN SINGAPORE 609603,271,AL - MUKMININ MOSQUE KINDERGARTEN,1.33921643707099,103.741421891919,103.741421891919,609603,JURONG EAST STREET 21,AL - MUKMININ MOSQUE KINDERGARTEN,17772.8788081203,35709.4574962445
450 JURONG EAST STREET 21 SINGAPORE 609604,450,NIL,1.34015604938405,103.739894581408,103.739894581408,609604,JURONG EAST STREET 21,450 JURONG EAST STREET 21 SINGAPORE 609604,17602.9092482356,35813.3615820892
281 JURONG EAST STREET 21 SINGAPORE 609605,281,NIL,1.34127218750998,103.738410415159,103.738410415159,609605,JURONG EAST STREET 21,281 JURONG EAST STREET 21 SINGAPORE 609605,17437.7420671843,35936.7849458084
1 JURONG EAST STREET 21 DBS NG TENG FONG HOSPITAL SINGAPORE 609606,1,DBS NG TENG FONG HOSPITAL,1.33553382554428,103.743865452312,103.743865452312,609606,JURONG EAST STREET 21,DBS NG TENG FONG HOSPITAL,18044.8064041045,35302.2426068373
80 JURONG EAST STREET 21 CET CAMPUS WEST SINGAPORE 609607,80,CET CAMPUS WEST,1.33590457626914,103.744636416564,103.744636416564,609607,JURONG EAST STREET 21,CET CAMPUS WEST,18130.6081774635,35343.2352636177
65 JURONG EAST STREET 13 AMP-MERCU STUDENT CARE CENTRE @ FUHUA PRIMARY SCHOOL SINGAPORE 609647,65,AMP-MERCU STUDENT CARE CENTRE @ FUHUA PRIMARY SCHOOL,1.33659726465816,103.736089481883,103.736089481883,609647,JURONG EAST STREET 13,AMP-MERCU STUDENT CARE CENTRE @ FUHUA PRIMARY SCHOOL,17179.4264072292,35419.8652930856
90 JURONG EAST STREET 13 SINGAPORE 609648,90,NIL,1.335574050613,103.738118513305,103.738118513305,609648,JURONG EAST STREET 13,90 JURONG EAST STREET 13 SINGAPORE 609648,17405.2320431089,35306.7145198248
71 JURONG EAST STREET 13 WESTMERE SINGAPORE 609650,71,WESTMERE,1.33758505557106,103.736682684179,103.736682684179,609650,JURONG EAST STREET 13,WESTMERE,17245.4479321567,35529.0877058133
73 JURONG EAST STREET 13 WESTMERE SINGAPORE 609651,73,WESTMERE,1.33731328161372,103.736641329027,103.736641329027,609651,JURONG EAST STREET 13,WESTMERE,17240.8443534411,35499.0364711285
75 JURONG EAST STREET 13 WESTMERE SINGAPORE 609652,75,WESTMERE,1.33727760328032,103.736309492771,103.736309492771,609652,JURONG EAST STREET 13,WESTMERE,17203.9142957041,35495.0927949939
77 JURONG EAST STREET 13 WESTMERE SINGAPORE 609653,77,WESTMERE,1.33749860638598,103.736026773011,103.736026773011,609653,JURONG EAST STREET 13,WESTMERE,17172.4515135977,35519.5314677265
80 JURONG EAST STREET 13 SINGAPORE 609654,80,NIL,1.33582028031998,103.73936682407,103.73936682407,609654,JURONG EAST STREET 13,80 JURONG EAST STREET 13 SINGAPORE 609654,17544.1570941536,35333.9360309802
10 JURONG EAST STREET 12 CITIBANK JURONG EAST SMRT STATION SINGAPORE 609690,10,CITIBANK JURONG EAST SMRT STATION,1.33329506563598,103.742153884191,103.742153884191,609690,JURONG EAST STREET 12,CITIBANK JURONG EAST SMRT STATION,17854.317512162,35054.6986866612
2 JURONG EAST CENTRAL 1 DBS JCUBE SINGAPORE 609731,2,DBS JCUBE,1.33326351781133,103.740317485186,103.740317485186,609731,JURONG EAST CENTRAL 1,DBS JCUBE,17649.945089573,35051.217929069
21 JURONG EAST CENTRAL 1 JURONG REGIONAL LIBRARY SINGAPORE 609732,21,JURONG REGIONAL LIBRARY,1.33288031932833,103.739492767422,103.739492767422,609732,JURONG EAST CENTRAL 1,JURONG REGIONAL LIBRARY,17558.1608795002,35008.8492292129
1A VENTURE DRIVE TEMPORARY BUS INTERCHANGE SINGAPORE 609770,1A,TEMPORARY BUS INTERCHANGE,1.32970654941057,103.743874211814,103.743874211814,609770,VENTURE DRIVE,TEMPORARY BUS INTERCHANGE,18045.7578479052,34657.8914434556
31 JURONG EAST AVENUE 1 TAS TELEPHONE EXCHANGE SINGAPORE 609773,31,TAS TELEPHONE EXCHANGE,1.34315806654632,103.735362113402,103.735362113402,609773,JURONG EAST AVENUE 1,TAS TELEPHONE EXCHANGE,17098.5068899123,36145.3294770066
35 JURONG EAST AVENUE 1 PARC OASIS SINGAPORE 609774,35,PARC OASIS,1.34389430664838,103.73402552332,103.73402552332,609774,JURONG EAST AVENUE 1,PARC OASIS,16949.7620574459,36226.7452681847
37 JURONG EAST AVENUE 1 PARC OASIS SINGAPORE 609775,37,PARC OASIS,1.34353903618065,103.734651750221,103.734651750221,609775,JURONG EAST AVENUE 1,PARC OASIS,17019.4527884312,36187.4583938941
39 JURONG EAST AVENUE 1 PARC OASIS SINGAPORE 609776,39,PARC OASIS,1.34314434820776,103.734088861939,103.734088861939,609776,JURONG EAST AVENUE 1,PARC OASIS,16956.8075965513,36143.8182873819
41 JURONG EAST AVENUE 1 PARC OASIS SINGAPORE 609777,41,PARC OASIS,1.3426664157201,103.734546775952,103.734546775952,609777,JURONG EAST AVENUE 1,PARC OASIS,17007.7663804544,36090.9688138776
43 JURONG EAST AVENUE 1 PARC OASIS SINGAPORE 609778,43,PARC OASIS,1.34230869371127,103.735136656006,103.735136656006,609778,JURONG EAST AVENUE 1,PARC OASIS,17073.4121283637,36051.4110411331
45 JURONG EAST AVENUE 1 PARC OASIS SINGAPORE 609779,45,PARC OASIS,1.34182950855889,103.734811963444,103.734811963444,609779,JURONG EAST AVENUE 1,PARC OASIS,17037.2751826039,35998.4265724197
47 JURONG EAST AVENUE 1 PARC OASIS SINGAPORE 609780,47,PARC OASIS,1.342051556295,103.734334745857,103.734334745857,609780,JURONG EAST AVENUE 1,PARC OASIS,16984.1669481052,36022.9816558193
49 JURONG EAST AVENUE 1 PARC OASIS SINGAPORE 609781,49,PARC OASIS,1.34379302344891,103.732835148592,103.732835148592,609781,JURONG EAST AVENUE 1,PARC OASIS,16817.2856911356,36215.5512900334
51 JURONG EAST AVENUE 1 SINGAPORE 609782,51,NIL,1.34445756877013,103.732665309751,103.732665309751,609782,JURONG EAST AVENUE 1,51 JURONG EAST AVENUE 1 SINGAPORE 609782,16798.3874820173,36289.0342058949
53 JURONG EAST AVENUE 1 PARC OASIS SINGAPORE 609783,53,PARC OASIS,1.34419070375189,103.733361790993,103.733361790993,609783,JURONG EAST AVENUE 1,PARC OASIS,16875.8971293615,36259.5224072151
55 JURONG EAST AVENUE 1 PARC OASIS SINGAPORE 609784,55,PARC OASIS,1.34331070816854,103.733218675595,103.733218675595,609784,JURONG EAST AVENUE 1,PARC OASIS,16859.9659393476,36162.2174985204
91 JURONG EAST AVENUE 1 DBS SPC JURONG EAST AVENUE 1 SINGAPORE 609786,91,DBS SPC JURONG EAST AVENUE 1,1.34224789591238,103.737310855243,103.737310855243,609786,JURONG EAST AVENUE 1,DBS SPC JURONG EAST AVENUE 1,17315.3769932464,36044.6787151229
150 JURONG EAST AVENUE 1 DBS EXXONMOBIL JURONG EAST AVENUE 1 SINGAPORE 609787,150,DBS EXXONMOBIL JURONG EAST AVENUE 1,1.34522307100204,103.732766211114,103.732766211114,609787,JURONG EAST AVENUE 1,DBS EXXONMOBIL JURONG EAST AVENUE 1,16809.6202031868,36373.679197453
190 JURONG EAST AVENUE 1 JURONG POLYCLINIC SINGAPORE 609788,190,JURONG POLYCLINIC,1.34971979663763,103.730717863166,103.730717863166,609788,JURONG EAST AVENUE 1,JURONG POLYCLINIC,16581.6821575863,36870.9144301806
200 JURONG EAST AVENUE 1 YO:HA @ JURONG SINGAPORE 609789,200,YO:HA @ JURONG,1.35041686306314,103.728921192192,103.728921192192,609789,JURONG EAST AVENUE 1,YO:HA @ JURONG,16381.7357617198,36948.00111272
202 JURONG EAST AVENUE 1 JURONGVILLE SECONDARY SCHOOL SINGAPORE 609790,202,JURONGVILLE SECONDARY SCHOOL,1.3515495585791,103.729112686371,103.729112686371,609790,JURONG EAST AVENUE 1,JURONGVILLE SECONDARY SCHOOL,16403.0523222005,37073.2480921894
201 JURONG EAST AVENUE 1 BLUE CROSS THONG KHENG HOME SINGAPORE 609791,201,BLUE CROSS THONG KHENG HOME,1.3495663652382,103.728979102061,103.728979102061,609791,JURONG EAST AVENUE 1,BLUE CROSS THONG KHENG HOME,16388.1764557073,36853.9569739103
20 JURONG EAST AVENUE 1 ALL SAINTS HOME (JURONG EAST) SINGAPORE 609792,20,ALL SAINTS HOME (JURONG EAST),1.34181636345222,103.740776166665,103.740776166665,609792,JURONG EAST AVENUE 1,ALL SAINTS HOME (JURONG EAST),17701.0272760447,35996.9471339118
2A TEBAN GARDENS ROAD TEMPORARY SITE OFFICE SINGAPORE 609811,2A,TEMPORARY SITE OFFICE,1.32052125602181,103.74457271567,103.74457271567,609811,TEBAN GARDENS ROAD,TEMPORARY SITE OFFICE,18123.4578505978,33642.2247932907
210 JALAN BUROH SINGAPORE 609831,210,NIL,1.30202595104785,103.743875302361,103.743875302361,609831,JALAN BUROH,210 JALAN BUROH SINGAPORE 609831,18045.7694708109,31597.1093600597
249 JALAN BUROH SINGAPORE ROWING ASSOCIATION SINGAPORE 609832,249,SINGAPORE ROWING ASSOCIATION,1.30734640528645,103.750309751791,103.750309751791,609832,JALAN BUROH,SINGAPORE ROWING ASSOCIATION,18761.8856301028,32185.3939264845
41 JALAN AHMAD IBRAHIM JURONG INDUSTRIAL WATER WORKS SINGAPORE 609874,41,JURONG INDUSTRIAL WATER WORKS,1.32552021269077,103.73647268033,103.73647268033,609874,JALAN AHMAD IBRAHIM,JURONG INDUSTRIAL WATER WORKS,17222.0242962576,34195.0182116553
10A JURONG GATEWAY ROAD TEMPORARY SITE OFFICE SINGAPORE 609880,10A,TEMPORARY SITE OFFICE,1.33623017114558,103.745198420685,103.745198420685,609880,JURONG GATEWAY ROAD,TEMPORARY SITE OFFICE,18193.1546654487,35379.2356705032
5 INTERNATIONAL BUSINESS PARK MEWAH BUILDING SINGAPORE 609914,5,MEWAH BUILDING,1.32618389458752,103.74951851891,103.74951851891,609914,INTERNATIONAL BUSINESS PARK,MEWAH BUILDING,18673.8986899275,34268.3518760893
9 INTERNATIONAL BUSINESS PARK MIWORLD SINGAPORE 609915,9,MIWORLD,1.32482799741641,103.75027675144,103.75027675144,609915,INTERNATIONAL BUSINESS PARK,MIWORLD,18758.2773534954,34118.420720268
25 INTERNATIONAL BUSINESS PARK GERMAN CENTRE SINGAPORE 609916,25,GERMAN CENTRE,1.32487131877091,103.746667565963,103.746667565963,609916,INTERNATIONAL BUSINESS PARK,GERMAN CENTRE,18356.6110697929,34123.2247335725
1 INTERNATIONAL BUSINESS PARK THE SYNERGY SINGAPORE 609917,1,THE SYNERGY,1.32896348310743,103.748713611755,103.748713611755,609917,INTERNATIONAL BUSINESS PARK,THE SYNERGY,18584.331095106,34575.7079048697
7 INTERNATIONAL BUSINESS PARK TECHQUEST SINGAPORE 609919,7,TECHQUEST,1.32554965091403,103.74985834637,103.74985834637,609919,INTERNATIONAL BUSINESS PARK,TECHQUEST,18711.7157206591,34198.2191114686
12 INTERNATIONAL BUSINESS PARK SWIBER@IBP SINGAPORE 609920,12,SWIBER@IBP,1.32452154383344,103.749227342788,103.749227342788,609920,INTERNATIONAL BUSINESS PARK,SWIBER@IBP,18641.4874605509,34084.5385576878
31 INTERNATIONAL BUSINESS PARK SINGAPORE 609921,31,NIL,1.32910540395565,103.746173268778,103.746173268778,609921,INTERNATIONAL BUSINESS PARK,31 INTERNATIONAL BUSINESS PARK SINGAPORE 609921,18301.6172004445,34591.4106321428
14 INTERNATIONAL BUSINESS PARK INTERNATIONAL BUSINESS PARK SINGAPORE 609922,14,INTERNATIONAL BUSINESS PARK,1.32510022159206,103.748250885943,103.748250885943,609922,INTERNATIONAL BUSINESS PARK,INTERNATIONAL BUSINESS PARK,18532.8197086249,34148.5295549277
29 INTERNATIONAL BUSINESS PARK ACER BUILDING SINGAPORE 609923,29,ACER BUILDING,1.32696436520813,103.746250890926,103.746250890926,609923,INTERNATIONAL BUSINESS PARK,ACER BUILDING,18310.2474198379,34354.6649664976
27 INTERNATIONAL BUSINESS PARK IQUEST SINGAPORE 609924,27,IQUEST,1.32573267185439,103.74702621143,103.74702621143,609924,INTERNATIONAL BUSINESS PARK,IQUEST,18396.5280629676,34218.4674542677
8 INTERNATIONAL BUSINESS PARK INTERNATIONAL BUSINESS PARK SINGAPORE 609925,8,INTERNATIONAL BUSINESS PARK,1.32585001264393,103.748588223098,103.748588223098,609925,INTERNATIONAL BUSINESS PARK,INTERNATIONAL BUSINESS PARK,18570.3648117911,34231.4364075195
11 INTERNATIONAL BUSINESS PARK HI-P BUILDING SINGAPORE 609926,11,HI-P BUILDING,1.32407920335683,103.750486858973,103.750486858973,609926,INTERNATIONAL BUSINESS PARK,HI-P BUILDING,18781.6574640339,34035.6220454499
3 INTERNATIONAL BUSINESS PARK NORDIC EUROPEAN CENTRE SINGAPORE 609927,3,NORDIC EUROPEAN CENTRE,1.32726024532192,103.748506970995,103.748506970995,609927,INTERNATIONAL BUSINESS PARK,NORDIC EUROPEAN CENTRE,18561.3276090892,34387.3731853291
10 INTERNATIONAL BUSINESS PARK INTERNATIONAL BUSINESS PARK SINGAPORE 609928,10,INTERNATIONAL BUSINESS PARK,1.32523049308303,103.748956924072,103.748956924072,609928,INTERNATIONAL BUSINESS PARK,INTERNATIONAL BUSINESS PARK,18611.3952127472,34162.9316366725
16 INTERNATIONAL BUSINESS PARK INTERNATIONAL BUSINESS PARK SINGAPORE 609929,16,INTERNATIONAL BUSINESS PARK,1.32581726465363,103.748144727718,103.748144727718,609929,INTERNATIONAL BUSINESS PARK,INTERNATIONAL BUSINESS PARK,18521.0080819987,34227.816992294
2 INTERNATIONAL BUSINESS PARK DBS THE STRATEGY SINGAPORE 609930,2,DBS THE STRATEGY,1.33028201498891,103.747247200113,103.747247200113,609930,INTERNATIONAL BUSINESS PARK,DBS THE STRATEGY,18421.1394145479,34721.5102050323
1A INTERNATIONAL BUSINESS PARK SINGAPORE 609933,1A,NIL,1.32783798911958,103.747950360251,103.747950360251,609933,INTERNATIONAL BUSINESS PARK,1A INTERNATIONAL BUSINESS PARK SINGAPORE 609933,18499.3846344315,34451.2593342736
29A INTERNATIONAL BUSINESS PARK INTERNATIONAL BUSINESS PARK SINGAPORE 609934,29A,INTERNATIONAL BUSINESS PARK,1.32772602349689,103.746028061707,103.746028061707,609934,INTERNATIONAL BUSINESS PARK,INTERNATIONAL BUSINESS PARK,18285.4517362369,34438.8862062823
3A INTERNATIONAL BUSINESS PARK ICON @ IBP SINGAPORE 609935,3A,ICON @ IBP,1.3276082354419,103.749219230053,103.749219230053,609935,INTERNATIONAL BUSINESS PARK,ICON @ IBP,18640.5961895026,34425.849483015
17A INTERNATIONAL BUSINESS PARK TEMPORARY SITE OFFICE SINGAPORE 609936,17A,TEMPORARY SITE OFFICE,1.32346377996256,103.749737193949,103.749737193949,609936,INTERNATIONAL BUSINESS PARK,TEMPORARY SITE OFFICE,18698.2248868328,33967.5744119603
15 INTERNATIONAL BUSINESS PARK TÜV SÜD @ IBP SINGAPORE 609937,15,TÜV SÜD @ IBP,1.32321283651947,103.751092293794,103.751092293794,609937,INTERNATIONAL BUSINESS PARK,TÜV SÜD @ IBP,18849.033178553,33939.8213042058
30 BOON LAY WAY SINGAPORE 609957,30,NIL,1.33007343550244,103.750290972297,103.750290972297,609957,BOON LAY WAY,30 BOON LAY WAY SINGAPORE 609957,18759.8794681421,34698.4349233564
90 BOON LAY WAY PRO-TEACH BASC & TUITION CENTRE (YUHUA) SINGAPORE 609958,90,PRO-TEACH BASC & TUITION CENTRE (YUHUA),1.33997286000469,103.737065907111,103.737065907111,609958,BOON LAY WAY,PRO-TEACH BASC & TUITION CENTRE (YUHUA),17288.1069927802,35793.117597878
151 BOON LAY WAY DBS CHINESE GARDEN MRT STATION SINGAPORE 609959,151,DBS CHINESE GARDEN MRT STATION,1.34224494823931,103.732766601621,103.732766601621,609959,BOON LAY WAY,DBS CHINESE GARDEN MRT STATION,16809.6501079546,36044.3730992917
40 BOON LAY WAY SINGAPORE 609960,40,NIL,1.3303480283764,103.749012639406,103.749012639406,609960,BOON LAY WAY,40 BOON LAY WAY SINGAPORE 609960,18617.6150715249,34728.8028519563
48 BOON LAY WAY CHERIE HEARTS @ THE CHEVRONS PTE LTD SINGAPORE 609961,48,CHERIE HEARTS @ THE CHEVRONS PTE LTD,1.33102122066659,103.748331228993,103.748331228993,609961,BOON LAY WAY,CHERIE HEARTS @ THE CHEVRONS PTE LTD,18541.7836022712,34803.2436889671
92 BOON LAY WAY JURONG EAST NEIGHBOURHOOD POLICE CENTRE SINGAPORE 609962,92,JURONG EAST NEIGHBOURHOOD POLICE CENTRE,1.34013271672643,103.737230755516,103.737230755516,609962,BOON LAY WAY,JURONG EAST NEIGHBOURHOOD POLICE CENTRE,17306.4535678951,35810.7930409908
161 BOON LAY WAY SINGAPORE 609963,161,NIL,1.34373211737597,103.730513422441,103.730513422441,609963,BOON LAY WAY,161 BOON LAY WAY SINGAPORE 609963,16558.902230897,36208.8273482546
8 BOON LAY WAY 8 @ TRADEHUB 21 SINGAPORE 609964,8,8 @ TRADEHUB 21,1.32747655183299,103.753565568261,103.753565568261,609964,BOON LAY WAY,8 @ TRADEHUB 21,19124.2993634092,34411.2725431286
16 BOON LAY WAY TOTS N TOYS PTE LTD SINGAPORE 609965,16,TOTS N TOYS PTE LTD,1.32820249761541,103.754854443191,103.754854443191,609965,BOON LAY WAY,TOTS N TOYS PTE LTD,19267.7407003054,34491.5393919125
18 BOON LAY WAY CARE ASSEMBLY OF GOD SINGAPORE 609966,18,CARE ASSEMBLY OF GOD,1.32852674067117,103.752854514418,103.752854514418,609966,BOON LAY WAY,CARE ASSEMBLY OF GOD,19045.1700157216,34527.3997185696
20 BOON LAY WAY TRADEHUB 21 SINGAPORE 609967,20,TRADEHUB 21,1.32801887757,103.754490146028,103.754490146028,609967,BOON LAY WAY,TRADEHUB 21,19227.1974625476,34471.2368996907
22 BOON LAY WAY TRADEHUB 21 SINGAPORE 609968,22,TRADEHUB 21,1.32858898302487,103.75425917419,103.75425917419,609968,BOON LAY WAY,TRADEHUB 21,19201.494647474,34534.2771190256
24 BOON LAY WAY TRADEHUB 21 SINGAPORE 609969,24,TRADEHUB 21,1.32912632031586,103.752913400847,103.752913400847,609969,BOON LAY WAY,TRADEHUB 21,19051.7256372422,34593.6980139408
26 BOON LAY WAY TRADEHUB 21 SINGAPORE 609970,26,TRADEHUB 21,1.32911125485162,103.751882903089,103.751882903089,609970,BOON LAY WAY,TRADEHUB 21,18937.0416392647,34592.0359081514
28 BOON LAY WAY TRADEHUB 21 SINGAPORE 609971,28,TRADEHUB 21,1.32817931172347,103.751823194471,103.751823194471,609971,BOON LAY WAY,TRADEHUB 21,18930.3932766411,34488.9865296297
