ADDRESS,BLK_NO,BUILDING,LATITUDE,LONGITUDE,LONGTITUDE,POSTAL,ROAD_NAME,SEARCHVAL,X,Y
13A TANAH MERAH COAST ROAD CHANGI EAST DORMITORY SINGAPORE 498708,13A,CHANGI EAST DORMITORY,1.35411797061957,104.002489550069,104.002489550069,498708,TANAH MERAH COAST ROAD,CHANGI EAST DORMITORY,46826.8299221462,37357.657871712
15A TANAH MERAH COAST ROAD CHANGI EAST DORMITORY SINGAPORE 498709,15A,CHANGI EAST DORMITORY,1.3548176405736,104.003025903659,104.003025903659,498709,TANAH MERAH COAST ROAD,CHANGI EAST DORMITORY,46886.514814415,37435.0283165984
17A TANAH MERAH COAST ROAD CHANGI EAST DORMITORY SINGAPORE 498710,17A,CHANGI EAST DORMITORY,1.35465155308362,104.00341365541,104.00341365541,498710,TANAH MERAH COAST ROAD,CHANGI EAST DORMITORY,46929.6686354997,37416.6661534719
19A TANAH MERAH COAST ROAD CHANGI EAST DORMITORY SINGAPORE 498711,19A,CHANGI EAST DORMITORY,1.35377849750028,104.003285020287,104.003285020287,498711,TANAH MERAH COAST ROAD,CHANGI EAST DORMITORY,46915.3597186096,37320.1266918182
21A TANAH MERAH COAST ROAD CHANGI EAST DORMITORY SINGAPORE 498712,21A,CHANGI EAST DORMITORY,1.35301708879847,104.002720974363,104.002720974363,498712,TANAH MERAH COAST ROAD,CHANGI EAST DORMITORY,46852.593424527,37235.9292426668
20 CHANGI EAST CLOSE SINGAPORE 498713,20,NIL,1.32385844927902,104.004892408668,104.004892408668,498713,CHANGI EAST CLOSE,20 CHANGI EAST CLOSE SINGAPORE 498713,47094.47602103,34011.7185712047
35A TANAH MERAH COAST ROAD CHANGI EAST PASS OFFICE SINGAPORE 498714,35A,CHANGI EAST PASS OFFICE,1.31936585952309,103.989093092792,103.989093092792,498714,TANAH MERAH COAST ROAD,CHANGI EAST PASS OFFICE,45336.1944696,33514.8331758343
33A TANAH MERAH COAST ROAD HSJV DORMITORY SINGAPORE 498715,33A,HSJV DORMITORY,1.32032242412083,103.987199113547,103.987199113547,498715,TANAH MERAH COAST ROAD,HSJV DORMITORY,45125.4058700902,33620.5924469363
69 TANAH MERAH COAST ROAD SINGAPORE 498716,69,NIL,1.34674169937585,104.006224740975,104.006224740975,498716,TANAH MERAH COAST ROAD,69 TANAH MERAH COAST ROAD SINGAPORE 498716,47242.5739964163,36542.0530595034
68 TANAH MERAH COAST ROAD CHANGI LODGE 2 SINGAPORE 498717,68,CHANGI LODGE 2,1.31291407093501,103.995776690329,103.995776690329,498717,TANAH MERAH COAST ROAD,CHANGI LODGE 2,46080.0625561951,32801.472220296
11A TANAH MERAH COAST ROAD CHANGI EAST DORMITORY SINGAPORE 498718,11A,CHANGI EAST DORMITORY,1.35336290445893,104.001912191758,104.001912191758,498718,TANAH MERAH COAST ROAD,CHANGI EAST DORMITORY,46762.5820405288,37274.1616712082
12 CHANGI EAST CLOSE SINGAPORE 498719,12,NIL,1.31491313558059,104.002339553534,104.002339553534,498719,CHANGI EAST CLOSE,12 CHANGI EAST CLOSE SINGAPORE 498719,46810.4347542105,33022.5678854957
31A TANAH MERAH COAST ROAD SSKBJV PACKAGE 1 WORKER DORMITORY SINGAPORE 498720,31A,SSKBJV PACKAGE 1 WORKER DORMITORY,1.32207391382315,103.987769801303,103.987769801303,498720,TANAH MERAH COAST ROAD,SSKBJV PACKAGE 1 WORKER DORMITORY,45188.90598117,33814.2678311318
21 TANAH MERAH COAST ROAD CASUALTY CLEARANCE STATION 2 SINGAPORE 498721,21,CASUALTY CLEARANCE STATION 2,1.3207100356244,103.985791957626,103.985791957626,498721,TANAH MERAH COAST ROAD,CASUALTY CLEARANCE STATION 2,44968.8001093045,33663.4430433605
1 TANAH MERAH COAST ROAD TANAH MERAH COUNTRY CLUB SINGAPORE 498722,1,TANAH MERAH COUNTRY CLUB,1.32925623900667,103.979681515394,103.979681515394,498722,TANAH MERAH COAST ROAD,TANAH MERAH COUNTRY CLUB,44288.7101452202,34608.4005962275
231 CHANGI EAST DRIVE CASUALTY CLEARANCE STATION 3 SINGAPORE 498725,231,CASUALTY CLEARANCE STATION 3,1.32571622245059,104.004146260171,104.004146260171,498725,CHANGI EAST DRIVE,CASUALTY CLEARANCE STATION 3,47011.4226411283,34217.1367828995
241 CHANGI EAST DRIVE AIRPORT FIRE STATION 3 SINGAPORE 498726,241,AIRPORT FIRE STATION 3,1.34258151507964,104.011672954347,104.011672954347,498726,CHANGI EAST DRIVE,AIRPORT FIRE STATION 3,47848.9363885261,36082.0825878773
1A TELOK PAKU ROAD MULTI STOREY CAR PARK SINGAPORE 498730,1A,MULTI STOREY CAR PARK,1.38796658624186,103.988298872524,103.988298872524,498730,TELOK PAKU ROAD,MULTI STOREY CAR PARK,45247.3205564301,41100.3737539556
78 TANAH MERAH COAST ROAD CHANGI LODGE 2 SINGAPORE 498735,78,CHANGI LODGE 2,1.31234433942004,103.997580100998,103.997580100998,498735,TANAH MERAH COAST ROAD,CHANGI LODGE 2,46280.7699194402,32738.4870886896
61A TANAH MERAH COAST ROAD TEMPORARY PROJECT OFFICE SINGAPORE 498738,61A,TEMPORARY PROJECT OFFICE,1.31750176161303,103.993137213843,103.993137213843,498738,TANAH MERAH COAST ROAD,TEMPORARY PROJECT OFFICE,45786.2803560514,33308.7385352384
90A TANAH MERAH COAST ROAD TEMPORARY SITE OFFICE SINGAPORE 498739,90A,TEMPORARY SITE OFFICE,1.3108902708772,104.002730473238,104.002730473238,498739,TANAH MERAH COAST ROAD,TEMPORARY SITE OFFICE,46853.970678322,32577.7411822882
10 CHANGI NORTH WAY SINGAPORE 498740,10,NIL,1.35247439527493,103.970943651565,103.970943651565,498740,CHANGI NORTH WAY,10 CHANGI NORTH WAY SINGAPORE 498740,43316.1283051381,37175.6970749851
71 ALPS AVENUE SINGAPORE 498745,71,NIL,1.37787466108909,104.002369473093,104.002369473093,498745,ALPS AVENUE,71 ALPS AVENUE SINGAPORE 498745,46813.2819120986,39984.562271256
90 ALPS AVENUE SINGAPORE 498746,90,NIL,1.37304344443845,104.00212974818,104.00212974818,498746,ALPS AVENUE,90 ALPS AVENUE SINGAPORE 498746,46786.641183014,39450.3466754016
20 ALPS AVENUE SINGAPORE 498747,20,NIL,1.37969572757004,104.000492904343,104.000492904343,498747,ALPS AVENUE,20 ALPS AVENUE SINGAPORE 498747,46604.4281934481,40185.9126778152
103 TANAH MERAH COAST ROAD SINGAPORE 498750,103,NIL,1.31784654920578,104.017872967146,104.017872967146,498750,TANAH MERAH COAST ROAD,103 TANAH MERAH COAST ROAD SINGAPORE 498750,48539.1384319514,33347.0537769832
70 TANAH MERAH COAST ROAD CHANGI LODGE 2 SINGAPORE 498751,70,CHANGI LODGE 2,1.3126539344345,103.996363161508,103.996363161508,498751,TANAH MERAH COAST ROAD,CHANGI LODGE 2,46145.3333443226,32772.711794043
72 TANAH MERAH COAST ROAD CHANGI LODGE 2 SINGAPORE 498752,72,CHANGI LODGE 2,1.31257117043055,103.997171943133,103.997171943133,498752,TANAH MERAH COAST ROAD,CHANGI LODGE 2,46235.3440018892,32763.5660200827
74 TANAH MERAH COAST ROAD CHANGI LODGE 2 SINGAPORE 498753,74,CHANGI LODGE 2,1.31239144313059,103.997108154352,103.997108154352,498753,TANAH MERAH COAST ROAD,CHANGI LODGE 2,46228.2461899752,32743.6921527777
76 TANAH MERAH COAST ROAD CHANGI LODGE 2 SINGAPORE 498754,76,CHANGI LODGE 2,1.31216033175303,103.997537571125,103.997537571125,498754,TANAH MERAH COAST ROAD,CHANGI LODGE 2,46276.0380650098,32718.1400722638
28 CHANGI NORTH RISE SINGAPORE 498755,28,NIL,1.34847780214539,103.970468525222,103.970468525222,498755,CHANGI NORTH RISE,28 CHANGI NORTH RISE SINGAPORE 498755,43263.2768944819,36733.7699538134
26 CHANGI NORTH RISE SINGAPORE 498756,26,NIL,1.34788791311586,103.970915663009,103.970915663009,498756,CHANGI NORTH RISE,26 CHANGI NORTH RISE SINGAPORE 498756,43313.0421815179,36668.5456573088
9 AVIATION PARK ROAD CHANGI EXHIBITION CENTRE SINGAPORE 498760,9,CHANGI EXHIBITION CENTRE,1.36394078514678,104.02217858655,104.02217858655,498760,AVIATION PARK ROAD,CHANGI EXHIBITION CENTRE,49017.9213029612,38443.9823149424
21A AVIATION PARK ROAD TEMPORARY SITE OFFICE SINGAPORE 498762,21A,TEMPORARY SITE OFFICE,1.36054202701648,104.029843868413,104.029843868413,498762,AVIATION PARK ROAD,TEMPORARY SITE OFFICE,49871.0119233551,38068.2310248781
21 AVIATION PARK ROAD SINGAPORE 498763,21,NIL,1.36366267145474,104.02712635064,104.02712635064,498763,AVIATION PARK ROAD,21 AVIATION PARK ROAD SINGAPORE 498763,49568.5544347912,38413.2735083085
5A AVIATION PARK ROAD TEMPORARY SITE OFFICE SINGAPORE 498764,5A,TEMPORARY SITE OFFICE,1.36663538171223,104.015418976034,104.015418976034,498764,AVIATION PARK ROAD,TEMPORARY SITE OFFICE,48265.630151053,38741.8806279227
15 CHANGI NORTH STREET 1 I-LOFTS @ CHANGI SINGAPORE 498765,15,I-LOFTS @ CHANGI,1.35009626346442,103.970448173038,103.970448173038,498765,CHANGI NORTH STREET 1,I-LOFTS @ CHANGI,43261.0018317532,36912.7315263003
5 CHANGI NORTH STREET 1 SINGAPORE 498766,5,NIL,1.35233758533939,103.968601561284,103.968601561284,498766,CHANGI NORTH STREET 1,5 CHANGI NORTH STREET 1 SINGAPORE 498766,43055.4802548941,37160.5546383597
15 CHANGI NORTH WAY SINGAPORE 498770,15,NIL,1.35316925700072,103.972906051487,103.972906051487,498770,CHANGI NORTH WAY,15 CHANGI NORTH WAY SINGAPORE 498770,43534.5174375037,37252.5440350939
5 CHANGI NORTH WAY SINGAPORE 498771,5,NIL,1.35162454494614,103.9693370788,103.9693370788,498771,CHANGI NORTH WAY,5 CHANGI NORTH WAY SINGAPORE 498771,43137.3396839099,37081.7146223281
16 CHANGI NORTH WAY SINGAPORE 498772,16,NIL,1.35180399923896,103.972768068996,103.972768068996,498772,CHANGI NORTH WAY,16 CHANGI NORTH WAY SINGAPORE 498772,43519.1701774318,37101.5794697739
51 CHANGI NORTH WAY SINGAPORE 498773,51,NIL,1.35469441390647,103.974303192009,103.974303192009,498773,CHANGI NORTH WAY,51 CHANGI NORTH WAY SINGAPORE 498773,43689.9939906206,37421.1976035815
21 CHANGI NORTH WAY PAN ASIA LOGISTICS CENTRE SINGAPORE 498774,21,PAN ASIA LOGISTICS CENTRE,1.3531572007833,103.974012079183,103.974012079183,498774,CHANGI NORTH WAY,PAN ASIA LOGISTICS CENTRE,43657.6062189313,37251.2180249952
2 CHANGI NORTH STREET 2 SINGAPORE 498775,2,NIL,1.35046982429754,103.967474078225,103.967474078225,498775,CHANGI NORTH STREET 2,2 CHANGI NORTH STREET 2 SINGAPORE 498775,42930.0151946004,36954.0196288694
25 CHANGI NORTH RISE CHANGI NORTH INDUSTRIAL PARK SINGAPORE 498778,25,CHANGI NORTH INDUSTRIAL PARK,1.34904407738506,103.968545350478,103.968545350478,498778,CHANGI NORTH RISE,CHANGI NORTH INDUSTRIAL PARK,43049.2448686408,36796.3739812355
30 CHANGI NORTH RISE ALTEON HOUSE SINGAPORE 498780,30,ALTEON HOUSE,1.34909348139194,103.970020269211,103.970020269211,498780,CHANGI NORTH RISE,ALTEON HOUSE,43213.387024424,36801.8460089397
40 ALPS AVENUE HI-SPEED LOGISTICS CENTRE SINGAPORE 498781,40,HI-SPEED LOGISTICS CENTRE,1.3786488407256,104.000642604405,104.000642604405,498781,ALPS AVENUE,HI-SPEED LOGISTICS CENTRE,46621.0961364536,40070.1539242715
50 ALPS AVENUE SANDVIK BUILDING SINGAPORE 498782,50,SANDVIK BUILDING,1.37761294909944,104.000920434934,104.000920434934,498782,ALPS AVENUE,SANDVIK BUILDING,46652.0233871238,39955.6119739413
51 ALPS AVENUE SINGAPORE 498783,51,NIL,1.37954934967687,104.002178963548,104.002178963548,498783,ALPS AVENUE,51 ALPS AVENUE SINGAPORE 498783,46792.0673547229,40169.7401308995
31 ALPS AVENUE SINGAPORE 498784,31,NIL,1.38164701086875,104.001053940283,104.001053940283,498784,ALPS AVENUE,31 ALPS AVENUE SINGAPORE 498784,46666.8494930519,40401.6809962746
10 CHANGI EAST CLOSE CHANGI WATER RECLAMATION PLANT SINGAPORE 498785,10,CHANGI WATER RECLAMATION PLANT,1.31668488447413,104.005604860863,104.005604860863,498785,CHANGI EAST CLOSE,CHANGI WATER RECLAMATION PLANT,47173.8201200627,33218.5044999514
19 CHANGI NORTH WAY SINGAPORE 498786,19,NIL,1.3526494911732,103.973831944187,103.973831944187,498786,CHANGI NORTH WAY,19 CHANGI NORTH WAY SINGAPORE 498786,43637.5624271659,37195.0767569207
91 ALPS AVENUE SINGAPORE 498787,91,NIL,1.3757619652438,104.00251365545,104.00251365545,498787,ALPS AVENUE,91 ALPS AVENUE SINGAPORE 498787,46829.3442532858,39750.9512185398
21 CHANGI NORTH RISE SINGAPORE 498788,21,NIL,1.34842539588406,103.968630532117,103.968630532117,498788,CHANGI NORTH RISE,21 CHANGI NORTH RISE SINGAPORE 498788,43058.7284635669,36727.9636767637
1 CHANGI NORTH STREET 1 SINGAPORE 498789,1,NIL,1.35346214950032,103.968413818329,103.968413818329,498789,CHANGI NORTH STREET 1,1 CHANGI NORTH STREET 1 SINGAPORE 498789,43034.579606778,37284.9023863021
11 CHANGI NORTH RISE SINGAPORE 498790,11,NIL,1.34747856102207,103.969028836383,103.969028836383,498790,CHANGI NORTH RISE,11 CHANGI NORTH RISE SINGAPORE 498790,43103.0612528855,36623.269687349
12 CHANGI NORTH WAY SINGAPORE 498791,12,NIL,1.35206452693388,103.971866603606,103.971866603606,498791,CHANGI NORTH WAY,12 CHANGI NORTH WAY SINGAPORE 498791,43418.8453109292,37130.3816355746
80 ALPS AVENUE SINGAPORE 498792,80,NIL,1.3749981234501,104.001288514619,104.001288514619,498792,ALPS AVENUE,80 ALPS AVENUE SINGAPORE 498792,46693.0066002924,39666.4794809204
101 ALPS AVENUE SINGAPORE 498793,101,NIL,1.37541202645789,104.002513747754,104.002513747754,498793,ALPS AVENUE,101 ALPS AVENUE SINGAPORE 498793,46829.3572685188,39712.2565978877
119 TANAH MERAH COAST ROAD CHANGI NAVAL BASE SINGAPORE 498794,119,CHANGI NAVAL BASE,1.31676468000651,104.021764952723,104.021764952723,498794,TANAH MERAH COAST ROAD,CHANGI NAVAL BASE,48972.2898052642,33227.4580116794
6 CHANGI NORTH WAY CACHE CHANGI DISTRICENTRE 3 SINGAPORE 498795,6,CACHE CHANGI DISTRICENTRE 3,1.35148204595879,103.970393389016,103.970393389016,498795,CHANGI NORTH WAY,CACHE CHANGI DISTRICENTRE 3,43254.8963254178,37065.9643743206
11 CHANGI NORTH WAY SERIAL I-TECH BUILDING SINGAPORE 498796,11,SERIAL I-TECH BUILDING,1.35333955456677,103.971803341567,103.971803341567,498796,CHANGI NORTH WAY,SERIAL I-TECH BUILDING,43411.7968963655,37271.3676941674
9 CHANGI NORTH WAY SINGAPORE 498797,9,NIL,1.35361103588626,103.971409533338,103.971409533338,498797,CHANGI NORTH WAY,9 CHANGI NORTH WAY SINGAPORE 498797,43367.9686743347,37301.3843022808
61 ALPS AVENUE SINGAPORE 498798,61,NIL,1.37869356908951,104.002106279693,104.002106279693,498798,ALPS AVENUE,61 ALPS AVENUE SINGAPORE 498798,46783.9852279788,40075.1112751812
110 TANAH MERAH COAST ROAD SAF YACHT CLUB CHANGI RESORT SINGAPORE 498800,110,SAF YACHT CLUB CHANGI RESORT,1.31590742142538,104.015422005042,104.015422005042,498800,TANAH MERAH COAST ROAD,SAF YACHT CLUB CHANGI RESORT,48266.384520011,33132.6138295252
70 ALPS AVENUE SINGAPORE 498801,70,NIL,1.37602020135918,104.001294834245,104.001294834245,498801,ALPS AVENUE,70 ALPS AVENUE SINGAPORE 498801,46693.7019466823,39779.4961972833
1 CHANGI NORTH WAY GEOLOGISTICS SINGAPORE 498802,1,GEOLOGISTICS,1.35162944690339,103.968748716224,103.968748716224,498802,CHANGI NORTH WAY,GEOLOGISTICS,43071.8613482183,37082.2529989537
81 ALPS AVENUE EXEL SUPPLY CHAIN HUB SINGAPORE 498803,81,EXEL SUPPLY CHAIN HUB,1.37674509931644,104.002841187102,104.002841187102,498803,ALPS AVENUE,EXEL SUPPLY CHAIN HUB,46865.7869056817,39859.6642513685
2A CHANGI NORTH STREET 2 SINGAPORE 498804,2A,NIL,1.3507680667801,103.967289636206,103.967289636206,498804,CHANGI NORTH STREET 2,2A CHANGI NORTH STREET 2 SINGAPORE 498804,42909.4869940234,36986.9967182018
210 TANAH MERAH COAST ROAD CHANGI NAVAL BASE SINGAPORE 498805,210,CHANGI NAVAL BASE,1.3167647013931,104.021782478043,104.021782478043,498805,TANAH MERAH COAST ROAD,CHANGI NAVAL BASE,48974.2402135991,33227.460523922
15 ALPS AVENUE POLICE GUARD POST SINGAPORE 498806,15,POLICE GUARD POST,1.38150056157271,104.000422669084,104.000422669084,498806,ALPS AVENUE,POLICE GUARD POST,46596.5978357922,40385.4823583569
111 ALPS AVENUE ALPS CHECKPOINT SINGAPORE 498807,111,ALPS CHECKPOINT,1.37443113615344,104.00377810597,104.00377810597,498807,ALPS AVENUE,ALPS CHECKPOINT,46970.0730642844,39603.8042632006
1 CHANGI NORTH STREET 2 ETLE BUILDING SINGAPORE 498808,1,ETLE BUILDING,1.35010166866226,103.966760157024,103.966760157024,498808,CHANGI NORTH STREET 2,ETLE BUILDING,42850.5657932526,36913.3063758463
20 CHANGI NORTH WAY SINGAPORE 498809,20,NIL,1.35111624248763,103.974220655837,103.974220655837,498809,CHANGI NORTH WAY,20 CHANGI NORTH WAY SINGAPORE 498809,43680.8315995373,37025.5399383996
22 CHANGI NORTH WAY SINGAPORE 498810,22,NIL,1.3515333804844,103.974418789551,103.974418789551,498810,CHANGI NORTH WAY,22 CHANGI NORTH WAY SINGAPORE 498810,43702.8790410208,37071.6663478967
24 CHANGI NORTH WAY SINGAPORE 498811,24,NIL,1.35188904169638,103.974581269404,103.974581269404,498811,CHANGI NORTH WAY,24 CHANGI NORTH WAY SINGAPORE 498811,43720.9589854665,37110.9947195929
26 CHANGI NORTH WAY SINGAPORE 498812,26,NIL,1.35231637715616,103.974804530376,103.974804530376,498812,CHANGI NORTH WAY,26 CHANGI NORTH WAY SINGAPORE 498812,43745.8027346265,37158.2488838956
28 CHANGI NORTH WAY SINGAPORE 498813,28,NIL,1.35267501223623,103.975189138245,103.975189138245,498813,CHANGI NORTH WAY,28 CHANGI NORTH WAY SINGAPORE 498813,43788.6030559298,37197.9075398296
30 CHANGI NORTH WAY SINGAPORE 498814,30,NIL,1.35299376132676,103.974845948096,103.974845948096,498814,CHANGI NORTH WAY,30 CHANGI NORTH WAY SINGAPORE 498814,43750.4077056693,37233.1510655135
60 ALPS AVENUE SINGAPORE 498815,60,NIL,1.37694085869226,104.001281628274,104.001281628274,498815,ALPS AVENUE,60 ALPS AVENUE SINGAPORE 498815,46692.225111221,39881.2981413901
4 CHANGI NORTH STREET 1 SINGAPORE 498816,4,NIL,1.35247718242722,103.967611865821,103.967611865821,498816,CHANGI NORTH STREET 1,4 CHANGI NORTH STREET 1 SINGAPORE 498816,42945.337180906,37175.98449976
1 CHANGI NORTH RISE SINGAPORE 498817,1,NIL,1.34661013318052,103.970643634077,103.970643634077,498817,CHANGI NORTH RISE,1 CHANGI NORTH RISE SINGAPORE 498817,43282.7762560239,36527.2531656493
213 TANAH MERAH COAST ROAD CHANGI AIR BASE (EAST) SINGAPORE 498818,213,CHANGI AIR BASE (EAST),1.3273554263701,104.004009818913,104.004009818913,498818,TANAH MERAH COAST ROAD,CHANGI AIR BASE (EAST),46996.2255405234,34398.3913064934
301 TANAH MERAH COAST ROAD CHANGI AIR BASE (EAST) SINGAPORE 498819,301,CHANGI AIR BASE (EAST),1.32736602101872,104.004244172964,104.004244172964,498819,TANAH MERAH COAST ROAD,CHANGI AIR BASE (EAST),47022.3067961968,34399.5646146145
317 TANAH MERAH COAST ROAD CHANGI AIR BASE (EAST) SINGAPORE 498820,317,CHANGI AIR BASE (EAST),1.32736602101872,104.004244172964,104.004244172964,498820,TANAH MERAH COAST ROAD,CHANGI AIR BASE (EAST),47022.3067961968,34399.5646146145
215 TANAH MERAH COAST ROAD CHANGI AIR BASE (EAST) SINGAPORE 498822,215,CHANGI AIR BASE (EAST),1.32736602101872,104.004244172964,104.004244172964,498822,TANAH MERAH COAST ROAD,CHANGI AIR BASE (EAST),47022.3067961968,34399.5646146145
11 CHANGI NORTH STREET 1 SINGAPORE 498823,11,NIL,1.35082034462252,103.969439881614,103.969439881614,498823,CHANGI NORTH STREET 1,11 CHANGI NORTH STREET 1 SINGAPORE 498823,43148.7854916845,36992.7906459123
3 CHANGI NORTH STREET 1 HAFARY LOGISTIC CENTRE SINGAPORE 498824,3,HAFARY LOGISTIC CENTRE,1.35284753377325,103.968396010396,103.968396010396,498824,CHANGI NORTH STREET 1,HAFARY LOGISTIC CENTRE,43032.601563774,37216.941016566
6 CHANGI NORTH STREET 1 SPANNERS BLDG SINGAPORE 498825,6,SPANNERS BLDG,1.35225750834025,103.967635651141,103.967635651141,498825,CHANGI NORTH STREET 1,SPANNERS BLDG,42947.9855689453,37151.6941401456
10 CHANGI NORTH STREET 1 MAXCOIL SINGAPORE 498826,10,MAXCOIL,1.35136874994097,103.967690205361,103.967690205361,498826,CHANGI NORTH STREET 1,MAXCOIL,42954.0622904282,37053.4198387377
3 CHANGI NORTH STREET 2 LOGISTECH SINGAPORE 498827,3,LOGISTECH,1.3508444949497,103.965626781031,103.965626781031,498827,CHANGI NORTH STREET 2,LOGISTECH,42724.4289350603,36995.4376416244
2 CHANGI NORTH STREET 1 SINGAPORE 498828,2,NIL,1.35297025757234,103.967398342424,103.967398342424,498828,CHANGI NORTH STREET 1,2 CHANGI NORTH STREET 1 SINGAPORE 498828,42921.5713654505,37230.5050686449
8 CHANGI NORTH STREET 1 ISOTEAM BUILDING SINGAPORE 498829,8,ISOTEAM BUILDING,1.35172874774073,103.96747687819,103.96747687819,498829,CHANGI NORTH STREET 1,ISOTEAM BUILDING,42930.3191154245,37093.2253549267
8 CHANGI NORTH STREET 2 SINGAPORE 498830,8,NIL,1.35192644711464,103.966455443934,103.966455443934,498830,CHANGI NORTH STREET 2,8 CHANGI NORTH STREET 2 SINGAPORE 498830,42816.643495325,37115.0797472112
6 CHANGI NORTH STREET 2 SINGAPORE 498831,6,NIL,1.35169604080763,103.967009138263,103.967009138263,498831,CHANGI NORTH STREET 2,6 CHANGI NORTH STREET 2 SINGAPORE 498831,42878.2649937272,37089.6059094351
4 CHANGI NORTH STREET 2 SINGAPORE 498832,4,NIL,1.35108273423263,103.967056543925,103.967056543925,498832,CHANGI NORTH STREET 2,4 CHANGI NORTH STREET 2 SINGAPORE 498832,42883.5444565192,37021.7897049487
50 TANAH MERAH FERRY ROAD DBS TANAH MERAH FERRY TERMINAL SINGAPORE 498833,50,DBS TANAH MERAH FERRY TERMINAL,1.31424535229932,103.988242436318,103.988242436318,498833,TANAH MERAH FERRY ROAD,DBS TANAH MERAH FERRY TERMINAL,45241.5595905529,32948.6258043218
10 TANAH MERAH BESAR ROAD TM1 SINGAPORE 498834,10,TM1,1.35979913972173,103.973446491302,103.973446491302,498834,TANAH MERAH BESAR ROAD,TM1,43594.6199976793,37985.6483121235
5 TANAH MERAH BESAR ROAD UPPER CHANGI FIRE POST SINGAPORE 498836,5,UPPER CHANGI FIRE POST,1.36143508923143,103.97295638727,103.97295638727,498836,TANAH MERAH BESAR ROAD,UPPER CHANGI FIRE POST,43540.0664972262,38166.5406490229
122 TANAH MERAH BESAR ROAD SINGAPORE 498837,122,NIL,1.35967784921245,103.976003086454,103.976003086454,498837,TANAH MERAH BESAR ROAD,122 TANAH MERAH BESAR ROAD SINGAPORE 498837,43879.1409212369,37972.2532461975
122B TANAH MERAH BESAR ROAD SINGAPORE 498838,122B,NIL,1.35966123090936,103.976058869078,103.976058869078,498838,TANAH MERAH BESAR ROAD,122B TANAH MERAH BESAR ROAD SINGAPORE 498838,43885.349005769,37970.4160401206
100 TANAH MERAH BESAR ROAD COMPASS GREEN SINGAPORE 498839,100,COMPASS GREEN,1.3597952580183,103.974913563714,103.974913563714,498839,TANAH MERAH BESAR ROAD,COMPASS GREEN,43757.8885891847,37985.22861626
102 TANAH MERAH BESAR ROAD COMPASS GREEN SINGAPORE 498840,102,COMPASS GREEN,1.35941397712511,103.974790153367,103.974790153367,498840,TANAH MERAH BESAR ROAD,COMPASS GREEN,43744.1568827434,37943.0675850417
104 TANAH MERAH BESAR ROAD COMPASS GREEN SINGAPORE 498841,104,COMPASS GREEN,1.35892669592153,103.97467666325,103.97467666325,498841,TANAH MERAH BESAR ROAD,COMPASS GREEN,43731.529866904,37889.1856100746
106 TANAH MERAH BESAR ROAD COMPASS GREEN SINGAPORE 498842,106,COMPASS GREEN,1.35737667495515,103.975381758979,103.975381758979,498842,TANAH MERAH BESAR ROAD,COMPASS GREEN,43810.0091491062,37717.7962698787
108 TANAH MERAH BESAR ROAD COMPASS GREEN SINGAPORE 498843,108,COMPASS GREEN,1.35737667522892,103.975381758435,103.975381758435,498843,TANAH MERAH BESAR ROAD,COMPASS GREEN,43810.0090885703,37717.7963001467
110 TANAH MERAH BESAR ROAD COMPASS GREEN SINGAPORE 498844,110,COMPASS GREEN,1.35737667522892,103.975381758435,103.975381758435,498844,TANAH MERAH BESAR ROAD,COMPASS GREEN,43810.0090885703,37717.7963001467
116 TANAH MERAH BESAR ROAD SINGAPORE 498845,116,NIL,1.35996201712567,103.975451852995,103.975451852995,498845,TANAH MERAH BESAR ROAD,116 TANAH MERAH BESAR ROAD SINGAPORE 498845,43817.7930151392,38003.6715646349
116A TANAH MERAH BESAR ROAD SINGAPORE 498846,116A,NIL,1.35993568488449,103.975531096357,103.975531096357,498846,TANAH MERAH BESAR ROAD,116A TANAH MERAH BESAR ROAD SINGAPORE 498846,43826.6120764827,38000.7603899613
118 TANAH MERAH BESAR LANE SINGAPORE 498899,118,NIL,1.35979107204578,103.975470104359,103.975470104359,498899,TANAH MERAH BESAR LANE,118 TANAH MERAH BESAR LANE SINGAPORE 498899,43819.8252983699,37984.7693904117
118A TANAH MERAH BESAR LANE SINGAPORE 498900,118A,NIL,1.35968866730778,103.975450781464,103.975450781464,498900,TANAH MERAH BESAR LANE,118A TANAH MERAH BESAR LANE SINGAPORE 498900,43817.6755450936,37973.4458350241
118B TANAH MERAH BESAR LANE SINGAPORE 498901,118B,NIL,1.35952685344116,103.975412540721,103.975412540721,498901,TANAH MERAH BESAR LANE,118B TANAH MERAH BESAR LANE SINGAPORE 498901,43813.4208351588,37955.5529769845
118C TANAH MERAH BESAR LANE SINGAPORE 498902,118C,NIL,1.3593985457698,103.975392298123,103.975392298123,498902,TANAH MERAH BESAR LANE,118C TANAH MERAH BESAR LANE SINGAPORE 498902,43811.1688971706,37941.3651925661
118F TANAH MERAH BESAR LANE SINGAPORE 498905,118F,NIL,1.35886327091058,103.9752925043,103.9752925043,498905,TANAH MERAH BESAR LANE,118F TANAH MERAH BESAR LANE SINGAPORE 498905,43800.0664494028,37882.1763925496
118G TANAH MERAH BESAR LANE SINGAPORE 498906,118G,NIL,1.3587581213933,103.975371466698,103.975371466698,498906,TANAH MERAH BESAR LANE,118G TANAH MERAH BESAR LANE SINGAPORE 498906,43808.854758475,37870.5499757156
120 TANAH MERAH BESAR LANE TANAH MERAH PARK SINGAPORE 498907,120,TANAH MERAH PARK,1.35975937201861,103.975852114547,103.975852114547,498907,TANAH MERAH BESAR LANE,TANAH MERAH PARK,43862.3389213309,37981.2666582633
120D TANAH MERAH BESAR LANE SINGAPORE 498911,120D,NIL,1.35910040353091,103.975718590917,103.975718590917,498911,TANAH MERAH BESAR LANE,120D TANAH MERAH BESAR LANE SINGAPORE 498911,43847.4835462626,37908.4001801591
122A TANAH MERAH BESAR LANE SINGAPORE 498913,122A,NIL,1.35961493211564,103.976146879519,103.976146879519,498913,TANAH MERAH BESAR LANE,122A TANAH MERAH BESAR LANE SINGAPORE 498913,43895.1438766401,37965.2971187141
122E TANAH MERAH BESAR LANE SINGAPORE 498917,122E,NIL,1.35909524033804,103.976028415752,103.976028415752,498917,TANAH MERAH BESAR LANE,122E TANAH MERAH BESAR LANE SINGAPORE 498917,43881.9635923263,37907.8312934041
122F TANAH MERAH BESAR LANE SINGAPORE 498918,122F,NIL,1.35893596056504,103.975886366929,103.975886366929,498918,TANAH MERAH BESAR LANE,122F TANAH MERAH BESAR LANE SINGAPORE 498918,43866.1561983656,37890.2179601956
122G TANAH MERAH BESAR LANE SINGAPORE 498919,122G,NIL,1.35891283135219,103.975986949216,103.975986949216,498919,TANAH MERAH BESAR LANE,122G TANAH MERAH BESAR LANE SINGAPORE 498919,43877.3500251761,37887.6611025389
122J TANAH MERAH BESAR LANE SINGAPORE 498921,122J,NIL,1.35860100562254,103.975900753373,103.975900753373,498921,TANAH MERAH BESAR LANE,122J TANAH MERAH BESAR LANE SINGAPORE 498921,43867.7594329277,37853.1803300437
120Q TANAH MERAH BESAR LANE SINGAPORE 498922,120Q,NIL,1.35914660948397,103.975875555135,103.975875555135,498922,TANAH MERAH BESAR LANE,120Q TANAH MERAH BESAR LANE SINGAPORE 498922,43864.9515931495,37913.5104449224
120R TANAH MERAH BESAR LANE SINGAPORE 498923,120R,NIL,1.35913222521914,103.975938746807,103.975938746807,498923,TANAH MERAH BESAR LANE,120R TANAH MERAH BESAR LANE SINGAPORE 498923,43871.9842078267,37911.9203163963
120E TANAH MERAH BESAR LANE SINGAPORE 498926,120E,NIL,1.3596395583514,103.975821082544,103.975821082544,498926,TANAH MERAH BESAR LANE,120E TANAH MERAH BESAR LANE SINGAPORE 498926,43858.8861918924,37968.0180288441
120F TANAH MERAH BESAR LANE SINGAPORE 498927,120F,NIL,1.3595884656582,103.975808374952,103.975808374952,498927,TANAH MERAH BESAR LANE,120F TANAH MERAH BESAR LANE SINGAPORE 498927,43857.4723138371,37962.368358342
120G TANAH MERAH BESAR LANE SINGAPORE 498928,120G,NIL,1.35949882384885,103.975790800791,103.975790800791,498928,TANAH MERAH BESAR LANE,120G TANAH MERAH BESAR LANE SINGAPORE 498928,43855.5170928929,37952.4560779631
120H TANAH MERAH BESAR LANE SINGAPORE 498929,120H,NIL,1.35944678646194,103.975778837819,103.975778837819,498929,TANAH MERAH BESAR LANE,120H TANAH MERAH BESAR LANE SINGAPORE 498929,43854.1860885769,37946.7019526511
118N TANAH MERAH BESAR LANE SINGAPORE 498930,118N,NIL,1.35928847336996,103.975375556123,103.975375556123,498930,TANAH MERAH BESAR LANE,118N TANAH MERAH BESAR LANE SINGAPORE 498930,43809.3064173283,37929.1938006841
118P TANAH MERAH BESAR LANE SINGAPORE 498931,118P,NIL,1.35923360464196,103.975365750046,103.975365750046,498931,TANAH MERAH BESAR LANE,118P TANAH MERAH BESAR LANE SINGAPORE 498931,43808.2154683908,37923.1266136169
120L TANAH MERAH BESAR LANE SINGAPORE 498932,120L,NIL,1.35943440774806,103.976105939076,103.976105939076,498932,TANAH MERAH BESAR LANE,120L TANAH MERAH BESAR LANE SINGAPORE 498932,43890.5888477704,37945.3353229184
120M TANAH MERAH BESAR LANE SINGAPORE 498933,120M,NIL,1.35942097268973,103.976166034077,103.976166034077,498933,TANAH MERAH BESAR LANE,120M TANAH MERAH BESAR LANE SINGAPORE 498933,43897.2768311845,37943.8501334917
118Q TANAH MERAH BESAR LANE SINGAPORE 498934,118Q,NIL,1.35914981378106,103.97535394896,103.97535394896,498934,TANAH MERAH BESAR LANE,118Q TANAH MERAH BESAR LANE SINGAPORE 498934,43806.902685401,37913.8613416571
118R TANAH MERAH BESAR LANE SINGAPORE 498935,118R,NIL,1.35909747526237,103.975342375454,103.975342375454,498935,TANAH MERAH BESAR LANE,118R TANAH MERAH BESAR LANE SINGAPORE 498935,43805.6150248377,37908.0739215631
120S TANAH MERAH BESAR LANE SINGAPORE 498936,120S,NIL,1.35925712202012,103.975731244583,103.975731244583,498936,TANAH MERAH BESAR LANE,120S TANAH MERAH BESAR LANE SINGAPORE 498936,43848.8907350935,37925.7294483408
120T TANAH MERAH BESAR LANE SINGAPORE 498937,120T,NIL,1.35920318332104,103.975718758219,103.975718758219,498937,TANAH MERAH BESAR LANE,120T TANAH MERAH BESAR LANE SINGAPORE 498937,43847.5014951769,37919.7650816124
120J TANAH MERAH BESAR LANE SINGAPORE 498938,120J,NIL,1.3595042339594,103.975964696754,103.975964696754,498938,TANAH MERAH BESAR LANE,120J TANAH MERAH BESAR LANE SINGAPORE 498938,43874.8697152501,37953.0554445758
120K TANAH MERAH BESAR LANE SINGAPORE 498939,120K,NIL,1.35949148051827,103.976019832024,103.976019832024,498939,TANAH MERAH BESAR LANE,120K TANAH MERAH BESAR LANE SINGAPORE 498939,43881.005731713,37951.6455921624
122K TANAH MERAH BESAR LANE SINGAPORE 498940,122K,NIL,1.35860812184378,103.975762213589,103.975762213589,498940,TANAH MERAH BESAR LANE,122K TANAH MERAH BESAR LANE SINGAPORE 498940,43852.341466845,37853.9662987776
122L TANAH MERAH BESAR LANE SINGAPORE 498941,122L,NIL,1.35862797093263,103.975656723837,103.975656723837,498941,TANAH MERAH BESAR LANE,122L TANAH MERAH BESAR LANE SINGAPORE 498941,43840.6015148051,37856.1604249179
118H TANAH MERAH BESAR LANE SINGAPORE 498942,118H,NIL,1.35867950331317,103.975464915864,103.975464915864,498942,TANAH MERAH BESAR LANE,118H TANAH MERAH BESAR LANE SINGAPORE 498942,43819.2551100925,37861.8573740087
122M TANAH MERAH BESAR LANE SINGAPORE 498943,122M,NIL,1.35864930274776,103.975557130904,103.975557130904,498943,TANAH MERAH BESAR LANE,122M TANAH MERAH BESAR LANE SINGAPORE 498943,43829.5178029193,37858.518542992
NICOLL DRIVE SAF FERRY TERMINAL SINGAPORE 498985,,SAF FERRY TERMINAL,1.38762478062388,103.999794791449,103.999794791449,498985,NICOLL DRIVE,SAF FERRY TERMINAL,46526.6751612471,41062.6653852854
285 NICOLL DRIVE SINGAPORE 498988,285,NIL,1.39114117589447,103.989732442434,103.989732442434,498988,NICOLL DRIVE,285 NICOLL DRIVE SINGAPORE 498988,45406.8356758105,41451.4155939035
300 NICOLL DRIVE SINGAPORE 498989,300,NIL,1.3918867244031,103.988222405859,103.988222405859,498989,NICOLL DRIVE,300 NICOLL DRIVE SINGAPORE 498989,45238.7823517071,41533.8437886015
260 NICOLL DRIVE SINGAPORE 498991,260,NIL,1.39150327637283,103.990385050751,103.990385050751,498991,NICOLL DRIVE,260 NICOLL DRIVE SINGAPORE 498991,45479.4600403141,41491.4598034136
270 NICOLL DRIVE SINGAPORE 498992,270,NIL,1.3916049182592,103.989929589273,103.989929589273,498992,NICOLL DRIVE,270 NICOLL DRIVE SINGAPORE 498992,45428.7722154018,41502.6955211144
51 LORONG BEKUKONG CHANGI POINT FERRY TERMINAL SINGAPORE 499172,51,CHANGI POINT FERRY TERMINAL,1.39083703747749,103.9876119685,103.9876119685,499172,LORONG BEKUKONG,CHANGI POINT FERRY TERMINAL,45170.8560322961,41417.7698545437
57 LORONG BEKUKONG SINGAPORE 499173,57,NIL,1.39011508765382,103.987978249366,103.987978249366,499173,LORONG BEKUKONG,57 LORONG BEKUKONG SINGAPORE 499173,45211.6236768849,41337.9426784907
1 JALAN PERNAMA BENA PARK SINGAPORE 499235,1,BENA PARK,1.35384154353976,103.969460065477,103.969460065477,499235,JALAN PERNAMA,BENA PARK,43151.0130034098,37326.8604706917
2 JALAN PERNAMA BENA PARK SINGAPORE 499236,2,BENA PARK,1.35400314692399,103.969093264564,103.969093264564,499236,JALAN PERNAMA,BENA PARK,43110.1911185943,37344.7275101393
3 JALAN PERNAMA BENA PARK SINGAPORE 499237,3,BENA PARK,1.35376272001969,103.969472826845,103.969472826845,499237,JALAN PERNAMA,BENA PARK,43152.4336917624,37318.1446231715
4 JALAN PERNAMA BENA PARK SINGAPORE 499238,4,BENA PARK,1.35392573037174,103.969111166107,103.969111166107,499238,JALAN PERNAMA,BENA PARK,43112.1838415703,37336.1672703251
5 JALAN PERNAMA SINGAPORE 499239,5,NIL,1.35352911864815,103.969444528529,103.969444528529,499239,JALAN PERNAMA,5 JALAN PERNAMA SINGAPORE 499239,43149.2858517235,37292.3139258679
5A JALAN PERNAMA BENA PARK SINGAPORE 499240,5A,BENA PARK,1.35359702174415,103.969516898473,103.969516898473,499240,JALAN PERNAMA,BENA PARK,43157.339405491,37299.8227769993
5B JALAN PERNAMA BENA PARK SINGAPORE 499241,5B,BENA PARK,1.35362030437573,103.969670497707,103.969670497707,499241,JALAN PERNAMA,BENA PARK,43174.4331584917,37302.398219198
5C JALAN PERNAMA BENA PARK SINGAPORE 499242,5C,BENA PARK,1.35364867870885,103.969765718823,103.969765718823,499242,JALAN PERNAMA,BENA PARK,43185.0300401263,37305.5363129471
6 JALAN PERNAMA BENA PARK SINGAPORE 499243,6,BENA PARK,1.35376951622406,103.969138400493,103.969138400493,499243,JALAN PERNAMA,BENA PARK,43115.2156946957,37318.8940281812
7 JALAN PERNAMA BENA PARK SINGAPORE 499244,7,BENA PARK,1.35323872798428,103.969503641663,103.969503641663,499244,JALAN PERNAMA,BENA PARK,43155.8662929917,37260.2042866815
7A JALAN PERNAMA BENA PARK SINGAPORE 499245,7A,BENA PARK,1.35328070485253,103.969585082472,103.969585082472,499245,JALAN PERNAMA,BENA PARK,43164.9294958916,37264.8463965394
7B JALAN PERNAMA SINGAPORE 499246,7B,NIL,1.35321365117113,103.969754369412,103.969754369412,499246,JALAN PERNAMA,7B JALAN PERNAMA SINGAPORE 499246,43183.7696812851,37257.4329803605
7C JALAN PERNAMA BENA PARK SINGAPORE 499247,7C,BENA PARK,1.35330082904089,103.969837509612,103.969837509612,499247,JALAN PERNAMA,BENA PARK,43193.0217261352,37267.0732121021
8 JALAN PERNAMA BENA PARK SINGAPORE 499248,8,BENA PARK,1.35369972834436,103.969136291784,103.969136291784,499248,JALAN PERNAMA,BENA PARK,43114.9814507691,37311.1772057321
9 JALAN PERNAMA BENA PARK SINGAPORE 499249,9,BENA PARK,1.35305717634059,103.969545943464,103.969545943464,499249,JALAN PERNAMA,BENA PARK,43160.5751437545,37240.1294399649
9A JALAN PERNAMA BENA PARK SINGAPORE 499250,9A,BENA PARK,1.35306630013572,103.969603526833,103.969603526833,499250,JALAN PERNAMA,BENA PARK,43166.9834812665,37241.1386653446
9B JALAN PERNAMA BENA PARK SINGAPORE 499251,9B,BENA PARK,1.35308735454988,103.969772274727,103.969772274727,499251,JALAN PERNAMA,BENA PARK,43185.7631306928,37243.4678169601
9C JALAN PERNAMA BENA PARK SINGAPORE 499252,9C,BENA PARK,1.35309942281473,103.969850269553,103.969850269553,499252,JALAN PERNAMA,BENA PARK,43194.4430198474,37244.8027561139
10 JALAN PERNAMA BENA PARK SINGAPORE 499253,10,BENA PARK,1.35351328905571,103.969162039221,103.969162039221,499253,JALAN PERNAMA,BENA PARK,43117.8480104357,37290.5618030932
11 JALAN PERNAMA BENA PARK SINGAPORE 499254,11,BENA PARK,1.35273179346279,103.969613753522,103.969613753522,499254,JALAN PERNAMA,BENA PARK,43168.1236762134,37204.1505838837
11A JALAN PERNAMA BENA PARK SINGAPORE 499255,11A,BENA PARK,1.35273186685556,103.969705175415,103.969705175415,499255,JALAN PERNAMA,BENA PARK,43178.2979259919,37204.1592707951
12 JALAN PERNAMA BENA PARK SINGAPORE 499258,12,BENA PARK,1.35343819225873,103.96917242781,103.96917242781,499258,JALAN PERNAMA,BENA PARK,43119.0046106288,37282.2580239046
14 JALAN PERNAMA BENA PARK SINGAPORE 499259,14,BENA PARK,1.3532928976335,103.96919832005,103.96919832005,499259,JALAN PERNAMA,BENA PARK,43121.8870307188,37266.1922018994
16 JALAN PERNAMA BENA PARK SINGAPORE 499260,16,BENA PARK,1.35320136940065,103.96920596484,103.96920596484,499260,JALAN PERNAMA,BENA PARK,43122.7383782966,37256.0714961849
18 JALAN PERNAMA BENA PARK SINGAPORE 499261,18,BENA PARK,1.35302238677555,103.969232992335,103.969232992335,499261,JALAN PERNAMA,BENA PARK,43125.7473488264,37236.2806236912
20 JALAN PERNAMA BENA PARK SINGAPORE 499262,20,BENA PARK,1.35296148557046,103.969241267638,103.969241267638,499262,JALAN PERNAMA,BENA PARK,43126.6686759824,37229.5465118699
22 JALAN PERNAMA BENA PARK SINGAPORE 499263,22,BENA PARK,1.35280491528606,103.969268688023,103.969268688023,499263,JALAN PERNAMA,BENA PARK,43129.7212324077,37212.2338910792
24 JALAN PERNAMA BENA PARK SINGAPORE 499264,24,BENA PARK,1.35271844045893,103.969275665933,103.969275665933,499264,JALAN PERNAMA,BENA PARK,43130.4983326225,37202.6719626114
13 JALAN PERNAMA SINGAPORE 499265,13,NIL,1.35274334373069,103.969824194034,103.969824194034,499265,JALAN PERNAMA,13 JALAN PERNAMA SINGAPORE 499265,43191.5433167387,37205.4290732481
15 JALAN PERNAMA SINGAPORE 499266,15,NIL,1.3527510279067,103.96988276731,103.96988276731,499266,JALAN PERNAMA,15 JALAN PERNAMA SINGAPORE 499266,43198.0618297122,37206.2791193016
17 JALAN PERNAMA SINGAPORE 499267,17,NIL,1.35275622248016,103.969989788154,103.969989788154,499267,JALAN PERNAMA,17 JALAN PERNAMA SINGAPORE 499267,43209.9720391613,37206.8541807253
16 JALAN BENA BENA PARK SINGAPORE 499328,16,BENA PARK,1.35381612653224,103.969646911142,103.969646911142,499328,JALAN BENA,BENA PARK,43171.8070174204,37324.0511477832
18 JALAN BENA BENA PARK SINGAPORE 499329,18,BENA PARK,1.3538246462115,103.969704225783,103.969704225783,499329,JALAN BENA,BENA PARK,43178.1854501646,37324.9935717229
1 COSFORD ROAD LLOYD LEAS COMMUNITY SUPERVISION CENTRE SINGAPORE 499547,1,LLOYD LEAS COMMUNITY SUPERVISION CENTRE,1.36624659001037,103.976015569505,103.976015569505,499547,COSFORD ROAD,LLOYD LEAS COMMUNITY SUPERVISION CENTRE,43880.4871200807,38698.5934763681
21 COSFORD ROAD SINGAPORE 499548,21,NIL,1.3655797676434,103.978743998291,103.978743998291,499548,COSFORD ROAD,21 COSFORD ROAD SINGAPORE 499548,44184.1340798689,38624.8776181042
27 COSFORD ROAD SINGAPORE 499549,27,NIL,1.36532115572684,103.980012783091,103.980012783091,499549,COSFORD ROAD,27 COSFORD ROAD SINGAPORE 499549,44325.3369177608,38596.2901128437
30 COSFORD ROAD SINGAPORE 499550,30,NIL,1.36531822629962,103.981193219252,103.981193219252,499550,COSFORD ROAD,30 COSFORD ROAD SINGAPORE 499550,44456.7058693506,38595.9742361642
8 CHANGI NORTH WAY SINGAPORE 499611,8,NIL,1.35064916423008,103.972325551489,103.972325551489,499611,CHANGI NORTH WAY,8 CHANGI NORTH WAY SINGAPORE 499611,43469.9301307164,36973.8805112094
30 CHANGI NORTH CRESCENT SATS INFLIGHT CATERING SINGAPORE 499612,30,SATS INFLIGHT CATERING,1.34402861779661,103.970226082754,103.970226082754,499612,CHANGI NORTH CRESCENT,SATS INFLIGHT CATERING,43236.3232852491,36241.798959082
20 CHANGI NORTH CRESCENT VICOM CHANGI INSPECTION CENTRE SINGAPORE 499613,20,VICOM CHANGI INSPECTION CENTRE,1.35096192043525,103.968010810932,103.968010810932,499613,CHANGI NORTH CRESCENT,VICOM CHANGI INSPECTION CENTRE,42989.7446716093,37008.43656018
34 CHANGI NORTH CRESCENT SATS MAINTENANCE CENTRE SINGAPORE 499614,34,SATS MAINTENANCE CENTRE,1.34655127934627,103.971775009596,103.971775009596,499614,CHANGI NORTH CRESCENT,SATS MAINTENANCE CENTRE,43408.6865886264,36520.7525107861
21 CHANGI NORTH CRESCENT SINGAPORE 499615,21,NIL,1.35063944556462,103.968590521921,103.968590521921,499615,CHANGI NORTH CRESCENT,21 CHANGI NORTH CRESCENT SINGAPORE 499615,43054.2621501572,36972.7824190278
23 CHANGI NORTH CRESCENT SINGAPORE 499616,23,NIL,1.34983536240883,103.968360490927,103.968360490927,499616,CHANGI NORTH CRESCENT,23 CHANGI NORTH CRESCENT SINGAPORE 499616,43028.6671496425,36883.8693390861
25 CHANGI NORTH CRESCENT SINGAPORE 499617,25,NIL,1.34948165102832,103.967858652401,103.967858652401,499617,CHANGI NORTH CRESCENT,25 CHANGI NORTH CRESCENT SINGAPORE 499617,42972.8201469053,36844.7545382846
27 CHANGI NORTH CRESCENT SINGAPORE 499618,27,NIL,1.34912395825805,103.967378546862,103.967378546862,499618,CHANGI NORTH CRESCENT,27 CHANGI NORTH CRESCENT SINGAPORE 499618,42919.3917982113,36805.1996409986
29 CHANGI NORTH CRESCENT SINGAPORE 499619,29,NIL,1.34857258521302,103.966772582432,103.966772582432,499619,CHANGI NORTH CRESCENT,29 CHANGI NORTH CRESCENT SINGAPORE 499619,42851.9578783596,36744.2277540639
36 CHANGI NORTH CRESCENT SINGAPORE 499620,36,NIL,1.3471052835583,103.972628762789,103.972628762789,499620,CHANGI NORTH CRESCENT,36 CHANGI NORTH CRESCENT SINGAPORE 499620,43503.696669599,36582.0170588568
38 CHANGI NORTH CRESCENT SINGAPORE 499621,38,NIL,1.34756510794993,103.972819800252,103.972819800252,499621,CHANGI NORTH CRESCENT,38 CHANGI NORTH CRESCENT SINGAPORE 499621,43524.9541772436,36632.8634577356
45 CHANGI NORTH CRESCENT SINGAPORE 499622,45,NIL,1.34722616604291,103.971094031678,103.971094031678,499622,CHANGI NORTH CRESCENT,45 CHANGI NORTH CRESCENT SINGAPORE 499622,43332.8968286533,36595.3739568554
47 CHANGI NORTH CRESCENT SINGAPORE 499623,47,NIL,1.34756488061151,103.971543287084,103.971543287084,499623,CHANGI NORTH CRESCENT,47 CHANGI NORTH CRESCENT SINGAPORE 499623,43382.8920010263,36632.8302234896
49 CHANGI NORTH CRESCENT SINGAPORE 499625,49,NIL,1.34778372661289,103.971874746891,103.971874746891,499625,CHANGI NORTH CRESCENT,49 CHANGI NORTH CRESCENT SINGAPORE 499625,43419.7785334038,36657.0312622823
51 CHANGI NORTH CRESCENT SINGAPORE 499626,51,NIL,1.34833904696739,103.971806345327,103.971806345327,499626,CHANGI NORTH CRESCENT,51 CHANGI NORTH CRESCENT SINGAPORE 499626,43412.1626849482,36718.4354970977
53 CHANGI NORTH CRESCENT SINGAPORE 499627,53,NIL,1.34835691324111,103.971810174397,103.971810174397,499627,CHANGI NORTH CRESCENT,53 CHANGI NORTH CRESCENT SINGAPORE 499627,43412.5887068193,36720.4110883959
55 CHANGI NORTH CRESCENT SINGAPORE 499628,55,NIL,1.34842651200861,103.971476384163,103.971476384163,499628,CHANGI NORTH CRESCENT,55 CHANGI NORTH CRESCENT SINGAPORE 499628,43375.4410222787,36728.1048769094
57 CHANGI NORTH CRESCENT SINGAPORE 499629,57,NIL,1.34839326751766,103.97148123162,103.97148123162,499629,CHANGI NORTH CRESCENT,57 CHANGI NORTH CRESCENT SINGAPORE 499629,43375.9807004286,36724.4288908225
59 CHANGI NORTH CRESCENT SINGAPORE 499630,59,NIL,1.34909637635829,103.971436972902,103.971436972902,499630,CHANGI NORTH CRESCENT,59 CHANGI NORTH CRESCENT SINGAPORE 499630,43371.0507723121,36802.1750219222
61 CHANGI NORTH CRESCENT SINGAPORE 499631,61,NIL,1.34909637608454,103.971436973174,103.971436973174,499631,CHANGI NORTH CRESCENT,61 CHANGI NORTH CRESCENT SINGAPORE 499631,43371.0508025801,36802.1749916542
63 CHANGI NORTH CRESCENT SINGAPORE 499632,63,NIL,1.34895191224136,103.971921868043,103.971921868043,499632,CHANGI NORTH CRESCENT,63 CHANGI NORTH CRESCENT SINGAPORE 499632,43425.0152578019,36786.2039387058
65 CHANGI NORTH CRESCENT SINGAPORE 499633,65,NIL,1.34895191196761,103.971921868315,103.971921868315,499633,CHANGI NORTH CRESCENT,65 CHANGI NORTH CRESCENT SINGAPORE 499633,43425.0152880698,36786.2039084379
26 CHANGI NORTH CRESCENT DIETHELM KELLER BUILDING SINGAPORE 499637,26,DIETHELM KELLER BUILDING,1.34967912057475,103.966200675542,103.966200675542,499637,CHANGI NORTH CRESCENT,DIETHELM KELLER BUILDING,42788.3041572617,36866.5796311591
41 CHANGI NORTH CRESCENT SINGAPORE 499638,41,NIL,1.34554035136956,103.9696995313,103.9696995313,499638,CHANGI NORTH CRESCENT,41 CHANGI NORTH CRESCENT SINGAPORE 499638,43177.7143592658,36408.9559271149
40 CHANGI NORTH CRESCENT SINGAPORE 499639,40,NIL,1.34824092900532,103.973031270054,103.973031270054,499639,CHANGI NORTH CRESCENT,40 CHANGI NORTH CRESCENT SINGAPORE 499639,43548.4842051063,36707.5938685462
33 CHANGI NORTH CRESCENT SINGAPORE 499640,33,NIL,1.34832807225109,103.967580682097,103.967580682097,499640,CHANGI NORTH CRESCENT,33 CHANGI NORTH CRESCENT SINGAPORE 499640,42941.8921092674,36717.1956296805
35 CHANGI NORTH CRESCENT SINGAPORE 499641,35,NIL,1.34731311545869,103.968072313997,103.968072313997,499641,CHANGI NORTH CRESCENT,35 CHANGI NORTH CRESCENT SINGAPORE 499641,42996.6116296109,36604.969603857
39 CHANGI NORTH CRESCENT SINGAPORE 499642,39,NIL,1.34681319905546,103.968194720523,103.968194720523,499642,CHANGI NORTH CRESCENT,39 CHANGI NORTH CRESCENT SINGAPORE 499642,43010.2372165006,36549.6920024306
32 CHANGI NORTH CRESCENT LE FREEPORT SINGAPORE 499643,32,LE FREEPORT,1.34511795314371,103.97125356139,103.97125356139,499643,CHANGI NORTH CRESCENT,LE FREEPORT,43350.6639534878,36362.2588753197
30 CHANGI FERRY ROAD CHANGI FERRY TERMINAL SINGAPORE 499675,30,CHANGI FERRY TERMINAL,1.37305152554615,104.008014298523,104.008014298523,499675,CHANGI FERRY ROAD,CHANGI FERRY TERMINAL,47441.5223963233,39451.2872832641
3 CHANGI FERRY ROAD SINGAPORE 499676,3,NIL,1.37343893570413,104.005508907558,104.005508907558,499676,CHANGI FERRY ROAD,3 CHANGI FERRY ROAD SINGAPORE 499676,47162.6987245372,39494.105099462
2A CHANGI FERRY ROAD TEMPORARY SITE OFFICE SINGAPORE 499677,2A,TEMPORARY SITE OFFICE,1.37133733931155,104.005648295617,104.005648295617,499677,CHANGI FERRY ROAD,TEMPORARY SITE OFFICE,47178.227713583,39261.7213226818
10 CHANGI COAST WALK SINGAPORE 499739,10,NIL,1.32019924927331,103.969615863691,103.969615863691,499739,CHANGI COAST WALK,10 CHANGI COAST WALK SINGAPORE 499739,43168.5580823161,33606.8581979852
11 CHANGI COAST WALK NSRCC SEA SPORTS CENTRE SINGAPORE 499740,11,NSRCC SEA SPORTS CENTRE,1.31612964195735,103.977472105743,103.977472105743,499740,CHANGI COAST WALK,NSRCC SEA SPORTS CENTRE,44042.909025277,33156.9097887147
9 CHANGI COAST WALK MOE CHANGI COAST OUTDOOR ADVENTURE LEARNING CENTRE SINGAPORE 499741,9,MOE CHANGI COAST OUTDOOR ADVENTURE LEARNING CENTRE,1.3169126975809,103.978786137255,103.978786137255,499741,CHANGI COAST WALK,MOE CHANGI COAST OUTDOOR ADVENTURE LEARNING CENTRE,44189.1434311746,33243.5048253909
701 CHANGI COAST ROAD SINGAPORE 499804,701,NIL,1.37615702064418,104.003402481215,104.003402481215,499804,CHANGI COAST ROAD,701 CHANGI COAST ROAD SINGAPORE 499804,46928.2568762032,39794.6416607071
1 AVIATION DRIVE SINGAPORE AVIATION ACADEMY SINGAPORE 499867,1,SINGAPORE AVIATION ACADEMY,1.38831997107216,103.990313764411,103.990313764411,499867,AVIATION DRIVE,SINGAPORE AVIATION ACADEMY,45471.5501686651,41139.4641890302
10A CHANGI EAST CLOSE CHANGI WATER RECLAMATION PLANT SINGAPORE 499916,10A,CHANGI WATER RECLAMATION PLANT,1.31397075261605,104.001631249835,104.001631249835,499916,CHANGI EAST CLOSE,CHANGI WATER RECLAMATION PLANT,46731.6140491515,32918.3582443558
1 ABINGDON ROAD SINGAPORE 499931,1,NIL,1.36886008761623,103.978829378939,103.978829378939,499931,ABINGDON ROAD,1 ABINGDON ROAD SINGAPORE 499931,44193.613982101,38987.6004480608
46 ABINGDON ROAD SINGAPORE 499932,46,NIL,1.36945682264922,103.97937175278,103.97937175278,499932,ABINGDON ROAD,46 ABINGDON ROAD SINGAPORE 499932,44253.9698247649,39053.5882544555
47 ABINGDON ROAD SINGAPORE 499933,47,NIL,1.36785508575517,103.979557740804,103.979557740804,499933,ABINGDON ROAD,47 ABINGDON ROAD SINGAPORE 499933,44274.6789068123,38876.4770243485
31 ABINGDON ROAD SINGAPORE 499939,31,NIL,1.36814339971752,103.980615474887,103.980615474887,499939,ABINGDON ROAD,31 ABINGDON ROAD SINGAPORE 499939,44392.3904295927,38908.3646176066
33 ABINGDON ROAD SINGAPORE 499940,33,NIL,1.36784725432771,103.981424621838,103.981424621838,499940,ABINGDON ROAD,33 ABINGDON ROAD SINGAPORE 499940,44482.4410711667,38875.6238001548
35 ABINGDON ROAD SINGAPORE 499941,35,NIL,1.3676624688735,103.98096072297,103.98096072297,499941,ABINGDON ROAD,35 ABINGDON ROAD SINGAPORE 499941,44430.815786262,38855.1879169289
37 ABINGDON ROAD SINGAPORE 499942,37,NIL,1.36728281156534,103.981413818276,103.981413818276,499942,ABINGDON ROAD,37 ABINGDON ROAD SINGAPORE 499942,44481.2426103512,38813.2103096899
39 ABINGDON ROAD SINGAPORE 499943,39,NIL,1.36727467860875,103.980153256609,103.980153256609,499943,ABINGDON ROAD,39 ABINGDON ROAD SINGAPORE 499943,44340.9568015616,38812.3023912515
501A CHANGI COAST ROAD TEMPORARY SITE OFFICE SINGAPORE 499974,501A,TEMPORARY SITE OFFICE,1.37168894586049,104.004127112084,104.004127112084,499974,CHANGI COAST ROAD,TEMPORARY SITE OFFICE,47008.9349760823,39300.588228697
